{
  "type": "FeatureCollection",
  "features": [
    {
      "type": "Feature",
      "geometry": {
        "type": "Polygon",
        "coordinates": [
          [
            [
              112.95568492823651,
              27.86251930331599
            ],
            [
              112.95669208720767,
              27.866027210297105
            ],
            [
              112.95859719514114,
              27.86549084043631
            ],
            [
              112.95948300965796,
              27.865254836856536
            ],
            [
              112.95996838747543,
              27.86498665034658
            ],
            [
              112.96051443752002,
              27.864857920586076
            ],
            [
              112.96090273977397,
              27.864697008170367
            ],
            [
              112.9625894276896,
              27.864321544938022
            ],
            [
              112.96451880451392,
              27.86363498023485
            ],
            [
              112.96499204788593,
              27.86462191562798
            ],
            [
              112.96568371127576,
              27.865984300805934
            ],
            [
              112.96578078683926,
              27.866134483950688
            ],
            [
              112.9664724502291,
              27.865834117453034
            ],
            [
              112.96663019801979,
              27.866091574501993
            ],
            [
              112.9670791725009,
              27.865855572230487
            ],
            [
              112.9674189369731,
              27.86568393389203
            ],
            [
              112.96688502137394,
              27.864439547808374
            ],
            [
              112.9667394080287,
              27.86417135928086
            ],
            [
              112.96619335798408,
              27.863774439042203
            ],
            [
              112.96603561019342,
              27.86361352501781
            ],
            [
              112.96579292128469,
              27.863141509168017
            ],
            [
              112.96568371127576,
              27.863055687883545
            ],
            [
              112.96415477115083,
              27.86365643544768
            ],
            [
              112.96248021768066,
              27.86427863477151
            ],
            [
              112.96073285753786,
              27.864654098152528
            ],
            [
              112.96057510974723,
              27.86455755055023
            ],
            [
              112.96058724419265,
              27.864031900984273
            ],
            [
              112.96056297530177,
              27.862379842893645
            ],
            [
              112.95796620397846,
              27.862497847878103
            ],
            [
              112.95603682715415,
              27.86256221417912
            ],
            [
              112.95568492823651,
              27.86251930331599
            ]
          ]
        ]
      },
      "properties": {
        "name": "安乐社区",
        "type": "assistPolygon",
        "fill": "#9b59b6",
        "fill-opacity": 0.2,
        "stroke": "#9b59b6",
        "stroke-width": 2,
        "stroke-opacity": 0.8
      },
      "id": "assist_polygon_1773991177156"
    },
    {
      "type": "Feature",
      "geometry": {
        "type": "Point",
        "coordinates": [
          112.95949805388756,
          27.864394152293286
        ]
      },
      "properties": {
        "iconType": "default",
        "iconColor": "#e74c3c",
        "iconSize": 1,
        "text": "安乐社区中心点",
        "textColor": "#333333",
        "type": "assistPoint",
        "name": "辅助点_1"
      },
      "id": "assist_point_1773991207121"
    }
  ],
  "properties": {
    "description": "GIS-APP 辅助要素导出",
    "exportTime": "2026/3/20 15:20:14",
    "assistElements": {
      "lines": 0,
      "polygons": 1,
      "texts": 0,
      "points": 1
    }
  }
}