{
  "type": "FeatureCollection",
  "features": [
    {
      "type": "Feature",
      "geometry": {
        "type": "Polygon",
        "coordinates": [
          [
            [
              112.89341303264794,
              27.85390444753054
            ],
            [
              112.89394717145895,
              27.85421497056062
            ],
            [
              112.89448131026992,
              27.85452549270134
            ],
            [
              112.89504471696094,
              27.85486835986525
            ],
            [
              112.89557153880192,
              27.85518534929743
            ],
            [
              112.89606177579283,
              27.85546999207945
            ],
            [
              112.89655932975374,
              27.8557611032426
            ],
            [
              112.89683737461425,
              27.85592930044723
            ],
            [
              112.89735687948522,
              27.85621394127604
            ],
            [
              112.89811052739661,
              27.856602086656366
            ],
            [
              112.89860808135751,
              27.856867318533673
            ],
            [
              112.89890807712806,
              27.85705492117704
            ],
            [
              112.89950075169918,
              27.857449532574094
            ],
            [
              112.89975684564963,
              27.85761772715921
            ],
            [
              112.90007879233022,
              27.857850611538552
            ],
            [
              112.9002763505206,
              27.857999398519
            ],
            [
              112.9005677082228,
              27.85763947020601
            ],
            [
              112.90077513132499,
              27.85735827932777
            ],
            [
              112.90095489801354,
              27.857117840172307
            ],
            [
              112.901116227093,
              27.856914077758645
            ],
            [
              112.90128216557477,
              27.856726615999847
            ],
            [
              112.9014665416656,
              27.856486175443422
            ],
            [
              112.90156794851553,
              27.856351691509815
            ],
            [
              112.90128677497705,
              27.856217207409387
            ],
            [
              112.90098716382944,
              27.856046045585728
            ],
            [
              112.9007613031182,
              27.855915636395864
            ],
            [
              112.9005861458319,
              27.855813754107132
            ],
            [
              112.90012520560481,
              27.85557331152613
            ],
            [
              112.8997656722277,
              27.85537769682955
            ],
            [
              112.89939231064379,
              27.855173931145288
            ],
            [
              112.89884840117584,
              27.85488458321565
            ],
            [
              112.89843816437374,
              27.854668590595764
            ],
            [
              112.89815238143295,
              27.854513727697793
            ],
            [
              112.89787120789444,
              27.854371090622394
            ],
            [
              112.89750993598582,
              27.854168982671695
            ],
            [
              112.89715581154103,
              27.85397377835261
            ],
            [
              112.89689656157977,
              27.853824789422248
            ],
            [
              112.89655953663006,
              27.85361467648022
            ],
            [
              112.89623115334578,
              27.853396922637913
            ],
            [
              112.89598486588258,
              27.853228831653567
            ],
            [
              112.89566686994425,
              27.85304290624549
            ],
            [
              112.89527706847147,
              27.852825237069993
            ],
            [
              112.89470775316254,
              27.85252140644853
            ],
            [
              112.89442565999141,
              27.852371758217558
            ],
            [
              112.894271790989,
              27.852312805827452
            ],
            [
              112.89413330888681,
              27.85256675435653
            ],
            [
              112.89397943988439,
              27.852866050073686
            ],
            [
              112.89384608674895,
              27.85309278870335
            ],
            [
              112.89369221774653,
              27.85339661772373
            ],
            [
              112.8935383487441,
              27.853695911150197
            ],
            [
              112.89341303264794,
              27.85390444753054
            ]
          ]
        ]
      },
      "properties": {
        "name": "大码头社区",
        "type": "assistPolygon",
        "fill": "#c0392b",
        "fill-opacity": 0.4,
        "stroke": "#c0392b",
        "stroke-opacity": 1,
        "stroke-width": 3
      },
      "id": "assist_polygon_1773733182148"
    },
    {
      "type": "Feature",
      "geometry": {
        "type": "Point",
        "coordinates": [
          112.89751074078733,
          27.855261641024768
        ]
      },
      "properties": {
        "iconType": "default",
        "iconColor": "#e74c3c",
        "iconSize": 1,
        "text": "大码头社区中心点",
        "textColor": "#333333",
        "type": "assistPoint",
        "name": "辅助点_1"
      },
      "id": "assist_point_1773733221260"
    }
  ],
  "properties": {
    "description": "GIS-APP 辅助要素导出",
    "exportTime": "2026/3/17 15:40:40",
    "assistElements": {
      "lines": 0,
      "polygons": 1,
      "texts": 0,
      "points": 1
    }
  }
}