{
  "type": "FeatureCollection",
  "features": [
    {
      "type": "Feature",
      "geometry": {
        "type": "Point",
        "coordinates": [
          112.97962883389522,
          27.88268245805436
        ]
      },
      "properties": {
        "iconType": "default",
        "iconColor": "#e74c3c",
        "iconSize": 1,
        "text": "五爱村",
        "textColor": "#333333",
        "type": "assistPoint",
        "name": "辅助点_1",
        "isAssistFeature": true,
        "sourceFileName": "辅助要素_五爱村.geojson"
      },
      "id": "assist_point_1773912732170_reimported_1773913323122"
    }
  ],
  "properties": {
    "description": "GIS-APP 辅助要素导出",
    "exportTime": "2026/3/19 17:42:38",
    "assistElements": {
      "lines": 1,
      "polygons": 1,
      "texts": 0,
      "points": 1
    }
  }
}