{
  "type": "FeatureCollection",
  "features": [
    {
      "type": "Feature",
      "geometry": {
        "type": "Point",
        "coordinates": [
          112.92056261250295,
          27.804833838743107
        ]
      },
      "properties": {
        "iconType": "default",
        "iconColor": "#e74c3c",
        "iconSize": 1,
        "text": "铁园社区",
        "textColor": "#333333",
        "type": "assistPoint",
        "name": "辅助点_1",
        "isAssistFeature": true,
        "sourceFileName": "辅助要素_铁园社区.geojson"
      },
      "id": "assist_point_1773980076264_reimported_1773986403155"
    }
  ],
  "properties": {
    "description": "GIS-APP 辅助要素导出",
    "exportTime": "2026/3/20 14:00:47",
    "assistElements": {
      "lines": 0,
      "polygons": 2,
      "texts": 0,
      "points": 1
    }
  }
}