{
  "type": "FeatureCollection",
  "features": [
    {
      "type": "Feature",
      "geometry": {
        "type": "Polygon",
        "coordinates": [
          [
            [
              112.91688285212837,
              27.814190844545763
            ],
            [
              112.92074899738803,
              27.81430048687433
            ],
            [
              112.92088845753767,
              27.814046938821548
            ],
            [
              112.9209581876125,
              27.813834506213468
            ],
            [
              112.92105116104558,
              27.813327407340267
            ],
            [
              112.9211363866926,
              27.812902538893894
            ],
            [
              112.92122936012571,
              27.812333760791333
            ],
            [
              112.9207745781261,
              27.812338077763428
            ],
            [
              112.92015241785899,
              27.812333760791333
            ],
            [
              112.91962556840474,
              27.81232690802497
            ],
            [
              112.91909871895052,
              27.81232005525817
            ],
            [
              112.91870023838392,
              27.812303541981933
            ],
            [
              112.91821215844455,
              27.812290591061043
            ],
            [
              112.91771431690643,
              27.812273323164135
            ],
            [
              112.91737754174828,
              27.812281957112944
            ],
            [
              112.91698219699745,
              27.812251738289092
            ],
            [
              112.91696267379986,
              27.812342394735325
            ],
            [
              112.91695779300046,
              27.812679118015993
            ],
            [
              112.9169187466053,
              27.813659063162206
            ],
            [
              112.9169187466053,
              27.81379720449823
            ],
            [
              112.91688285212837,
              27.814190844545763
            ]
          ]
        ]
      },
      "properties": {
        "name": "长城社区",
        "type": "assistPolygon",
        "fill": "#9b59b6",
        "fill-opacity": 0.2,
        "stroke": "#9b59b6",
        "stroke-width": 2,
        "stroke-opacity": 0.8
      },
      "id": "assist_polygon_1773977369985"
    },
    {
      "type": "Feature",
      "geometry": {
        "type": "Point",
        "coordinates": [
          112.91886618556327,
          27.813318025986675
        ]
      },
      "properties": {
        "iconType": "default",
        "iconColor": "#e74c3c",
        "iconSize": 1,
        "text": "长城社区中心点",
        "textColor": "#333333",
        "type": "assistPoint",
        "name": "辅助点_1"
      },
      "id": "assist_point_1773977416141"
    }
  ],
  "properties": {
    "description": "GIS-APP 辅助要素导出",
    "exportTime": "2026/3/20 11:30:21",
    "assistElements": {
      "lines": 0,
      "polygons": 1,
      "texts": 0,
      "points": 1
    }
  }
}