{
  "type": "FeatureCollection",
  "features": [
    {
      "type": "Feature",
      "geometry": {
        "type": "Polygon",
        "coordinates": [
          [
            [
              112.87687655855854,
              27.86094766319998
            ],
            [
              112.8774410249158,
              27.86042303446753
            ],
            [
              112.877918650295,
              27.859962382755157
            ],
            [
              112.87854101063763,
              27.859348177426796
            ],
            [
              112.87909100349854,
              27.858925909244732
            ],
            [
              112.8796265228631,
              27.858439658997455
            ],
            [
              112.88003178076063,
              27.857978998856467
            ],
            [
              112.88048045914717,
              27.85756952153224
            ],
            [
              112.88088571704468,
              27.857147246421675
            ],
            [
              112.88127650144585,
              27.856763358530188
            ],
            [
              112.88171070633604,
              27.85635387661422
            ],
            [
              112.88200017626285,
              27.85612354235684
            ],
            [
              112.88224622570063,
              27.855867614830245
            ],
            [
              112.88262253660548,
              27.855662872373983
            ],
            [
              112.88305674149566,
              27.85540694375989
            ],
            [
              112.88294095352495,
              27.855125421586592
            ],
            [
              112.88269490408715,
              27.854690340426416
            ],
            [
              112.88262597835723,
              27.8544973646096
            ],
            [
              112.88252258976232,
              27.854324701745483
            ],
            [
              112.88216647349088,
              27.854009845226656
            ],
            [
              112.88179886959784,
              27.853827024892908
            ],
            [
              112.88155762954304,
              27.85364420425084
            ],
            [
              112.88115556278503,
              27.853359815972752
            ],
            [
              112.88081093413528,
              27.853146524274663
            ],
            [
              112.88045481786388,
              27.853014486346538
            ],
            [
              112.88014465207912,
              27.85286213469122
            ],
            [
              112.87974258532111,
              27.852770723595285
            ],
            [
              112.8792256423465,
              27.852750410007943
            ],
            [
              112.87866274888526,
              27.85274025321283
            ],
            [
              112.87881208796684,
              27.853095740475183
            ],
            [
              112.8789039889401,
              27.853451226572062
            ],
            [
              112.87889250131843,
              27.853654360961272
            ],
            [
              112.87870869937191,
              27.853694987793432
            ],
            [
              112.87844448407377,
              27.85362389082715
            ],
            [
              112.87808836780239,
              27.853522323651575
            ],
            [
              112.87776671439597,
              27.853502010205048
            ],
            [
              112.87759440007109,
              27.853522323651575
            ],
            [
              112.87733018477297,
              27.853674674379263
            ],
            [
              112.8767558036901,
              27.853867651660366
            ],
            [
              112.87649158839196,
              27.853908278412604
            ],
            [
              112.87630778644544,
              27.853928591783017
            ],
            [
              112.87611249687725,
              27.854009845226656
            ],
            [
              112.87596315779568,
              27.85416219526931
            ],
            [
              112.87584828157911,
              27.854263761845473
            ],
            [
              112.87569894249756,
              27.854060628597978
            ],
            [
              112.87538877671281,
              27.853837181586172
            ],
            [
              112.87510158617137,
              27.85356295053323
            ],
            [
              112.87492927184651,
              27.853420756380842
            ],
            [
              112.87372307157243,
              27.854537991125895
            ],
            [
              112.8745731555751,
              27.85525910925689
            ],
            [
              112.87395282400558,
              27.855797405580276
            ],
            [
              112.87327505432775,
              27.856325542771728
            ],
            [
              112.87272364848816,
              27.85676226965967
            ],
            [
              112.87268918562319,
              27.856995867040354
            ],
            [
              112.87311422762454,
              27.857402122155705
            ],
            [
              112.87327505432775,
              27.857595092802157
            ],
            [
              112.87364265822079,
              27.857899782597173
            ],
            [
              112.87420555168202,
              27.858397440754032
            ],
            [
              112.87463059368335,
              27.858813846844015
            ],
            [
              112.875147536658,
              27.85940290638571
            ],
            [
              112.87559555390267,
              27.859738059523778
            ],
            [
              112.87592869493076,
              27.860083367733722
            ],
            [
              112.87633076168878,
              27.860428674843618
            ],
            [
              112.87660646460856,
              27.860713044578745
            ],
            [
              112.87687655855854,
              27.86094766319998
            ]
          ]
        ]
      },
      "properties": {
        "name": "宝庆路社区",
        "type": "assistPolygon",
        "fill": "#9b59b6",
        "fill-opacity": 0.2,
        "stroke": "#9b59b6",
        "stroke-width": 2,
        "stroke-opacity": 0.8
      },
      "id": "assist_polygon_1773736876623"
    },
    {
      "type": "Feature",
      "geometry": {
        "type": "Point",
        "coordinates": [
          112.87781962181677,
          27.856550317321165
        ]
      },
      "properties": {
        "iconType": "default",
        "iconColor": "#e74c3c",
        "iconSize": 1,
        "text": "宝庆路社区中心点",
        "textColor": "#333333",
        "type": "assistPoint",
        "name": "辅助点_1"
      },
      "id": "assist_point_1773736903695"
    }
  ],
  "properties": {
    "description": "GIS-APP 辅助要素导出",
    "exportTime": "2026/3/17 16:42:13",
    "assistElements": {
      "lines": 0,
      "polygons": 1,
      "texts": 0,
      "points": 1
    }
  }
}