{
  "type": "FeatureCollection",
  "features": [
    {
      "type": "Feature",
      "geometry": {
        "type": "Polygon",
        "coordinates": [
          [
            [
              112.95670367924083,
              27.80642233709895
            ],
            [
              112.95366370987358,
              27.813771858156002
            ],
            [
              112.95886543523534,
              27.81986620574021
            ],
            [
              112.9633916118488,
              27.82536277488208
            ],
            [
              112.97393017232197,
              27.82607969816658
            ],
            [
              112.9766323673151,
              27.82548226242497
            ],
            [
              112.97865901355996,
              27.825721237116184
            ],
            [
              112.98034788543067,
              27.827513530530936
            ],
            [
              112.98082076955444,
              27.825422518669953
            ],
            [
              112.98055055005514,
              27.822554779763124
            ],
            [
              112.9797398915572,
              27.821300120170818
            ],
            [
              112.97852390381028,
              27.820284432738646
            ],
            [
              112.97744302581305,
              27.81920898863082
            ],
            [
              112.97642970269062,
              27.81741655811419
            ],
            [
              112.97460572107029,
              27.816878823189683
            ],
            [
              112.9742003918213,
              27.8156838471575
            ],
            [
              112.97332217844853,
              27.81478760650424
            ],
            [
              112.97332217844853,
              27.81389135845474
            ],
            [
              112.97406528207165,
              27.813234105184506
            ],
            [
              112.98757625703725,
              27.814966855226587
            ],
            [
              112.98804914116104,
              27.81430960846491
            ],
            [
              112.98156387317756,
              27.81233784431521
            ],
            [
              112.9720386358268,
              27.810246540192466
            ],
            [
              112.9691337762092,
              27.80941000726932
            ],
            [
              112.96575603246781,
              27.80821494906121
            ],
            [
              112.9604191973564,
              27.807258893029044
            ],
            [
              112.95670367924083,
              27.80642233709895
            ]
          ]
        ]
      },
      "properties": {
        "name": "新华村",
        "type": "assistPolygon",
        "fill": "#9b59b6",
        "fill-opacity": 0.2,
        "stroke": "#9b59b6",
        "stroke-width": 2,
        "stroke-opacity": 0.8
      },
      "id": "assist_polygon_1773907366294"
    },
    {
      "type": "Feature",
      "geometry": {
        "type": "Point",
        "coordinates": [
          112.96663424584055,
          27.81669957762314
        ]
      },
      "properties": {
        "iconType": "default",
        "iconColor": "#e74c3c",
        "iconSize": 1,
        "text": "新华村中心点",
        "textColor": "#333333",
        "type": "assistPoint",
        "name": "辅助点_1"
      },
      "id": "assist_point_1773907388883"
    }
  ],
  "properties": {
    "description": "GIS-APP 辅助要素导出",
    "exportTime": "2026/3/19 16:03:42",
    "assistElements": {
      "lines": 0,
      "polygons": 1,
      "texts": 0,
      "points": 1
    }
  }
}