{
  "type": "FeatureCollection",
  "features": [
    {
      "type": "Feature",
      "geometry": {
        "type": "Polygon",
        "coordinates": [
          [
            [
              112.91100811937402,
              27.810139020145442
            ],
            [
              112.91042266498485,
              27.809543021477012
            ],
            [
              112.91070986902483,
              27.809152200902844
            ],
            [
              112.91088660997248,
              27.8091424303705
            ],
            [
              112.91100811937402,
              27.808986101733055
            ],
            [
              112.91133950865093,
              27.80928898826373
            ],
            [
              112.91174822209244,
              27.809503939482866
            ],
            [
              112.91209065767855,
              27.809376922904804
            ],
            [
              112.91222321338931,
              27.809064266079872
            ],
            [
              112.91237786171854,
              27.808839543431148
            ],
            [
              112.91246623219237,
              27.808536655647288
            ],
            [
              112.9128086677785,
              27.808390096739018
            ],
            [
              112.91204647244166,
              27.807569363198695
            ],
            [
              112.91257669528468,
              27.807325096066762
            ],
            [
              112.91314005705539,
              27.806836560155176
            ],
            [
              112.91403480810301,
              27.806934267513256
            ],
            [
              112.91397957655687,
              27.807344637457504
            ],
            [
              112.91400166917532,
              27.80823376701892
            ],
            [
              112.91308482550924,
              27.808790690619887
            ],
            [
              112.912256352317,
              27.809298758782944
            ],
            [
              112.91100811937402,
              27.810139020145442
            ]
          ]
        ]
      },
      "properties": {
        "name": "栗塘社区",
        "type": "assistPolygon",
        "fill": "#9b59b6",
        "fill-opacity": 0.2,
        "stroke": "#9b59b6",
        "stroke-width": 2,
        "stroke-opacity": 0.8
      },
      "id": "assist_polygon_1773987380617"
    },
    {
      "type": "Feature",
      "geometry": {
        "type": "Polygon",
        "coordinates": [
          [
            [
              112.91477958207531,
              27.809517301968455
            ],
            [
              112.91442367859143,
              27.809049873815923
            ],
            [
              112.91429425914276,
              27.80876369232169
            ],
            [
              112.91419719455625,
              27.808515667750157
            ],
            [
              112.9141109149238,
              27.808277182051214
            ],
            [
              112.91412169987784,
              27.80794330119312
            ],
            [
              112.91404620519944,
              27.807485405776177
            ],
            [
              112.91404906767552,
              27.807256316427498
            ],
            [
              112.91404906767552,
              27.80706288294276
            ],
            [
              112.91423651355088,
              27.8072378942057
            ],
            [
              112.9144135457665,
              27.807293160861732
            ],
            [
              112.91458016432236,
              27.80742211628312
            ],
            [
              112.91492381509383,
              27.80749580502662
            ],
            [
              112.91524663854584,
              27.807505016116068
            ],
            [
              112.91574649421347,
              27.807569493720152
            ],
            [
              112.91629841817979,
              27.80757870480332
            ],
            [
              112.9164754503954,
              27.807974780641075
            ],
            [
              112.9173710251332,
              27.80779055950083
            ],
            [
              112.91715233827861,
              27.80741290518668
            ],
            [
              112.91773550322418,
              27.807274738646157
            ],
            [
              112.91817287693334,
              27.807597126967337
            ],
            [
              112.91735019781372,
              27.808048469009705
            ],
            [
              112.91775633054367,
              27.808656396143675
            ],
            [
              112.91778757152288,
              27.808978780364598
            ],
            [
              112.92024519522198,
              27.80742211628312
            ],
            [
              112.92015147228429,
              27.807090516318794
            ],
            [
              112.92173434856507,
              27.80693392709493
            ],
            [
              112.92141152511306,
              27.806952349368302
            ],
            [
              112.92234875448985,
              27.806869449113634
            ],
            [
              112.9223591681496,
              27.806897082538867
            ],
            [
              112.92249454572622,
              27.806897082538867
            ],
            [
              112.92266116428209,
              27.80682339338925
            ],
            [
              112.92273405990028,
              27.806851026826223
            ],
            [
              112.92262992330288,
              27.80687866025616
            ],
            [
              112.92286943747693,
              27.806814182242036
            ],
            [
              112.922786128199,
              27.807127360809275
            ],
            [
              112.92269948382993,
              27.807273250837326
            ],
            [
              112.92291182844181,
              27.807435065596252
            ],
            [
              112.92356988745443,
              27.80737873655083
            ],
            [
              112.92347436275907,
              27.80908737126755
            ],
            [
              112.9218398290825,
              27.809096759296153
            ],
            [
              112.92079967128834,
              27.80908737126755
            ],
            [
              112.92056616647739,
              27.80910614732393
            ],
            [
              112.91972767192904,
              27.809077983238154
            ],
            [
              112.9191226821916,
              27.809031043078903
            ],
            [
              112.91812497981762,
              27.80898410289936
            ],
            [
              112.91724402984906,
              27.808955938781907
            ],
            [
              112.9165753569814,
              27.808955938781907
            ],
            [
              112.91589607025867,
              27.809012267009507
            ],
            [
              112.91536537750656,
              27.80910614732393
            ],
            [
              112.91477958207531,
              27.809517301968455
            ]
          ]
        ]
      },
      "properties": {
        "name": "栗塘社区",
        "type": "assistPolygon",
        "fill": "#9b59b6",
        "fill-opacity": 0.2,
        "stroke": "#9b59b6",
        "stroke-width": 2,
        "stroke-opacity": 0.8
      },
      "id": "assist_polygon_1773986997125"
    },
    {
      "type": "Feature",
      "geometry": {
        "type": "Point",
        "coordinates": [
          112.91719758178938,
          27.808449639890668
        ]
      },
      "properties": {
        "iconType": "default",
        "iconColor": "#e74c3c",
        "iconSize": 1,
        "text": "栗塘社区中心点",
        "textColor": "#333333",
        "type": "assistPoint",
        "name": "辅助点_1"
      },
      "id": "assist_point_1773987724088"
    }
  ],
  "properties": {
    "description": "GIS-APP 辅助要素导出",
    "exportTime": "2026/3/20 14:22:07",
    "assistElements": {
      "lines": 0,
      "polygons": 2,
      "texts": 0,
      "points": 1
    }
  }
}