{
  "type": "FeatureCollection",
  "features": [
    {
      "type": "Feature",
      "geometry": {
        "type": "Polygon",
        "coordinates": [
          [
            [
              112.8770511397465,
              27.861063847926317
            ],
            [
              112.8780392887045,
              27.861250217068417
            ],
            [
              112.87864535339871,
              27.861378345667717
            ],
            [
              112.8790669636208,
              27.861471530008444
            ],
            [
              112.88021321641206,
              27.861716138521672
            ],
            [
              112.88135946920333,
              27.86194909849725
            ],
            [
              112.88212363773083,
              27.862112170182215
            ],
            [
              112.88250572199458,
              27.862228649806994
            ],
            [
              112.88312496200827,
              27.86235677724966
            ],
            [
              112.88344116967482,
              27.862461608681002
            ],
            [
              112.88352022159147,
              27.861622954391237
            ],
            [
              112.88358609818866,
              27.86095901514308
            ],
            [
              112.88363879946641,
              27.860155293769765
            ],
            [
              112.88370467606363,
              27.859689365607196
            ],
            [
              112.88378372798026,
              27.85899046960826
            ],
            [
              112.8838232539386,
              27.8583731077277
            ],
            [
              112.88388599748642,
              27.85785536869325
            ],
            [
              112.8839487410342,
              27.857337627186098
            ],
            [
              112.88394658370736,
              27.85711470350516
            ],
            [
              112.88383038467127,
              27.856945927101364
            ],
            [
              112.88368098591056,
              27.856835855392106
            ],
            [
              112.88351498728753,
              27.856799164797522
            ],
            [
              112.88314149038575,
              27.85667441668305
            ],
            [
              112.88264349451671,
              27.85657902096922
            ],
            [
              112.88246089603138,
              27.856608373505495
            ],
            [
              112.88221189809687,
              27.856557006561815
            ],
            [
              112.88202929961156,
              27.85636621484359
            ],
            [
              112.88158110332942,
              27.856791826677124
            ],
            [
              112.8811827066342,
              27.85716607018462
            ],
            [
              112.88032781372566,
              27.85796591962422
            ],
            [
              112.87985471765009,
              27.858420877222812
            ],
            [
              112.87926698224665,
              27.85902508459894
            ],
            [
              112.8781325162353,
              27.860076397405308
            ],
            [
              112.8770511397465,
              27.861063847926317
            ]
          ]
        ]
      },
      "properties": {
        "name": "宝丰街社区",
        "type": "assistPolygon",
        "fill": "#9b59b6",
        "fill-opacity": 0.2,
        "stroke": "#9b59b6",
        "stroke-width": 2,
        "stroke-opacity": 0.8
      },
      "id": "assist_polygon_1773734138884"
    },
    {
      "type": "Feature",
      "geometry": {
        "type": "Point",
        "coordinates": [
          112.88133089029138,
          27.859544700248875
        ]
      },
      "properties": {
        "iconType": "default",
        "iconColor": "#e74c3c",
        "iconSize": 1,
        "text": "宝丰街社区中心点",
        "textColor": "#333333",
        "type": "assistPoint",
        "name": "辅助点_1"
      },
      "id": "assist_point_1773734171124"
    }
  ],
  "properties": {
    "description": "GIS-APP 辅助要素导出",
    "exportTime": "2026/3/17 15:57:01",
    "assistElements": {
      "lines": 0,
      "polygons": 1,
      "texts": 0,
      "points": 1
    }
  }
}