{
  "type": "FeatureCollection",
  "features": [
    {
      "type": "Feature",
      "geometry": {
        "type": "Polygon",
        "coordinates": [
          [
            [
              112.88811886905604,
              27.863517393369378
            ],
            [
              112.88957895034325,
              27.86385622900231
            ],
            [
              112.89123979280745,
              27.86422733348003
            ],
            [
              112.8917143192258,
              27.863509325841406
            ],
            [
              112.89220709666024,
              27.862807448608223
            ],
            [
              112.892362230297,
              27.862500880114638
            ],
            [
              112.89273637612686,
              27.86187160522688
            ],
            [
              112.89300101586016,
              27.861452086605325
            ],
            [
              112.89353942083481,
              27.8605888412567
            ],
            [
              112.8942420849543,
              27.859507757946503
            ],
            [
              112.89466185832435,
              27.858951076514202
            ],
            [
              112.89537364795187,
              27.857861908921777
            ],
            [
              112.89597770163515,
              27.856908912955674
            ],
            [
              112.89665426242136,
              27.85588743645542
            ],
            [
              112.89620669143972,
              27.85560215751535
            ],
            [
              112.8950005368063,
              27.85491557223773
            ],
            [
              112.89438093682337,
              27.8545357572375
            ],
            [
              112.89340609951687,
              27.853973336427913
            ],
            [
              112.89321779316408,
              27.854135535232828
            ],
            [
              112.89311943779761,
              27.85427467099261
            ],
            [
              112.89302763945555,
              27.8543558334367
            ],
            [
              112.89285715682036,
              27.854465982370755
            ],
            [
              112.89275224442945,
              27.85453555006093
            ],
            [
              112.89256209072093,
              27.85453555006093
            ],
            [
              112.89235882296354,
              27.854558739281075
            ],
            [
              112.89222768247491,
              27.854674685307373
            ],
            [
              112.89214899818175,
              27.854802225793122
            ],
            [
              112.89205064281528,
              27.85492976612879
            ],
            [
              112.89189983125337,
              27.85501092808252
            ],
            [
              112.89173590564258,
              27.855068900869384
            ],
            [
              112.89161787920278,
              27.85520223816151
            ],
            [
              112.89137526929883,
              27.855306588971416
            ],
            [
              112.89118369581551,
              27.85515964100763
            ],
            [
              112.89086556020864,
              27.854723866432238
            ],
            [
              112.89061105172317,
              27.854294720830055
            ],
            [
              112.8905598784193,
              27.85418791784214
            ],
            [
              112.89026973977178,
              27.853986363840733
            ],
            [
              112.89021792929901,
              27.853945136839727
            ],
            [
              112.89014539463714,
              27.853945136839727
            ],
            [
              112.88990706646241,
              27.85380313260518
            ],
            [
              112.88969464352405,
              27.853633643436652
            ],
            [
              112.88944077220748,
              27.853454992404608
            ],
            [
              112.8893682375456,
              27.853418346002684
            ],
            [
              112.88921798717456,
              27.85362448185242
            ],
            [
              112.88895375376345,
              27.85399552539438
            ],
            [
              112.88867397721049,
              27.854435279059103
            ],
            [
              112.88833202809022,
              27.854943742010505
            ],
            [
              112.88852372683945,
              27.85521858585625
            ],
            [
              112.88872578768327,
              27.85554381684034
            ],
            [
              112.88879832234512,
              27.85578659426291
            ],
            [
              112.88880951832597,
              27.856250213379298
            ],
            [
              112.88885614775147,
              27.856552537928067
            ],
            [
              112.88904266545345,
              27.856799893749994
            ],
            [
              112.88935352829004,
              27.857230474760385
            ],
            [
              112.88950891370216,
              27.85758559661444
            ],
            [
              112.88961253464771,
              27.85832765531569
            ],
            [
              112.88958144836404,
              27.85852004007573
            ],
            [
              112.88975760397145,
              27.858593329418326
            ],
            [
              112.88937420647295,
              27.85964685824227
            ],
            [
              112.88955036208037,
              27.859985817512836
            ],
            [
              112.88937216993979,
              27.8604254340717
            ],
            [
              112.8890529815418,
              27.860956884149687
            ],
            [
              112.88883537755618,
              27.86091107931516
            ],
            [
              112.88811886905604,
              27.863517393369378
            ]
          ]
        ]
      },
      "properties": {
        "name": "鲁班殿社区",
        "type": "assistPolygon",
        "fill": "#9b59b6",
        "fill-opacity": 0.2,
        "stroke": "#9b59b6",
        "stroke-width": 2,
        "stroke-opacity": 0.8
      },
      "id": "assist_polygon_1773804270730"
    },
    {
      "type": "Feature",
      "geometry": {
        "type": "Point",
        "coordinates": [
          112.89183954536638,
          27.859152338066025
        ]
      },
      "properties": {
        "iconType": "default",
        "iconColor": "#e74c3c",
        "iconSize": 1,
        "text": "鲁班殿社区中心点",
        "textColor": "#333333",
        "type": "assistPoint",
        "name": "辅助点_1"
      },
      "id": "assist_point_1773804411153"
    }
  ],
  "properties": {
    "description": "GIS-APP 辅助要素导出",
    "exportTime": "2026/3/18 11:27:19",
    "assistElements": {
      "lines": 0,
      "polygons": 1,
      "texts": 0,
      "points": 1
    }
  }
}