{
  "type": "FeatureCollection",
  "features": [
    {
      "type": "Feature",
      "geometry": {
        "type": "Polygon",
        "coordinates": [
          [
            [
              112.9692625372741,
              27.880360812269885
            ],
            [
              112.97067415521911,
              27.880379717810072
            ],
            [
              112.97075970782184,
              27.879528965234684
            ],
            [
              112.97070623744514,
              27.878281182702466
            ],
            [
              112.9706206848424,
              27.877997593758536
            ],
            [
              112.97008598107536,
              27.87783689302738
            ],
            [
              112.97013945145206,
              27.87760056798963
            ],
            [
              112.9701715336781,
              27.877288618150274
            ],
            [
              112.96972238251381,
              27.87686323055786
            ],
            [
              112.96943364247961,
              27.876617450298554
            ],
            [
              112.96917698467145,
              27.876428388181154
            ],
            [
              112.9686529749797,
              27.876201513204677
            ],
            [
              112.96836423494551,
              27.876116434965994
            ],
            [
              112.96782953117844,
              27.87607862239399
            ],
            [
              112.96757287337027,
              27.875965184598883
            ],
            [
              112.9671344162813,
              27.87570049594828
            ],
            [
              112.96669595919232,
              27.87541690024777
            ],
            [
              112.96624680802802,
              27.875123850577268
            ],
            [
              112.9668456762471,
              27.874405402869527
            ],
            [
              112.96703816960323,
              27.874169070345232
            ],
            [
              112.96724135703471,
              27.873772030543762
            ],
            [
              112.9677118963497,
              27.87382875060449
            ],
            [
              112.96803271860995,
              27.873252095269933
            ],
            [
              112.96826798826744,
              27.872363472843332
            ],
            [
              112.96788300155517,
              27.871956972920557
            ],
            [
              112.968128965288,
              27.871541017932373
            ],
            [
              112.96740176816485,
              27.870973804011314
            ],
            [
              112.9661612554253,
              27.871541017932373
            ],
            [
              112.96497421306246,
              27.872127135864503
            ],
            [
              112.9637337003229,
              27.8726848903071
            ],
            [
              112.96270706909017,
              27.87317646811313
            ],
            [
              112.96343426621337,
              27.874027270583184
            ],
            [
              112.96481380193237,
              27.87570049594828
            ],
            [
              112.96555169313089,
              27.8765796379015
            ],
            [
              112.96626819617873,
              27.877506037830187
            ],
            [
              112.96742315631555,
              27.878640394298856
            ],
            [
              112.96795786008259,
              27.879075227795298
            ],
            [
              112.96855672830168,
              27.879632946463502
            ],
            [
              112.96886685648657,
              27.88002051198228
            ],
            [
              112.96910212614407,
              27.880332453953443
            ],
            [
              112.9692625372741,
              27.880360812269885
            ]
          ]
        ]
      },
      "properties": {
        "name": "江滨社区",
        "type": "assistPolygon",
        "fill": "#9b59b6",
        "fill-opacity": 0.2,
        "stroke": "#9b59b6",
        "stroke-width": 2,
        "stroke-opacity": 0.8
      },
      "id": "assist_polygon_1773993532170"
    },
    {
      "type": "Feature",
      "geometry": {
        "type": "Point",
        "coordinates": [
          112.96603912685164,
          27.876136360865047
        ]
      },
      "properties": {
        "iconType": "default",
        "iconColor": "#e74c3c",
        "iconSize": 1,
        "text": "江滨社区",
        "textColor": "#333333",
        "type": "assistPoint",
        "name": "辅助点_1"
      },
      "id": "assist_point_1773993556136"
    }
  ],
  "properties": {
    "description": "GIS-APP 辅助要素导出",
    "exportTime": "2026/3/20 15:59:20",
    "assistElements": {
      "lines": 0,
      "polygons": 1,
      "texts": 0,
      "points": 1
    }
  }
}