{
  "type": "FeatureCollection",
  "features": [
    {
      "type": "Feature",
      "geometry": {
        "type": "Polygon",
        "coordinates": [
          [
            [
              112.9337859124325,
              27.919936831257772
            ],
            [
              112.93582612945441,
              27.919777094561823
            ],
            [
              112.94811262626676,
              27.91777466095955
            ],
            [
              112.94837733796896,
              27.91938345669668
            ],
            [
              112.94856457307542,
              27.919868372702723
            ],
            [
              112.9615244158108,
              27.916520078023837
            ],
            [
              112.96691225860273,
              27.92901487942187
            ],
            [
              112.9723192190518,
              27.93363998649947
            ],
            [
              112.97798244923284,
              27.934842986682185
            ],
            [
              112.98511404311944,
              27.938072971120278
            ],
            [
              112.98855397544328,
              27.938656462011394
            ],
            [
              112.99088489147154,
              27.939051836681855
            ],
            [
              112.99655136083304,
              27.94384042467378
            ],
            [
              113.00154734979778,
              27.949882207688447
            ],
            [
              113.00248998922517,
              27.953453454924244
            ],
            [
              113.00244809413941,
              27.956358475653545
            ],
            [
              113.0013550179797,
              27.959904704024183
            ],
            [
              112.99989008727995,
              27.962534290641997
            ],
            [
              112.99193806708729,
              27.971847868334834
            ],
            [
              112.981552451083,
              27.977996985595766
            ],
            [
              112.97048911524652,
              27.98560815435573
            ],
            [
              112.9657131738658,
              27.982039695148003
            ],
            [
              112.96054906470206,
              27.978979372171295
            ],
            [
              112.95805486680312,
              27.977560440363206
            ],
            [
              112.95288135183834,
              27.975347481623004
            ],
            [
              112.94623983132946,
              27.97254589823146
            ],
            [
              112.93933538291289,
              27.970314470723565
            ],
            [
              112.93600730483809,
              27.9688409944943
            ],
            [
              112.91501942275998,
              27.960354730623123
            ],
            [
              112.92397550988545,
              27.95139198889096
            ],
            [
              112.92935951601869,
              27.942885841856693
            ],
            [
              112.9330869048801,
              27.93122309993832
            ],
            [
              112.9337859124325,
              27.919936831257772
            ]
          ]
        ]
      },
      "properties": {
        "sourceFileId": "file_1779632044135_9_g1",
        "sourceFileName": "湘江中学.geojson",
        "sourceGroupId": 1,
        "name": "湘江中学",
        "id": "imported_1779632044135_9_0_g1",
        "sourceFile": "湘江中学.geojson",
        "isAssistFeature": false
      },
      "id": "imported_1779632044135_9_0_g1"
    }
  ],
  "properties": {
    "fileName": "湘江中学.geojson",
    "exportTime": "2026/5/24 22:20:45",
    "isStarred": false
  }
}