{
  "type": "FeatureCollection",
  "features": [
    {
      "type": "Feature",
      "properties": {
        "name": "九华莲城小学",
        "isAssistFeature": false
      },
      "geometry": {
        "type": "Polygon",
        "coordinates": [
          [
            [
              112.9431349461374,
              27.905008526944137
            ],
            [
              112.94237787655868,
              27.89910148993039
            ],
            [
              112.94234790426921,
              27.898858562126716
            ],
            [
              112.93753123114057,
              27.90020424859473
            ],
            [
              112.935693374189,
              27.896212280155375
            ],
            [
              112.93075315396268,
              27.897727016618813
            ],
            [
              112.93068815007209,
              27.89774694710554
            ],
            [
              112.9305935466929,
              27.897775953642274
            ],
            [
              112.92976961999912,
              27.89875386379861
            ],
            [
              112.9254381422268,
              27.89875187584968
            ],
            [
              112.92544350606737,
              27.898795048630426
            ],
            [
              112.92627308046929,
              27.906546286628107
            ],
            [
              112.9431349461374,
              27.905008526944137
            ]
          ]
        ]
      }
    }
  ]
}