{
  "type": "FeatureCollection",
  "features": [
    {
      "type": "Feature",
      "geometry": {
        "type": "Polygon",
        "coordinates": [
          [
            [
              112.95920602216597,
              27.917022928669866
            ],
            [
              112.95920334608475,
              27.916935364905243
            ],
            [
              112.95892726145863,
              27.917008835189392
            ],
            [
              112.94601979943411,
              27.920362830919345
            ],
            [
              112.94589643020288,
              27.920389892259635
            ],
            [
              112.9455474356133,
              27.920456722858916
            ],
            [
              112.94247485238859,
              27.92086949987427
            ],
            [
              112.93340190305325,
              27.92203979492868
            ],
            [
              112.93340293701415,
              27.924393636306718
            ],
            [
              112.93291867321078,
              27.927526561426305
            ],
            [
              112.93132698878304,
              27.93782326443474
            ],
            [
              112.9296060718202,
              27.942785838675434
            ],
            [
              112.92819702507323,
              27.945663981812146
            ],
            [
              112.93150979756412,
              27.946259950007118
            ],
            [
              112.93234295007932,
              27.943411545192944
            ],
            [
              112.93770328906022,
              27.944873016495634
            ],
            [
              112.94656962588017,
              27.946492014808427
            ],
            [
              112.95127458811332,
              27.946465541682798
            ],
            [
              112.9534559159138,
              27.946453267704726
            ],
            [
              112.95859753663021,
              27.946424337709985
            ],
            [
              112.96001796982542,
              27.946406955585203
            ],
            [
              112.96001723141028,
              27.946380220564052
            ],
            [
              112.95988388908276,
              27.9415506046017
            ],
            [
              112.95920865243315,
              27.917118105455557
            ],
            [
              112.95920602216597,
              27.917022928669866
            ]
          ]
        ]
      },
      "properties": {
        "name": "九华砂子塘潭州小学",
        "isAssistFeature": false,
        "sourceFileId": "file_1780843293424_8_g1",
        "sourceFileName": "九华砂子塘潭州小学.geojson",
        "sourceGroupId": 1,
        "id": "imported_1780843293424_8_0_g1",
        "sourceFile": "九华砂子塘潭州小学.geojson"
      },
      "id": "imported_1780843293424_8_0_g1"
    }
  ],
  "properties": {
    "fileName": "九华砂子塘潭州小学.geojson",
    "exportTime": "2026/6/7 22:49:30",
    "isStarred": false
  }
}