{
  "type": "FeatureCollection",
  "features": [
    {
      "type": "Feature",
      "properties": {
        "name": "九华和平将军渡小学",
        "isAssistFeature": false
      },
      "geometry": {
        "type": "Polygon",
        "coordinates": [
          [
            [
              112.97461135404257,
              27.941358985332517
            ],
            [
              112.95988388908276,
              27.94155060460172
            ],
            [
              112.96001723141028,
              27.946380220564034
            ],
            [
              112.96001796982542,
              27.946406955585193
            ],
            [
              112.97244172051047,
              27.946232234285585
            ],
            [
              112.97486970143342,
              27.94571035177612
            ],
            [
              112.97461135404257,
              27.941358985332517
            ]
          ]
        ]
      }
    },
    {
      "type": "Feature",
      "properties": {
        "name": "九华和平将军渡小学",
        "isAssistFeature": false
      },
      "geometry": {
        "type": "Polygon",
        "coordinates": [
          [
            [
              112.93302796943476,
              27.98508800261582
            ],
            [
              112.93417396910732,
              27.985510002699638
            ],
            [
              112.93492896896764,
              27.98607000285108
            ],
            [
              112.9361084686138,
              27.984931736836526
            ],
            [
              112.9364475386161,
              27.984133272031322
            ],
            [
              112.94150444011638,
              27.985273428913395
            ],
            [
              112.94354871914042,
              27.98403825900857
            ],
            [
              112.94377076022079,
              27.981930386118595
            ],
            [
              112.9443740993083,
              27.976202570444375
            ],
            [
              112.94440946867599,
              27.975866777484878
            ],
            [
              112.94301075135446,
              27.97558171393674
            ],
            [
              112.94354871914042,
              27.97358625356002
            ],
            [
              112.94182722096764,
              27.973396207260603
            ],
            [
              112.94150444011638,
              27.971590755478378
            ],
            [
              112.93913737934271,
              27.97168577946681
            ],
            [
              112.9401801895386,
              27.969413983310695
            ],
            [
              112.94397909390821,
              27.96113754315028
            ],
            [
              112.94330821588436,
              27.96039081095922
            ],
            [
              112.94119221267307,
              27.95798372220654
            ],
            [
              112.94096647143206,
              27.957716272610263
            ],
            [
              112.94084069561417,
              27.957699608018935
            ],
            [
              112.93881459849145,
              27.95743116190332
            ],
            [
              112.93881459849145,
              27.95477847854284
            ],
            [
              112.93881459938974,
              27.95258416229833
            ],
            [
              112.94688412246788,
              27.956385749006504
            ],
            [
              112.94667922483642,
              27.94993999587248
            ],
            [
              112.94656962588017,
              27.946492014808424
            ],
            [
              112.93770328906021,
              27.94487301649563
            ],
            [
              112.9296060718202,
              27.94278583867545
            ],
            [
              112.92952367564739,
              27.942764614214305
            ],
            [
              112.91775097986286,
              27.93972997569028
            ],
            [
              112.91464059103933,
              27.941308325292066
            ],
            [
              112.91131478710905,
              27.94299599593006
            ],
            [
              112.90840648149523,
              27.944471772109875
            ],
            [
              112.90491322081618,
              27.946353298256124
            ],
            [
              112.90893570058869,
              27.947944673190705
            ],
            [
              112.90845579181781,
              27.950582485491896
            ],
            [
              112.90798762133275,
              27.951616788152137
            ],
            [
              112.90636520733577,
              27.955157266017643
            ],
            [
              112.9071212348688,
              27.95776169436013
            ],
            [
              112.90542389239396,
              27.960817350209265
            ],
            [
              112.90515556292365,
              27.961300946364197
            ],
            [
              112.90727244019574,
              27.961300946364197
            ],
            [
              112.90946492058045,
              27.957694915399045
            ],
            [
              112.91203541383332,
              27.95836270791165
            ],
            [
              112.91234114825376,
              27.958180026000516
            ],
            [
              112.91432721914238,
              27.956993302953165
            ],
            [
              112.91460590798454,
              27.95682677879805
            ],
            [
              112.917403209677,
              27.95822914989831
            ],
            [
              112.91807747704443,
              27.958101526901714
            ],
            [
              112.9184616487622,
              27.958028812171754
            ],
            [
              112.91920482948832,
              27.95786551747131
            ],
            [
              112.91923435351846,
              27.95784971858463
            ],
            [
              112.92231738953986,
              27.95716067825591
            ],
            [
              112.92435866369932,
              27.954355890077768
            ],
            [
              112.92747186155471,
              27.95467145863051
            ],
            [
              112.92897043200998,
              27.954823360363406
            ],
            [
              112.92791199382309,
              27.960098949427838
            ],
            [
              112.92801958055311,
              27.960897189061985
            ],
            [
              112.9282900075896,
              27.962903587594585
            ],
            [
              112.9280939655502,
              27.963156938463513
            ],
            [
              112.92525695023734,
              27.966806759295086
            ],
            [
              112.92511469123234,
              27.96697686139907
            ],
            [
              112.92300206029658,
              27.967635417599176
            ],
            [
              112.92254419797942,
              27.96777814363855
            ],
            [
              112.91952008694909,
              27.972185086419707
            ],
            [
              112.92178817044642,
              27.973053099480257
            ],
            [
              112.92175233934469,
              27.97387586038658
            ],
            [
              112.92174872362568,
              27.973958888393106
            ],
            [
              112.92171256733381,
              27.97478910385572
            ],
            [
              112.92079211037456,
              27.9747412862118
            ],
            [
              112.9196525776737,
              27.974682087125277
            ],
            [
              112.91785682655612,
              27.974588797664104
            ],
            [
              112.91642037460275,
              27.97859486351847
            ],
            [
              112.91744196928657,
              27.978245002828423
            ],
            [
              112.91872796959954,
              27.97840100301385
            ],
            [
              112.92137936333029,
              27.979431860269628
            ],
            [
              112.92157549520122,
              27.979510800008416
            ],
            [
              112.92380296945782,
              27.980438003231512
            ],
            [
              112.9246539695776,
              27.981171002630827
            ],
            [
              112.9249388253542,
              27.982576642247846
            ],
            [
              112.92509696926838,
              27.98335700306114
            ],
            [
              112.92470596945614,
              27.983760002816794
            ],
            [
              112.92149496932085,
              27.984112003343466
            ],
            [
              112.92110496933351,
              27.984467002904626
            ],
            [
              112.92102696951571,
              27.985347002643092
            ],
            [
              112.92132996946441,
              27.98582600291033
            ],
            [
              112.9229349696196,
              27.9870760029654
            ],
            [
              112.92585297164857,
              27.987823660223835
            ],
            [
              112.92715396933522,
              27.98815700287979
            ],
            [
              112.9292359695164,
              27.988215003105253
            ],
            [
              112.93028696875442,
              27.98894700329602
            ],
            [
              112.93215196920062,
              27.98839300316469
            ],
            [
              112.93215196920062,
              27.987699250809097
            ],
            [
              112.93215196920062,
              27.9856720029886
            ],
            [
              112.93243896925578,
              27.985096002794453
            ],
            [
              112.93302796943476,
              27.98508800261582
            ]
          ]
        ]
      }
    }
  ]
}