{
  "type": "FeatureCollection",
  "features": [
    {
      "type": "Feature",
      "properties": {
        "name": "九华和平科大小学",
        "isAssistFeature": false
      },
      "geometry": {
        "type": "Polygon",
        "coordinates": [
          [
            [
              112.92220523667326,
              27.908757797958415
            ],
            [
              112.9220698686448,
              27.906958984959743
            ],
            [
              112.92212008177425,
              27.906953145405527
            ],
            [
              112.92541143621172,
              27.906630762783035
            ],
            [
              112.92627308046929,
              27.906546286628107
            ],
            [
              112.92544350606737,
              27.898795048630426
            ],
            [
              112.9254381422268,
              27.89875187584968
            ],
            [
              112.92469653894229,
              27.89882866670235
            ],
            [
              112.92448333279279,
              27.897678962409163
            ],
            [
              112.92420517665157,
              27.896155234828555
            ],
            [
              112.91936042488209,
              27.896699724625403
            ],
            [
              112.91151479610873,
              27.89599057395766
            ],
            [
              112.91051754936237,
              27.90342118538126
            ],
            [
              112.90952662855227,
              27.90417179562776
            ],
            [
              112.90866523043306,
              27.906731143673646
            ],
            [
              112.9079874829922,
              27.90730905994438
            ],
            [
              112.90696292476628,
              27.907626806876948
            ],
            [
              112.9066115550311,
              27.907575055366532
            ],
            [
              112.90644084458438,
              27.90740983077772
            ],
            [
              112.90562771743697,
              27.906622829030635
            ],
            [
              112.9049249770683,
              27.906891937236743
            ],
            [
              112.9038618290144,
              27.90926437680915
            ],
            [
              112.90247928136796,
              27.90937620151115
            ],
            [
              112.90173675192041,
              27.90943625960091
            ],
            [
              112.90156871306336,
              27.910176746530308
            ],
            [
              112.90118821365846,
              27.911853447784853
            ],
            [
              112.90115983857358,
              27.91197848281636
            ],
            [
              112.89977811468226,
              27.918066944465153
            ],
            [
              112.8995925793384,
              27.918884464043334
            ],
            [
              112.90425499376649,
              27.919495875431842
            ],
            [
              112.91201856413353,
              27.920513953809316
            ],
            [
              112.91316017373931,
              27.917138554673596
            ],
            [
              112.91737534842845,
              27.910077034063384
            ],
            [
              112.9198342008545,
              27.90891300308784
            ],
            [
              112.92191711462233,
              27.908776658704216
            ],
            [
              112.92199606934925,
              27.908771490039378
            ],
            [
              112.92208636530665,
              27.90876557913775
            ],
            [
              112.92220523667326,
              27.908757797958415
            ]
          ]
        ]
      }
    }
  ]
}