{
  "type": "FeatureCollection",
  "features": [
    {
      "type": "Feature",
      "geometry": {
        "type": "Polygon",
        "coordinates": [
          [
            [
              112.95709727464721,
              27.90440646797984
            ],
            [
              112.95291140163683,
              27.90447209228256
            ],
            [
              112.95271182669208,
              27.90306112158514
            ],
            [
              112.95104870215242,
              27.902473211697256
            ],
            [
              112.95020605238567,
              27.90166972968443
            ],
            [
              112.94772245307311,
              27.901767715615208
            ],
            [
              112.94656935339228,
              27.89786780706153
            ],
            [
              112.94674155084911,
              27.897745672075345
            ],
            [
              112.94607324739691,
              27.89807920708661
            ],
            [
              112.94577688420152,
              27.89812682922934
            ],
            [
              112.9446881063142,
              27.898304774566242
            ],
            [
              112.94460884705839,
              27.898320593273823
            ],
            [
              112.94316240224576,
              27.898664760937777
            ],
            [
              112.94234790426921,
              27.898858562126705
            ],
            [
              112.94237787655868,
              27.899101489930374
            ],
            [
              112.94313494613739,
              27.905008526944115
            ],
            [
              112.94296687583933,
              27.908659256680195
            ],
            [
              112.94276625508695,
              27.913016848587716
            ],
            [
              112.94276498397082,
              27.91304446584195
            ],
            [
              112.94264612607893,
              27.915626045075697
            ],
            [
              112.94274230510312,
              27.9158882281408
            ],
            [
              112.94305535091168,
              27.916741587366957
            ],
            [
              112.94356462201593,
              27.917711239955636
            ],
            [
              112.94539836288685,
              27.920252729699286
            ],
            [
              112.9455474356133,
              27.920456722858916
            ],
            [
              112.94589643020288,
              27.920389892259635
            ],
            [
              112.94601979943411,
              27.920362830919345
            ],
            [
              112.95892726145863,
              27.917008835189392
            ],
            [
              112.95920334608475,
              27.916935364905243
            ],
            [
              112.95972630392066,
              27.91679256929058
            ],
            [
              112.96113131663576,
              27.91640924181972
            ],
            [
              112.95709727464721,
              27.90440646797984
            ]
          ]
        ]
      },
      "properties": {
        "name": "九华和平小学",
        "isAssistFeature": false,
        "sourceFileId": "file_1778742032768_4_g1",
        "sourceFileName": "九华和平小学.geojson",
        "sourceGroupId": 1,
        "id": "imported_1778742032768_4_0_g1",
        "sourceFile": "九华和平小学.geojson"
      },
      "id": "imported_1778742032768_4_0_g1"
    }
  ],
  "properties": {
    "fileName": "九华和平小学.geojson",
    "exportTime": "2026/5/14 15:52:11",
    "isStarred": false
  }
}