{
  "type": "FeatureCollection",
  "features": [
    {
      "type": "Feature",
      "geometry": {
        "type": "Polygon",
        "coordinates": [
          [
            [
              112.93873673458141,
              28.001913831025192
            ],
            [
              112.94382980809853,
              27.987878617613447
            ],
            [
              112.94411520060721,
              27.980922780128907
            ],
            [
              112.94668373318541,
              27.972756659279966
            ],
            [
              112.95747157001378,
              27.977091837457536
            ],
            [
              112.96506301074487,
              27.98147724740039
            ],
            [
              112.96945805537865,
              27.98429994567377
            ],
            [
              112.97082793942036,
              27.985408842636986
            ],
            [
              112.96534840325359,
              27.98878586768177
            ],
            [
              112.94868148074623,
              28.00380478697319
            ],
            [
              112.94474306412633,
              28.00214172111562
            ],
            [
              112.93873673458141,
              28.001913831025192
            ]
          ]
        ]
      },
      "properties": {
        "sourceFileId": "file_1778143110618_1_g2",
        "sourceFileName": "新建学区_组2_2026-05-07T08-38-30.geojson",
        "sourceGroupId": 2,
        "name": "保利学校",
        "id": "polygon_1778143777994",
        "sourceFile": "新建学区_组2_2026-05-07T08-38-30.geojson"
      },
      "id": "polygon_1778143777994"
    }
  ],
  "properties": {
    "fileName": "新建学区_组2_2026-05-07T08-38-30.geojson",
    "exportTime": "2026/5/7 16:50:25",
    "isStarred": false
  }
}