{
  "type": "FeatureCollection",
  "features": [
    {
      "type": "Feature",
      "geometry": {
        "type": "Polygon",
        "coordinates": [
          [
            [
              112.9280101533224,
              28.01892823555822
            ],
            [
              112.92822883318631,
              28.017332352553623
            ],
            [
              112.93003658672787,
              28.01246733744985
            ],
            [
              112.93067243521647,
              28.007968283080032
            ],
            [
              112.92994460231817,
              28.004894978995978
            ],
            [
              112.9283940017957,
              28.00201716932655
            ],
            [
              112.9231093020558,
              27.997518691501426
            ],
            [
              112.92279285296958,
              27.99631720291613
            ],
            [
              112.9232358816903,
              27.995814250228918
            ],
            [
              112.92415358404034,
              27.995311295194597
            ],
            [
              112.92788768325771,
              27.99556277300516
            ],
            [
              112.92928005923709,
              27.996428969861228
            ],
            [
              112.93206481119583,
              27.996121610483343
            ],
            [
              112.93475462842868,
              27.993159738830784
            ],
            [
              112.93481791824598,
              27.98969480454653
            ],
            [
              112.93592549004775,
              27.988437341175214
            ],
            [
              112.93484956315459,
              27.98603414815578
            ],
            [
              112.93665332294604,
              27.984245690679643
            ],
            [
              112.94181144305142,
              27.985307590883806
            ],
            [
              112.94367849266011,
              27.984245690679643
            ],
            [
              112.94411520060721,
              27.980922780128907
            ],
            [
              112.94668373318541,
              27.972756659279966
            ],
            [
              112.95747157001378,
              27.977091837457536
            ],
            [
              112.96506301074487,
              27.98147724740039
            ],
            [
              112.96945805537865,
              27.98429994567377
            ],
            [
              112.97082793942036,
              27.985408842636986
            ],
            [
              112.96534840325359,
              27.98878586768177
            ],
            [
              112.94868148074623,
              28.00380478697319
            ],
            [
              112.94708333977351,
              28.005790847732072
            ],
            [
              112.94562804167907,
              28.00805221788373
            ],
            [
              112.94353241242308,
              28.01298595161579
            ],
            [
              112.94172784278597,
              28.0159152490872
            ],
            [
              112.94060611348304,
              28.01756401445732
            ],
            [
              112.93823512735933,
              28.01966668912631
            ],
            [
              112.93731786602703,
              28.020763461120453
            ],
            [
              112.9343372907179,
              28.022557494326463
            ],
            [
              112.93305436884971,
              28.022531755333333
            ],
            [
              112.9300511653855,
              28.020627052764965
            ],
            [
              112.9280101533224,
              28.01892823555822
            ]
          ]
        ]
      },
      "properties": {
        "sourceFileId": "file_1779298124156_13_g1",
        "sourceFileName": "保利学校.geojson",
        "sourceGroupId": 1,
        "name": "保利学校",
        "id": "imported_1779298124156_13_0_g1",
        "sourceFile": "保利学校.geojson",
        "isAssistFeature": false
      },
      "id": "imported_1779298124156_13_0_g1"
    }
  ],
  "properties": {
    "fileName": "保利学校.geojson",
    "exportTime": "2026/5/21 01:34:46",
    "isStarred": false
  }
}