{
  "type": "FeatureCollection",
  "features": [
    {
      "type": "Feature",
      "properties": {
        "name": "双湖学校",
        "isAssistFeature": false
      },
      "geometry": {
        "type": "Polygon",
        "coordinates": [
          [
            [
              112.81189429190975,
              27.95451103290831
            ],
            [
              112.81324740356098,
              27.953880818375435
            ],
            [
              112.81297678159005,
              27.955010854955038
            ],
            [
              112.81420688333615,
              27.955206437313652
            ],
            [
              112.81509328156972,
              27.954108906249846
            ],
            [
              112.81654407602491,
              27.953924280990154
            ],
            [
              112.81853684026073,
              27.95231613196156
            ],
            [
              112.81949632003592,
              27.950642761920232
            ],
            [
              112.81984701783125,
              27.949021722950608
            ],
            [
              112.81967754616133,
              27.948041687582755
            ],
            [
              112.81957783316479,
              27.947469140795075
            ],
            [
              112.8219940030384,
              27.947792192012365
            ],
            [
              112.82283047201014,
              27.946488214455147
            ],
            [
              112.82511846127588,
              27.947009807526065
            ],
            [
              112.82659458283219,
              27.94590141973529
            ],
            [
              112.82615174573648,
              27.944640886494074
            ],
            [
              112.82644613443487,
              27.943361487006918
            ],
            [
              112.82543828756816,
              27.942076309305904
            ],
            [
              112.82408517591693,
              27.93983768656365
            ],
            [
              112.82555619683909,
              27.938598328477728
            ],
            [
              112.82562722483199,
              27.93853848578505
            ],
            [
              112.82844791326455,
              27.93853848578505
            ],
            [
              112.8286298930765,
              27.936970964462486
            ],
            [
              112.83099834623881,
              27.9362731831589
            ],
            [
              112.83205623375845,
              27.935403774361355
            ],
            [
              112.83215464150288,
              27.93431700313011
            ],
            [
              112.83313742357655,
              27.932699846975023
            ],
            [
              112.83436930219025,
              27.931389949003293
            ],
            [
              112.83476797181842,
              27.930966027722512
            ],
            [
              112.83591745246272,
              27.929743729659926
            ],
            [
              112.83469700221602,
              27.92808480042386
            ],
            [
              112.83431832100125,
              27.92757006321858
            ],
            [
              112.83524559797016,
              27.926211567058438
            ],
            [
              112.83583604713165,
              27.924363893190424
            ],
            [
              112.83278539447792,
              27.923885666284423
            ],
            [
              112.83325283373435,
              27.92227707006918
            ],
            [
              112.83344965012151,
              27.920624973130728
            ],
            [
              112.83153069146945,
              27.91884241848403
            ],
            [
              112.83185051776177,
              27.918016347326077
            ],
            [
              112.83056404403663,
              27.917787033870116
            ],
            [
              112.82842960200578,
              27.917406569092915
            ],
            [
              112.82857721407161,
              27.915863093774618
            ],
            [
              112.82626462354352,
              27.91775439088249
            ],
            [
              112.82508372611879,
              27.9167326597531
            ],
            [
              112.82432106273076,
              27.917515263472726
            ],
            [
              112.82272193037102,
              27.917558741511574
            ],
            [
              112.82162472179478,
              27.91627514614128
            ],
            [
              112.82097518684375,
              27.91551526510784
            ],
            [
              112.81979428941902,
              27.914906562645896
            ],
            [
              112.81953361898483,
              27.914412976059218
            ],
            [
              112.81858878983361,
              27.91262389789979
            ],
            [
              112.81766453749229,
              27.91316376744108
            ],
            [
              112.81713726953966,
              27.913471750883204
            ],
            [
              112.81595637211491,
              27.91308043470329
            ],
            [
              112.81280731261508,
              27.91294999592663
            ],
            [
              112.81226918133571,
              27.914386360129456
            ],
            [
              112.81130658889808,
              27.91590657247776
            ],
            [
              112.80938763114432,
              27.916558746958042
            ],
            [
              112.80818213155891,
              27.916645703787445
            ],
            [
              112.80791282472157,
              27.91554729279341
            ],
            [
              112.80675521342563,
              27.916058747007238
            ],
            [
              112.80582033670944,
              27.914363075749854
            ],
            [
              112.80464691686113,
              27.913917515444027
            ],
            [
              112.80449797708535,
              27.91436552936949
            ],
            [
              112.8040933758814,
              27.915587163073386
            ],
            [
              112.80407419864669,
              27.915645080050385
            ],
            [
              112.8054320399279,
              27.916604842468633
            ],
            [
              112.80560854810142,
              27.91673166673761
            ],
            [
              112.80397244288119,
              27.917498656975066
            ],
            [
              112.80392809485227,
              27.917519401404174
            ],
            [
              112.80360615392578,
              27.917667435738423
            ],
            [
              112.80369938467925,
              27.918046385882718
            ],
            [
              112.80371011236035,
              27.918089989917014
            ],
            [
              112.80422574892671,
              27.91898258642462
            ],
            [
              112.80480376989627,
              27.919983169752758
            ],
            [
              112.80503889673535,
              27.92039018356612
            ],
            [
              112.80504103023415,
              27.920440969300643
            ],
            [
              112.80504817633224,
              27.923063211797707
            ],
            [
              112.80504907464753,
              27.92332190426518
            ],
            [
              112.80499350576238,
              27.92412248971382
            ],
            [
              112.80467866781485,
              27.928707659547115
            ],
            [
              112.80633697938892,
              27.92953621181626
            ],
            [
              112.8066568056812,
              27.931579422413325
            ],
            [
              112.80572192896501,
              27.933535652000813
            ],
            [
              112.80638618371026,
              27.93664381114041
            ],
            [
              112.8077638975222,
              27.93573093461262
            ],
            [
              112.80845275352983,
              27.936622075961257
            ],
            [
              112.80766548887944,
              27.93801311147054
            ],
            [
              112.80975666085968,
              27.93855647946761
            ],
            [
              112.81007648715195,
              27.93985543797952
            ],
            [
              112.80971493950462,
              27.940438352287085
            ],
            [
              112.8083543457854,
              27.943637160316168
            ],
            [
              112.80717344836067,
              27.944658637120643
            ],
            [
              112.80741946906922,
              27.946027835860477
            ],
            [
              112.8066568056812,
              27.947288352914455
            ],
            [
              112.80609095868037,
              27.948918309531027
            ],
            [
              112.8069766319735,
              27.951156743276034
            ],
            [
              112.80633697938892,
              27.95172177729954
            ],
            [
              112.8069766319735,
              27.95313435021601
            ],
            [
              112.80652141429653,
              27.95415336620544
            ],
            [
              112.80645998929403,
              27.955111920934538
            ],
            [
              112.80749052940145,
              27.95624953591984
            ],
            [
              112.80788416217578,
              27.958227049576415
            ],
            [
              112.80795675054233,
              27.96014293401522
            ],
            [
              112.80869602808856,
              27.96007414510873
            ],
            [
              112.80931107941076,
              27.95874858514943
            ],
            [
              112.8104673746748,
              27.957140507981737
            ],
            [
              112.81182048632603,
              27.956075686719796
            ],
            [
              112.81189429190975,
              27.95451103290831
            ]
          ]
        ]
      }
    }
  ]
}