{
  "type": "FeatureCollection",
  "features": [
    {
      "type": "Feature",
      "properties": {
        "name": "司马学校",
        "isAssistFeature": false
      },
      "geometry": {
        "type": "Polygon",
        "coordinates": [
          [
            [
              112.77728933034778,
              27.940090010667014
            ],
            [
              112.77888648910888,
              27.93841047445199
            ],
            [
              112.7801099496101,
              27.938478028799064
            ],
            [
              112.78152457609532,
              27.93766737463968
            ],
            [
              112.78255687061247,
              27.938748244971432
            ],
            [
              112.78462145964681,
              27.938917130231946
            ],
            [
              112.78645665039862,
              27.93773492945143
            ],
            [
              112.78682123704657,
              27.93759702146692
            ],
            [
              112.78744795119614,
              27.937359960110996
            ],
            [
              112.7878062676034,
              27.93722442300508
            ],
            [
              112.78821651651556,
              27.93809853602013
            ],
            [
              112.79150342429239,
              27.93753226647673
            ],
            [
              112.79666660996548,
              27.934277003250152
            ],
            [
              112.79673520172729,
              27.934239593825176
            ],
            [
              112.79799507184529,
              27.932771941450998
            ],
            [
              112.79785143212968,
              27.932355491576413
            ],
            [
              112.79727723798321,
              27.930675320036837
            ],
            [
              112.79743503694435,
              27.92954898138734
            ],
            [
              112.79748317945703,
              27.929526194737907
            ],
            [
              112.79806182295911,
              27.929252312487083
            ],
            [
              112.79946214646839,
              27.928589512456796
            ],
            [
              112.80124048194754,
              27.9294657747747
            ],
            [
              112.80127206581463,
              27.929485016845312
            ],
            [
              112.80340800443872,
              27.929485016845312
            ],
            [
              112.80450793131702,
              27.929490601997724
            ],
            [
              112.804554051722,
              27.929485016845312
            ],
            [
              112.80466303084071,
              27.92881101532664
            ],
            [
              112.80467121628956,
              27.928765629816084
            ],
            [
              112.80467866781485,
              27.928707659547115
            ],
            [
              112.80499350576238,
              27.92412248971382
            ],
            [
              112.80504907464753,
              27.92332190426518
            ],
            [
              112.80504817633224,
              27.923063211797707
            ],
            [
              112.80504103023415,
              27.920440969300643
            ],
            [
              112.80503889673535,
              27.92039018356612
            ],
            [
              112.80480376989627,
              27.919983169752758
            ],
            [
              112.80422574892671,
              27.91898258642462
            ],
            [
              112.80371011236035,
              27.918089989917014
            ],
            [
              112.80369938467925,
              27.918046385882718
            ],
            [
              112.80360615392578,
              27.917667435738423
            ],
            [
              112.80392809485227,
              27.917519401404174
            ],
            [
              112.80397244288119,
              27.917498656975066
            ],
            [
              112.80560854810142,
              27.91673166673761
            ],
            [
              112.8054320399279,
              27.916604842468633
            ],
            [
              112.80407419864669,
              27.915645080050385
            ],
            [
              112.8040933758814,
              27.915587163073386
            ],
            [
              112.80449797708535,
              27.91436552936949
            ],
            [
              112.80464691686113,
              27.913917515444027
            ],
            [
              112.80463034833404,
              27.91389011273829
            ],
            [
              112.80399956481627,
              27.9128423797095
            ],
            [
              112.80398496359965,
              27.912818651259872
            ],
            [
              112.8037666316631,
              27.912512848137094
            ],
            [
              112.8038143681373,
              27.91183790809668
            ],
            [
              112.80383669486534,
              27.911543502185477
            ],
            [
              112.80373879556737,
              27.911514843855638
            ],
            [
              112.80310917985946,
              27.911320661283803
            ],
            [
              112.80239087528018,
              27.911099850511317
            ],
            [
              112.80236218219169,
              27.911091041504584
            ],
            [
              112.80187077318858,
              27.90993448897463
            ],
            [
              112.80172831206261,
              27.909786967188165
            ],
            [
              112.80012597092065,
              27.908126875181118
            ],
            [
              112.79966955309443,
              27.90627961072498
            ],
            [
              112.79825181664168,
              27.90485170704947
            ],
            [
              112.79776116581667,
              27.904454427907172
            ],
            [
              112.79552403736572,
              27.902828458369644
            ],
            [
              112.79497342399547,
              27.900937845002783
            ],
            [
              112.79506790789871,
              27.900725102032474
            ],
            [
              112.79546542858162,
              27.899831706237
            ],
            [
              112.79524614083763,
              27.89974378797158
            ],
            [
              112.79440931703132,
              27.899407800956137
            ],
            [
              112.79426570246854,
              27.899350139655652
            ],
            [
              112.7934545246653,
              27.899305827048412
            ],
            [
              112.79256522038179,
              27.899257246386494
            ],
            [
              112.79182176297454,
              27.899216632548967
            ],
            [
              112.7918191848097,
              27.89983302887674
            ],
            [
              112.79061114838193,
              27.900196543807816
            ],
            [
              112.78945372663051,
              27.89986358851894
            ],
            [
              112.78788579815044,
              27.900657569345682
            ],
            [
              112.78709708272089,
              27.90045103965529
            ],
            [
              112.78536588184467,
              27.900916991805637
            ],
            [
              112.78473867541834,
              27.901034068002595
            ],
            [
              112.78402587571514,
              27.902161956436544
            ],
            [
              112.7813423034326,
              27.90234235458765
            ],
            [
              112.77883166762201,
              27.903094776801943
            ],
            [
              112.77880814972787,
              27.9031064182205
            ],
            [
              112.77756635730665,
              27.904682207303374
            ],
            [
              112.77488634504762,
              27.905896764382483
            ],
            [
              112.77439455246385,
              27.90633989122529
            ],
            [
              112.77313402837233,
              27.90747566915333
            ],
            [
              112.77334093643339,
              27.909225748133803
            ],
            [
              112.77337454240816,
              27.909509992974375
            ],
            [
              112.77296223276075,
              27.911756813686367
            ],
            [
              112.77093504418497,
              27.910937033405457
            ],
            [
              112.76914836874668,
              27.90966180657976
            ],
            [
              112.76644144206338,
              27.911307086216667
            ],
            [
              112.76608539569884,
              27.91153075906502
            ],
            [
              112.76567341303819,
              27.91196507532619
            ],
            [
              112.76431876975941,
              27.91339314626692
            ],
            [
              112.76325005304903,
              27.91739857818551
            ],
            [
              112.76359480220059,
              27.91900137474267
            ],
            [
              112.76314117274505,
              27.920958259803708
            ],
            [
              112.76298064649873,
              27.923690787604343
            ],
            [
              112.76377701108292,
              27.925429191378235
            ],
            [
              112.76210680940777,
              27.926345663112617
            ],
            [
              112.76069136545563,
              27.927500072541545
            ],
            [
              112.75943924240866,
              27.93067463271429
            ],
            [
              112.76450097864175,
              27.932699831895494
            ],
            [
              112.76650801531078,
              27.934699370283035
            ],
            [
              112.76766469146051,
              27.935273831559666
            ],
            [
              112.76965498532927,
              27.93788752720486
            ],
            [
              112.77080530769499,
              27.93901702878874
            ],
            [
              112.77283758163361,
              27.93986221618168
            ],
            [
              112.77459496121384,
              27.940061113092973
            ],
            [
              112.77582783785586,
              27.940200647203273
            ],
            [
              112.77728933034778,
              27.940090010667014
            ]
          ]
        ]
      }
    }
  ]
}