{
  "type": "FeatureCollection",
  "features": [
    {
      "type": "Feature",
      "properties": {
        "name": "响水乡黄龙学校",
        "isAssistFeature": false
      },
      "geometry": {
        "type": "Polygon",
        "coordinates": [
          [
            [
              112.87567762265805,
              27.970316603854098
            ],
            [
              112.87565073697992,
              27.970091963372653
            ],
            [
              112.8760835264192,
              27.970155772164112
            ],
            [
              112.87534816193433,
              27.968679698848387
            ],
            [
              112.87468739624563,
              27.968498798915007
            ],
            [
              112.87300836772451,
              27.968030219970146
            ],
            [
              112.8723398549648,
              27.967085517018397
            ],
            [
              112.87066857261637,
              27.9670264724126
            ],
            [
              112.87213930068772,
              27.965727490845254
            ],
            [
              112.87167134130678,
              27.96401517371961
            ],
            [
              112.87026746406222,
              27.964074219973057
            ],
            [
              112.86865254381135,
              27.96286728858407
            ],
            [
              112.86752656129825,
              27.96224378220266
            ],
            [
              112.86719230446923,
              27.96029521843028
            ],
            [
              112.86445140170524,
              27.960177122549627
            ],
            [
              112.86351548294334,
              27.959704737734974
            ],
            [
              112.86284697018361,
              27.957933275474684
            ],
            [
              112.864986211913,
              27.956338934902455
            ],
            [
              112.86525361701689,
              27.954744570783987
            ],
            [
              112.87054873735747,
              27.953042225251178
            ],
            [
              112.87020061323541,
              27.9517919824066
            ],
            [
              112.8707354234432,
              27.94942985341311
            ],
            [
              112.87220615241286,
              27.94878025870274
            ],
            [
              112.87294151599937,
              27.94931174564675
            ],
            [
              112.87387743476131,
              27.94771727696742
            ],
            [
              112.8752144602807,
              27.946949562399247
            ],
            [
              112.88022830642772,
              27.946181841580128
            ],
            [
              112.88036200897966,
              27.943996760087554
            ],
            [
              112.87842332152735,
              27.942756559313988
            ],
            [
              112.87855702407927,
              27.94145728650368
            ],
            [
              112.87942609111607,
              27.94222504090453
            ],
            [
              112.87962306560672,
              27.941668202638414
            ],
            [
              112.88009460387576,
              27.940335174285455
            ],
            [
              112.87929238856414,
              27.938976812404892
            ],
            [
              112.87628408069625,
              27.938445274604334
            ],
            [
              112.8762504414838,
              27.93777165991227
            ],
            [
              112.87608352731749,
              27.93442912811154
            ],
            [
              112.87515553708629,
              27.934101182173574
            ],
            [
              112.87474650179809,
              27.933956630661395
            ],
            [
              112.87463862042067,
              27.933098822366777
            ],
            [
              112.874545947521,
              27.932361936117108
            ],
            [
              112.87334262455353,
              27.930944409658554
            ],
            [
              112.8707354234432,
              27.930649089868236
            ],
            [
              112.87075624459482,
              27.93058493073309
            ],
            [
              112.87086221795056,
              27.9302533857039
            ],
            [
              112.871136531099,
              27.929408735872965
            ],
            [
              112.87080570583436,
              27.928857830250895
            ],
            [
              112.87060172089123,
              27.928522759904812
            ],
            [
              112.87078604530605,
              27.928386682322007
            ],
            [
              112.87225296092737,
              27.927299138098583
            ],
            [
              112.8726741108955,
              27.92698705091667
            ],
            [
              112.87467965007296,
              27.927991170679125
            ],
            [
              112.87563153189747,
              27.927741978822137
            ],
            [
              112.8761933113267,
              27.92759491071948
            ],
            [
              112.87648463497335,
              27.927518645080834
            ],
            [
              112.87721873463025,
              27.92578901049198
            ],
            [
              112.87728684938668,
              27.92562852123666
            ],
            [
              112.87686262538365,
              27.924766418702287
            ],
            [
              112.8766775769267,
              27.92439126943026
            ],
            [
              112.87661833752527,
              27.924269974482687
            ],
            [
              112.87607008762255,
              27.924207468853492
            ],
            [
              112.87595544911757,
              27.924194399417928
            ],
            [
              112.874545947521,
              27.92403370380815
            ],
            [
              112.87444507659606,
              27.923719840364157
            ],
            [
              112.8743683649624,
              27.92348452889791
            ],
            [
              112.87414483986518,
              27.922793273897945
            ],
            [
              112.8752144602807,
              27.92232072557766
            ],
            [
              112.87225330138887,
              27.920873328116027
            ],
            [
              112.87222251253083,
              27.920858278672185
            ],
            [
              112.87160826250582,
              27.921418901585227
            ],
            [
              112.87012613661015,
              27.920843957092384
            ],
            [
              112.87007446282006,
              27.920738591069057
            ],
            [
              112.86987921848464,
              27.92034047334017
            ],
            [
              112.86965619374902,
              27.919885708683015
            ],
            [
              112.86900550446286,
              27.919725999656794
            ],
            [
              112.86763182588322,
              27.91838443595188
            ],
            [
              112.86643889552528,
              27.918576088815453
            ],
            [
              112.86586050444981,
              27.917713648254374
            ],
            [
              112.8639123146184,
              27.917002637391256
            ],
            [
              112.86357394081047,
              27.916877987593416
            ],
            [
              112.86257090711703,
              27.916499830308716
            ],
            [
              112.86220941247029,
              27.915988745702492
            ],
            [
              112.86183428499079,
              27.916064607502026
            ],
            [
              112.8613128282397,
              27.915486522895293
            ],
            [
              112.86127055442077,
              27.914718591237133
            ],
            [
              112.86038373218238,
              27.91422415284345
            ],
            [
              112.8602676006774,
              27.913701725199417
            ],
            [
              112.86033094537967,
              27.91279679936306
            ],
            [
              112.85853345063212,
              27.911786921455903
            ],
            [
              112.85829986620035,
              27.909779082090793
            ],
            [
              112.85789640226356,
              27.909309955468853
            ],
            [
              112.8581692475648,
              27.908120355368542
            ],
            [
              112.85785393171356,
              27.90692675944406
            ],
            [
              112.85695244537648,
              27.90548720012695
            ],
            [
              112.85542554115882,
              27.905596874199915
            ],
            [
              112.85291394954076,
              27.90556272793271
            ],
            [
              112.85197674079811,
              27.90554998569538
            ],
            [
              112.85155227335164,
              27.90437775774547
            ],
            [
              112.85035330002678,
              27.904067194529496
            ],
            [
              112.84847488144517,
              27.903580635865897
            ],
            [
              112.84824518132869,
              27.90484615396663
            ],
            [
              112.84732803555961,
              27.905607369016817
            ],
            [
              112.84625596633659,
              27.905240453101356
            ],
            [
              112.8452706537088,
              27.905719403902253
            ],
            [
              112.84613202757347,
              27.9069296689019
            ],
            [
              112.84710083455626,
              27.90758324069779
            ],
            [
              112.84794318030659,
              27.910076150534792
            ],
            [
              112.84799928548597,
              27.910242190278495
            ],
            [
              112.84802417690419,
              27.910315855627502
            ],
            [
              112.84900170922333,
              27.910782237616587
            ],
            [
              112.84875516659362,
              27.911640637371676
            ],
            [
              112.85019285462883,
              27.913436765672156
            ],
            [
              112.84954837359957,
              27.91357914024096
            ],
            [
              112.84931289012931,
              27.91454290266224
            ],
            [
              112.84838974541076,
              27.91488549543643
            ],
            [
              112.84831815237754,
              27.91491206440967
            ],
            [
              112.8469352750494,
              27.91542526795917
            ],
            [
              112.84635276430005,
              27.916575191669228
            ],
            [
              112.84803666797822,
              27.916987513587497
            ],
            [
              112.84841022699922,
              27.917079904254738
            ],
            [
              112.85071540373129,
              27.920276766874522
            ],
            [
              112.85070300967531,
              27.92106525120393
            ],
            [
              112.84650232930326,
              27.922724872357204
            ],
            [
              112.84590894804066,
              27.92487034020256
            ],
            [
              112.84472218641375,
              27.92627763368724
            ],
            [
              112.84416784323845,
              27.928919708558613
            ],
            [
              112.84756416851182,
              27.932327406231813
            ],
            [
              112.84665848165248,
              27.933437988863215
            ],
            [
              112.8448957139772,
              27.933135578213342
            ],
            [
              112.85261344241701,
              27.938695322694432
            ],
            [
              112.85611530176995,
              27.938273451421576
            ],
            [
              112.85595612658979,
              27.93982030417251
            ],
            [
              112.85562226861279,
              27.94077535540312
            ],
            [
              112.8548418985322,
              27.943007688603615
            ],
            [
              112.85457660626585,
              27.944835704381056
            ],
            [
              112.85466646743868,
              27.95217997008014
            ],
            [
              112.85383411005597,
              27.955016182488535
            ],
            [
              112.85339306420093,
              27.95686673065341
            ],
            [
              112.85928255484923,
              27.957101063261973
            ],
            [
              112.86034372481288,
              27.96202193212261
            ],
            [
              112.86004391657839,
              27.962892254916138
            ],
            [
              112.85938867193542,
              27.966708266187194
            ],
            [
              112.86039678290685,
              27.96820784950421
            ],
            [
              112.86755967679288,
              27.970832071153115
            ],
            [
              112.86899225521074,
              27.97312821194406
            ],
            [
              112.87530621330555,
              27.97322193108401
            ],
            [
              112.87567762265805,
              27.970316603854098
            ]
          ]
        ]
      }
    }
  ]
}