{
  "type": "FeatureCollection",
  "features": [
    {
      "type": "Feature",
      "properties": {
        "name": "奇头学校",
        "isAssistFeature": false
      },
      "geometry": {
        "type": "Polygon",
        "coordinates": [
          [
            [
              112.81057784948842,
              27.90295433105418
            ],
            [
              112.81406800469156,
              27.9005875795091
            ],
            [
              112.81504768308588,
              27.900888835577046
            ],
            [
              112.81661330648893,
              27.90038272877807
            ],
            [
              112.81664481130426,
              27.900372811411728
            ],
            [
              112.81634064085074,
              27.899137888167715
            ],
            [
              112.81632859354447,
              27.89910030700931
            ],
            [
              112.81604374225945,
              27.89836939823947
            ],
            [
              112.81520927024258,
              27.897584017809503
            ],
            [
              112.81324757783413,
              27.89574554160424
            ],
            [
              112.81303910131459,
              27.895541491519158
            ],
            [
              112.81207668135346,
              27.89463566668142
            ],
            [
              112.8113363357104,
              27.894402771416697
            ],
            [
              112.81106345088324,
              27.8943169280747
            ],
            [
              112.80888242581506,
              27.893983009903057
            ],
            [
              112.80778786277733,
              27.893114742569335
            ],
            [
              112.80696309076889,
              27.892162795486936
            ],
            [
              112.80603100691495,
              27.89230962912361
            ],
            [
              112.80562600596068,
              27.89237361644782
            ],
            [
              112.80547220450255,
              27.891820171248785
            ],
            [
              112.80538557816308,
              27.891508447743547
            ],
            [
              112.80308423633899,
              27.891327658370084
            ],
            [
              112.80297320277322,
              27.8909211195644
            ],
            [
              112.80294695220401,
              27.890825413973673
            ],
            [
              112.80296701607587,
              27.890766710384785
            ],
            [
              112.80303577492434,
              27.89056553619866
            ],
            [
              112.80344498179078,
              27.88936826186669
            ],
            [
              112.80502493601752,
              27.889079864795914
            ],
            [
              112.80500691671125,
              27.887501264882747
            ],
            [
              112.80500594473412,
              27.887475721367895
            ],
            [
              112.80491769244398,
              27.88623621489031
            ],
            [
              112.80482496923867,
              27.884933904670916
            ],
            [
              112.80473325124815,
              27.88469909560873
            ],
            [
              112.80469402002305,
              27.88460160672245
            ],
            [
              112.804292592567,
              27.883582929952194
            ],
            [
              112.80438241421395,
              27.882828694319226
            ],
            [
              112.8044515368801,
              27.882248260468305
            ],
            [
              112.80449867417799,
              27.881852444339824
            ],
            [
              112.80290025238563,
              27.88143558083384
            ],
            [
              112.80136781724079,
              27.88232751896278
            ],
            [
              112.80027095451591,
              27.882959134468635
            ],
            [
              112.79973048582019,
              27.884306246939367
            ],
            [
              112.79700094854117,
              27.886753507771314
            ],
            [
              112.79559679641213,
              27.88801242689568
            ],
            [
              112.7933378047638,
              27.890037738210285
            ],
            [
              112.79131159535164,
              27.89185431470681
            ],
            [
              112.78885357476558,
              27.888008057579047
            ],
            [
              112.78517295246775,
              27.888213858313836
            ],
            [
              112.78490471911718,
              27.88720792816606
            ],
            [
              112.78460783759387,
              27.88609455308644
            ],
            [
              112.78437850129507,
              27.885549223085178
            ],
            [
              112.78389614192012,
              27.884402227463873
            ],
            [
              112.7820491005931,
              27.884806893060432
            ],
            [
              112.78017764754819,
              27.883737484360463
            ],
            [
              112.77839605926941,
              27.88271941800819
            ],
            [
              112.77766177006794,
              27.882299814465856
            ],
            [
              112.77715497561894,
              27.880774141788
            ],
            [
              112.77308749474228,
              27.879639078590976
            ],
            [
              112.77305069256172,
              27.879641299547405
            ],
            [
              112.77350478914123,
              27.878639484765003
            ],
            [
              112.77367570350549,
              27.878561523443448
            ],
            [
              112.77452181589182,
              27.878180503064442
            ],
            [
              112.77447499839414,
              27.877752351314374
            ],
            [
              112.77440783675026,
              27.87718082510528
            ],
            [
              112.77506609883427,
              27.876590650281102
            ],
            [
              112.77536874125347,
              27.875936484770172
            ],
            [
              112.77538175335037,
              27.87590765581377
            ],
            [
              112.77578624226493,
              27.875589827674233
            ],
            [
              112.77709171446001,
              27.875368970999332
            ],
            [
              112.77761530560821,
              27.875081703946634
            ],
            [
              112.77788577576382,
              27.874193275579064
            ],
            [
              112.7772417367057,
              27.87371003614764
            ],
            [
              112.77720330048966,
              27.873681041427314
            ],
            [
              112.7764285691341,
              27.873068790681053
            ],
            [
              112.77559042480436,
              27.87171304069485
            ],
            [
              112.77426737168084,
              27.871131379137793
            ],
            [
              112.77380695455504,
              27.870692677502156
            ],
            [
              112.77335971212115,
              27.86978006787198
            ],
            [
              112.7721803651886,
              27.868430534490496
            ],
            [
              112.77209917994479,
              27.868353847551262
            ],
            [
              112.77177791724635,
              27.867729817447778
            ],
            [
              112.77154553835372,
              27.867267474783503
            ],
            [
              112.77153180401135,
              27.867245328593917
            ],
            [
              112.7703750973189,
              27.86728766897237
            ],
            [
              112.76939249041675,
              27.866902659669016
            ],
            [
              112.76814297607736,
              27.86732508169718
            ],
            [
              112.76613457127415,
              27.86693052613832
            ],
            [
              112.76503403533809,
              27.86737599160295
            ],
            [
              112.76221908354691,
              27.867386422623344
            ],
            [
              112.76123817086737,
              27.866985504620303
            ],
            [
              112.75914355294972,
              27.86779732540752
            ],
            [
              112.758664847023,
              27.8684305170196
            ],
            [
              112.75716394274461,
              27.868818702968635
            ],
            [
              112.75663673048753,
              27.869951137448645
            ],
            [
              112.75509817691727,
              27.87052564161897
            ],
            [
              112.75461587233956,
              27.87149851787237
            ],
            [
              112.75360447083926,
              27.872118960741226
            ],
            [
              112.75404474953304,
              27.872997049491936
            ],
            [
              112.75329249761917,
              27.873445671953828
            ],
            [
              112.75261294007304,
              27.875173152084137
            ],
            [
              112.75282529372136,
              27.875852195883848
            ],
            [
              112.75343357354298,
              27.876746233460757
            ],
            [
              112.75349131724944,
              27.877827556232393
            ],
            [
              112.75242496310827,
              27.878121890289457
            ],
            [
              112.75137037150742,
              27.8790477236983
            ],
            [
              112.75169046190442,
              27.879997996310838
            ],
            [
              112.75210078088516,
              27.88079337266956
            ],
            [
              112.75117216452819,
              27.88068520199312
            ],
            [
              112.75061730482159,
              27.880185203814996
            ],
            [
              112.75009180834668,
              27.879256388140444
            ],
            [
              112.74956271232246,
              27.879020953758015
            ],
            [
              112.74942779884151,
              27.880289616777173
            ],
            [
              112.74758856117933,
              27.880283254096582
            ],
            [
              112.746701553888,
              27.879192527258976
            ],
            [
              112.74660372106536,
              27.87805343509555
            ],
            [
              112.74698409201117,
              27.87715770503283
            ],
            [
              112.74721582142186,
              27.875962946577047
            ],
            [
              112.74627389203239,
              27.87545621900443
            ],
            [
              112.74599760169203,
              27.875591100583176
            ],
            [
              112.74342268154142,
              27.876273940613796
            ],
            [
              112.74287756226745,
              27.87727472751942
            ],
            [
              112.74271917760474,
              27.87756550566893
            ],
            [
              112.74230688233038,
              27.87832243329045
            ],
            [
              112.74167179318744,
              27.878143941350704
            ],
            [
              112.73741453422387,
              27.87695677554591
            ],
            [
              112.7379844775424,
              27.878846022719472
            ],
            [
              112.73809914569179,
              27.879292191952988
            ],
            [
              112.73825369993811,
              27.87989355368774
            ],
            [
              112.73813786397886,
              27.88065677529188
            ],
            [
              112.73805733630181,
              27.881165114253758
            ],
            [
              112.73815153723578,
              27.88232243558395
            ],
            [
              112.73808430193002,
              27.883141921287717
            ],
            [
              112.73808166267972,
              27.883210803626014
            ],
            [
              112.73804836662373,
              27.883590300050997
            ],
            [
              112.73803297488963,
              27.883766936125937
            ],
            [
              112.738011985753,
              27.88400961909883
            ],
            [
              112.73724287246125,
              27.885378058246815
            ],
            [
              112.7343246296838,
              27.886136700301233
            ],
            [
              112.73372381486223,
              27.888033281785166
            ],
            [
              112.73398111032587,
              27.889265362248402
            ],
            [
              112.73346632266748,
              27.89084016112449
            ],
            [
              112.73380964529434,
              27.892433222686872
            ],
            [
              112.7348954066389,
              27.89289656787817
            ],
            [
              112.73616155328578,
              27.89276092501572
            ],
            [
              112.73808504214182,
              27.892554861392405
            ],
            [
              112.73817745093677,
              27.892544961569705
            ],
            [
              112.73838263423251,
              27.892522980133208
            ],
            [
              112.73972343447275,
              27.892379339283373
            ],
            [
              112.74229410199884,
              27.892103941771275
            ],
            [
              112.74298503491138,
              27.892425345852327
            ],
            [
              112.74307954127254,
              27.892469307172547
            ],
            [
              112.74379752605158,
              27.892803292736108
            ],
            [
              112.74574046523016,
              27.89370708770274
            ],
            [
              112.74655395709358,
              27.894085496156084
            ],
            [
              112.74833624875325,
              27.891425157079397
            ],
            [
              112.74846785194237,
              27.891228716939462
            ],
            [
              112.74908991102208,
              27.890299969789357
            ],
            [
              112.74977696680591,
              27.889156480689334
            ],
            [
              112.74979021875299,
              27.88913442154874
            ],
            [
              112.75091371293274,
              27.887264292991603
            ],
            [
              112.75193482611958,
              27.885564553755152
            ],
            [
              112.75277287163463,
              27.88583391123955
            ],
            [
              112.75432083954911,
              27.8863337094509
            ],
            [
              112.75543574044485,
              27.88669285032797
            ],
            [
              112.75686546401677,
              27.887154305767872
            ],
            [
              112.75760902922183,
              27.887399533041098
            ],
            [
              112.75862952436773,
              27.88901205727134
            ],
            [
              112.75987680280039,
              27.88944875613647
            ],
            [
              112.76147398940924,
              27.89250536306382
            ],
            [
              112.76034854408869,
              27.89288480785636
            ],
            [
              112.75933697011187,
              27.893225859085884
            ],
            [
              112.75983722662222,
              27.893825505527936
            ],
            [
              112.75952144005377,
              27.894275928909128
            ],
            [
              112.75859909214087,
              27.893924986055346
            ],
            [
              112.7580130564023,
              27.895087386364807
            ],
            [
              112.75770039597104,
              27.89606006659201
            ],
            [
              112.75722479372367,
              27.896613432949696
            ],
            [
              112.75714532965195,
              27.896705889448082
            ],
            [
              112.75605753721652,
              27.897971530029142
            ],
            [
              112.7574204970982,
              27.89847230111201
            ],
            [
              112.75744922881425,
              27.898482857751098
            ],
            [
              112.75911550036004,
              27.89909506643055
            ],
            [
              112.75844128778985,
              27.902380083870078
            ],
            [
              112.75798830512127,
              27.904587130715598
            ],
            [
              112.76148628105726,
              27.907657849356564
            ],
            [
              112.76290598571883,
              27.909263837797074
            ],
            [
              112.76567341303819,
              27.91196507532619
            ],
            [
              112.76608539569884,
              27.91153075906502
            ],
            [
              112.76644144206338,
              27.911307086216667
            ],
            [
              112.76914836874668,
              27.90966180657976
            ],
            [
              112.77093504418497,
              27.910937033405457
            ],
            [
              112.77296223276075,
              27.911756813686367
            ],
            [
              112.77337454240816,
              27.909509992974375
            ],
            [
              112.77334093643339,
              27.909225748133803
            ],
            [
              112.77313402837233,
              27.90747566915333
            ],
            [
              112.77439455246385,
              27.90633989122529
            ],
            [
              112.77488634504762,
              27.905896764382483
            ],
            [
              112.77756635730665,
              27.904682207303374
            ],
            [
              112.77880814972787,
              27.9031064182205
            ],
            [
              112.77883166762201,
              27.903094776801943
            ],
            [
              112.7813423034326,
              27.90234235458765
            ],
            [
              112.78402587571514,
              27.902161956436544
            ],
            [
              112.78473867541834,
              27.901034068002595
            ],
            [
              112.78536588184467,
              27.900916991805637
            ],
            [
              112.78709708272089,
              27.90045103965529
            ],
            [
              112.78788579815044,
              27.900657569345682
            ],
            [
              112.78945372663051,
              27.89986358851894
            ],
            [
              112.79061114838193,
              27.900196543807816
            ],
            [
              112.7918191848097,
              27.89983302887674
            ],
            [
              112.79182176297454,
              27.899216632548967
            ],
            [
              112.79256522038179,
              27.899257246386494
            ],
            [
              112.7934545246653,
              27.899305827048412
            ],
            [
              112.79426570246854,
              27.899350139655652
            ],
            [
              112.79440931703132,
              27.899407800956137
            ],
            [
              112.79524614083763,
              27.89974378797158
            ],
            [
              112.79546542858162,
              27.899831706237
            ],
            [
              112.79506790789871,
              27.900725102032474
            ],
            [
              112.79497342399547,
              27.900937845002783
            ],
            [
              112.79552403736572,
              27.902828458369644
            ],
            [
              112.79776116581667,
              27.904454427907172
            ],
            [
              112.79825181664168,
              27.90485170704947
            ],
            [
              112.79966955309443,
              27.90627961072498
            ],
            [
              112.80012597092065,
              27.908126875181118
            ],
            [
              112.80172831206261,
              27.909786967188165
            ],
            [
              112.80187077318858,
              27.90993448897463
            ],
            [
              112.80236218219169,
              27.911091041504584
            ],
            [
              112.80239087528018,
              27.911099850511317
            ],
            [
              112.80310917985946,
              27.911320661283803
            ],
            [
              112.80373879556737,
              27.911514843855638
            ],
            [
              112.80383669486534,
              27.911543502185477
            ],
            [
              112.8038143681373,
              27.91183790809668
            ],
            [
              112.8037666316631,
              27.912512848137094
            ],
            [
              112.80398496359965,
              27.912818651259872
            ],
            [
              112.80399956481627,
              27.9128423797095
            ],
            [
              112.80463034833404,
              27.91389011273829
            ],
            [
              112.80464691686113,
              27.913917515444027
            ],
            [
              112.80582033670944,
              27.914363075749854
            ],
            [
              112.80675521342563,
              27.916058747007238
            ],
            [
              112.80791282472157,
              27.91554729279341
            ],
            [
              112.80776138493435,
              27.91492961432782
            ],
            [
              112.80794434211329,
              27.914302691764572
            ],
            [
              112.808157241039,
              27.913573166891812
            ],
            [
              112.80744559656925,
              27.91260928628343
            ],
            [
              112.8069996899302,
              27.911668605049513
            ],
            [
              112.80656187172197,
              27.911034093723476
            ],
            [
              112.80541900896637,
              27.909461207322792
            ],
            [
              112.80611351986873,
              27.908816321113736
            ],
            [
              112.80599448950029,
              27.908617226197528
            ],
            [
              112.8058987335826,
              27.908459194580125
            ],
            [
              112.8056880157664,
              27.908094381695136
            ],
            [
              112.80569656862622,
              27.906960276552255
            ],
            [
              112.80648119851789,
              27.904642887122204
            ],
            [
              112.80979257909799,
              27.90354845062535
            ],
            [
              112.8103304310013,
              27.903120908069493
            ],
            [
              112.81057784948842,
              27.90295433105418
            ]
          ]
        ]
      }
    }
  ]
}