{
  "type": "FeatureCollection",
  "features": [
    {
      "type": "Feature",
      "properties": {
        "name": "护潭学校",
        "isAssistFeature": false
      },
      "geometry": {
        "type": "Polygon",
        "coordinates": [
          [
            [
              112.92467697004216,
              27.88080724774176
            ],
            [
              112.92362191041906,
              27.877455908009214
            ],
            [
              112.92318824242744,
              27.87607884276704
            ],
            [
              112.92303094652289,
              27.87557974445627
            ],
            [
              112.91676384006173,
              27.877169814564464
            ],
            [
              112.91667224963201,
              27.877059274739246
            ],
            [
              112.91562082369424,
              27.877002371781824
            ],
            [
              112.91459085581363,
              27.876774761241254
            ],
            [
              112.91422607512958,
              27.876585084631373
            ],
            [
              112.91386463258513,
              27.87601441145364
            ],
            [
              112.91380324441356,
              27.875913424781974
            ],
            [
              112.91321756440789,
              27.874821078475236
            ],
            [
              112.91312615723446,
              27.874099472931324
            ],
            [
              112.91346390312003,
              27.873415798893557
            ],
            [
              112.91285143804754,
              27.873077934715294
            ],
            [
              112.91223120075118,
              27.872740451445466
            ],
            [
              112.91018760624334,
              27.871857056777515
            ],
            [
              112.90779241292996,
              27.87108792929832
            ],
            [
              112.90578693034637,
              27.870443255197394
            ],
            [
              112.90573591232642,
              27.87042685509373
            ],
            [
              112.90569140439736,
              27.870412547486264
            ],
            [
              112.90650913720725,
              27.873764919869004
            ],
            [
              112.9056771957445,
              27.873599089392222
            ],
            [
              112.90490822348826,
              27.87344581092045
            ],
            [
              112.90321552530344,
              27.87294990228388
            ],
            [
              112.90306870106015,
              27.87455841475022
            ],
            [
              112.90270016811314,
              27.875228892672638
            ],
            [
              112.90167020023257,
              27.875238377185603
            ],
            [
              112.9006451164922,
              27.874082328524473
            ],
            [
              112.9011442986175,
              27.87226514101061
            ],
            [
              112.90087192044017,
              27.872174598079464
            ],
            [
              112.9006502719236,
              27.872099347149277
            ],
            [
              112.90037458255618,
              27.872004319766052
            ],
            [
              112.8987151831223,
              27.871607387009135
            ],
            [
              112.89799030646842,
              27.873001012041847
            ],
            [
              112.89782679871365,
              27.873823539766107
            ],
            [
              112.89755088027582,
              27.875155872059132
            ],
            [
              112.89738934522144,
              27.87591266485046
            ],
            [
              112.8973842643502,
              27.875952610877494
            ],
            [
              112.89737141844164,
              27.876203191758428
            ],
            [
              112.89733347989223,
              27.877036242782477
            ],
            [
              112.8974664018082,
              27.8776404804381
            ],
            [
              112.89751709014642,
              27.877879314026163
            ],
            [
              112.89804147630362,
              27.87844536628249
            ],
            [
              112.89811094122793,
              27.87851898339801
            ],
            [
              112.89969690787888,
              27.88016741401823
            ],
            [
              112.89996892134018,
              27.880912400943732
            ],
            [
              112.9001409918362,
              27.881382765494553
            ],
            [
              112.90015161980433,
              27.881411659692755
            ],
            [
              112.90018113574963,
              27.881491897051767
            ],
            [
              112.90201235145632,
              27.881024680546894
            ],
            [
              112.90303277743196,
              27.880694448609855
            ],
            [
              112.90325624234202,
              27.880622130438148
            ],
            [
              112.90330208337097,
              27.88063034798151
            ],
            [
              112.90354025909213,
              27.880673042829912
            ],
            [
              112.90603431469752,
              27.881119341905606
            ],
            [
              112.90632468882488,
              27.88117217087201
            ],
            [
              112.90594806385383,
              27.88362180042887
            ],
            [
              112.90587407770869,
              27.884093026630254
            ],
            [
              112.90580354378922,
              27.884265390875424
            ],
            [
              112.90540562245772,
              27.885237788805025
            ],
            [
              112.90526312719577,
              27.88558600223853
            ],
            [
              112.90492472194678,
              27.88621955992139
            ],
            [
              112.90464371095959,
              27.88674566307738
            ],
            [
              112.90338027542826,
              27.889111008667676
            ],
            [
              112.90459581278867,
              27.89023854656226
            ],
            [
              112.90466344155648,
              27.890301279048074
            ],
            [
              112.90497135528982,
              27.890586899530625
            ],
            [
              112.9052915238402,
              27.89050525643877
            ],
            [
              112.91700599082806,
              27.88766448328249
            ],
            [
              112.92610883340106,
              27.885454085224634
            ],
            [
              112.92613768189811,
              27.885446947102725
            ],
            [
              112.9258243144927,
              27.884451605631085
            ],
            [
              112.92487767433789,
              27.88144476306955
            ],
            [
              112.92467697004216,
              27.88080724774176
            ]
          ]
        ]
      }
    }
  ]
}