{
  "type": "FeatureCollection",
  "features": [
    {
      "type": "Feature",
      "properties": {
        "name": "昭山和平小学",
        "isAssistFeature": false
      },
      "geometry": {
        "type": "Polygon",
        "coordinates": [
          [
            [
              113.07117296444338,
              27.978776003558664
            ],
            [
              113.06941896432527,
              27.977164003506687
            ],
            [
              113.06788196394213,
              27.975163003097308
            ],
            [
              113.0676479644887,
              27.974592002807267
            ],
            [
              113.0677259643065,
              27.973579003045895
            ],
            [
              113.06897596463448,
              27.972077003195825
            ],
            [
              113.07120796460349,
              27.97183700351539
            ],
            [
              113.0728579640662,
              27.97203500293326
            ],
            [
              113.07361131461968,
              27.97182620254137
            ],
            [
              113.07373535668907,
              27.971791822527685
            ],
            [
              113.07439496444937,
              27.971609003086403
            ],
            [
              113.07484596453608,
              27.971113003439775
            ],
            [
              113.07495996433887,
              27.96914000306444
            ],
            [
              113.07548896424338,
              27.968190003574403
            ],
            [
              113.07646996405954,
              27.96741700293878
            ],
            [
              113.07767696383148,
              27.96704200337097
            ],
            [
              113.07952696420907,
              27.966964003424085
            ],
            [
              113.0818720144616,
              27.96769363514588
            ],
            [
              113.08222624622928,
              27.96779325715916
            ],
            [
              113.0842069640571,
              27.968292002944988
            ],
            [
              113.08510196365951,
              27.96825100327178
            ],
            [
              113.0854229640499,
              27.96775000323976
            ],
            [
              113.08537896366897,
              27.967072002908317
            ],
            [
              113.08503996373523,
              27.965542003175685
            ],
            [
              113.08387905113064,
              27.962148771322177
            ],
            [
              113.08369771271582,
              27.961614230908754
            ],
            [
              113.08257705092416,
              27.95826789515679
            ],
            [
              113.08213196444694,
              27.956568003091817
            ],
            [
              113.0818759751337,
              27.955824149018387
            ],
            [
              113.0814099641986,
              27.954470003401394
            ],
            [
              113.08082896441553,
              27.953248003008397
            ],
            [
              113.08008241141383,
              27.952738497498046
            ],
            [
              113.07924796454981,
              27.952169002880773
            ],
            [
              113.07689496420696,
              27.949360003068772
            ],
            [
              113.0765713847534,
              27.949227063988193
            ],
            [
              113.07632296464475,
              27.949125002956514
            ],
            [
              113.0753069637702,
              27.949051002994295
            ],
            [
              113.0745507197432,
              27.949314588100194
            ],
            [
              113.07403596442417,
              27.94949400294434
            ],
            [
              113.06337596417134,
              27.941737003271392
            ],
            [
              113.06174815309612,
              27.938377727379336
            ],
            [
              113.06097438922616,
              27.936780892585364
            ],
            [
              113.0593899640842,
              27.93351100348559
            ],
            [
              113.05865266372992,
              27.930924263060376
            ],
            [
              113.05851590421108,
              27.930409254448087
            ],
            [
              113.05682691427178,
              27.924048640101223
            ],
            [
              113.05673472017416,
              27.923701433854657
            ],
            [
              113.0558389650886,
              27.91885500278435
            ],
            [
              113.05572017007877,
              27.91702169117423
            ],
            [
              113.05552696581736,
              27.914040003175703
            ],
            [
              113.05201577656189,
              27.909128274193687
            ],
            [
              113.05177698369812,
              27.90882097537108
            ],
            [
              113.05159086983923,
              27.908573640571333
            ],
            [
              113.04969241792848,
              27.906095544381774
            ],
            [
              113.04763496600908,
              27.903553003493442
            ],
            [
              113.04625551305881,
              27.900949342164825
            ],
            [
              113.04255440737582,
              27.893963343900676
            ],
            [
              113.04213853231505,
              27.89317833244254
            ],
            [
              113.04181815176223,
              27.892573575699068
            ],
            [
              113.03987472479844,
              27.89139268398483
            ],
            [
              113.03835642284795,
              27.89150003809282
            ],
            [
              113.03774910152877,
              27.89327136907657
            ],
            [
              113.03483396243058,
              27.896169848667235
            ],
            [
              113.03015759177627,
              27.89665292118499
            ],
            [
              113.02627073874706,
              27.895525748622916
            ],
            [
              113.01971167353038,
              27.896974968332284
            ],
            [
              113.01011600531102,
              27.906421254843597
            ],
            [
              113.00511964037945,
              27.909294021674555
            ],
            [
              113.00481216053242,
              27.90863889794394
            ],
            [
              113.00240279988867,
              27.903519209061404
            ],
            [
              112.99831345671295,
              27.900851833775388
            ],
            [
              112.99065649840381,
              27.896834582125123
            ],
            [
              112.98560850819118,
              27.89292713186088
            ],
            [
              112.98027069631506,
              27.889903805161996
            ],
            [
              112.97873940921713,
              27.889495637325837
            ],
            [
              112.97528066630284,
              27.887020597029174
            ],
            [
              112.97410928652856,
              27.886190632069987
            ],
            [
              112.97395054253977,
              27.8860828272618
            ],
            [
              112.97307696146868,
              27.885495677678175
            ],
            [
              112.96755790011095,
              27.887451020272763
            ],
            [
              112.96474184339198,
              27.888300472692148
            ],
            [
              112.96452817101681,
              27.888358108119796
            ],
            [
              112.9604084953272,
              27.889469333651142
            ],
            [
              112.96034968891377,
              27.889485195730824
            ],
            [
              112.96043016987839,
              27.890072376875676
            ],
            [
              112.96180688835695,
              27.89767062230867
            ],
            [
              112.96521459079342,
              27.90934023618093
            ],
            [
              112.96633925278302,
              27.91112405801061
            ],
            [
              112.96913791182988,
              27.915562872431728
            ],
            [
              112.96936772872733,
              27.91592736483929
            ],
            [
              112.96976119351672,
              27.91640230735955
            ],
            [
              112.97136348974294,
              27.918336384567713
            ],
            [
              112.97275887970466,
              27.920020683331316
            ],
            [
              112.97944818356954,
              27.928094612862754
            ],
            [
              112.99158778365548,
              27.933580045822037
            ],
            [
              112.99399444845507,
              27.9347106289369
            ],
            [
              112.99559096132748,
              27.93546061962531
            ],
            [
              112.99751720890974,
              27.93636550178892
            ],
            [
              112.99836992930328,
              27.937390548830283
            ],
            [
              112.99928552547853,
              27.938491168726568
            ],
            [
              113.00176406717895,
              27.94182044168712
            ],
            [
              113.00279198240912,
              27.942149983913303
            ],
            [
              113.00375817170115,
              27.943380958328838
            ],
            [
              113.00472628069298,
              27.94341307140043
            ],
            [
              113.00955251818445,
              27.943573160467047
            ],
            [
              113.01190337963858,
              27.943651139223427
            ],
            [
              113.01196299902738,
              27.94371238133852
            ],
            [
              113.01324057763455,
              27.94502473520725
            ],
            [
              113.01485096768145,
              27.946146538421534
            ],
            [
              113.02137128945824,
              27.946866424735642
            ],
            [
              113.0224831818961,
              27.948155589354197
            ],
            [
              113.0232476077787,
              27.949506125804827
            ],
            [
              113.02713923086206,
              27.950120000858984
            ],
            [
              113.02807631563722,
              27.950351008934792
            ],
            [
              113.0301274416204,
              27.95085664536524
            ],
            [
              113.03242071926819,
              27.950672485106562
            ],
            [
              113.03351902289076,
              27.949618303265336
            ],
            [
              113.03318044965678,
              27.955704859596587
            ],
            [
              113.03049705254571,
              27.958865177384403
            ],
            [
              113.03273321710437,
              27.962683770870193
            ],
            [
              113.03124244043252,
              27.96531720517775
            ],
            [
              113.02766457642,
              27.967555574210355
            ],
            [
              113.02915535309187,
              27.97005722498944
            ],
            [
              113.02617379974811,
              27.972295495693647
            ],
            [
              113.02349040173874,
              27.974007082434866
            ],
            [
              113.0237885570731,
              27.97861506627545
            ],
            [
              113.0249819662331,
              27.978170003406508
            ],
            [
              113.02834196543304,
              27.978363002775886
            ],
            [
              113.02960896547944,
              27.979354003351062
            ],
            [
              113.02974867506569,
              27.979669311584686
            ],
            [
              113.03017396536897,
              27.980645002804778
            ],
            [
              113.0301559658256,
              27.982762003054315
            ],
            [
              113.0300235047454,
              27.983136371256144
            ],
            [
              113.029591965761,
              27.984356003196474
            ],
            [
              113.02947173524338,
              27.984488753043113
            ],
            [
              113.02888881126897,
              27.985327235861003
            ],
            [
              113.02763896545125,
              27.987125003444053
            ],
            [
              113.02572656719573,
              27.991779650696802
            ],
            [
              113.02432296573394,
              27.995180003045416
            ],
            [
              113.0244529663286,
              27.99657200275136
            ],
            [
              113.02476496559983,
              27.997463002702446
            ],
            [
              113.02513796586872,
              27.997973002938146
            ],
            [
              113.02737262844424,
              27.999803441153194
            ],
            [
              113.0274329997229,
              27.999855429256254
            ],
            [
              113.02760396618946,
              27.999990003332726
            ],
            [
              113.02794636355158,
              28.000401637934942
            ],
            [
              113.02987896581617,
              28.00272500276954
            ],
            [
              113.03152132331078,
              28.004168655476544
            ],
            [
              113.03177996534906,
              28.004396003313186
            ],
            [
              113.03204147570806,
              28.004825955866135
            ],
            [
              113.0331597389979,
              28.00666492501292
            ],
            [
              113.03403696543243,
              28.008113002799508
            ],
            [
              113.0359219659701,
              28.009394003474167
            ],
            [
              113.04192096574313,
              28.0107540033235
            ],
            [
              113.04268141388565,
              28.010870705886866
            ],
            [
              113.05132760866375,
              28.012198153551815
            ],
            [
              113.0623949643552,
              28.013896003019678
            ],
            [
              113.06589396437059,
              28.0140520031593
            ],
            [
              113.06851596432695,
              28.013048002781474
            ],
            [
              113.0699839642148,
              28.01175800288008
            ],
            [
              113.07054764088589,
              28.01031509745204
            ],
            [
              113.07089496460905,
              28.009426003313337
            ],
            [
              113.07438596422853,
              28.005458003109656
            ],
            [
              113.07826002794302,
              28.002210486625202
            ],
            [
              113.07847637729775,
              28.00203424479717
            ],
            [
              113.08111596447071,
              28.000002003131254
            ],
            [
              113.08190596449114,
              27.998448003428667
            ],
            [
              113.08220096404393,
              27.99687500349455
            ],
            [
              113.08306096438454,
              27.995308003367793
            ],
            [
              113.08509296433702,
              27.993030002920012
            ],
            [
              113.0851709641548,
              27.99212900343805
            ],
            [
              113.08444996373134,
              27.990534002925145
            ],
            [
              113.08097596383033,
              27.9864070031227
            ],
            [
              113.0790963684557,
              27.984539328563294
            ],
            [
              113.0784939645144,
              27.983878003076303
            ],
            [
              113.07618940672154,
              27.98216215034259
            ],
            [
              113.07359363936813,
              27.980480863342397
            ],
            [
              113.07314336242526,
              27.98016373921201
            ],
            [
              113.07117296444338,
              27.978776003558664
            ]
          ]
        ]
      }
    }
  ]
}