{
  "type": "FeatureCollection",
  "features": [
    {
      "type": "Feature",
      "properties": {
        "name": "梅花学校",
        "isAssistFeature": false
      },
      "geometry": {
        "type": "Polygon",
        "coordinates": [
          [
            [
              112.82922083271815,
              27.85665835605966
            ],
            [
              112.82874067691058,
              27.85492166871094
            ],
            [
              112.82763034125313,
              27.85491901915749
            ],
            [
              112.82753957727341,
              27.855135684271456
            ],
            [
              112.82737695974912,
              27.855580079149338
            ],
            [
              112.82634240596903,
              27.855619001767096
            ],
            [
              112.82651850001923,
              27.850987130416218
            ],
            [
              112.82695444524008,
              27.850955009764476
            ],
            [
              112.82731092459258,
              27.85092874438732
            ],
            [
              112.82731344346865,
              27.85089820588445
            ],
            [
              112.82733371305471,
              27.849846958607753
            ],
            [
              112.82810334826766,
              27.849780475988464
            ],
            [
              112.82849491581516,
              27.84683455520917
            ],
            [
              112.82839697699131,
              27.845623816362217
            ],
            [
              112.829563061197,
              27.845568658654763
            ],
            [
              112.82957386253997,
              27.845509272068384
            ],
            [
              112.829831854198,
              27.844090754144407
            ],
            [
              112.82702188536175,
              27.8439850250812
            ],
            [
              112.82598492140171,
              27.842857920872717
            ],
            [
              112.82355338584517,
              27.842803632332814
            ],
            [
              112.82076937921892,
              27.839131021725827
            ],
            [
              112.8194233983944,
              27.839803099357237
            ],
            [
              112.81830080612319,
              27.839973061269102
            ],
            [
              112.81572831591542,
              27.840024760089353
            ],
            [
              112.80824890333396,
              27.83872486614802
            ],
            [
              112.80871447678955,
              27.842421205790863
            ],
            [
              112.81264347248366,
              27.842360917513698
            ],
            [
              112.81234428318841,
              27.844064321888265
            ],
            [
              112.81241305640992,
              27.846891361217757
            ],
            [
              112.81239600638581,
              27.84767034112969
            ],
            [
              112.81239220381724,
              27.847913462377964
            ],
            [
              112.81237901834548,
              27.84926583894661
            ],
            [
              112.80838110120781,
              27.84903201373374
            ],
            [
              112.8087262599911,
              27.858352973533552
            ],
            [
              112.80913830912709,
              27.861067652294693
            ],
            [
              112.81265029339163,
              27.861975972078486
            ],
            [
              112.81681760135083,
              27.86305377081183
            ],
            [
              112.81839429289649,
              27.86308818859187
            ],
            [
              112.81964007293925,
              27.863673280444686
            ],
            [
              112.82246254542599,
              27.865290872808977
            ],
            [
              112.82343507233236,
              27.86587246089087
            ],
            [
              112.82375271841344,
              27.866060463924583
            ],
            [
              112.82564095737771,
              27.866898052052047
            ],
            [
              112.82585129520656,
              27.866991171619247
            ],
            [
              112.82679977241614,
              27.867409520162802
            ],
            [
              112.82709370297376,
              27.867539164888704
            ],
            [
              112.82792552765548,
              27.867656999843927
            ],
            [
              112.82930942277483,
              27.868024384620945
            ],
            [
              112.82971144132237,
              27.868131109116458
            ],
            [
              112.83725839194182,
              27.869350213669872
            ],
            [
              112.83737038131504,
              27.866736655095348
            ],
            [
              112.83712125962214,
              27.86637282611238
            ],
            [
              112.83678022590261,
              27.865832820866036
            ],
            [
              112.83656372473261,
              27.865662456347714
            ],
            [
              112.83474500459155,
              27.864231300115666
            ],
            [
              112.83449605357853,
              27.864114782923163
            ],
            [
              112.83398459238163,
              27.863875403578046
            ],
            [
              112.83335852501911,
              27.863789813200984
            ],
            [
              112.83289551445705,
              27.863726515002007
            ],
            [
              112.83181518073341,
              27.86357882223724
            ],
            [
              112.83074165713798,
              27.863262467647793
            ],
            [
              112.83052766226761,
              27.86239536288076
            ],
            [
              112.83047327646368,
              27.862174991554827
            ],
            [
              112.83052494755881,
              27.861080404532384
            ],
            [
              112.83058289697951,
              27.859919442829188
            ],
            [
              112.8311442281494,
              27.859406822727863
            ],
            [
              112.83065219661376,
              27.85802271140734
            ],
            [
              112.83062004501146,
              27.857991264739994
            ],
            [
              112.82922083271815,
              27.85665835605966
            ]
          ]
        ]
      }
    }
  ]
}