{
  "type": "FeatureCollection",
  "features": [
    {
      "type": "Feature",
      "properties": {
        "name": "清联学校",
        "isAssistFeature": false
      },
      "geometry": {
        "type": "Polygon",
        "coordinates": [
          [
            [
              112.74655395709358,
              27.894085496156084
            ],
            [
              112.7479278350992,
              27.89189981892243
            ],
            [
              112.7483586392617,
              27.89130686604441
            ],
            [
              112.74848062329076,
              27.891139146589733
            ],
            [
              112.74908991102208,
              27.890299969789357
            ],
            [
              112.74972023999236,
              27.88917190771404
            ],
            [
              112.74973172405495,
              27.88915132379098
            ],
            [
              112.7502433819829,
              27.888234235978658
            ],
            [
              112.7511439412586,
              27.886812851909816
            ],
            [
              112.75193482611958,
              27.885564553755152
            ],
            [
              112.75277287163463,
              27.88583391123955
            ],
            [
              112.75432083954911,
              27.8863337094509
            ],
            [
              112.75543574044485,
              27.88669285032797
            ],
            [
              112.75686546401677,
              27.887154305767872
            ],
            [
              112.75760902922183,
              27.887399533041098
            ],
            [
              112.75917929062665,
              27.88637068286779
            ],
            [
              112.76134792702881,
              27.88450946066734
            ],
            [
              112.76248191712433,
              27.884649793779616
            ],
            [
              112.76370778241555,
              27.884535066815012
            ],
            [
              112.76496332624711,
              27.884809050389975
            ],
            [
              112.76569801160561,
              27.883923187882274
            ],
            [
              112.76745646377427,
              27.883019016653336
            ],
            [
              112.76787470050594,
              27.883732880635606
            ],
            [
              112.7684948443775,
              27.883070006526694
            ],
            [
              112.76947553696981,
              27.882751315652744
            ],
            [
              112.76974955367417,
              27.881400056436696
            ],
            [
              112.77067255825558,
              27.88136181245168
            ],
            [
              112.77135955385226,
              27.88039909643314
            ],
            [
              112.77305069256172,
              27.879641299547405
            ],
            [
              112.77308749474228,
              27.879639078590976
            ],
            [
              112.77350478914123,
              27.878639484765003
            ],
            [
              112.77367570350549,
              27.878561523443448
            ],
            [
              112.77452181589182,
              27.878180503064442
            ],
            [
              112.77447499839414,
              27.877752351314374
            ],
            [
              112.77440783675026,
              27.87718082510528
            ],
            [
              112.77506609883427,
              27.876590650281102
            ],
            [
              112.77509117889868,
              27.876567831830037
            ],
            [
              112.77536874125347,
              27.875936484770172
            ],
            [
              112.77578624226493,
              27.875589827674233
            ],
            [
              112.77709171446001,
              27.875368970999332
            ],
            [
              112.77761530560821,
              27.875081703946634
            ],
            [
              112.77788577576382,
              27.874193275579064
            ],
            [
              112.77788899263085,
              27.87417098072215
            ],
            [
              112.7772417367057,
              27.87371003614764
            ],
            [
              112.77720330048966,
              27.873681041427314
            ],
            [
              112.7764285691341,
              27.873068790681053
            ],
            [
              112.77559042480436,
              27.87171304069485
            ],
            [
              112.77426737168084,
              27.871131379137793
            ],
            [
              112.77380695455504,
              27.870692677502156
            ],
            [
              112.77335971212115,
              27.86978006787198
            ],
            [
              112.7721803651886,
              27.868430534490496
            ],
            [
              112.77209917994479,
              27.868353847551262
            ],
            [
              112.77177791724635,
              27.867729817447778
            ],
            [
              112.77154553835372,
              27.867267474783503
            ],
            [
              112.77153180401135,
              27.867245328593917
            ],
            [
              112.77070488952094,
              27.865049544819236
            ],
            [
              112.7705097907126,
              27.864532982944613
            ],
            [
              112.77055156237334,
              27.863979053978955
            ],
            [
              112.7706176586153,
              27.86302260276984
            ],
            [
              112.77062449209966,
              27.86289313371194
            ],
            [
              112.7712120091601,
              27.86278801702329
            ],
            [
              112.7733756024202,
              27.86265378740637
            ],
            [
              112.77341356073256,
              27.861814850519647
            ],
            [
              112.7724646155007,
              27.861244369568716
            ],
            [
              112.77230710489876,
              27.8602399830361
            ],
            [
              112.77162954520583,
              27.858861740386338
            ],
            [
              112.77185729148657,
              27.858173788710367
            ],
            [
              112.77147771375314,
              27.85743549392084
            ],
            [
              112.7716170586234,
              27.856131544473573
            ],
            [
              112.7667710258563,
              27.85504580847782
            ],
            [
              112.76588543430987,
              27.856047646029182
            ],
            [
              112.7636269466164,
              27.85502407993861
            ],
            [
              112.76230282359941,
              27.854815440310407
            ],
            [
              112.76222265255355,
              27.8548398899277
            ],
            [
              112.76062828216313,
              27.85532611640955
            ],
            [
              112.75892305786996,
              27.85526463125628
            ],
            [
              112.75799309224345,
              27.85561700746676
            ],
            [
              112.75698721089059,
              27.854207497341555
            ],
            [
              112.76074503081068,
              27.853234254600224
            ],
            [
              112.76102971411075,
              27.85175759271781
            ],
            [
              112.76268087779007,
              27.849861395218596
            ],
            [
              112.76304669243503,
              27.8497649289796
            ],
            [
              112.76399042115004,
              27.849475439200916
            ],
            [
              112.76583137279773,
              27.848502153986697
            ],
            [
              112.76543281635732,
              27.847780574156268
            ],
            [
              112.76649555118621,
              27.847387624195143
            ],
            [
              112.76752049389108,
              27.847008645936278
            ],
            [
              112.76518609136961,
              27.84519627310015
            ],
            [
              112.76408531558339,
              27.843266397060244
            ],
            [
              112.76353492769024,
              27.841923854899225
            ],
            [
              112.76164273254545,
              27.839246775393878
            ],
            [
              112.76004850588546,
              27.83711540251778
            ],
            [
              112.75852339650174,
              27.834566350594667
            ],
            [
              112.75757071427833,
              27.83342788570062
            ],
            [
              112.75603061380914,
              27.83158742631966
            ],
            [
              112.75392739631926,
              27.83037155859954
            ],
            [
              112.75014897353812,
              27.828259002148165
            ],
            [
              112.74698597308338,
              27.824423002154642
            ],
            [
              112.74621644207502,
              27.826202369778986
            ],
            [
              112.74545574330256,
              27.827971474415605
            ],
            [
              112.739986974126,
              27.833726001646426
            ],
            [
              112.73835797457966,
              27.836699001630507
            ],
            [
              112.73833097481547,
              27.83991300199014
            ],
            [
              112.73892556880371,
              27.841065621357433
            ],
            [
              112.73979397468047,
              27.84274900220824
            ],
            [
              112.74076333951702,
              27.84320864629951
            ],
            [
              112.74231851281836,
              27.843946060954917
            ],
            [
              112.74381997315392,
              27.844658001978356
            ],
            [
              112.74520530737438,
              27.84622827522813
            ],
            [
              112.74602497335874,
              27.84715100221766
            ],
            [
              112.745544973858,
              27.84849400231473
            ],
            [
              112.74223539350176,
              27.84976417839596
            ],
            [
              112.74130055541312,
              27.850122954408214
            ],
            [
              112.74062324814676,
              27.850382894257148
            ],
            [
              112.73482244187828,
              27.852609123985886
            ],
            [
              112.73410960893739,
              27.85288269110127
            ],
            [
              112.73353887869467,
              27.85310172236614
            ],
            [
              112.73179313409402,
              27.853771691298945
            ],
            [
              112.7295409741334,
              27.85463600183963
            ],
            [
              112.72917804936871,
              27.85667705433055
            ],
            [
              112.72868622354729,
              27.859442965868816
            ],
            [
              112.72831648146793,
              27.861857521810208
            ],
            [
              112.72838680607994,
              27.861896379433865
            ],
            [
              112.73117109477722,
              27.863434822153764
            ],
            [
              112.73253854623532,
              27.86419039121263
            ],
            [
              112.73380964529434,
              27.86489271707481
            ],
            [
              112.73552625932697,
              27.865423867427438
            ],
            [
              112.7376720264186,
              27.8670173028655
            ],
            [
              112.74230688233038,
              27.868610714873217
            ],
            [
              112.74310752199703,
              27.869028124064606
            ],
            [
              112.74548572008356,
              27.87026977545493
            ],
            [
              112.74565427906516,
              27.870355853066847
            ],
            [
              112.74628116748785,
              27.871926001880112
            ],
            [
              112.74668424784406,
              27.872935571980733
            ],
            [
              112.74599760169203,
              27.875591100583176
            ],
            [
              112.74342268154142,
              27.876273940613796
            ],
            [
              112.74287756226745,
              27.87727472751942
            ],
            [
              112.74271917760474,
              27.87756550566893
            ],
            [
              112.74230688233038,
              27.87832243329045
            ],
            [
              112.74167179318744,
              27.878143941350704
            ],
            [
              112.73741453422387,
              27.87695677554591
            ],
            [
              112.7379844775424,
              27.878846022719472
            ],
            [
              112.73810117947758,
              27.879232862750204
            ],
            [
              112.73825369993811,
              27.87989355368774
            ],
            [
              112.73813786397886,
              27.88065677529188
            ],
            [
              112.73805733630181,
              27.881165114253758
            ],
            [
              112.73815153723578,
              27.88232243558395
            ],
            [
              112.73808430193002,
              27.883141921287717
            ],
            [
              112.73808166267972,
              27.883210803626014
            ],
            [
              112.73804836662373,
              27.883590300050997
            ],
            [
              112.73803297488963,
              27.883766936125937
            ],
            [
              112.738011985753,
              27.88400961909883
            ],
            [
              112.73724287246125,
              27.885378058246815
            ],
            [
              112.7343246296838,
              27.886136700301233
            ],
            [
              112.73372381486223,
              27.888033281785166
            ],
            [
              112.73398111032587,
              27.889265362248402
            ],
            [
              112.73346632266748,
              27.89084016112449
            ],
            [
              112.73380964529434,
              27.892433222686872
            ],
            [
              112.7348954066389,
              27.89289656787817
            ],
            [
              112.73616155328578,
              27.89276092501572
            ],
            [
              112.73808504214182,
              27.892554861392405
            ],
            [
              112.73817745093677,
              27.892544961569705
            ],
            [
              112.73838263423251,
              27.892522980133208
            ],
            [
              112.73972343447275,
              27.892379339283373
            ],
            [
              112.74229410199884,
              27.892103941771275
            ],
            [
              112.74298503491138,
              27.892425345852327
            ],
            [
              112.74307954127254,
              27.892469307172547
            ],
            [
              112.74379752605158,
              27.892803292736108
            ],
            [
              112.74574046523016,
              27.89370708770274
            ],
            [
              112.74655395709358,
              27.894085496156084
            ]
          ]
        ]
      }
    }
  ]
}