{
  "type": "FeatureCollection",
  "features": [
    {
      "type": "Feature",
      "geometry": {
        "type": "Polygon",
        "coordinates": [
          [
            [
              112.8722821031735,
              27.919509315326195
            ],
            [
              112.87277737223742,
              27.918881988300896
            ],
            [
              112.87372204508173,
              27.919186919328325
            ],
            [
              112.88717769682187,
              27.90442942981089
            ],
            [
              112.88738995704543,
              27.904191123174485
            ],
            [
              112.88745828021095,
              27.904118056201966
            ],
            [
              112.8880358241751,
              27.90357513431958
            ],
            [
              112.88860727576501,
              27.90301523580763
            ],
            [
              112.88926711888391,
              27.90237134877826
            ],
            [
              112.89103222487387,
              27.903492303068475
            ],
            [
              112.89353991331203,
              27.900339824174253
            ],
            [
              112.89423703561692,
              27.90000961622063
            ],
            [
              112.89558948251482,
              27.89936533023176
            ],
            [
              112.89579470803136,
              27.89988929821149
            ],
            [
              112.89908758601156,
              27.89884496485419
            ],
            [
              112.89950569518244,
              27.897503293795438
            ],
            [
              112.90129564587822,
              27.896652217767695
            ],
            [
              112.90123514524215,
              27.896633383489586
            ],
            [
              112.89393657969708,
              27.894361232403398
            ],
            [
              112.89578127552289,
              27.89263606070594
            ],
            [
              112.88995422048181,
              27.891049904867742
            ],
            [
              112.88644607561683,
              27.889195361868858
            ],
            [
              112.88775603399841,
              27.886963741387376
            ],
            [
              112.88849236866378,
              27.885709316047993
            ],
            [
              112.88871762930611,
              27.885325557669418
            ],
            [
              112.88931172023779,
              27.885061914202694
            ],
            [
              112.89250099461792,
              27.883646576241404
            ],
            [
              112.89359724828502,
              27.883068314460857
            ],
            [
              112.89288793224847,
              27.883036546335674
            ],
            [
              112.88911226100704,
              27.882649923956222
            ],
            [
              112.8879343432941,
              27.882515562522173
            ],
            [
              112.88647679350795,
              27.88237085789403
            ],
            [
              112.88498233963477,
              27.88310699351905
            ],
            [
              112.88470785048192,
              27.88324457673704
            ],
            [
              112.88409079792135,
              27.883621171642147
            ],
            [
              112.88316797671966,
              27.88416534169012
            ],
            [
              112.88291345435528,
              27.886018074770732
            ],
            [
              112.88216419113635,
              27.886104654381526
            ],
            [
              112.88184002687957,
              27.886688558769904
            ],
            [
              112.88102740278869,
              27.886433084114955
            ],
            [
              112.88085466125113,
              27.886378887270936
            ],
            [
              112.88038967349719,
              27.886877515791966
            ],
            [
              112.87706119618056,
              27.890465651628972
            ],
            [
              112.87638899224333,
              27.891195436323798
            ],
            [
              112.8751551032,
              27.890828667652343
            ],
            [
              112.87181793019145,
              27.88983669923317
            ],
            [
              112.87064605275049,
              27.891339559092643
            ],
            [
              112.87011755949581,
              27.89125832466611
            ],
            [
              112.86848870367993,
              27.89036108253903
            ],
            [
              112.8669925523877,
              27.889532062612844
            ],
            [
              112.86468959898599,
              27.888222356352358
            ],
            [
              112.864512365872,
              27.887865542173117
            ],
            [
              112.86469860280006,
              27.88711575892114
            ],
            [
              112.86486771873714,
              27.886434896816212
            ],
            [
              112.86725259130625,
              27.886889652820642
            ],
            [
              112.86849587672748,
              27.88352824097666
            ],
            [
              112.86154897197171,
              27.88139691919808
            ],
            [
              112.86098628434574,
              27.881014111882777
            ],
            [
              112.86055768644559,
              27.88072252671698
            ],
            [
              112.86035911205539,
              27.880597381725153
            ],
            [
              112.86008032260195,
              27.879962303104165
            ],
            [
              112.85894047998231,
              27.877661826468525
            ],
            [
              112.85836080701092,
              27.87655938369754
            ],
            [
              112.85944426327846,
              27.875965511443923
            ],
            [
              112.86182307760933,
              27.874647076881402
            ],
            [
              112.86213889202554,
              27.8735816161513
            ],
            [
              112.86206959508618,
              27.8735813985696
            ],
            [
              112.8618565263789,
              27.873580691826007
            ],
            [
              112.85835362318362,
              27.873837442730263
            ],
            [
              112.85722802335283,
              27.87391994568452
            ],
            [
              112.85569910601062,
              27.8736946903
            ],
            [
              112.85444943626266,
              27.873390902420454
            ],
            [
              112.85400030916331,
              27.87328172140799
            ],
            [
              112.85281115172954,
              27.873431892024087
            ],
            [
              112.85247139271942,
              27.874483081302586
            ],
            [
              112.85111235488228,
              27.874483081302586
            ],
            [
              112.85026295645866,
              27.87328172140799
            ],
            [
              112.84139005654721,
              27.872844156894757
            ],
            [
              112.84138954181255,
              27.87290477683105
            ],
            [
              112.84138046253999,
              27.873973454727974
            ],
            [
              112.84106193790655,
              27.87511849459571
            ],
            [
              112.84315074731757,
              27.875579671400956
            ],
            [
              112.84318181914492,
              27.875563777903437
            ],
            [
              112.84375877830581,
              27.875268662665704
            ],
            [
              112.84495611939185,
              27.876874231230715
            ],
            [
              112.84505411121629,
              27.878647392776656
            ],
            [
              112.84587533128607,
              27.878473466412274
            ],
            [
              112.84590194477468,
              27.878467830188086
            ],
            [
              112.84766601141388,
              27.88255157170458
            ],
            [
              112.84718369875132,
              27.88329390528
            ],
            [
              112.84781465564396,
              27.883658982011028
            ],
            [
              112.84763913292225,
              27.8864969550187
            ],
            [
              112.84722843395417,
              27.88719501623484
            ],
            [
              112.84706200218315,
              27.88825742117524
            ],
            [
              112.84654609612222,
              27.889547785737392
            ],
            [
              112.84736307883882,
              27.890307009138922
            ],
            [
              112.84763655745233,
              27.89312119421234
            ],
            [
              112.84766036819727,
              27.893366216627953
            ],
            [
              112.84853050512753,
              27.89386128149873
            ],
            [
              112.84909577091841,
              27.893602487604298
            ],
            [
              112.84976714301568,
              27.89368008479056
            ],
            [
              112.850379467951,
              27.892982353594192
            ],
            [
              112.85039693030181,
              27.892953161575903
            ],
            [
              112.85048665582899,
              27.891647203710377
            ],
            [
              112.85050631276405,
              27.891619854911013
            ],
            [
              112.8508436633909,
              27.891150908389122
            ],
            [
              112.85086737532113,
              27.89107664563342
            ],
            [
              112.85093510110704,
              27.890868165143758
            ],
            [
              112.85093510110704,
              27.890216873512543
            ],
            [
              112.85093510110704,
              27.8899661138598
            ],
            [
              112.85095775931346,
              27.890003554480643
            ],
            [
              112.85166189207084,
              27.89103900768623
            ],
            [
              112.85262836972208,
              27.89172920719318
            ],
            [
              112.85278300661338,
              27.892050387696614
            ],
            [
              112.85311184121137,
              27.892512275237138
            ],
            [
              112.85314548940693,
              27.89255956954419
            ],
            [
              112.85371329204014,
              27.89249328938719
            ],
            [
              112.8542703885518,
              27.892779471762665
            ],
            [
              112.8548494030581,
              27.892924968341504
            ],
            [
              112.85517989864098,
              27.8929279194613
            ],
            [
              112.8554113873032,
              27.892929986118446
            ],
            [
              112.8554355564759,
              27.892948460586837
            ],
            [
              112.85553889956452,
              27.893027454802322
            ],
            [
              112.85562142150145,
              27.893090533422452
            ],
            [
              112.85596201863974,
              27.89367753463428
            ],
            [
              112.85598821171682,
              27.893806114996067
            ],
            [
              112.85599717061511,
              27.893836770819604
            ],
            [
              112.85624853360468,
              27.89509864596758
            ],
            [
              112.85604869618317,
              27.895437822889704
            ],
            [
              112.85602412726017,
              27.895469672326954
            ],
            [
              112.85585957027317,
              27.8957466388174
            ],
            [
              112.85575055971346,
              27.89576401241635
            ],
            [
              112.85555036476248,
              27.895797877548418
            ],
            [
              112.85531333708822,
              27.895910436263435
            ],
            [
              112.85490076692938,
              27.896104624264424
            ],
            [
              112.8545625134957,
              27.8969457194345
            ],
            [
              112.85451229587467,
              27.897367348665384
            ],
            [
              112.8544351036423,
              27.898015447813236
            ],
            [
              112.85443470119706,
              27.899230942702218
            ],
            [
              112.85443623012964,
              27.89925365475743
            ],
            [
              112.85482060217177,
              27.90006469540789
            ],
            [
              112.854724002736,
              27.900968503569587
            ],
            [
              112.85465018277922,
              27.901772837311086
            ],
            [
              112.85464745279904,
              27.90180633061152
            ],
            [
              112.85695244537649,
              27.90548720012694
            ],
            [
              112.85785393171356,
              27.90692675944406
            ],
            [
              112.85816924756482,
              27.908120355368567
            ],
            [
              112.85789640226358,
              27.909309955468856
            ],
            [
              112.85829986620035,
              27.909779082090793
            ],
            [
              112.85853345063212,
              27.9117869214559
            ],
            [
              112.86033094537969,
              27.912796799363065
            ],
            [
              112.8602676006774,
              27.913701725199417
            ],
            [
              112.86038373218238,
              27.91422415284343
            ],
            [
              112.86127055442077,
              27.914718591237133
            ],
            [
              112.86131282823969,
              27.91548652289528
            ],
            [
              112.8618342849908,
              27.916064607502022
            ],
            [
              112.86220941247029,
              27.915988745702506
            ],
            [
              112.86257090711705,
              27.91649983030871
            ],
            [
              112.86357394081047,
              27.91687798759341
            ],
            [
              112.86391231461842,
              27.91700263739125
            ],
            [
              112.8658605044498,
              27.917713648254377
            ],
            [
              112.86643889552528,
              27.918576088815442
            ],
            [
              112.86763182588324,
              27.91838443595188
            ],
            [
              112.86900550446286,
              27.91972599965679
            ],
            [
              112.86965619374902,
              27.919885708683026
            ],
            [
              112.86987921848464,
              27.92034047334016
            ],
            [
              112.87007446282007,
              27.920738591069053
            ],
            [
              112.87012613661015,
              27.920843957092387
            ],
            [
              112.8716082625058,
              27.921418901585213
            ],
            [
              112.87222251253083,
              27.920858278672185
            ],
            [
              112.87247700794575,
              27.920626001829177
            ],
            [
              112.87234080358576,
              27.920528380207728
            ],
            [
              112.87178950839419,
              27.920133250976434
            ],
            [
              112.8722821031735,
              27.919509315326195
            ]
          ]
        ]
      },
      "properties": {
        "name": "湘潭大学附属实验学校（小学）",
        "isAssistFeature": false,
        "sourceFileId": "file_1778748541492_28_g1",
        "sourceFileName": "湘潭大学附属实验学校（小学）.geojson",
        "sourceGroupId": 1,
        "id": "imported_1778748541492_28_0_g1",
        "sourceFile": "湘潭大学附属实验学校（小学）.geojson"
      },
      "id": "imported_1778748541492_28_0_g1"
    }
  ],
  "properties": {
    "fileName": "湘潭大学附属实验学校（小学）.geojson",
    "exportTime": "2026/5/14 16:51:29",
    "isStarred": false
  }
}