{
  "type": "FeatureCollection",
  "features": [
    {
      "type": "Feature",
      "geometry": {
        "type": "Polygon",
        "coordinates": [
          [
            [
              112.90615219701898,
              27.86787334487245
            ],
            [
              112.90706090850588,
              27.866912360123578
            ],
            [
              112.90935502607847,
              27.86440705209067
            ],
            [
              112.90957549690371,
              27.86416508362582
            ],
            [
              112.90972261848938,
              27.86354059578575
            ],
            [
              112.91019776169763,
              27.863543754189834
            ],
            [
              112.9122929725034,
              27.864009815133898
            ],
            [
              112.91469908483907,
              27.86335254867221
            ],
            [
              112.91540199409104,
              27.862432369088253
            ],
            [
              112.91405340725387,
              27.861821151544703
            ],
            [
              112.91326623153674,
              27.861464379845273
            ],
            [
              112.91050630514997,
              27.86048420623287
            ],
            [
              112.91082559694456,
              27.85933347780798
            ],
            [
              112.9069588597601,
              27.857220299796396
            ],
            [
              112.90469540384726,
              27.856230140563014
            ],
            [
              112.90143862263714,
              27.86256222466544
            ],
            [
              112.90002676475962,
              27.866534013162365
            ],
            [
              112.90092071872307,
              27.866739604546424
            ],
            [
              112.90332532907557,
              27.867304419766867
            ],
            [
              112.90344663846986,
              27.867338504246604
            ],
            [
              112.9038935871546,
              27.867465781729948
            ],
            [
              112.90521036554587,
              27.867840247671964
            ],
            [
              112.90520295085149,
              27.867804259805467
            ],
            [
              112.90603842987984,
              27.867929295691894
            ],
            [
              112.90609361787932,
              27.867935488359038
            ],
            [
              112.90615219701898,
              27.86787334487245
            ]
          ]
        ]
      },
      "properties": {
        "name": "湘潭市和平小学",
        "isAssistFeature": false,
        "sourceFileId": "file_1777361714380_37_g1",
        "sourceFileName": "湘潭市和平小学.geojson",
        "sourceGroupId": 1,
        "id": "imported_1777361714380_37_0_g1",
        "sourceFile": "湘潭市和平小学.geojson"
      },
      "id": "imported_1777361714380_37_0_g1"
    }
  ],
  "properties": {
    "fileName": "湘潭市和平小学.geojson",
    "exportTime": "2026/4/28 15:38:21",
    "isStarred": false
  }
}