{
  "type": "FeatureCollection",
  "features": [
    {
      "type": "Feature",
      "properties": {
        "name": "源湘学校",
        "isAssistFeature": false
      },
      "geometry": {
        "type": "Polygon",
        "coordinates": [
          [
            [
              112.85078922278974,
              27.846289438256242
            ],
            [
              112.84995737744676,
              27.843762674240626
            ],
            [
              112.8496060265762,
              27.842694034470064
            ],
            [
              112.85170610355584,
              27.841529495233214
            ],
            [
              112.85174798840427,
              27.841506269058776
            ],
            [
              112.85243721092456,
              27.84112407703694
            ],
            [
              112.85264401567939,
              27.840377258104642
            ],
            [
              112.85265294852655,
              27.840344999273313
            ],
            [
              112.85306602623356,
              27.838853265481074
            ],
            [
              112.85224005407589,
              27.836803877499342
            ],
            [
              112.85481349110796,
              27.83559875809194
            ],
            [
              112.8560443177945,
              27.835230173555054
            ],
            [
              112.85819320293847,
              27.834586662881872
            ],
            [
              112.85906616507035,
              27.83459844829635
            ],
            [
              112.85887832644609,
              27.833815675857043
            ],
            [
              112.85880431424984,
              27.833550685312083
            ],
            [
              112.85881690593519,
              27.83319240897006
            ],
            [
              112.8585983368434,
              27.832212183180495
            ],
            [
              112.8633409510634,
              27.82779886414448
            ],
            [
              112.86144079504857,
              27.826935946903333
            ],
            [
              112.86035425755962,
              27.825975049802658
            ],
            [
              112.85974606217962,
              27.825437179057737
            ],
            [
              112.85947382683447,
              27.825304256155484
            ],
            [
              112.85928983030472,
              27.824996891132226
            ],
            [
              112.85928983030472,
              27.824807048459416
            ],
            [
              112.85784906014976,
              27.825329626039014
            ],
            [
              112.85666213413117,
              27.825623537781016
            ],
            [
              112.85307537769563,
              27.826267343110857
            ],
            [
              112.85019267945732,
              27.826790604820456
            ],
            [
              112.84697457724137,
              27.827128075412286
            ],
            [
              112.84513088483374,
              27.82713507358251
            ],
            [
              112.84346918840767,
              27.826904145643237
            ],
            [
              112.8394811159072,
              27.825112690066092
            ],
            [
              112.83708497127792,
              27.82449500269782
            ],
            [
              112.83568295264769,
              27.82430092708647
            ],
            [
              112.83337240309194,
              27.82465082588598
            ],
            [
              112.83079714517476,
              27.825238883434274
            ],
            [
              112.82856831805536,
              27.82687448061228
            ],
            [
              112.82745494878716,
              27.829783759237994
            ],
            [
              112.82688546091445,
              27.831271822849867
            ],
            [
              112.82589988058871,
              27.83429935527478
            ],
            [
              112.82298225675045,
              27.83766815088844
            ],
            [
              112.82163679245724,
              27.838695582458513
            ],
            [
              112.82076937921892,
              27.839131021725827
            ],
            [
              112.82355338584517,
              27.842803632332814
            ],
            [
              112.82598492140171,
              27.842857920872717
            ],
            [
              112.82702188536175,
              27.8439850250812
            ],
            [
              112.829831854198,
              27.844090754144407
            ],
            [
              112.82957386253997,
              27.845509272068384
            ],
            [
              112.829563061197,
              27.845568658654763
            ],
            [
              112.82839697699131,
              27.845623816362217
            ],
            [
              112.82849491581516,
              27.84683455520917
            ],
            [
              112.83253365599262,
              27.846918806298053
            ],
            [
              112.83325702617176,
              27.848243173885027
            ],
            [
              112.83996695355894,
              27.848487895113138
            ],
            [
              112.84092848149298,
              27.850103157331503
            ],
            [
              112.84139010236127,
              27.850878621016744
            ],
            [
              112.84170777629018,
              27.850270053921914
            ],
            [
              112.84256980053512,
              27.850279120453266
            ],
            [
              112.84501019258204,
              27.84959788943753
            ],
            [
              112.84550921840047,
              27.84945858636736
            ],
            [
              112.8473999277318,
              27.8489307946126
            ],
            [
              112.84796188323082,
              27.84877392448614
            ],
            [
              112.8489785802997,
              27.84884543151297
            ],
            [
              112.85078922278974,
              27.846289438256242
            ]
          ]
        ]
      }
    }
  ]
}