{
  "type": "FeatureCollection",
  "features": [
    {
      "type": "Feature",
      "properties": {
        "name": "熙春路逸夫小学",
        "isAssistFeature": false
      },
      "geometry": {
        "type": "Polygon",
        "coordinates": [
          [
            [
              112.91562934690963,
              27.86796894050879
            ],
            [
              112.9142174009972,
              27.867121259182355
            ],
            [
              112.9095912183195,
              27.864198498025505
            ],
            [
              112.9095754969037,
              27.864165083625817
            ],
            [
              112.90935502607847,
              27.86440705209065
            ],
            [
              112.9070609085059,
              27.86691236012358
            ],
            [
              112.90615219701898,
              27.867873344872443
            ],
            [
              112.9060936178793,
              27.867935488359034
            ],
            [
              112.90603842987983,
              27.867929295691887
            ],
            [
              112.9052029508515,
              27.867804259805474
            ],
            [
              112.90521036554588,
              27.86784024767197
            ],
            [
              112.90569140439736,
              27.870412547486264
            ],
            [
              112.90573591232642,
              27.87042685509373
            ],
            [
              112.90578693034637,
              27.870443255197394
            ],
            [
              112.90779241292996,
              27.87108792929832
            ],
            [
              112.91018760624334,
              27.871857056777515
            ],
            [
              112.91223120075118,
              27.872740451445466
            ],
            [
              112.91285143804754,
              27.873077934715294
            ],
            [
              112.91346390312003,
              27.873415798893557
            ],
            [
              112.91312615723446,
              27.874099472931324
            ],
            [
              112.91321756440789,
              27.874821078475236
            ],
            [
              112.91380324441356,
              27.875913424781974
            ],
            [
              112.91386463258513,
              27.87601441145364
            ],
            [
              112.91422607512958,
              27.876585084631373
            ],
            [
              112.91459085581363,
              27.876774761241254
            ],
            [
              112.91562082369424,
              27.877002371781824
            ],
            [
              112.91667224963201,
              27.877059274739246
            ],
            [
              112.91676384006173,
              27.877169814564464
            ],
            [
              112.92303094652289,
              27.87557974445627
            ],
            [
              112.92246582086919,
              27.874650366780042
            ],
            [
              112.92661968823516,
              27.872523549940574
            ],
            [
              112.92680027116683,
              27.872431088674123
            ],
            [
              112.919562164037,
              27.86956178501877
            ],
            [
              112.91562934690963,
              27.86796894050879
            ]
          ]
        ]
      }
    }
  ]
}