{
  "type": "FeatureCollection",
  "features": [
    {
      "type": "Feature",
      "properties": {
        "name": "立云中心小学",
        "isAssistFeature": false
      },
      "geometry": {
        "type": "Polygon",
        "coordinates": [
          [
            [
              112.870512710423,
              27.87081835249383
            ],
            [
              112.87257808997478,
              27.870638048723706
            ],
            [
              112.87253974628517,
              27.86990363473718
            ],
            [
              112.87471277185577,
              27.869328276760832
            ],
            [
              112.87493208026103,
              27.869267981208992
            ],
            [
              112.87519820706228,
              27.868924526934737
            ],
            [
              112.87450000677907,
              27.866896489178814
            ],
            [
              112.8748628767465,
              27.866762281327468
            ],
            [
              112.87589640824383,
              27.86638002664064
            ],
            [
              112.87638185602673,
              27.86508284776436
            ],
            [
              112.87663735575816,
              27.864402329214208
            ],
            [
              112.87670860114335,
              27.862147458211528
            ],
            [
              112.87632387785996,
              27.8614546113975
            ],
            [
              112.87674057847249,
              27.861108669591435
            ],
            [
              112.87668751049709,
              27.861054595088206
            ],
            [
              112.87286795116414,
              27.8572175277155
            ],
            [
              112.87260291851092,
              27.856951910518866
            ],
            [
              112.87218258780632,
              27.856532885439986
            ],
            [
              112.87064822397853,
              27.855000336433353
            ],
            [
              112.8702166472649,
              27.852868980038966
            ],
            [
              112.8700529598471,
              27.851711178103137
            ],
            [
              112.87003076337474,
              27.8515541793581
            ],
            [
              112.86998692379223,
              27.851466283058553
            ],
            [
              112.86933744184185,
              27.85016409101439
            ],
            [
              112.86900716814279,
              27.849501894760706
            ],
            [
              112.87741484314498,
              27.845342047253883
            ],
            [
              112.87888592874582,
              27.844614184883408
            ],
            [
              112.87826326240496,
              27.844035795029242
            ],
            [
              112.87600916567659,
              27.841444433713868
            ],
            [
              112.87518124956468,
              27.84001007751252
            ],
            [
              112.8750985075405,
              27.839866726876465
            ],
            [
              112.87506927725944,
              27.839873938697256
            ],
            [
              112.87399348182464,
              27.840139375310528
            ],
            [
              112.87055692100968,
              27.840987290649853
            ],
            [
              112.86533480854892,
              27.839268999588317
            ],
            [
              112.86484022939115,
              27.83948419704283
            ],
            [
              112.86341735367664,
              27.838389357125838
            ],
            [
              112.86320551476298,
              27.83822834747353
            ],
            [
              112.85990337874546,
              27.835668042414294
            ],
            [
              112.85884356703451,
              27.835570853383533
            ],
            [
              112.85903197788556,
              27.83497383166653
            ],
            [
              112.85906616507035,
              27.83459844829635
            ],
            [
              112.85819320293847,
              27.834586662881872
            ],
            [
              112.8560443177945,
              27.835230173555054
            ],
            [
              112.85481349110796,
              27.83559875809194
            ],
            [
              112.85224005407589,
              27.836803877499342
            ],
            [
              112.85306602623356,
              27.838853265481074
            ],
            [
              112.85265294852655,
              27.840344999273313
            ],
            [
              112.85264401567939,
              27.840377258104642
            ],
            [
              112.85243721092456,
              27.84112407703694
            ],
            [
              112.85174798840427,
              27.841506269058776
            ],
            [
              112.85170610355584,
              27.841529495233214
            ],
            [
              112.8496060265762,
              27.842694034470064
            ],
            [
              112.84995737744676,
              27.843762674240626
            ],
            [
              112.85078922278974,
              27.846289438256242
            ],
            [
              112.85299519497171,
              27.853162663100687
            ],
            [
              112.85307543159456,
              27.853984396254845
            ],
            [
              112.85328570923627,
              27.857217682587216
            ],
            [
              112.8537404481112,
              27.859278628805143
            ],
            [
              112.85405192725787,
              27.860651109080777
            ],
            [
              112.85475744970897,
              27.86430560192753
            ],
            [
              112.85488460174587,
              27.865823354589285
            ],
            [
              112.85504091040194,
              27.86584253094619
            ],
            [
              112.85766947524635,
              27.866165013593946
            ],
            [
              112.85833790625938,
              27.868036248197654
            ],
            [
              112.86285021220347,
              27.866028559776755
            ],
            [
              112.86531844663432,
              27.865658724627675
            ],
            [
              112.86538200783058,
              27.86564920036261
            ],
            [
              112.86568139745015,
              27.86560434029267
            ],
            [
              112.86721896467022,
              27.87110588893799
            ],
            [
              112.870512710423,
              27.87081835249383
            ]
          ]
        ]
      }
    }
  ]
}