{
  "type": "FeatureCollection",
  "features": [
    {
      "type": "Feature",
      "properties": {
        "name": "进军学校",
        "isAssistFeature": false
      },
      "geometry": {
        "type": "Polygon",
        "coordinates": [
          [
            [
              112.73380964529434,
              27.892433222686872
            ],
            [
              112.73346632266748,
              27.89084016112449
            ],
            [
              112.73398111032587,
              27.889265362248402
            ],
            [
              112.73372381486223,
              27.888033281785166
            ],
            [
              112.7343246296838,
              27.886136700301233
            ],
            [
              112.73724287246125,
              27.885378058246815
            ],
            [
              112.738011985753,
              27.88400961909883
            ],
            [
              112.73803297488963,
              27.883766936125937
            ],
            [
              112.73804836662373,
              27.883590300050997
            ],
            [
              112.73808166267972,
              27.883210803626014
            ],
            [
              112.73808430193002,
              27.883141921287717
            ],
            [
              112.73815153723578,
              27.88232243558395
            ],
            [
              112.73805733630181,
              27.881165114253758
            ],
            [
              112.73813786397886,
              27.88065677529188
            ],
            [
              112.73825369993811,
              27.87989355368774
            ],
            [
              112.73809914569179,
              27.879292191952988
            ],
            [
              112.7379844775424,
              27.878846022719472
            ],
            [
              112.73741453422387,
              27.87695677554591
            ],
            [
              112.74167179318744,
              27.878143941350704
            ],
            [
              112.74230688233038,
              27.87832243329045
            ],
            [
              112.74271917760474,
              27.87756550566893
            ],
            [
              112.74287756226745,
              27.87727472751942
            ],
            [
              112.74342268154142,
              27.876273940613796
            ],
            [
              112.74599760169203,
              27.875591100583176
            ],
            [
              112.74668424784406,
              27.872935571980733
            ],
            [
              112.74628116748785,
              27.871926001880112
            ],
            [
              112.74565427906516,
              27.870355853066847
            ],
            [
              112.74548572008356,
              27.87026977545493
            ],
            [
              112.74310752199703,
              27.869028124064606
            ],
            [
              112.74230688233038,
              27.868610714873217
            ],
            [
              112.7376720264186,
              27.8670173028655
            ],
            [
              112.73552625932697,
              27.865423867427438
            ],
            [
              112.73380964529434,
              27.86489271707481
            ],
            [
              112.73253854623532,
              27.86419039121263
            ],
            [
              112.73117109477722,
              27.863434822153764
            ],
            [
              112.72838680607994,
              27.861896379433865
            ],
            [
              112.72831648146793,
              27.861857521810208
            ],
            [
              112.72556989955476,
              27.86436156411897
            ],
            [
              112.7202483965926,
              27.870431727795722
            ],
            [
              112.71893459881147,
              27.873062637218066
            ],
            [
              112.71604269284148,
              27.878853517807332
            ],
            [
              112.71596073684319,
              27.882222091606245
            ],
            [
              112.7158710310789,
              27.88590910816362
            ],
            [
              112.71904676694942,
              27.893343533507313
            ],
            [
              112.71934119966528,
              27.89345331595606
            ],
            [
              112.72427751581334,
              27.895293861188662
            ],
            [
              112.72454896153937,
              27.895377937252537
            ],
            [
              112.72968977197539,
              27.896908841724393
            ],
            [
              112.7298974292314,
              27.896537098620232
            ],
            [
              112.73037598334281,
              27.89575696151266
            ],
            [
              112.73380964529434,
              27.892433222686872
            ]
          ]
        ]
      }
    }
  ]
}