{
  "type": "FeatureCollection",
  "features": [
    {
      "type": "Feature",
      "geometry": {
        "type": "Polygon",
        "coordinates": [
          [
            [
              112.90469540384726,
              27.856230140563014
            ],
            [
              112.90437324558641,
              27.856016997722108
            ],
            [
              112.90122969662103,
              27.854451857866877
            ],
            [
              112.8981129697457,
              27.852934124914498
            ],
            [
              112.89478166614924,
              27.851373683573257
            ],
            [
              112.89296849285518,
              27.850553138540207
            ],
            [
              112.89202940244995,
              27.850505366502716
            ],
            [
              112.89188891761766,
              27.851341501405088
            ],
            [
              112.89176649610904,
              27.85147988707365
            ],
            [
              112.8910539551206,
              27.85225786742332
            ],
            [
              112.89035026792764,
              27.8530182925642
            ],
            [
              112.89026612902316,
              27.853037328222527
            ],
            [
              112.88959257222312,
              27.853185770819422
            ],
            [
              112.88829817625555,
              27.85502802090724
            ],
            [
              112.88870859405098,
              27.855530447172285
            ],
            [
              112.88883487651867,
              27.85636781963602
            ],
            [
              112.88885850670222,
              27.856396198703067
            ],
            [
              112.8894347193631,
              27.857093537365074
            ],
            [
              112.88934000728777,
              27.85742848182086
            ],
            [
              112.8897809821759,
              27.858500623384273
            ],
            [
              112.88984513805683,
              27.85865660422664
            ],
            [
              112.89086920041277,
              27.859153672682737
            ],
            [
              112.89145524064288,
              27.8594381292058
            ],
            [
              112.89171273822748,
              27.859409672309482
            ],
            [
              112.89221293634735,
              27.859354394542663
            ],
            [
              112.89269066041545,
              27.85967648113136
            ],
            [
              112.89355552513335,
              27.859538510965095
            ],
            [
              112.89442852679105,
              27.859388761080353
            ],
            [
              112.89470701800387,
              27.85896363245554
            ],
            [
              112.89492533017749,
              27.859079214852613
            ],
            [
              112.89651858216541,
              27.859928303651643
            ],
            [
              112.90009030978618,
              27.861917838163023
            ],
            [
              112.90143862263714,
              27.86256222466544
            ],
            [
              112.90469540384726,
              27.856230140563014
            ]
          ]
        ]
      },
      "properties": {
        "name": "金庭学校",
        "isAssistFeature": false,
        "sourceFileId": "file_1777361714387_61_g1",
        "sourceFileName": "金庭学校.geojson",
        "sourceGroupId": 1,
        "id": "imported_1777361714387_61_0_g1",
        "sourceFile": "金庭学校.geojson"
      },
      "id": "imported_1777361714387_61_0_g1"
    }
  ],
  "properties": {
    "fileName": "金庭学校.geojson",
    "exportTime": "2026/4/28 15:39:11",
    "isStarred": false
  }
}