{
  "type": "FeatureCollection",
  "features": [
    {
      "type": "Feature",
      "properties": {
        "name": "长龙学校",
        "isAssistFeature": false
      },
      "geometry": {
        "type": "Polygon",
        "coordinates": [
          [
            [
              112.76634475279609,
              28.00265680256658
            ],
            [
              112.7664042554039,
              28.00243817488828
            ],
            [
              112.76764249408983,
              28.002502484844204
            ],
            [
              112.76846798654714,
              28.00173075887425
            ],
            [
              112.77101730291551,
              28.001173397218928
            ],
            [
              112.7707745107521,
              27.999737107009945
            ],
            [
              112.77143004914419,
              27.999115423896555
            ],
            [
              112.77339666342206,
              27.998000671440806
            ],
            [
              112.77422215587934,
              27.996735842480152
            ],
            [
              112.77413093735215,
              27.99490895250914
            ],
            [
              112.77582140412177,
              27.994489985155035
            ],
            [
              112.77764898704145,
              27.995019141804505
            ],
            [
              112.77894104469436,
              27.99423103564844
            ],
            [
              112.77900054730218,
              27.994110943130902
            ],
            [
              112.77982293518185,
              27.99275052220183
            ],
            [
              112.77991405219942,
              27.992738773839434
            ],
            [
              112.78078347856231,
              27.992626675312952
            ],
            [
              112.78184514709099,
              27.9924913416552
            ],
            [
              112.78188143902847,
              27.992487354928468
            ],
            [
              112.78264796337554,
              27.992866131381632
            ],
            [
              112.78314560758507,
              27.993112475206402
            ],
            [
              112.7831747201868,
              27.99313410303194
            ],
            [
              112.78480875658694,
              27.993065704800742
            ],
            [
              112.78512936441352,
              27.993664914632404
            ],
            [
              112.786054885176,
              27.99545157799764
            ],
            [
              112.78603566661883,
              27.99547212898322
            ],
            [
              112.78542610130808,
              27.996123964965953
            ],
            [
              112.7849536449608,
              27.996629181463273
            ],
            [
              112.78498985964315,
              27.996654603203858
            ],
            [
              112.78503746226836,
              27.996694034254975
            ],
            [
              112.78550956018783,
              27.99705213975063
            ],
            [
              112.78611511811411,
              27.99750193692481
            ],
            [
              112.78625388626598,
              27.997609830477337
            ],
            [
              112.78719715145026,
              27.998619046304892
            ],
            [
              112.78770824972781,
              27.998894437273613
            ],
            [
              112.78938022557563,
              27.999814851649663
            ],
            [
              112.78947376984111,
              27.999739837091596
            ],
            [
              112.79160628588396,
              27.998031462685333
            ],
            [
              112.79486332018604,
              27.995419953950243
            ],
            [
              112.7954286578421,
              27.994978593311817
            ],
            [
              112.79650668918364,
              27.99431360695998
            ],
            [
              112.79783084992987,
              27.994381427738038
            ],
            [
              112.798814653388,
              27.994431816179972
            ],
            [
              112.800557361683,
              27.994584004599176
            ],
            [
              112.80076383945105,
              27.994602035737785
            ],
            [
              112.80132484093927,
              27.994818293358342
            ],
            [
              112.80219895381299,
              27.99515525041862
            ],
            [
              112.80376267278763,
              27.995466270417904
            ],
            [
              112.80473726581916,
              27.99556083631701
            ],
            [
              112.80593140980105,
              27.9950927342656
            ],
            [
              112.8059719372951,
              27.995030604365652
            ],
            [
              112.80651526712501,
              27.994204820921414
            ],
            [
              112.80751261538101,
              27.994069335362557
            ],
            [
              112.80796988391177,
              27.992983446647138
            ],
            [
              112.80619693922263,
              27.992051261979377
            ],
            [
              112.8057594614759,
              27.991821076113876
            ],
            [
              112.80424701025284,
              27.991025272854614
            ],
            [
              112.80230251429391,
              27.990002132004523
            ],
            [
              112.80094182625157,
              27.98928616965049
            ],
            [
              112.80041690469844,
              27.988024493145797
            ],
            [
              112.79978502523603,
              27.986790314603866
            ],
            [
              112.80141284888765,
              27.985397212855258
            ],
            [
              112.80152001520611,
              27.985305498584037
            ],
            [
              112.8030515178997,
              27.984454320742593
            ],
            [
              112.80379205757887,
              27.98347145300934
            ],
            [
              112.8039564968866,
              27.983253202890772
            ],
            [
              112.80515671078487,
              27.982638302556282
            ],
            [
              112.80535948210408,
              27.98253441760495
            ],
            [
              112.80516670633905,
              27.98165011585122
            ],
            [
              112.80510507023247,
              27.980628064889906
            ],
            [
              112.80508638257959,
              27.98031817459449
            ],
            [
              112.80471219743285,
              27.97972672852965
            ],
            [
              112.80415998326474,
              27.978852186194008
            ],
            [
              112.80376266290615,
              27.97877029243717
            ],
            [
              112.80315819643295,
              27.978645702012635
            ],
            [
              112.80194840739203,
              27.978398197819292
            ],
            [
              112.80195241387821,
              27.97805397545832
            ],
            [
              112.8019555750497,
              27.97778237968766
            ],
            [
              112.8019661131863,
              27.976876882301315
            ],
            [
              112.80233810824039,
              27.976467218168256
            ],
            [
              112.80285502670264,
              27.97589795109564
            ],
            [
              112.80264420468188,
              27.97585898209743
            ],
            [
              112.80170372247834,
              27.975685139098786
            ],
            [
              112.8005631270705,
              27.974554862014887
            ],
            [
              112.80054840278468,
              27.973444255575355
            ],
            [
              112.80054706249828,
              27.973343162334196
            ],
            [
              112.79999645631455,
              27.973119281849502
            ],
            [
              112.79946537142027,
              27.972903338514097
            ],
            [
              112.79948191569285,
              27.972813669227488
            ],
            [
              112.79948966635715,
              27.972775247330727
            ],
            [
              112.7996496958351,
              27.971640622217006
            ],
            [
              112.79893749351153,
              27.971361590646385
            ],
            [
              112.79791470676336,
              27.972387856516843
            ],
            [
              112.79677241892954,
              27.97199010050185
            ],
            [
              112.79630987638973,
              27.971006336116112
            ],
            [
              112.79600224562576,
              27.969630646093417
            ],
            [
              112.7957972087554,
              27.968235686705167
            ],
            [
              112.79587613024466,
              27.96769288617346
            ],
            [
              112.79604888974858,
              27.966504678516404
            ],
            [
              112.79513781389582,
              27.96605454892106
            ],
            [
              112.7947099831569,
              27.965843172633335
            ],
            [
              112.79465125849015,
              27.965814158971455
            ],
            [
              112.79488521033286,
              27.965381748326035
            ],
            [
              112.79523666540801,
              27.964730214463284
            ],
            [
              112.795314922144,
              27.964307053224406
            ],
            [
              112.79429596221888,
              27.963978918721605
            ],
            [
              112.79426354830849,
              27.962353278875646
            ],
            [
              112.79226550377543,
              27.962251568259084
            ],
            [
              112.7905099199275,
              27.964797031123233
            ],
            [
              112.78935935501663,
              27.96547407857022
            ],
            [
              112.78929633280956,
              27.965511973856483
            ],
            [
              112.7876609543264,
              27.964654574872636
            ],
            [
              112.7868583769937,
              27.96423353337795
            ],
            [
              112.78662402540068,
              27.96411092798717
            ],
            [
              112.78576082975259,
              27.96440046503594
            ],
            [
              112.78553096524445,
              27.964477567089972
            ],
            [
              112.78509051946399,
              27.964625303027933
            ],
            [
              112.78516618995027,
              27.964476530081356
            ],
            [
              112.78575926488737,
              27.96327363939792
            ],
            [
              112.78577651793073,
              27.963235732217584
            ],
            [
              112.78480313403156,
              27.96302723931389
            ],
            [
              112.78474467796109,
              27.96297244848754
            ],
            [
              112.78316118796536,
              27.961454677983067
            ],
            [
              112.78175286226355,
              27.961277520544265
            ],
            [
              112.78062956481482,
              27.96019604414681
            ],
            [
              112.77740832298694,
              27.959661417096736
            ],
            [
              112.77737548417342,
              27.959564797181013
            ],
            [
              112.77728602005595,
              27.959303494505686
            ],
            [
              112.7770610989768,
              27.95822358289464
            ],
            [
              112.77711855612068,
              27.95797574620187
            ],
            [
              112.7772044853675,
              27.957615219384074
            ],
            [
              112.77697560092132,
              27.957431917294773
            ],
            [
              112.77650994392243,
              27.95705901194217
            ],
            [
              112.77624337515007,
              27.956845601797177
            ],
            [
              112.77568018356924,
              27.956394198839824
            ],
            [
              112.77547254338118,
              27.956284230345013
            ],
            [
              112.77540277213139,
              27.956246809498065
            ],
            [
              112.77451802410299,
              27.956704464930546
            ],
            [
              112.7736810116505,
              27.957057797915972
            ],
            [
              112.77366580047781,
              27.957150182096406
            ],
            [
              112.77365907748622,
              27.957191529563758
            ],
            [
              112.77365422209209,
              27.95722394401829
            ],
            [
              112.7733658754623,
              27.95900881084664
            ],
            [
              112.77333478746529,
              27.95920468430511
            ],
            [
              112.77329614553501,
              27.959449054707775
            ],
            [
              112.77294763423909,
              27.960070323810086
            ],
            [
              112.7728395848767,
              27.960262935818477
            ],
            [
              112.77320662751866,
              27.960786639585553
            ],
            [
              112.77326490482439,
              27.96123275407702
            ],
            [
              112.77335580265306,
              27.961928568239443
            ],
            [
              112.77340725725419,
              27.962322447292276
            ],
            [
              112.77321973393863,
              27.962504569164146
            ],
            [
              112.7731955045788,
              27.962529331665774
            ],
            [
              112.77290695942133,
              27.96280116102127
            ],
            [
              112.77200685648981,
              27.961957096564042
            ],
            [
              112.77067897312502,
              27.960579828043336
            ],
            [
              112.77143798396308,
              27.959575696184803
            ],
            [
              112.77181993414716,
              27.958389877168788
            ],
            [
              112.77100020348409,
              27.957105632918143
            ],
            [
              112.77157984052286,
              27.955803738860393
            ],
            [
              112.77169229342675,
              27.954583381824037
            ],
            [
              112.77283288883457,
              27.95367520052549
            ],
            [
              112.77448755504521,
              27.952908916166397
            ],
            [
              112.77537018484615,
              27.95229125126368
            ],
            [
              112.77562722069669,
              27.95099990144836
            ],
            [
              112.7773836300964,
              27.951283715857677
            ],
            [
              112.77909184488112,
              27.95083434250003
            ],
            [
              112.779187493001,
              27.95047866172516
            ],
            [
              112.77929133645121,
              27.950092506553005
            ],
            [
              112.7794238487354,
              27.949599738492477
            ],
            [
              112.77938728909997,
              27.94953922024685
            ],
            [
              112.77927487123037,
              27.94935313341222
            ],
            [
              112.77861156780101,
              27.948255154013214
            ],
            [
              112.77581987429085,
              27.947710812710397
            ],
            [
              112.77587521141069,
              27.94614538855113
            ],
            [
              112.77702143476375,
              27.944722235572836
            ],
            [
              112.77860648692976,
              27.94440528966178
            ],
            [
              112.7787250843102,
              27.942459055315425
            ],
            [
              112.77728933034778,
              27.940090010667014
            ],
            [
              112.77582783785586,
              27.940200647203273
            ],
            [
              112.77459496121384,
              27.940061113092973
            ],
            [
              112.77283758163361,
              27.93986221618168
            ],
            [
              112.77080530769499,
              27.93901702878874
            ],
            [
              112.76965498532927,
              27.93788752720486
            ],
            [
              112.76766469146051,
              27.935273831559666
            ],
            [
              112.7661118699486,
              27.936374450003076
            ],
            [
              112.76523155600444,
              27.937292003489862
            ],
            [
              112.76580854031819,
              27.93890266105187
            ],
            [
              112.76487667655147,
              27.93937480514348
            ],
            [
              112.76405174643953,
              27.939908338260857
            ],
            [
              112.76352887304525,
              27.940248077792123
            ],
            [
              112.76259085312388,
              27.940751747363173
            ],
            [
              112.76270217504883,
              27.941532544755844
            ],
            [
              112.76548121668654,
              27.942630833748808
            ],
            [
              112.763140577162,
              27.944004749822085
            ],
            [
              112.7630157625415,
              27.944052431098015
            ],
            [
              112.7610595902805,
              27.944874587765664
            ],
            [
              112.76013191176466,
              27.945077229823887
            ],
            [
              112.75877044039143,
              27.946322796192067
            ],
            [
              112.7581867160181,
              27.946869080767783
            ],
            [
              112.75806026287052,
              27.947689852675666
            ],
            [
              112.75912360496051,
              27.94926054338192
            ],
            [
              112.75987864704166,
              27.949827404521237
            ],
            [
              112.75775810374492,
              27.94978010193031
            ],
            [
              112.7556161419168,
              27.94926922786671
            ],
            [
              112.75549833325721,
              27.949165160807855
            ],
            [
              112.75425064070122,
              27.9480819093207
            ],
            [
              112.75365089128157,
              27.947556836151744
            ],
            [
              112.75242461725689,
              27.946889848127718
            ],
            [
              112.75024539600577,
              27.94640179665509
            ],
            [
              112.74775874970484,
              27.94739948280921
            ],
            [
              112.7456683817168,
              27.947907073285705
            ],
            [
              112.74462815148242,
              27.94809960780118
            ],
            [
              112.74483619770896,
              27.948589692594886
            ],
            [
              112.74344922406311,
              27.949202295261053
            ],
            [
              112.74231983064688,
              27.951057585196622
            ],
            [
              112.74144982576894,
              27.952758806665873
            ],
            [
              112.7412025761651,
              27.953242277046016
            ],
            [
              112.74500797355758,
              27.957853001985615
            ],
            [
              112.74786120795288,
              27.962180341651084
            ],
            [
              112.7486988555143,
              27.96322471615489
            ],
            [
              112.75016936529506,
              27.964700105575716
            ],
            [
              112.75146760245883,
              27.96664602789699
            ],
            [
              112.75286597303068,
              27.968742001817397
            ],
            [
              112.75403797354083,
              27.972660002185872
            ],
            [
              112.75413297307708,
              27.973794001726027
            ],
            [
              112.75275297305281,
              27.975682002215706
            ],
            [
              112.7529779731837,
              27.976875002096275
            ],
            [
              112.75316339533978,
              27.977251915911847
            ],
            [
              112.7546619729816,
              27.98041000179092
            ],
            [
              112.75487997343981,
              27.984025001666016
            ],
            [
              112.75579197365899,
              27.985794001615716
            ],
            [
              112.75605644396683,
              27.98615687912881
            ],
            [
              112.75806597346076,
              27.98894800199356
            ],
            [
              112.75892597290309,
              27.990150001945498
            ],
            [
              112.75946497285332,
              27.991574001948337
            ],
            [
              112.75975658306253,
              27.9927482623218
            ],
            [
              112.76032397336903,
              27.995033002214967
            ],
            [
              112.76007997297157,
              28.000004001907797
            ],
            [
              112.75813597288264,
              28.00567900165131
            ],
            [
              112.75888197342046,
              28.006422001954626
            ],
            [
              112.76147797343751,
              28.00736100203775
            ],
            [
              112.76150141317824,
              28.007385075337158
            ],
            [
              112.76163076878251,
              28.007431277212685
            ],
            [
              112.76175820558535,
              28.007479488016664
            ],
            [
              112.76305372624368,
              28.007175597082544
            ],
            [
              112.76479568444546,
              28.00577161623031
            ],
            [
              112.76576810714722,
              28.004987855742833
            ],
            [
              112.76634475279609,
              28.00265680256658
            ]
          ]
        ]
      }
    }
  ]
}