{
  "type": "FeatureCollection",
  "features": [
    {
      "type": "Feature",
      "properties": {
        "name": "青亭学校",
        "isAssistFeature": false
      },
      "geometry": {
        "type": "Polygon",
        "coordinates": [
          [
            [
              112.84358192248425,
              27.87021810137844
            ],
            [
              112.84568675694165,
              27.86455884079841
            ],
            [
              112.84569609403071,
              27.864533625420247
            ],
            [
              112.84629965410382,
              27.864521498593014
            ],
            [
              112.84790240847079,
              27.86448929618193
            ],
            [
              112.84801981558347,
              27.86448693752507
            ],
            [
              112.84993668205924,
              27.86443263042985
            ],
            [
              112.85106545024803,
              27.864371534815884
            ],
            [
              112.85367834847392,
              27.864230108871986
            ],
            [
              112.85433873237861,
              27.86427644903481
            ],
            [
              112.85475744970897,
              27.86430560192753
            ],
            [
              112.85405192725787,
              27.860651109080777
            ],
            [
              112.8537404481112,
              27.859278628805143
            ],
            [
              112.85328570923627,
              27.857217682587216
            ],
            [
              112.85307543159456,
              27.853984396254845
            ],
            [
              112.85299519497171,
              27.853162663100687
            ],
            [
              112.85078922278974,
              27.846289438256242
            ],
            [
              112.8489785802997,
              27.84884543151297
            ],
            [
              112.84796188323082,
              27.84877392448614
            ],
            [
              112.8473999277318,
              27.8489307946126
            ],
            [
              112.84550921840047,
              27.84945858636736
            ],
            [
              112.84501019258204,
              27.84959788943753
            ],
            [
              112.84256980053512,
              27.850279120453266
            ],
            [
              112.84170777629018,
              27.850270053921914
            ],
            [
              112.84139010236127,
              27.850878621016744
            ],
            [
              112.84092848149298,
              27.850103157331503
            ],
            [
              112.83996695355894,
              27.848487895113138
            ],
            [
              112.83325702617176,
              27.848243173885027
            ],
            [
              112.83253365599262,
              27.846918806298053
            ],
            [
              112.82849491581516,
              27.84683455520917
            ],
            [
              112.82810334826766,
              27.849780475988464
            ],
            [
              112.82733371305471,
              27.849846958607753
            ],
            [
              112.82731344346865,
              27.85089820588445
            ],
            [
              112.82731092459258,
              27.85092874438732
            ],
            [
              112.82695444524008,
              27.850955009764476
            ],
            [
              112.82651850001923,
              27.850987130416218
            ],
            [
              112.82634240596903,
              27.855619001767096
            ],
            [
              112.82737695974912,
              27.855580079149338
            ],
            [
              112.82753957727341,
              27.855135684271456
            ],
            [
              112.82763034125313,
              27.85491901915749
            ],
            [
              112.82874067691058,
              27.85492166871094
            ],
            [
              112.82922083271815,
              27.85665835605966
            ],
            [
              112.83062004501146,
              27.857991264739994
            ],
            [
              112.83065219661376,
              27.85802271140734
            ],
            [
              112.8311442281494,
              27.859406822727863
            ],
            [
              112.83058289697951,
              27.859919442829188
            ],
            [
              112.83052494755881,
              27.861080404532384
            ],
            [
              112.83047327646368,
              27.862174991554827
            ],
            [
              112.83052766226761,
              27.86239536288076
            ],
            [
              112.83074165713798,
              27.863262467647793
            ],
            [
              112.83181518073341,
              27.86357882223724
            ],
            [
              112.83289551445705,
              27.863726515002007
            ],
            [
              112.83335852501911,
              27.863789813200984
            ],
            [
              112.83398459238163,
              27.863875403578046
            ],
            [
              112.83449605357853,
              27.864114782923163
            ],
            [
              112.83474500459155,
              27.864231300115666
            ],
            [
              112.83656372473261,
              27.865662456347714
            ],
            [
              112.83678022590261,
              27.865832820866036
            ],
            [
              112.83712125962214,
              27.86637282611238
            ],
            [
              112.83737038131504,
              27.866736655095348
            ],
            [
              112.83725839194182,
              27.869350213669872
            ],
            [
              112.83767405769515,
              27.869419575694735
            ],
            [
              112.83771384048582,
              27.869427714675506
            ],
            [
              112.83987576647279,
              27.86897390739331
            ],
            [
              112.83978619815076,
              27.868278336668403
            ],
            [
              112.8397425022987,
              27.86794719629497
            ],
            [
              112.83973805294308,
              27.86790077511173
            ],
            [
              112.84027330332533,
              27.86790816851337
            ],
            [
              112.84080953736284,
              27.86791557541483
            ],
            [
              112.84196480405589,
              27.869084472939445
            ],
            [
              112.84202314693864,
              27.869142746747503
            ],
            [
              112.84190985860153,
              27.86955127876609
            ],
            [
              112.84186907059605,
              27.86969836303458
            ],
            [
              112.84189115118573,
              27.86971664611236
            ],
            [
              112.84265785789083,
              27.870351469537873
            ],
            [
              112.84358192248425,
              27.87021810137844
            ]
          ]
        ]
      }
    },
    {
      "type": "Feature",
      "properties": {
        "name": "青亭学校",
        "isAssistFeature": false
      },
      "geometry": {
        "type": "Polygon",
        "coordinates": [
          [
            [
              112.84635276430005,
              27.916575191669228
            ],
            [
              112.8469352750494,
              27.91542526795917
            ],
            [
              112.84831815237754,
              27.91491206440967
            ],
            [
              112.84838974541076,
              27.91488549543643
            ],
            [
              112.84931289012931,
              27.91454290266224
            ],
            [
              112.84954837359957,
              27.91357914024096
            ],
            [
              112.85019285462883,
              27.913436765672156
            ],
            [
              112.84875516659362,
              27.911640637371676
            ],
            [
              112.84900170922333,
              27.910782237616587
            ],
            [
              112.84802417690419,
              27.910315855627502
            ],
            [
              112.84799928548597,
              27.910242190278495
            ],
            [
              112.84794318030659,
              27.910076150534792
            ],
            [
              112.84710083455626,
              27.90758324069779
            ],
            [
              112.84613202757347,
              27.9069296689019
            ],
            [
              112.8452706537088,
              27.905719403902253
            ],
            [
              112.84625596633659,
              27.905240453101356
            ],
            [
              112.84732803555961,
              27.905607369016817
            ],
            [
              112.84824518132869,
              27.90484615396663
            ],
            [
              112.84847488144517,
              27.903580635865897
            ],
            [
              112.85035330002678,
              27.904067194529496
            ],
            [
              112.85155227335164,
              27.90437775774547
            ],
            [
              112.85197674079811,
              27.90554998569538
            ],
            [
              112.85291394954076,
              27.90556272793271
            ],
            [
              112.85542554115882,
              27.905596874199915
            ],
            [
              112.85695244537648,
              27.90548720012695
            ],
            [
              112.85464745279904,
              27.901806330611528
            ],
            [
              112.85465018277922,
              27.90177283731106
            ],
            [
              112.85472400273599,
              27.900968503569615
            ],
            [
              112.85482060217176,
              27.900064695407913
            ],
            [
              112.85443623012965,
              27.89925365475741
            ],
            [
              112.85443470119706,
              27.899230942702218
            ],
            [
              112.8544351036423,
              27.89801544781323
            ],
            [
              112.85451229587468,
              27.897367348665384
            ],
            [
              112.8545625134957,
              27.896945719434495
            ],
            [
              112.85490076692939,
              27.896104624264403
            ],
            [
              112.85531333708823,
              27.895910436263417
            ],
            [
              112.85555036476248,
              27.895797877548397
            ],
            [
              112.85575055971346,
              27.895764012416322
            ],
            [
              112.85585957027317,
              27.895746638817407
            ],
            [
              112.85602412726017,
              27.895469672326968
            ],
            [
              112.85604869618318,
              27.895437822889697
            ],
            [
              112.85624853360468,
              27.895098645967575
            ],
            [
              112.85599717061513,
              27.893836770819604
            ],
            [
              112.85598821171682,
              27.893806114996057
            ],
            [
              112.85596201863974,
              27.893677534634268
            ],
            [
              112.85562142150145,
              27.89309053342245
            ],
            [
              112.85553889956452,
              27.893027454802336
            ],
            [
              112.8554355564759,
              27.892948460586837
            ],
            [
              112.85541138730319,
              27.892929986118478
            ],
            [
              112.855179898641,
              27.89292791946131
            ],
            [
              112.85484940305808,
              27.8929249683415
            ],
            [
              112.85427038855181,
              27.892779471762655
            ],
            [
              112.85371329204014,
              27.892493289387165
            ],
            [
              112.85314548940693,
              27.89255956954418
            ],
            [
              112.85311184121136,
              27.89251227523714
            ],
            [
              112.8527830066134,
              27.89205038769662
            ],
            [
              112.85262836972207,
              27.891729207193176
            ],
            [
              112.85166189207082,
              27.891039007686224
            ],
            [
              112.85095775931345,
              27.89000355448064
            ],
            [
              112.85093510110705,
              27.8899661138598
            ],
            [
              112.85093510110705,
              27.890216873512525
            ],
            [
              112.85093510110705,
              27.89086816514376
            ],
            [
              112.85086737532114,
              27.891076645633422
            ],
            [
              112.8508436633909,
              27.891150908389125
            ],
            [
              112.85050631276405,
              27.891619854911028
            ],
            [
              112.85048665582899,
              27.89164720371038
            ],
            [
              112.8503969303018,
              27.892953161575925
            ],
            [
              112.850379467951,
              27.892982353594206
            ],
            [
              112.84976714301567,
              27.893680084790553
            ],
            [
              112.84909577091841,
              27.893602487604277
            ],
            [
              112.84853050512754,
              27.893861281498726
            ],
            [
              112.84766036819728,
              27.893366216627953
            ],
            [
              112.84763655745235,
              27.89312119421236
            ],
            [
              112.84573900924678,
              27.89374312492094
            ],
            [
              112.8457685548365,
              27.893774460379973
            ],
            [
              112.84659731626309,
              27.894653424725306
            ],
            [
              112.84651148583097,
              27.895677501663272
            ],
            [
              112.84512240024587,
              27.897097992090295
            ],
            [
              112.84506024042146,
              27.89705375001383
            ],
            [
              112.84348208731687,
              27.8960166648625
            ],
            [
              112.84254264356576,
              27.89519257968596
            ],
            [
              112.8421310831133,
              27.89483155440918
            ],
            [
              112.84183212019347,
              27.893982012709007
            ],
            [
              112.84179646066995,
              27.893874053694514
            ],
            [
              112.84051794422162,
              27.8928711915724
            ],
            [
              112.8402763045967,
              27.892351834259582
            ],
            [
              112.84007914325646,
              27.891924849289644
            ],
            [
              112.84001383843027,
              27.890839506101425
            ],
            [
              112.83932641793044,
              27.889983188264463
            ],
            [
              112.8389062597024,
              27.889459794806054
            ],
            [
              112.83825673193789,
              27.889309464592145
            ],
            [
              112.83677714917276,
              27.888965893631514
            ],
            [
              112.8365586043355,
              27.88806166208671
            ],
            [
              112.83516435343752,
              27.888008456955095
            ],
            [
              112.83449300020487,
              27.887986893029293
            ],
            [
              112.83454136819472,
              27.88680942898913
            ],
            [
              112.83414836873266,
              27.886302316258025
            ],
            [
              112.8338037938543,
              27.885857687689057
            ],
            [
              112.83350845473834,
              27.884613937745403
            ],
            [
              112.83342222275927,
              27.884488025468944
            ],
            [
              112.83246717347507,
              27.88309390586281
            ],
            [
              112.82993185824868,
              27.882232235346198
            ],
            [
              112.82827600536358,
              27.88166946159976
            ],
            [
              112.82770551137776,
              27.88166946159976
            ],
            [
              112.82522547488071,
              27.88145333469066
            ],
            [
              112.82470103841786,
              27.88214475141383
            ],
            [
              112.82372399568055,
              27.88260946666332
            ],
            [
              112.82269338370789,
              27.881784561620073
            ],
            [
              112.82131187810718,
              27.881784561620073
            ],
            [
              112.81948160473324,
              27.881953916980287
            ],
            [
              112.8199502513254,
              27.88355914188691
            ],
            [
              112.81903587326566,
              27.884446421512163
            ],
            [
              112.81579988738903,
              27.884869650131787
            ],
            [
              112.81354376046814,
              27.88524739948287
            ],
            [
              112.81222671258233,
              27.884023137245133
            ],
            [
              112.81082327910553,
              27.883792265336563
            ],
            [
              112.80987395478462,
              27.88303646375709
            ],
            [
              112.8067160801169,
              27.88210152355651
            ],
            [
              112.80449867417799,
              27.881852444339824
            ],
            [
              112.8044515368801,
              27.882248260468305
            ],
            [
              112.80438241421395,
              27.882828694319226
            ],
            [
              112.804292592567,
              27.883582929952194
            ],
            [
              112.80469402002305,
              27.88460160672245
            ],
            [
              112.80473325124815,
              27.88469909560873
            ],
            [
              112.80482496923867,
              27.884933904670916
            ],
            [
              112.80491769244398,
              27.88623621489031
            ],
            [
              112.80500594473412,
              27.887475721367895
            ],
            [
              112.80500691671125,
              27.887501264882747
            ],
            [
              112.80502493601752,
              27.889079864795914
            ],
            [
              112.80344498179078,
              27.88936826186669
            ],
            [
              112.80303577492434,
              27.89056553619866
            ],
            [
              112.80296701607587,
              27.890766710384785
            ],
            [
              112.80294695220401,
              27.890825413973673
            ],
            [
              112.80297320277322,
              27.8909211195644
            ],
            [
              112.80308423633899,
              27.891327658370084
            ],
            [
              112.80538557816308,
              27.891508447743547
            ],
            [
              112.80547220450255,
              27.891820171248785
            ],
            [
              112.80562600596068,
              27.89237361644782
            ],
            [
              112.80603100691495,
              27.89230962912361
            ],
            [
              112.80696309076889,
              27.892162795486936
            ],
            [
              112.80778786277733,
              27.893114742569335
            ],
            [
              112.80888242581506,
              27.893983009903057
            ],
            [
              112.81106345088324,
              27.8943169280747
            ],
            [
              112.8113363357104,
              27.894402771416697
            ],
            [
              112.81207668135346,
              27.89463566668142
            ],
            [
              112.81303910131459,
              27.895541491519158
            ],
            [
              112.81324757783413,
              27.89574554160424
            ],
            [
              112.81520927024258,
              27.897584017809503
            ],
            [
              112.81604374225945,
              27.89836939823947
            ],
            [
              112.81632859354447,
              27.89910030700931
            ],
            [
              112.81634064085074,
              27.899137888167715
            ],
            [
              112.81664481130426,
              27.900372811411728
            ],
            [
              112.81661330648893,
              27.90038272877807
            ],
            [
              112.81504768308588,
              27.900888835577046
            ],
            [
              112.81406800469156,
              27.9005875795091
            ],
            [
              112.81057784948842,
              27.90295433105418
            ],
            [
              112.8103304310013,
              27.903120908069493
            ],
            [
              112.80979257909799,
              27.90354845062535
            ],
            [
              112.80648119851789,
              27.904642887122204
            ],
            [
              112.80569656862622,
              27.906960276552255
            ],
            [
              112.8056880157664,
              27.908094381695136
            ],
            [
              112.8058987335826,
              27.908459194580125
            ],
            [
              112.80599448950029,
              27.908617226197528
            ],
            [
              112.80611351986873,
              27.908816321113736
            ],
            [
              112.80541900896637,
              27.909461207322792
            ],
            [
              112.80656187172197,
              27.911034093723476
            ],
            [
              112.8069996899302,
              27.911668605049513
            ],
            [
              112.80744559656925,
              27.91260928628343
            ],
            [
              112.808157241039,
              27.913573166891812
            ],
            [
              112.80794434211329,
              27.914302691764572
            ],
            [
              112.80776138493435,
              27.91492961432782
            ],
            [
              112.80791282472157,
              27.91554729279341
            ],
            [
              112.80818213155891,
              27.916645703787445
            ],
            [
              112.80938763114432,
              27.916558746958042
            ],
            [
              112.81130658889808,
              27.91590657247776
            ],
            [
              112.81226918133571,
              27.914386360129456
            ],
            [
              112.81280731261508,
              27.91294999592663
            ],
            [
              112.81595637211491,
              27.91308043470329
            ],
            [
              112.81713726953966,
              27.913471750883204
            ],
            [
              112.81766453749229,
              27.91316376744108
            ],
            [
              112.81858878983361,
              27.91262389789979
            ],
            [
              112.81953361898483,
              27.914412976059218
            ],
            [
              112.81979428941902,
              27.914906562645896
            ],
            [
              112.82097518684375,
              27.91551526510784
            ],
            [
              112.82162472179478,
              27.91627514614128
            ],
            [
              112.82272193037102,
              27.917558741511574
            ],
            [
              112.82432106273076,
              27.917515263472726
            ],
            [
              112.82508372611879,
              27.9167326597531
            ],
            [
              112.82626462354352,
              27.91775439088249
            ],
            [
              112.82857721407161,
              27.915863093774618
            ],
            [
              112.82842960200578,
              27.917406569092915
            ],
            [
              112.83056404403663,
              27.917787033870116
            ],
            [
              112.83185051776177,
              27.918016347326077
            ],
            [
              112.83153069146945,
              27.91884241848403
            ],
            [
              112.83344965012151,
              27.920624973130728
            ],
            [
              112.83325283373435,
              27.92227707006918
            ],
            [
              112.83278539447792,
              27.923885666284423
            ],
            [
              112.83583604713165,
              27.924363893190424
            ],
            [
              112.83524559797016,
              27.926211567058438
            ],
            [
              112.83431832100125,
              27.92757006321858
            ],
            [
              112.83469700221602,
              27.92808480042386
            ],
            [
              112.83591745246272,
              27.929743729659926
            ],
            [
              112.83476797181842,
              27.930966027722512
            ],
            [
              112.83539642690297,
              27.931206353189488
            ],
            [
              112.83864558657325,
              27.93208263952942
            ],
            [
              112.84317213889945,
              27.93284475969596
            ],
            [
              112.84486601657221,
              27.933124975749752
            ],
            [
              112.8448957139772,
              27.933135578213342
            ],
            [
              112.84665848165248,
              27.933437988863215
            ],
            [
              112.84756416851182,
              27.932327406231813
            ],
            [
              112.84416784323845,
              27.928919708558613
            ],
            [
              112.84472218641375,
              27.92627763368724
            ],
            [
              112.84590894804066,
              27.92487034020256
            ],
            [
              112.84650232930326,
              27.922724872357204
            ],
            [
              112.85070300967531,
              27.92106525120393
            ],
            [
              112.85071540373129,
              27.920276766874522
            ],
            [
              112.84841022699922,
              27.917079904254738
            ],
            [
              112.84803666797822,
              27.916987513587497
            ],
            [
              112.84635276430005,
              27.916575191669228
            ]
          ]
        ]
      }
    }
  ]
}