{
  "type": "FeatureCollection",
  "features": [
    {
      "type": "Feature",
      "properties": {
        "name": "韶西逸夫小学",
        "isAssistFeature": false
      },
      "geometry": {
        "type": "Polygon",
        "coordinates": [
          [
            [
              112.88668973734943,
              27.865840398651727
            ],
            [
              112.8866347811153,
              27.86438981482161
            ],
            [
              112.88792395158289,
              27.865354239185702
            ],
            [
              112.88844287777982,
              27.864831759903748
            ],
            [
              112.88865489006832,
              27.864620329415775
            ],
            [
              112.88901437877705,
              27.864001562974885
            ],
            [
              112.8890431221712,
              27.86395208892153
            ],
            [
              112.89132428603736,
              27.864564432479085
            ],
            [
              112.89442852679105,
              27.859388761080346
            ],
            [
              112.89355552513334,
              27.85953851096509
            ],
            [
              112.89269066041544,
              27.85967648113133
            ],
            [
              112.89221293634735,
              27.859354394542667
            ],
            [
              112.89171273822747,
              27.859409672309486
            ],
            [
              112.89145524064287,
              27.8594381292058
            ],
            [
              112.89086920041275,
              27.859153672682748
            ],
            [
              112.88984513805684,
              27.85865660422664
            ],
            [
              112.8897809821759,
              27.858500623384284
            ],
            [
              112.8897550343389,
              27.85850474848199
            ],
            [
              112.88956400849206,
              27.858464950892536
            ],
            [
              112.88949941962312,
              27.858448319450936
            ],
            [
              112.88938250119396,
              27.858416644176007
            ],
            [
              112.88607094274742,
              27.857474814566856
            ],
            [
              112.88489280494727,
              27.857156119085236
            ],
            [
              112.88506830880429,
              27.855681739212365
            ],
            [
              112.88477812062818,
              27.85572707118748
            ],
            [
              112.88323477364756,
              27.85708754501474
            ],
            [
              112.88241737321437,
              27.857747996920665
            ],
            [
              112.88165808569516,
              27.858245678699298
            ],
            [
              112.88139686639032,
              27.859400404815382
            ],
            [
              112.88130683543594,
              27.859820552920432
            ],
            [
              112.8812924632897,
              27.859910804380416
            ],
            [
              112.8810785717256,
              27.861953990791
            ],
            [
              112.88106879356373,
              27.862046680190776
            ],
            [
              112.87890911336501,
              27.86177719684427
            ],
            [
              112.87632387785996,
              27.8614546113975
            ],
            [
              112.87670860114335,
              27.862147458211528
            ],
            [
              112.87663735575816,
              27.864402329214208
            ],
            [
              112.87638185602673,
              27.86508284776436
            ],
            [
              112.87589640824383,
              27.86638002664064
            ],
            [
              112.8748628767465,
              27.866762281327468
            ],
            [
              112.87450000677907,
              27.866896489178814
            ],
            [
              112.87519820706228,
              27.868924526934737
            ],
            [
              112.87493208026103,
              27.869267981208992
            ],
            [
              112.87471277185577,
              27.869328276760832
            ],
            [
              112.87253974628517,
              27.86990363473718
            ],
            [
              112.87257808997478,
              27.870638048723706
            ],
            [
              112.870512710423,
              27.87081835249383
            ],
            [
              112.87090854676474,
              27.87423962101013
            ],
            [
              112.87114720937277,
              27.876463142912996
            ],
            [
              112.87273451720846,
              27.877041046897297
            ],
            [
              112.87599646709172,
              27.87824290426677
            ],
            [
              112.87993386113547,
              27.879693078707824
            ],
            [
              112.88042267400743,
              27.879864365286803
            ],
            [
              112.8815078253959,
              27.880273223722487
            ],
            [
              112.88156192823052,
              27.877552961828105
            ],
            [
              112.88157564101336,
              27.876515436563544
            ],
            [
              112.88157696243512,
              27.876419568954326
            ],
            [
              112.8815817684219,
              27.876070902010742
            ],
            [
              112.88358094123892,
              27.87592356117204
            ],
            [
              112.88403034232444,
              27.875261419053636
            ],
            [
              112.88468110437412,
              27.87434285492401
            ],
            [
              112.88507274468519,
              27.873495890503843
            ],
            [
              112.8852504691776,
              27.873047016520893
            ],
            [
              112.8844458580591,
              27.872851767542272
            ],
            [
              112.8846667313296,
              27.87222417796505
            ],
            [
              112.8858499832387,
              27.871987087676022
            ],
            [
              112.88610241073184,
              27.87059242836792
            ],
            [
              112.88717522555653,
              27.870034559776762
            ],
            [
              112.88856161260247,
              27.868350209631473
            ],
            [
              112.88811201837919,
              27.868179873689
            ],
            [
              112.88674718012025,
              27.86735657568729
            ],
            [
              112.88668973734943,
              27.865840398651727
            ]
          ]
        ]
      }
    }
  ]
}