{
  "type": "FeatureCollection",
  "features": [
    {
      "type": "Feature",
      "geometry": {
        "type": "Polygon",
        "coordinates": [
          [
            [
              112.95202749489906,
              27.889051967501445
            ],
            [
              112.94962423561273,
              27.8838932359278
            ],
            [
              112.94704931456378,
              27.879075669625394
            ],
            [
              112.94425981743449,
              27.875585645259108
            ],
            [
              112.94018286112825,
              27.87327154506592
            ],
            [
              112.93537634255557,
              27.870388334852137
            ],
            [
              112.93527653703256,
              27.870492978022156
            ],
            [
              112.93353098287476,
              27.872323129613136
            ],
            [
              112.9308273161776,
              27.87448550565108
            ],
            [
              112.92868154818764,
              27.87528215966877
            ],
            [
              112.92559164364758,
              27.875623580798816
            ],
            [
              112.92318824242746,
              27.87607884276703
            ],
            [
              112.92362191041906,
              27.877455908009225
            ],
            [
              112.92467697004216,
              27.880807247741757
            ],
            [
              112.92487767433789,
              27.881444763069553
            ],
            [
              112.9258243144927,
              27.884451605631085
            ],
            [
              112.9261376818981,
              27.885446947102736
            ],
            [
              112.92703897779234,
              27.888117981210485
            ],
            [
              112.93773382908492,
              27.885640039884294
            ],
            [
              112.93812114131292,
              27.885550300551557
            ],
            [
              112.94077799949554,
              27.894196525136365
            ],
            [
              112.94234790426921,
              27.898858562126705
            ],
            [
              112.94316240224576,
              27.898664760937777
            ],
            [
              112.94460884705839,
              27.898320593273823
            ],
            [
              112.9446881063142,
              27.898304774566242
            ],
            [
              112.94577688420152,
              27.89812682922934
            ],
            [
              112.94607324739691,
              27.89807920708661
            ],
            [
              112.94656935339228,
              27.89786780706153
            ],
            [
              112.94772245307311,
              27.901767715615208
            ],
            [
              112.95020605238567,
              27.90166972968443
            ],
            [
              112.95104870215242,
              27.902473211697256
            ],
            [
              112.95271182669208,
              27.90306112158514
            ],
            [
              112.95291140163683,
              27.90447209228256
            ],
            [
              112.95709727464721,
              27.90440646797984
            ],
            [
              112.9556069880502,
              27.89909108380941
            ],
            [
              112.95503699987663,
              27.89705804600763
            ],
            [
              112.9548197058388,
              27.89623418144987
            ],
            [
              112.95417326199069,
              27.894931103878434
            ],
            [
              112.95400160022808,
              27.893793230845944
            ],
            [
              112.95202749489906,
              27.889051967501445
            ]
          ]
        ]
      },
      "properties": {
        "name": "风车坪东校区（小学部）",
        "isAssistFeature": false,
        "sourceFileId": "file_1778742032802_46_g1",
        "sourceFileName": "风车坪东校区（小学部）.geojson",
        "sourceGroupId": 1,
        "id": "imported_1778742032802_46_0_g1",
        "sourceFile": "风车坪东校区（小学部）.geojson"
      },
      "id": "imported_1778742032802_46_0_g1"
    }
  ],
  "properties": {
    "fileName": "风车坪东校区（小学部）.geojson",
    "exportTime": "2026/5/14 15:53:17",
    "isStarred": false
  }
}