{
  "type": "FeatureCollection",
  "features": [
    {
      "type": "Feature",
      "geometry": {
        "type": "Polygon",
        "coordinates": [
          [
            [
              112.88647679350795,
              27.88237085789403
            ],
            [
              112.8865066166771,
              27.882352225990857
            ],
            [
              112.8879343432941,
              27.882515562522173
            ],
            [
              112.88911226100704,
              27.882649923956222
            ],
            [
              112.89288793224847,
              27.883036546335674
            ],
            [
              112.8935779919986,
              27.882750736013236
            ],
            [
              112.89607674399626,
              27.881730684827303
            ],
            [
              112.89727334936204,
              27.88045489864983
            ],
            [
              112.89731294979474,
              27.880412677759637
            ],
            [
              112.896910509039,
              27.88006584283022
            ],
            [
              112.89677195199128,
              27.880042621735683
            ],
            [
              112.89535031415522,
              27.879804361456422
            ],
            [
              112.89545226934676,
              27.879196040942432
            ],
            [
              112.89484053909614,
              27.879004531925318
            ],
            [
              112.89526753170688,
              27.878534834376893
            ],
            [
              112.89541403614994,
              27.87837367709166
            ],
            [
              112.89543295107654,
              27.877649285815153
            ],
            [
              112.89542678054887,
              27.877280937121867
            ],
            [
              112.89522360858106,
              27.876728718641743
            ],
            [
              112.89502452304946,
              27.87618540368986
            ],
            [
              112.89514495029815,
              27.87551120189518
            ],
            [
              112.89474352733366,
              27.875411845001636
            ],
            [
              112.89465521395809,
              27.875120872079066
            ],
            [
              112.89433407612547,
              27.875142163020286
            ],
            [
              112.89439830387165,
              27.87468086285726
            ],
            [
              112.89490409669911,
              27.874595700292886
            ],
            [
              112.89550995466271,
              27.873045321916152
            ],
            [
              112.89560155497392,
              27.873450187177383
            ],
            [
              112.8961511541462,
              27.87436787505608
            ],
            [
              112.89687910932658,
              27.874812191077552
            ],
            [
              112.8975508802758,
              27.87515587205914
            ],
            [
              112.89782679871365,
              27.87382353976612
            ],
            [
              112.89799030646842,
              27.87300101204184
            ],
            [
              112.89871518312229,
              27.871607387009107
            ],
            [
              112.89745909311505,
              27.87129712286321
            ],
            [
              112.89575249350123,
              27.870868758084313
            ],
            [
              112.89518197705752,
              27.86900294466797
            ],
            [
              112.89503326751662,
              27.868539800566637
            ],
            [
              112.89462761423022,
              27.867553627918483
            ],
            [
              112.89339220243151,
              27.868611945775243
            ],
            [
              112.89259923707239,
              27.869281787080354
            ],
            [
              112.88777512499485,
              27.865497676840874
            ],
            [
              112.88792395158289,
              27.865354239185706
            ],
            [
              112.88663478111532,
              27.864389814821592
            ],
            [
              112.88668973734943,
              27.865840398651727
            ],
            [
              112.88674718012025,
              27.867356575687282
            ],
            [
              112.8881120183792,
              27.868179873689
            ],
            [
              112.88856161260247,
              27.86835020963146
            ],
            [
              112.88717522555653,
              27.87003455977677
            ],
            [
              112.88610241073184,
              27.870592428367928
            ],
            [
              112.8858499832387,
              27.87198708767602
            ],
            [
              112.8846667313296,
              27.87222417796505
            ],
            [
              112.8844458580591,
              27.872851767542272
            ],
            [
              112.88525046917762,
              27.873047016520914
            ],
            [
              112.88507274468519,
              27.873495890503875
            ],
            [
              112.88468110437412,
              27.874342854924038
            ],
            [
              112.88403034232442,
              27.875261419053643
            ],
            [
              112.88358094123892,
              27.875923561172044
            ],
            [
              112.88158176842191,
              27.876070902010724
            ],
            [
              112.88157696243513,
              27.876419568954347
            ],
            [
              112.88157564101336,
              27.876515436563565
            ],
            [
              112.88156192823052,
              27.8775529618281
            ],
            [
              112.88150782539591,
              27.880273223722497
            ],
            [
              112.88402941975465,
              27.881223296601405
            ],
            [
              112.88384920872551,
              27.88286082537519
            ],
            [
              112.88257314916942,
              27.884236873802138
            ],
            [
              112.8813611772224,
              27.885474110075904
            ],
            [
              112.88102740278869,
              27.886433084114955
            ],
            [
              112.88184002687957,
              27.886688558769904
            ],
            [
              112.88216419113635,
              27.886104654381526
            ],
            [
              112.88459368574773,
              27.885816703031097
            ],
            [
              112.88451930939667,
              27.88496646396257
            ],
            [
              112.88344828994104,
              27.885150536904447
            ],
            [
              112.88306649133881,
              27.88495331588331
            ],
            [
              112.88316797671966,
              27.88416534169012
            ],
            [
              112.88393661740052,
              27.883715269740307
            ],
            [
              112.88472803391444,
              27.88323225851329
            ],
            [
              112.88647679350795,
              27.88237085789403
            ]
          ]
        ]
      },
      "properties": {
        "name": "风车坪北校区（小学部）",
        "isAssistFeature": false,
        "sourceFileId": "file_1778748541496_47_g1",
        "sourceFileName": "风车坪北校区（小学部）.geojson",
        "sourceGroupId": 1,
        "id": "imported_1778748541496_47_0_g1",
        "sourceFile": "风车坪北校区（小学部）.geojson"
      },
      "id": "imported_1778748541496_47_0_g1"
    }
  ],
  "properties": {
    "fileName": "风车坪北校区（小学部）.geojson",
    "exportTime": "2026/5/14 16:50:41",
    "isStarred": false
  }
}