{
  "type": "FeatureCollection",
  "features": [
    {
      "type": "Feature",
      "geometry": {
        "type": "Polygon",
        "coordinates": [
          [
            [
              112.89463043572758,
              27.867553318018693
            ],
            [
              112.89631769281674,
              27.865698931740496
            ],
            [
              112.8918062034412,
              27.864682295287835
            ],
            [
              112.89132428603736,
              27.864564432479085
            ],
            [
              112.88904312217122,
              27.86395208892155
            ],
            [
              112.88901437877703,
              27.86400156297489
            ],
            [
              112.88865489006832,
              27.86462032941577
            ],
            [
              112.88844287777984,
              27.864831759903765
            ],
            [
              112.88792395158289,
              27.865354239185706
            ],
            [
              112.88777512499485,
              27.865497676840874
            ],
            [
              112.89259923707239,
              27.869281787080354
            ],
            [
              112.89339220243151,
              27.868611945775243
            ],
            [
              112.89444331967971,
              27.867711504850107
            ],
            [
              112.89463043572758,
              27.867553318018693
            ]
          ]
        ]
      },
      "properties": {
        "name": "风车坪广场学校",
        "isAssistFeature": false,
        "sourceFileId": "file_1778742032804_48_g1",
        "sourceFileName": "风车坪广场学校.geojson",
        "sourceGroupId": 1,
        "id": "imported_1778742032805_48_0_g1",
        "sourceFile": "风车坪广场学校.geojson"
      },
      "id": "imported_1778742032805_48_0_g1"
    }
  ],
  "properties": {
    "fileName": "风车坪广场学校.geojson",
    "exportTime": "2026/5/14 16:00:02",
    "isStarred": false
  }
}