{
  "type": "FeatureCollection",
  "features": [
    {
      "type": "Feature",
      "properties": {
        "name": "风车坪建元学校",
        "isAssistFeature": false
      },
      "geometry": {
        "type": "Polygon",
        "coordinates": [
          [
            [
              112.9049249770683,
              27.906891937236743
            ],
            [
              112.90562771743697,
              27.906622829030635
            ],
            [
              112.90644084458438,
              27.90740983077772
            ],
            [
              112.9066115550311,
              27.907575055366532
            ],
            [
              112.90696292476628,
              27.907626806876948
            ],
            [
              112.9079874829922,
              27.90730905994438
            ],
            [
              112.90866523043306,
              27.906731143673646
            ],
            [
              112.90952662855227,
              27.90417179562776
            ],
            [
              112.91051754936237,
              27.90342118538126
            ],
            [
              112.91151479610873,
              27.89599057395766
            ],
            [
              112.91936042488209,
              27.896699724625403
            ],
            [
              112.92420517665157,
              27.896155234828555
            ],
            [
              112.92954849430207,
              27.895554709706857
            ],
            [
              112.92703897779234,
              27.8881179812105
            ],
            [
              112.92613768189811,
              27.885446947102725
            ],
            [
              112.92610883340106,
              27.885454085224634
            ],
            [
              112.91700599082806,
              27.88766448328249
            ],
            [
              112.9052915238402,
              27.89050525643877
            ],
            [
              112.90497135528982,
              27.890586899530625
            ],
            [
              112.90466344155648,
              27.890301279048074
            ],
            [
              112.90459581278867,
              27.89023854656226
            ],
            [
              112.90338027542826,
              27.889111008667676
            ],
            [
              112.90464371095959,
              27.88674566307738
            ],
            [
              112.90492472194678,
              27.88621955992139
            ],
            [
              112.90526312719577,
              27.88558600223853
            ],
            [
              112.90540562245772,
              27.885237788805025
            ],
            [
              112.90580354378922,
              27.884265390875424
            ],
            [
              112.90587407770869,
              27.884093026630254
            ],
            [
              112.90594806385383,
              27.88362180042887
            ],
            [
              112.90632468882488,
              27.88117217087201
            ],
            [
              112.90603431469752,
              27.881119341905606
            ],
            [
              112.90354025909213,
              27.880673042829912
            ],
            [
              112.90330208337097,
              27.88063034798151
            ],
            [
              112.90325624234202,
              27.880622130438148
            ],
            [
              112.90303277743196,
              27.880694448609855
            ],
            [
              112.90201235145632,
              27.881024680546894
            ],
            [
              112.90018113574963,
              27.881491897051767
            ],
            [
              112.90012202840057,
              27.881506467609846
            ],
            [
              112.89562229617549,
              27.882649944600956
            ],
            [
              112.8952624265811,
              27.882742677436113
            ],
            [
              112.89392136133785,
              27.88308283001912
            ],
            [
              112.89359724828503,
              27.88306831446083
            ],
            [
              112.89250099461793,
              27.88364657624141
            ],
            [
              112.88931172023777,
              27.885061914202694
            ],
            [
              112.8887176293061,
              27.885325557669415
            ],
            [
              112.88849236866378,
              27.88570931604796
            ],
            [
              112.88775603399841,
              27.886963741387376
            ],
            [
              112.88644607561683,
              27.88919536186885
            ],
            [
              112.88995422048183,
              27.891049904867753
            ],
            [
              112.8957812755229,
              27.892636060705946
            ],
            [
              112.89393657969708,
              27.894361232403398
            ],
            [
              112.90123514524215,
              27.896633383489597
            ],
            [
              112.90129564587824,
              27.89665221776769
            ],
            [
              112.89950569518244,
              27.89750329379543
            ],
            [
              112.89908758601156,
              27.898844964854188
            ],
            [
              112.89579470803136,
              27.899889298211484
            ],
            [
              112.89558948251482,
              27.89936533023174
            ],
            [
              112.89423703561692,
              27.900009616220633
            ],
            [
              112.89353991331201,
              27.900339824174257
            ],
            [
              112.89103222487388,
              27.90349230306847
            ],
            [
              112.88926711888391,
              27.902371348778264
            ],
            [
              112.888607275765,
              27.90301523580764
            ],
            [
              112.88803582417512,
              27.90357513431961
            ],
            [
              112.89033561011715,
              27.904512969267863
            ],
            [
              112.89189726296661,
              27.905907877584763
            ],
            [
              112.89370198645729,
              27.90751987997792
            ],
            [
              112.89536411497295,
              27.909004494094486
            ],
            [
              112.90173675192041,
              27.90943625960091
            ],
            [
              112.90247928136796,
              27.90937620151115
            ],
            [
              112.9038618290144,
              27.90926437680915
            ],
            [
              112.9049249770683,
              27.906891937236743
            ]
          ]
        ]
      }
    }
  ]
}