{
  "type": "FeatureCollection",
  "features": [
    {
      "type": "Feature",
      "properties": {
        "name": "风车坪本部",
        "isAssistFeature": false
      },
      "geometry": {
        "type": "Polygon",
        "coordinates": [
          [
            [
              112.90143862263716,
              27.862562224665435
            ],
            [
              112.9000903097862,
              27.861917838163002
            ],
            [
              112.89651858216541,
              27.859928303651625
            ],
            [
              112.8949253301775,
              27.859079214852628
            ],
            [
              112.89470701800388,
              27.858963632455545
            ],
            [
              112.89442852679105,
              27.859388761080346
            ],
            [
              112.89132428603736,
              27.864564432479085
            ],
            [
              112.8918062034412,
              27.864682295287864
            ],
            [
              112.89631769281674,
              27.865698931740503
            ],
            [
              112.89913645076975,
              27.86633411859917
            ],
            [
              112.90002676475962,
              27.86653401316237
            ],
            [
              112.90143862263716,
              27.862562224665435
            ]
          ]
        ]
      }
    }
  ]
}