{
  "type": "FeatureCollection",
  "features": [
    {
      "type": "Feature",
      "geometry": {
        "type": "Polygon",
        "coordinates": [
          [
            [
              112.96056957462984,
              27.889737059805412
            ],
            [
              112.96131574112343,
              27.892375022992027
            ],
            [
              112.96504657359147,
              27.892704763870412
            ],
            [
              112.96803123956587,
              27.8917979740379
            ],
            [
              112.96840432281269,
              27.8899843715849
            ],
            [
              112.97194861365732,
              27.889737059805412
            ],
            [
              112.97222842609243,
              27.88850049243358
            ],
            [
              112.97567944612535,
              27.887840984060162
            ],
            [
              112.97670542505405,
              27.887016592943993
            ],
            [
              112.97698523748917,
              27.885779994500396
            ],
            [
              112.97847757047637,
              27.88602731531894
            ],
            [
              112.98043625752207,
              27.88569755410198
            ],
            [
              112.97931700778169,
              27.883718965710457
            ],
            [
              112.97595925856045,
              27.88495558769192
            ],
            [
              112.97250823852752,
              27.884873146665853
            ],
            [
              112.969243760118,
              27.88157545415561
            ],
            [
              112.96756488550737,
              27.881328123169126
            ],
            [
              112.96607255252017,
              27.880586126820447
            ],
            [
              112.96224844924043,
              27.88042123805262
            ],
            [
              112.95973013732453,
              27.881328123169126
            ],
            [
              112.958331075149,
              27.882235000691466
            ],
            [
              112.96056957462984,
              27.889737059805412
            ]
          ]
        ]
      },
      "properties": {
        "name": "滴水埠村",
        "type": "assistPolygon",
        "fill": "#9b59b6",
        "fill-opacity": 0.2,
        "stroke": "#9b59b6",
        "stroke-width": 2,
        "stroke-opacity": 0.8
      },
      "id": "assist_polygon_1773914427229"
    },
    {
      "type": "Feature",
      "geometry": {
        "type": "Point",
        "coordinates": [
          112.96577791201213,
          27.886497321147317
        ]
      },
      "properties": {
        "iconType": "default",
        "iconColor": "#e74c3c",
        "iconSize": 1,
        "text": "滴水埠村中心点",
        "textColor": "#333333",
        "type": "assistPoint",
        "name": "辅助点_1"
      },
      "id": "assist_point_1773914454204"
    }
  ],
  "properties": {
    "description": "GIS-APP 辅助要素导出",
    "exportTime": "2026/3/19 18:01:13",
    "assistElements": {
      "lines": 0,
      "polygons": 1,
      "texts": 0,
      "points": 1
    }
  }
}