{
  "type": "FeatureCollection",
  "features": [
    {
      "type": "Feature",
      "geometry": {
        "type": "LineString",
        "coordinates": [
          [
            112.87284875010603,
            27.836764450551357
          ],
          [
            112.87928307362878,
            27.84537045896856
          ]
        ]
      },
      "properties": {
        "type": "assistLine",
        "name": "辅助线_1",
        "stroke": "#e74c3c",
        "stroke-width": 2,
        "stroke-opacity": 0.8,
        "stroke-dasharray": "5,5"
      }
    },
    {
      "type": "Feature",
      "geometry": {
        "type": "Polygon",
        "coordinates": [
          [
            [
              112.91685196950198,
              27.838813936871503
            ],
            [
              112.92301156872027,
              27.84013434506427
            ],
            [
              112.92297688748242,
              27.840119759264013
            ],
            [
              112.92307426690648,
              27.839689217593744
            ],
            [
              112.92348812945876,
              27.838978820102355
            ],
            [
              112.92363419859483,
              27.83809619855745
            ],
            [
              112.92346378460273,
              27.837708703903758
            ],
            [
              112.92365854345084,
              27.836976765782012
            ],
            [
              112.92414544057117,
              27.836933710444626
            ],
            [
              112.92424281999523,
              27.836481628370436
            ],
            [
              112.92474330789443,
              27.836191411835088
            ],
            [
              112.92370633832908,
              27.83583378987339
            ],
            [
              112.92335376867683,
              27.83571458229089
            ],
            [
              112.92239975667671,
              27.835347788907967
            ],
            [
              112.92099984776347,
              27.834797596508764
            ],
            [
              112.92003546606766,
              27.834403290239962
            ],
            [
              112.91991102971981,
              27.834660047973102
            ],
            [
              112.91965178732846,
              27.834660047973102
            ],
            [
              112.91909182376315,
              27.83548533657185
            ],
            [
              112.91838668445872,
              27.835201071207607
            ],
            [
              112.9180341148065,
              27.835751261560986
            ],
            [
              112.91764006637166,
              27.83583378987339
            ],
            [
              112.91723564824115,
              27.836714087966556
            ],
            [
              112.91700751493678,
              27.837869468375345
            ],
            [
              112.91742230276294,
              27.83800701284258
            ],
            [
              112.91685196950198,
              27.838813936871503
            ]
          ]
        ]
      },
      "properties": {
        "name": "曙光社区",
        "type": "assistPolygon",
        "fill": "#9b59b6",
        "fill-opacity": 0.2,
        "stroke": "#9b59b6",
        "stroke-width": 2,
        "stroke-opacity": 0.8
      },
      "id": "assist_polygon_1773887067010"
    },
    {
      "type": "Feature",
      "geometry": {
        "type": "Polygon",
        "coordinates": [
          [
            [
              112.91340169695776,
              27.838096048032313
            ],
            [
              112.91373259166787,
              27.83814810751521
            ],
            [
              112.9138938623606,
              27.83814810751521
            ],
            [
              112.916820860415,
              27.83876808907614
            ],
            [
              112.91734505518546,
              27.83800550054501
            ],
            [
              112.91694725414334,
              27.837891414833905
            ],
            [
              112.91703326517947,
              27.837482606717273
            ],
            [
              112.9171556519939,
              27.836921008839667
            ],
            [
              112.9172138844861,
              27.83666353931889
            ],
            [
              112.91730204966738,
              27.83649385513712
            ],
            [
              112.9176089572847,
              27.83580628044291
            ],
            [
              112.9176089572847,
              27.83580628044291
            ],
            [
              112.91785782998039,
              27.835742091744635
            ],
            [
              112.91804448450216,
              27.83571458229089
            ],
            [
              112.91835557537176,
              27.835146052018843
            ],
            [
              112.91835568486,
              27.835162829166208
            ],
            [
              112.9187212317636,
              27.835333961991424
            ],
            [
              112.91907108437188,
              27.83543948736991
            ],
            [
              112.91944157419121,
              27.83485859236609
            ],
            [
              112.91960284488394,
              27.834611399337916
            ],
            [
              112.91985012661283,
              27.834649429071206
            ],
            [
              112.91996839178753,
              27.83435469828956
            ],
            [
              112.91744181760112,
              27.833413455916812
            ],
            [
              112.91472171858334,
              27.83233909858464
            ],
            [
              112.91313518367866,
              27.831727957683242
            ],
            [
              112.91265745371615,
              27.83284300202061
            ],
            [
              112.91250693440291,
              27.83408848915353
            ],
            [
              112.91248006814145,
              27.834347800699916
            ],
            [
              112.91201867526816,
              27.835315374989946
            ],
            [
              112.91175662905329,
              27.8357723886474
            ],
            [
              112.91131988536183,
              27.83646756066085
            ],
            [
              112.9111952661019,
              27.836636464094155
            ],
            [
              112.91086858354731,
              27.83711767119874
            ],
            [
              112.91082490917817,
              27.837407323154338
            ],
            [
              112.91239718646743,
              27.837845017975667
            ],
            [
              112.91252820957486,
              27.83796731474247
            ],
            [
              112.91283393015888,
              27.83794800473582
            ],
            [
              112.91303046482004,
              27.837857891326024
            ],
            [
              112.91323427854272,
              27.83790938471222
            ],
            [
              112.91331434821949,
              27.83799949807927
            ],
            [
              112.91340169695776,
              27.838096048032313
            ]
          ]
        ]
      },
      "properties": {
        "name": "霞光社区",
        "type": "assistPolygon",
        "fill": "#9b59b6",
        "fill-opacity": 0.2,
        "stroke": "#9b59b6",
        "stroke-width": 2,
        "stroke-opacity": 0.8
      },
      "id": "assist_polygon_1773886874752"
    },
    {
      "type": "Feature",
      "geometry": {
        "type": "Polygon",
        "coordinates": [
          [
            [
              112.92193104928158,
              27.828476246176237
            ],
            [
              112.92095644260556,
              27.829636473160704
            ],
            [
              112.92216697084281,
              27.83038038995292
            ],
            [
              112.92274145881981,
              27.82998121572274
            ],
            [
              112.92296715052505,
              27.82943688486111
            ],
            [
              112.92501889330005,
              27.830452966927936
            ],
            [
              112.92448544017854,
              27.831342030933115
            ],
            [
              112.9241366439068,
              27.831178734008788
            ],
            [
              112.92382888249054,
              27.83172305613438
            ],
            [
              112.92368526049628,
              27.832412526907547
            ],
            [
              112.92374681277954,
              27.832920555200616
            ],
            [
              112.9229876679528,
              27.832993130476908
            ],
            [
              112.92329542936905,
              27.83417247191396
            ],
            [
              112.92339801650779,
              27.835478804390064
            ],
            [
              112.92495734101679,
              27.836023104946904
            ],
            [
              112.92434019941929,
              27.836653850335082
            ],
            [
              112.9241941302832,
              27.837041348756102
            ],
            [
              112.92370723316287,
              27.83708440405077
            ],
            [
              112.92363419859483,
              27.837794813946417
            ],
            [
              112.92380461258693,
              27.838074671113006
            ],
            [
              112.92370723316287,
              27.838289945365318
            ],
            [
              112.92360985373884,
              27.83884965642234
            ],
            [
              112.92336640517867,
              27.839129510868048
            ],
            [
              112.92317164633052,
              27.839409364591845
            ],
            [
              112.92317164633052,
              27.839560054759502
            ],
            [
              112.92336640517867,
              27.83958158190923
            ],
            [
              112.92326902575458,
              27.83975379895321
            ],
            [
              112.92314730147453,
              27.840205867393024
            ],
            [
              112.92354163850206,
              27.84026855558085
            ],
            [
              112.9253029533717,
              27.840697317342972
            ],
            [
              112.92588262912246,
              27.839039969217282
            ],
            [
              112.92907084575153,
              27.839825931278696
            ],
            [
              112.92928339352679,
              27.83986010341306
            ],
            [
              112.92901287817645,
              27.84061188764612
            ],
            [
              112.92891626555134,
              27.840919434239908
            ],
            [
              112.92982442422749,
              27.841192808257972
            ],
            [
              112.92968916655231,
              27.841739554227445
            ],
            [
              112.93113308676953,
              27.842082800055707
            ],
            [
              112.93150240046903,
              27.840377411104953
            ],
            [
              112.93178964445754,
              27.83948842112835
            ],
            [
              112.93203585359052,
              27.83878085247123
            ],
            [
              112.93336948639426,
              27.838254708683422
            ],
            [
              112.93332881292358,
              27.837880923920665
            ],
            [
              112.93323143349951,
              27.837558011164674
            ],
            [
              112.9331027598335,
              27.837383844393514
            ],
            [
              112.93252543267508,
              27.837536483613434
            ],
            [
              112.93233067382693,
              27.837450373365755
            ],
            [
              112.93213591497882,
              27.837536483613434
            ],
            [
              112.93206288041077,
              27.837407318216293
            ],
            [
              112.93177074213857,
              27.837514956057902
            ],
            [
              112.93186812156263,
              27.8363094061324
            ],
            [
              112.93191681127468,
              27.83622329491088
            ],
            [
              112.93198984584272,
              27.836008016558083
            ],
            [
              112.93203585359052,
              27.83551509117882
            ],
            [
              112.93185119674077,
              27.835442517589215
            ],
            [
              112.93162467300247,
              27.835340650950158
            ],
            [
              112.93089432732201,
              27.83521148293903
            ],
            [
              112.93096894734752,
              27.834335764333517
            ],
            [
              112.93096894734752,
              27.83362816207412
            ],
            [
              112.9296763493993,
              27.83330157485969
            ],
            [
              112.92994307596005,
              27.83281169219518
            ],
            [
              112.92984457919168,
              27.831324363440913
            ],
            [
              112.92683866472971,
              27.83097174345255
            ],
            [
              112.92193104928158,
              27.828476246176237
            ]
          ]
        ]
      },
      "properties": {
        "type": "assistPolygon",
        "name": "辅助多边形_3",
        "fill": "#9b59b6",
        "fill-opacity": 0.2,
        "stroke": "#9b59b6",
        "stroke-width": 2,
        "stroke-opacity": 0.8
      },
      "id": "assist_polygon_1773892405740"
    },
    {
      "type": "Feature",
      "geometry": {
        "type": "Polygon",
        "coordinates": [
          [
            [
              112.91103900211053,
              27.843538234174773
            ],
            [
              112.91479568602557,
              27.84435708325114
            ],
            [
              112.91750399303406,
              27.844913279098307
            ],
            [
              112.92092869092872,
              27.845670318862915
            ],
            [
              112.92143540643353,
              27.84582481612486
            ],
            [
              112.92159266296952,
              27.844635181531245
            ],
            [
              112.92168002771172,
              27.84409443422078
            ],
            [
              112.92176739245394,
              27.843352833525643
            ],
            [
              112.92187223014459,
              27.842580327410033
            ],
            [
              112.92206443257743,
              27.842024119600325
            ],
            [
              112.92227410795874,
              27.841452458601836
            ],
            [
              112.92262356692758,
              27.841019848276176
            ],
            [
              112.92307786358708,
              27.840649038052533
            ],
            [
              112.92202948668056,
              27.840370929553018
            ],
            [
              112.92047439426922,
              27.840000117111273
            ],
            [
              112.91942601736271,
              27.839783809268297
            ],
            [
              112.91663034561198,
              27.839181235145887
            ],
            [
              112.913904565655,
              27.838547756177746
            ],
            [
              112.91332795835643,
              27.83842415009414
            ],
            [
              112.91308333707823,
              27.83857865767662
            ],
            [
              112.91271640516095,
              27.83953659977678
            ],
            [
              112.91205243312018,
              27.84100439787551
            ],
            [
              112.91103900211053,
              27.843538234174773
            ]
          ]
        ]
      },
      "properties": {
        "name": "建设路社区",
        "type": "assistPolygon",
        "fill": "#9b59b6",
        "fill-opacity": 0.2,
        "stroke": "#9b59b6",
        "stroke-width": 2,
        "stroke-opacity": 0.8
      },
      "id": "assist_polygon_1773900401869"
    },
    {
      "type": "Feature",
      "geometry": {
        "type": "Polygon",
        "coordinates": [
          [
            [
              112.90787085665097,
              27.85083447218986
            ],
            [
              112.90871860251201,
              27.85116566765454
            ],
            [
              112.90952691833299,
              27.851740899478386
            ],
            [
              112.91017751399377,
              27.852106954504706
            ],
            [
              112.9121293009761,
              27.852821629804126
            ],
            [
              112.9159342998407,
              27.854163812148045
            ],
            [
              112.9198378738054,
              27.855645422714304
            ],
            [
              112.92135593034725,
              27.852734474532014
            ],
            [
              112.92143479042733,
              27.85203722983306
            ],
            [
              112.92141507540732,
              27.85046841286787
            ],
            [
              112.92145450544736,
              27.848394053368906
            ],
            [
              112.92141507540732,
              27.846040740352194
            ],
            [
              112.91808323702331,
              27.845326020364098
            ],
            [
              112.91461339349911,
              27.844541566175366
            ],
            [
              112.91094639977467,
              27.84372224129882
            ],
            [
              112.90946777327287,
              27.84792339485068
            ],
            [
              112.90787085665097,
              27.85083447218986
            ]
          ]
        ]
      },
      "properties": {
        "name": "大桥社区",
        "type": "assistPolygon",
        "fill": "#9b59b6",
        "fill-opacity": 0.2,
        "stroke": "#9b59b6",
        "stroke-width": 2,
        "stroke-opacity": 0.8
      },
      "id": "assist_polygon_1773901432752"
    },
    {
      "type": "Feature",
      "geometry": {
        "type": "Point",
        "coordinates": [
          112.91504721593445,
          27.835513246073333
        ]
      },
      "properties": {
        "iconType": "default",
        "iconColor": "#e74c3c",
        "iconSize": 1,
        "text": "霞光社区中心点",
        "textColor": "#333333",
        "type": "assistPoint",
        "name": "辅助点_1"
      },
      "id": "assist_point_1773886961502"
    },
    {
      "type": "Feature",
      "geometry": {
        "type": "Point",
        "coordinates": [
          112.9210516962417,
          27.837401815882487
        ]
      },
      "properties": {
        "iconType": "default",
        "iconColor": "#e74c3c",
        "iconSize": 1,
        "text": "曙光社区中心点",
        "textColor": "#333333",
        "type": "assistPoint",
        "name": "辅助点_2"
      },
      "id": "assist_point_1773887182215"
    },
    {
      "type": "Feature",
      "geometry": {
        "type": "Point",
        "coordinates": [
          112.92775384089597,
          27.83577120987671
        ]
      },
      "properties": {
        "iconType": "default",
        "iconColor": "#e74c3c",
        "iconSize": 1,
        "text": "湖湘社区中心点",
        "textColor": "#333333",
        "type": "assistPoint",
        "name": "辅助点_3"
      },
      "id": "assist_point_1773893167204"
    },
    {
      "type": "Feature",
      "geometry": {
        "type": "Point",
        "coordinates": [
          112.91699727752926,
          27.841931418021417
        ]
      },
      "properties": {
        "iconType": "default",
        "iconColor": "#e74c3c",
        "iconSize": 1,
        "text": "建设路社区中心点",
        "textColor": "#333333",
        "type": "assistPoint",
        "name": "辅助点_4"
      },
      "id": "assist_point_1773900413499"
    },
    {
      "type": "Feature",
      "geometry": {
        "type": "Point",
        "coordinates": [
          112.91549681271059,
          27.848924142733082
        ]
      },
      "properties": {
        "iconType": "default",
        "iconColor": "#e74c3c",
        "iconSize": 1,
        "text": "大桥社区中心点",
        "textColor": "#333333",
        "type": "assistPoint",
        "name": "辅助点_5"
      },
      "id": "assist_point_1773901489356"
    }
  ],
  "properties": {
    "description": "GIS-APP 辅助要素导出",
    "exportTime": "2026/3/19 14:25:02",
    "assistElements": {
      "lines": 1,
      "polygons": 5,
      "texts": 0,
      "points": 5
    }
  }
}