{
  "type": "FeatureCollection",
  "features": [
    {
      "type": "Feature",
      "geometry": {
        "type": "Polygon",
        "coordinates": [
          [
            [
              113.0152711103146,
              27.929947157400974
            ],
            [
              113.01470613203017,
              27.927888060953876
            ],
            [
              113.01173999603701,
              27.924497745987125
            ],
            [
              113.01334076784285,
              27.922168142781985
            ],
            [
              113.01708374897709,
              27.922396945319875
            ],
            [
              113.01821370554592,
              27.923208150415945
            ],
            [
              113.02063840401654,
              27.92318735036133
            ],
            [
              113.02193314591831,
              27.922625747373516
            ],
            [
              113.02473449657855,
              27.922542546682763
            ],
            [
              113.02763001028619,
              27.92283374882028
            ],
            [
              113.0300547087568,
              27.924164948602822
            ],
            [
              113.02934848590128,
              27.925059339249984
            ],
            [
              113.03278543713147,
              27.925184137356624
            ],
            [
              113.03179672513374,
              27.93084150020357
            ],
            [
              113.03179672513374,
              27.93283814580076
            ],
            [
              113.03151423599152,
              27.93344129190308
            ],
            [
              113.02850101847466,
              27.933254108990226
            ],
            [
              113.02478157810226,
              27.932380584443038
            ],
            [
              113.0152711103146,
              27.929947157400974
            ]
          ]
        ]
      },
      "properties": {
        "assistFileId": "assist_file_default_1773898780150",
        "sourceFileName": "辅助元素_1.geojson",
        "name": "路口居民委员会",
        "type": "assistPolygon",
        "fill": "#9b59b6",
        "fill-opacity": 0.2,
        "stroke": "#9b59b6",
        "stroke-width": 2,
        "stroke-opacity": 0.8
      },
      "id": "assist_polygon_1773898780150"
    },
    {
      "type": "Feature",
      "geometry": {
        "type": "Point",
        "coordinates": [
          113.02249812420274,
          27.927451277876514
        ]
      },
      "properties": {
        "iconType": "default",
        "iconColor": "#e74c3c",
        "iconSize": 1,
        "text": "路口居民委员会",
        "textColor": "#333333",
        "assistFileId": "assist_file_default_1773898780150",
        "sourceFileName": "辅助元素_1.geojson",
        "type": "assistPoint",
        "name": "辅助点_1"
      },
      "id": "assist_point_1773898788806"
    }
  ],
  "properties": {
    "description": "GIS-APP 辅助要素导出",
    "exportTime": "2026/3/19 13:39:51",
    "assistElements": {
      "lines": 0,
      "polygons": 1,
      "texts": 0,
      "points": 1
    },
    "fileCount": 1
  }
}