{
  "type": "FeatureCollection",
  "features": [
    {
      "type": "Feature",
      "geometry": {
        "type": "Polygon",
        "coordinates": [
          [
            [
              113.0037345456751,
              27.922851489079648
            ],
            [
              113.00387750376522,
              27.921931191934405
            ],
            [
              113.0042348989905,
              27.921868033999914
            ],
            [
              113.00453102646289,
              27.918565724886392
            ],
            [
              113.00479652005879,
              27.917266428079373
            ],
            [
              113.00687962365753,
              27.916526543754586
            ],
            [
              113.00774758349031,
              27.916183668814327
            ],
            [
              113.00884019175044,
              27.918574747726296
            ],
            [
              113.01004512422422,
              27.92124547524287
            ],
            [
              113.01005533551638,
              27.921696605134628
            ],
            [
              113.00934054506584,
              27.921913146814063
            ],
            [
              113.00913631922282,
              27.922075552788982
            ],
            [
              113.008809557874,
              27.922066530241196
            ],
            [
              113.00831941585076,
              27.92187705656427
            ],
            [
              113.00842152877227,
              27.922147733143973
            ],
            [
              113.00640990421857,
              27.922075552788982
            ],
            [
              113.00586870573456,
              27.92211164297251
            ],
            [
              113.00558278955435,
              27.92295073634304
            ],
            [
              113.0041021521925,
              27.92296878129021
            ],
            [
              113.0037345456751,
              27.922851489079648
            ]
          ]
        ]
      },
      "properties": {
        "assistFileId": "assist_file_default_1773890704787",
        "sourceFileName": "辅助元素_1.geojson",
        "name": "双建社区",
        "type": "assistPolygon",
        "fill": "#9b59b6",
        "fill-opacity": 0.2,
        "stroke": "#9b59b6",
        "stroke-width": 2,
        "stroke-opacity": 0.8
      },
      "id": "assist_polygon_1773890839107"
    },
    {
      "type": "Feature",
      "geometry": {
        "type": "Point",
        "coordinates": [
          113.00751410740921,
          27.921313808943196
        ]
      },
      "properties": {
        "iconType": "default",
        "iconColor": "#e74c3c",
        "iconSize": 1,
        "text": "双建社区",
        "textColor": "#333333",
        "assistFileId": "assist_file_default_1773890704787",
        "sourceFileName": "辅助元素_1.geojson",
        "type": "assistPoint",
        "name": "辅助点_1"
      },
      "id": "assist_point_1773890706348"
    },
    {
      "type": "Feature",
      "geometry": {
        "type": "Point",
        "coordinates": [
          113.00695110270254,
          27.91967552854581
        ]
      },
      "properties": {
        "iconType": "default",
        "iconColor": "#e74c3c",
        "iconSize": 1,
        "text": "双建社区",
        "textColor": "#333333",
        "assistFileId": "assist_file_default_1773890704787",
        "sourceFileName": "辅助元素_1.geojson",
        "type": "assistPoint",
        "name": "辅助点_2"
      },
      "id": "assist_point_1773890859142"
    }
  ],
  "properties": {
    "description": "GIS-APP 辅助要素导出",
    "exportTime": "2026/3/19 11:27:45",
    "assistElements": {
      "lines": 2,
      "polygons": 1,
      "texts": 0,
      "points": 2
    },
    "fileCount": 1
  }
}