{
  "type": "FeatureCollection",
  "features": [
    {
      "type": "Feature",
      "geometry": {
        "type": "Polygon",
        "coordinates": [
          [
            [
              112.8637241929563,
              27.99171114230694
            ],
            [
              112.86235845509268,
              27.991179096418662
            ],
            [
              112.86203710500712,
              27.98986670533347
            ],
            [
              112.86103288598976,
              27.989405591159198
            ],
            [
              112.86010900449378,
              27.989582942998084
            ],
            [
              112.85950647308334,
              27.988767122123377
            ],
            [
              112.85689550363819,
              27.98983123508239
            ],
            [
              112.8566946598347,
              27.9884478861875
            ],
            [
              112.85653398479194,
              27.98724187523223
            ],
            [
              112.85617246594568,
              27.986213208168735
            ],
            [
              112.85689550363819,
              27.985716606763418
            ],
            [
              112.85472639056069,
              27.98376565052854
            ],
            [
              112.85376234030399,
              27.982311278370645
            ],
            [
              112.85255727748314,
              27.980714993667462
            ],
            [
              112.85022748936287,
              27.979721737927264
            ],
            [
              112.84958478919175,
              27.978480155388255
            ],
            [
              112.84938394538825,
              27.97652906823572
            ],
            [
              112.84633111957547,
              27.97603242223441
            ],
            [
              112.84480470666907,
              27.975961472619005
            ],
            [
              112.84488504419043,
              27.97521649883946
            ],
            [
              112.84263559359155,
              27.97464889631604
            ],
            [
              112.84135019324931,
              27.97408129080597
            ],
            [
              112.84074405734687,
              27.97378353951899
            ],
            [
              112.84018169469715,
              27.972258080701835
            ],
            [
              112.84094490115038,
              27.971229270715725
            ],
            [
              112.84231063901399,
              27.97154855762338
            ],
            [
              112.84323452050998,
              27.971796891231605
            ],
            [
              112.84427890828803,
              27.971122841536527
            ],
            [
              112.8437968831597,
              27.969739252653014
            ],
            [
              112.8445600896129,
              27.96934900642664
            ],
            [
              112.84560447739095,
              27.968852327369916
            ],
            [
              112.84680954021181,
              27.96899423590513
            ],
            [
              112.84805477179336,
              27.968213736651748
            ],
            [
              112.84729156534014,
              27.967113932666805
            ],
            [
              112.84713089029736,
              27.96615602974019
            ],
            [
              112.84797443427196,
              27.965623857773423
            ],
            [
              112.84797443427196,
              27.963530622575377
            ],
            [
              112.84717105905806,
              27.962643646261725
            ],
            [
              112.84584548995514,
              27.963353227895794
            ],
            [
              112.84464042713431,
              27.964169241007482
            ],
            [
              112.8437968831597,
              27.964204719698458
            ],
            [
              112.8438772206811,
              27.963140353895426
            ],
            [
              112.84504211474125,
              27.963211311942203
            ],
            [
              112.84504211474125,
              27.962430770861772
            ],
            [
              112.84580532119445,
              27.962005018802216
            ],
            [
              112.84492160845917,
              27.96090515154178
            ],
            [
              112.84644802136555,
              27.959663352454783
            ],
            [
              112.84793426551127,
              27.959414990922994
            ],
            [
              112.84901882205001,
              27.959556911868276
            ],
            [
              112.85211181662352,
              27.959308550091592
            ],
            [
              112.85351772324782,
              27.959308550091592
            ],
            [
              112.85500396739356,
              27.961295428304197
            ],
            [
              112.85616886145367,
              27.961827621615072
            ],
            [
              112.85608852393229,
              27.963104874854537
            ],
            [
              112.85620903021439,
              27.96409828359053
            ],
            [
              112.85661071782131,
              27.9656948141873
            ],
            [
              112.85797645568495,
              27.96636889779205
            ],
            [
              112.85958320611275,
              27.966972021658663
            ],
            [
              112.86139080034401,
              27.967539664571362
            ],
            [
              112.86135063158332,
              27.96913614425371
            ],
            [
              112.86131046282263,
              27.97016497419925
            ],
            [
              112.8607079314122,
              27.971690462612372
            ],
            [
              112.86127029406191,
              27.972116176459423
            ],
            [
              112.86171215042957,
              27.97115831794126
            ],
            [
              112.86412227607126,
              27.97218712860392
            ],
            [
              112.86572902649904,
              27.972790219948365
            ],
            [
              112.86777763329447,
              27.972896647482685
            ],
            [
              112.86962539628644,
              27.973464259225892
            ],
            [
              112.87083045910727,
              27.974563998479525
            ],
            [
              112.87119197795352,
              27.975983000304907
            ],
            [
              112.86737594568753,
              27.976692494217573
            ],
            [
              112.86641189543084,
              27.978856421827444
            ],
            [
              112.86504615756722,
              27.97924663366136
            ],
            [
              112.86420261359262,
              27.980168946929354
            ],
            [
              112.86319839457526,
              27.98041726069235
            ],
            [
              112.86440345739612,
              27.981481456057836
            ],
            [
              112.86239501936137,
              27.982049022625503
            ],
            [
              112.8621941755579,
              27.983148674349835
            ],
            [
              112.8629172132504,
              27.98360981528407
            ],
            [
              112.86416244483195,
              27.98360981528407
            ],
            [
              112.86629138914876,
              27.984815866865446
            ],
            [
              112.8660503765846,
              27.98556077433851
            ],
            [
              112.86548801393486,
              27.986447562239334
            ],
            [
              112.86456413243887,
              27.98630567666534
            ],
            [
              112.86496582004584,
              27.986873217841094
            ],
            [
              112.86416244483195,
              27.987653582079744
            ],
            [
              112.8630778882932,
              27.98754716910706
            ],
            [
              112.86259586316486,
              27.988398469947626
            ],
            [
              112.86396160102848,
              27.988575823443313
            ],
            [
              112.86456413243887,
              27.98914335266896
            ],
            [
              112.8652470013707,
              27.98978181947662
            ],
            [
              112.86588970154182,
              27.990349342353454
            ],
            [
              112.86564868897764,
              27.991271560656074
            ],
            [
              112.86412227607126,
              27.991377969952524
            ],
            [
              112.8637241929563,
              27.99171114230694
            ]
          ]
        ]
      },
      "properties": {
        "name": "果沙社区",
        "type": "assistPolygon",
        "fill": "#9b59b6",
        "fill-opacity": 0.2,
        "stroke": "#9b59b6",
        "stroke-width": 2,
        "stroke-opacity": 0.8
      },
      "id": "assist_polygon_1773820737923"
    },
    {
      "type": "Feature",
      "geometry": {
        "type": "Point",
        "coordinates": [
          112.85620903021439,
          27.974102818867138
        ]
      },
      "properties": {
        "iconType": "default",
        "iconColor": "#e74c3c",
        "iconSize": 1,
        "text": "果沙社区",
        "textColor": "#333333",
        "type": "assistPoint",
        "name": "辅助点_1"
      },
      "id": "assist_point_1773820743524"
    }
  ],
  "properties": {
    "description": "GIS-APP 辅助要素导出",
    "exportTime": "2026/3/18 15:59:05",
    "assistElements": {
      "lines": 0,
      "polygons": 1,
      "texts": 0,
      "points": 1
    }
  }
}