{
  "type": "FeatureCollection",
  "features": [
    {
      "type": "Feature",
      "geometry": {
        "type": "Polygon",
        "coordinates": [
          [
            [
              112.90544546092094,
              27.83225623572551
            ],
            [
              112.9055127985366,
              27.832084208369295
            ],
            [
              112.90558013615231,
              27.831753385764017
            ],
            [
              112.90572977529825,
              27.831276999440718
            ],
            [
              112.90613380099238,
              27.830350686714837
            ],
            [
              112.90654530864377,
              27.82962286402669
            ],
            [
              112.90670242974701,
              27.829404516268482
            ],
            [
              112.90617121077875,
              27.82876932029251
            ],
            [
              112.90575970312734,
              27.82817382068893
            ],
            [
              112.90537812330516,
              27.827704035362956
            ],
            [
              112.90660516430204,
              27.827657718389744
            ],
            [
              112.90677724931989,
              27.827889303058285
            ],
            [
              112.9071139373983,
              27.82787606966197
            ],
            [
              112.9071663110994,
              27.82817382068893
            ],
            [
              112.90754789092159,
              27.82814735396407
            ],
            [
              112.90764515636647,
              27.828226754119342
            ],
            [
              112.90821378512112,
              27.82788268636031
            ],
            [
              112.90852054537037,
              27.82767756852354
            ],
            [
              112.90895449889366,
              27.827684185234006
            ],
            [
              112.90884756785555,
              27.829040132573127
            ],
            [
              112.90888716127795,
              27.829794895284365
            ],
            [
              112.90888716127795,
              27.830324220520794
            ],
            [
              112.90906475659062,
              27.831325737437098
            ],
            [
              112.90909371508863,
              27.831633041983125
            ],
            [
              112.90910819433763,
              27.83182510688256
            ],
            [
              112.90914902978355,
              27.83227608501828
            ],
            [
              112.90544546092094,
              27.83225623572551
            ]
          ]
        ]
      },
      "properties": {
        "name": "大板房社区",
        "type": "assistPolygon",
        "fill": "#9b59b6",
        "fill-opacity": 0.2,
        "stroke": "#9b59b6",
        "stroke-width": 2,
        "stroke-opacity": 0.8
      },
      "id": "assist_polygon_1773882876116"
    },
    {
      "type": "Feature",
      "geometry": {
        "type": "Point",
        "coordinates": [
          112.90763019245203,
          27.830549182964518
        ]
      },
      "properties": {
        "iconType": "default",
        "iconColor": "#e74c3c",
        "iconSize": 1,
        "text": "大板房社区",
        "textColor": "#333333",
        "type": "assistPoint",
        "name": "辅助点_1"
      },
      "id": "assist_point_1773882889936"
    }
  ],
  "properties": {
    "description": "GIS-APP 辅助要素导出",
    "exportTime": "2026/3/19 09:15:29",
    "assistElements": {
      "lines": 0,
      "polygons": 1,
      "texts": 0,
      "points": 1
    }
  }
}