{
  "type": "FeatureCollection",
  "features": [
    {
      "type": "Feature",
      "geometry": {
        "type": "Polygon",
        "coordinates": [
          [
            [
              112.82715670390877,
              27.995886893942824
            ],
            [
              112.82560242045196,
              27.99709460200603
            ],
            [
              112.82429682234826,
              27.99791803156235
            ],
            [
              112.8233020809359,
              27.997863136454328
            ],
            [
              112.82236951086182,
              27.996271166158238
            ],
            [
              112.82137476944949,
              27.99550262035737
            ],
            [
              112.82025568536058,
              27.99577710162967
            ],
            [
              112.8200070000075,
              27.994185100519914
            ],
            [
              112.81926094394825,
              27.993416539843935
            ],
            [
              112.81696060443217,
              27.993745923661834
            ],
            [
              112.81546849231367,
              27.993581231878693
            ],
            [
              112.81378986618031,
              27.993581231878693
            ],
            [
              112.81366552350379,
              27.99204409643501
            ],
            [
              112.81459809357784,
              27.990671635551735
            ],
            [
              112.81484677893093,
              27.989573654263992
            ],
            [
              112.81627671971121,
              27.989189358171302
            ],
            [
              112.81565500632847,
              27.988475661793316
            ],
            [
              112.81764448915317,
              27.988256061957273
            ],
            [
              112.81938528662478,
              27.988750160959384
            ],
            [
              112.81988265733096,
              27.98951875490603
            ],
            [
              112.82137476944949,
              27.988750160959384
            ],
            [
              112.82379945164207,
              27.987267857159665
            ],
            [
              112.8246698503779,
              27.98529142039162
            ],
            [
              112.82485636439272,
              27.983479654861355
            ],
            [
              112.82460767903962,
              27.982052181791232
            ],
            [
              112.82535373509887,
              27.980569785910816
            ],
            [
              112.8259754484816,
              27.979691319477453
            ],
            [
              112.82796493130628,
              27.979746223839157
            ],
            [
              112.82871098736555,
              27.977879459860603
            ],
            [
              112.82777841729147,
              27.976726442438746
            ],
            [
              112.82895967271864,
              27.97606756980663
            ],
            [
              112.83107349821988,
              27.974804719345954
            ],
            [
              112.83076264152852,
              27.973322223853586
            ],
            [
              112.82871098736555,
              27.972773146278826
            ],
            [
              112.82958138610138,
              27.971784799601878
            ],
            [
              112.83088698420508,
              27.970686626008188
            ],
            [
              112.83007875680755,
              27.969972807178067
            ],
            [
              112.82883533004211,
              27.968709885371283
            ],
            [
              112.82734321792357,
              27.967501859376185
            ],
            [
              112.82709453257048,
              27.96596435218619
            ],
            [
              112.82852447335074,
              27.965744706513604
            ],
            [
              112.82945704342482,
              27.96706257384301
            ],
            [
              112.83144652624951,
              27.96772150147217
            ],
            [
              112.83268995301495,
              27.968105874064292
            ],
            [
              112.83343600907422,
              27.967007663025612
            ],
            [
              112.83511463520756,
              27.967007663025612
            ],
            [
              112.83610937661989,
              27.968215694553436
            ],
            [
              112.83666891866434,
              27.969039344659052
            ],
            [
              112.83785017409151,
              27.971016079259996
            ],
            [
              112.83921794353348,
              27.97205934125371
            ],
            [
              112.84046137029893,
              27.97321240856219
            ],
            [
              112.8416426257261,
              27.97442037061903
            ],
            [
              112.84444033594833,
              27.974914533016403
            ],
            [
              112.84705153215573,
              27.976122476013032
            ],
            [
              112.84879232962734,
              27.976342100559123
            ],
            [
              112.84922752899527,
              27.97842851144361
            ],
            [
              112.85003575639278,
              27.979581510670158
            ],
            [
              112.85252260992365,
              27.98084430520379
            ],
            [
              112.85438775007184,
              27.98364436207659
            ],
            [
              112.85650157557305,
              27.98534632190217
            ],
            [
              112.85612854754343,
              27.986828652119982
            ],
            [
              112.85594203352862,
              27.98864036137681
            ],
            [
              112.85606637620515,
              27.990012848121083
            ],
            [
              112.85525814880761,
              27.99078143306545
            ],
            [
              112.8537660366891,
              27.990012848121083
            ],
            [
              112.85270912393847,
              27.99023244437862
            ],
            [
              112.8520252392175,
              27.991055926360445
            ],
            [
              112.85426340739528,
              27.992977359854294
            ],
            [
              112.85426340739528,
              27.99495365571569
            ],
            [
              112.85463643542492,
              27.99660054125232
            ],
            [
              112.85426340739528,
              27.99769845096249
            ],
            [
              112.85482294943974,
              27.998686560138466
            ],
            [
              112.8537660366891,
              28.000333388631347
            ],
            [
              112.85214958189404,
              27.999894236827416
            ],
            [
              112.85233609590884,
              28.000937219439507
            ],
            [
              112.85190089654094,
              28.002309549601023
            ],
            [
              112.85040878442241,
              28.002803584180455
            ],
            [
              112.84928970033353,
              28.002584013535937
            ],
            [
              112.84779758821499,
              28.00148615360149
            ],
            [
              112.84698936081747,
              28.001870405850966
            ],
            [
              112.84642981877303,
              28.002803584180455
            ],
            [
              112.84518639200759,
              28.0021997638313
            ],
            [
              112.84450250728658,
              28.000827432271507
            ],
            [
              112.84394296524215,
              27.99978444859677
            ],
            [
              112.84269953847671,
              27.998741454827027
            ],
            [
              112.84133176903472,
              27.998741454827027
            ],
            [
              112.84145611171127,
              27.997588660494813
            ],
            [
              112.84015051360757,
              27.99736907922386
            ],
            [
              112.83903142951868,
              27.996216270211335
            ],
            [
              112.83909360085696,
              27.99495365571569
            ],
            [
              112.83853405881253,
              27.993855718044102
            ],
            [
              112.83753931740017,
              27.994459585147524
            ],
            [
              112.83617154795817,
              27.995118345401778
            ],
            [
              112.83492812119275,
              27.995557516667745
            ],
            [
              112.83461726450138,
              27.996545645473205
            ],
            [
              112.83356035175075,
              27.997149497505518
            ],
            [
              112.83188172561742,
              27.996490749666123
            ],
            [
              112.83007875680755,
              27.995831997800238
            ],
            [
              112.82920835807172,
              27.994843862451816
            ],
            [
              112.82827578799765,
              27.99522813838604
            ],
            [
              112.82746756060013,
              27.99522813838604
            ],
            [
              112.82715670390877,
              27.995886893942824
            ]
          ]
        ]
      },
      "properties": {
        "name": "立新村",
        "type": "assistPolygon",
        "fill": "#9b59b6",
        "fill-opacity": 0.2,
        "stroke": "#9b59b6",
        "stroke-width": 2,
        "stroke-opacity": 0.8
      },
      "id": "assist_polygon_1773819497207"
    },
    {
      "type": "Feature",
      "geometry": {
        "type": "Point",
        "coordinates": [
          112.83803668810634,
          27.986938453547623
        ]
      },
      "properties": {
        "iconType": "default",
        "iconColor": "#e74c3c",
        "iconSize": 1,
        "text": "立新村",
        "textColor": "#333333",
        "type": "assistPoint",
        "name": "辅助点_1"
      },
      "id": "assist_point_1773819503032"
    }
  ],
  "properties": {
    "description": "GIS-APP 辅助要素导出",
    "exportTime": "2026/3/18 15:38:27",
    "assistElements": {
      "lines": 0,
      "polygons": 1,
      "texts": 0,
      "points": 1
    }
  }
}