{
  "type": "FeatureCollection",
  "features": [
    {
      "type": "Feature",
      "geometry": {
        "type": "Polygon",
        "coordinates": [
          [
            [
              112.82597576461885,
              28.02962063861702
            ],
            [
              112.8239962589598,
              28.029169716618256
            ],
            [
              112.82386854891728,
              28.027591474744952
            ],
            [
              112.82425167904483,
              28.026182310659223
            ],
            [
              112.8250817943212,
              28.0252804359626
            ],
            [
              112.82527335938498,
              28.0237585052776
            ],
            [
              112.82540106942751,
              28.022574766535456
            ],
            [
              112.82444324410861,
              28.022236553075558
            ],
            [
              112.82418782402358,
              28.020319990066298
            ],
            [
              112.8250817943212,
              28.019812658852942
            ],
            [
              112.82584805457633,
              28.018572505823087
            ],
            [
              112.8260396196401,
              28.017445081582622
            ],
            [
              112.82629503972515,
              28.016261273425485
            ],
            [
              112.82757214015037,
              28.016430389673275
            ],
            [
              112.82872153053304,
              28.017445081582622
            ],
            [
              112.82948779078816,
              28.017670567375077
            ],
            [
              112.82967935585195,
              28.016937736823138
            ],
            [
              112.82827454538422,
              28.015077452254147
            ],
            [
              112.82744443010785,
              28.01394999142056
            ],
            [
              112.8259119095976,
              28.013217135549013
            ],
            [
              112.8260396196401,
              28.012315152245804
            ],
            [
              112.82578419955507,
              28.011582285249688
            ],
            [
              112.82444324410861,
              28.01141316138856
            ],
            [
              112.82354927381097,
              28.012089655239663
            ],
            [
              112.82291072359834,
              28.010454787825964
            ],
            [
              112.8218890432582,
              28.010229286924897
            ],
            [
              112.82144205810938,
              28.009214527027837
            ],
            [
              112.82067579785426,
              28.007861498960978
            ],
            [
              112.81933484240777,
              28.00712860166216
            ],
            [
              112.81812159700384,
              28.006282944736853
            ],
            [
              112.8188240022377,
              28.005719169765356
            ],
            [
              112.81997339262038,
              28.005719169765356
            ],
            [
              112.82118663802434,
              28.005042635905113
            ],
            [
              112.8215697681519,
              28.00402782714906
            ],
            [
              112.82303843364087,
              28.00385869142704
            ],
            [
              112.82425167904483,
              28.003464040376485
            ],
            [
              112.82501793929995,
              28.001885421718484
            ],
            [
              112.82667816985273,
              28.001096103716293
            ],
            [
              112.8275082851291,
              28.000645062261853
            ],
            [
              112.82686973491647,
              27.9995174503659
            ],
            [
              112.8259119095976,
              27.99805153726082
            ],
            [
              112.82712515500154,
              27.996190926526694
            ],
            [
              112.82904080563934,
              27.99579624739289
            ],
            [
              112.82967935585195,
              27.99675475135345
            ],
            [
              112.83351065712756,
              27.99776962860834
            ],
            [
              112.83472390253151,
              27.996303691728016
            ],
            [
              112.83638413308425,
              27.995627098750234
            ],
            [
              112.83772508853075,
              27.99472496817276
            ],
            [
              112.83868291384964,
              27.995457949842177
            ],
            [
              112.83855520380712,
              27.996867515964837
            ],
            [
              112.83938531908352,
              27.997995155589322
            ],
            [
              112.8405347094662,
              27.998389826670362
            ],
            [
              112.84098169461502,
              27.999461069461347
            ],
            [
              112.84219494001897,
              27.99968659290252
            ],
            [
              112.84359975048667,
              28.000645062261853
            ],
            [
              112.84417444567804,
              28.001885421718484
            ],
            [
              112.84500456095441,
              28.002900250653752
            ],
            [
              112.8461539513371,
              28.003464040376485
            ],
            [
              112.84685635657094,
              28.001659902879283
            ],
            [
              112.84787803691111,
              28.002449216751444
            ],
            [
              112.84870815218751,
              28.002900250653752
            ],
            [
              112.84934670240011,
              28.003576797967014
            ],
            [
              112.8506238028253,
              28.00340766153694
            ],
            [
              112.85164548316547,
              28.002787492355168
            ],
            [
              112.85234788839934,
              28.001998180961095
            ],
            [
              112.85515750933479,
              28.00368955543952
            ],
            [
              112.85509365431354,
              28.005099013889065
            ],
            [
              112.85394426393083,
              28.005606414417016
            ],
            [
              112.85413582899461,
              28.00735410905442
            ],
            [
              112.8527310185269,
              28.007861498960978
            ],
            [
              112.85222017835682,
              28.008538015118788
            ],
            [
              112.8511346429954,
              28.008989023530262
            ],
            [
              112.85139006308043,
              28.01039841264496
            ],
            [
              112.8508153678891,
              28.01135678670917
            ],
            [
              112.84953826746388,
              28.011751408845257
            ],
            [
              112.84870815218751,
              28.012202403801737
            ],
            [
              112.84819731201742,
              28.013104388049243
            ],
            [
              112.84762261682609,
              28.01417548453159
            ],
            [
              112.84832502205995,
              28.015641178244508
            ],
            [
              112.8477503268686,
              28.017332338509306
            ],
            [
              112.84679250154969,
              28.018572505823087
            ],
            [
              112.84704792163473,
              28.019981769523028
            ],
            [
              112.84692021159222,
              28.021278275835726
            ],
            [
              112.84749490678355,
              28.02246202883353
            ],
            [
              112.84698406661347,
              28.023814873464445
            ],
            [
              112.8461539513371,
              28.024547657207663
            ],
            [
              112.84442986576308,
              28.02482949578065
            ],
            [
              112.84206722997644,
              28.02432218581795
            ],
            [
              112.84008772431736,
              28.023814873464445
            ],
            [
              112.83817207367956,
              28.022518397699244
            ],
            [
              112.83657569814804,
              28.022743872866968
            ],
            [
              112.83434077240395,
              28.022574766535456
            ],
            [
              112.83319138202124,
              28.02443492157184
            ],
            [
              112.83299981695747,
              28.025336803352516
            ],
            [
              112.83121187636219,
              28.02606957673538
            ],
            [
              112.82929622572439,
              28.027253277046924
            ],
            [
              112.82936008074564,
              28.028324232778516
            ],
            [
              112.82833840040549,
              28.02883152387939
            ],
            [
              112.8278275602354,
              28.028098769299532
            ],
            [
              112.82667816985273,
              28.028436964340898
            ],
            [
              112.82597576461885,
              28.02962063861702
            ]
          ]
        ]
      },
      "properties": {
        "name": "凤凰村",
        "type": "assistPolygon",
        "fill": "#9b59b6",
        "fill-opacity": 0.2,
        "stroke": "#9b59b6",
        "stroke-width": 2,
        "stroke-opacity": 0.8,
        "isAssistFeature": true,
        "sourceFileName": "辅助要素_鹤岭镇_凤凰村.geojson",
        "assistFileId": "assist_file_1773974655291_3"
      },
      "id": "assist_imported_1773974655291_0"
    },
    {
      "type": "Feature",
      "geometry": {
        "type": "Point",
        "coordinates": [
          112.83708653831813,
          28.012089655239663
        ]
      },
      "properties": {
        "iconType": "default",
        "iconColor": "#e74c3c",
        "iconSize": 1,
        "text": "凤凰村",
        "textColor": "#333333",
        "type": "assistPoint",
        "name": "辅助点_1",
        "isAssistFeature": true,
        "sourceFileName": "辅助要素_鹤岭镇_凤凰村.geojson",
        "assistFileId": "assist_file_1773974655291_3"
      },
      "id": "assist_imported_1773974655292_1"
    }
  ],
  "properties": {
    "fileName": "辅助要素_鹤岭镇_凤凰村.geojson",
    "exportTime": "2026/3/20 10:50:48",
    "source": "GIS-APP 辅助元素导出"
  }
}