{
  "type": "FeatureCollection",
  "features": [
    {
      "type": "Feature",
      "geometry": {
        "type": "LineString",
        "coordinates": [
          [
            112.90941604466343,
            27.818344979791902
          ],
          [
            112.90966411227593,
            27.814185861342892
          ],
          [
            112.9100523920172,
            27.813966453882443
          ],
          [
            112.91337434091491,
            27.814176321897293
          ],
          [
            112.91312627330242,
            27.818821932735574
          ],
          [
            112.91122801678945,
            27.81872654231445
          ],
          [
            112.90975039666289,
            27.81845944868944
          ]
        ]
      },
      "properties": {
        "assistFileId": "assist_layer_default",
        "sourceFileName": "辅助元素图层",
        "type": "assistLine",
        "stroke": "#e74c3c",
        "stroke-width": 2,
        "stroke-opacity": 0.8,
        "stroke-dasharray": "5,5"
      },
      "id": "assist_line_1774255268936"
    },
    {
      "type": "Feature",
      "geometry": {
        "type": "LineString",
        "coordinates": [
          [
            112.9101782450065,
            27.81384780853101
          ],
          [
            112.9092949805184,
            27.81298097261231
          ],
          [
            112.90928288100484,
            27.812777639728395
          ]
        ]
      },
      "properties": {
        "assistFileId": "assist_layer_default",
        "sourceFileName": "辅助元素图层",
        "type": "assistLine",
        "stroke": "#e74c3c",
        "stroke-width": 2,
        "stroke-opacity": 0.8,
        "stroke-dasharray": "5,5"
      },
      "id": "assist_line_1774255281409"
    },
    {
      "type": "Feature",
      "geometry": {
        "type": "LineString",
        "coordinates": [
          [
            112.91052913089901,
            27.811835882459604
          ],
          [
            112.91144869392774,
            27.811835882459604
          ],
          [
            112.91317892436342,
            27.811707460381186
          ],
          [
            112.91417108447337,
            27.81167535483786
          ]
        ]
      },
      "properties": {
        "assistFileId": "assist_layer_default",
        "sourceFileName": "辅助元素图层",
        "type": "assistLine",
        "stroke": "#e74c3c",
        "stroke-width": 2,
        "stroke-opacity": 0.8,
        "stroke-dasharray": "5,5"
      },
      "id": "assist_line_1774255289839"
    },
    {
      "type": "Feature",
      "geometry": {
        "type": "LineString",
        "coordinates": [
          [
            112.91332411852584,
            27.814190260320814
          ],
          [
            112.91423158204105,
            27.81130078946451
          ],
          [
            112.91697817161375,
            27.811386404520874
          ],
          [
            112.9170023706408,
            27.810519548957885
          ],
          [
            112.91528423971869,
            27.810476741096494
          ],
          [
            112.91523584166455,
            27.80988813129187
          ],
          [
            112.91645789253168,
            27.80980251505457
          ],
          [
            112.91628849934219,
            27.80934232662301
          ],
          [
            112.91611910615266,
            27.809064072206994
          ],
          [
            112.91476396063665,
            27.809492155628718
          ],
          [
            112.91352981025597,
            27.809609878273946
          ],
          [
            112.91235615744294,
            27.81009146958496
          ],
          [
            112.91140029587359,
            27.810412529272796
          ],
          [
            112.91138819636006,
            27.811365000763104
          ],
          [
            112.91050493187193,
            27.811386404520874
          ],
          [
            112.9104928323584,
            27.8123067621147
          ],
          [
            112.90934337857246,
            27.81285255188783
          ]
        ]
      },
      "properties": {
        "assistFileId": "assist_layer_default",
        "sourceFileName": "辅助元素图层",
        "type": "assistLine",
        "stroke": "#e74c3c",
        "stroke-width": 2,
        "stroke-opacity": 0.8,
        "stroke-dasharray": "5,5"
      },
      "id": "assist_line_1774255327423"
    },
    {
      "type": "Feature",
      "geometry": {
        "type": "LineString",
        "coordinates": [
          [
            112.90881540161442,
            27.818157448386188
          ],
          [
            112.90936279485909,
            27.81814895482934
          ],
          [
            112.90878659144363,
            27.818047032095564
          ],
          [
            112.90884394218489,
            27.814217961305175
          ],
          [
            112.90959169232326,
            27.814217961305175
          ],
          [
            112.90957251924276,
            27.813929676236285
          ],
          [
            112.91006143279478,
            27.813938155219844
          ]
        ]
      },
      "properties": {
        "assistFileId": "assist_layer_default",
        "sourceFileName": "辅助元素图层",
        "type": "assistLine",
        "stroke": "#e74c3c",
        "stroke-width": 2,
        "stroke-opacity": 0.8,
        "stroke-dasharray": "5,5"
      },
      "id": "assist_line_1774255354711"
    },
    {
      "type": "Feature",
      "geometry": {
        "type": "Polygon",
        "coordinates": [
          [
            [
              112.913063075065,
              27.818923315785355
            ],
            [
              112.90936018899212,
              27.818425371763553
            ],
            [
              112.90937101614436,
              27.818176398896355
            ],
            [
              112.90876469561783,
              27.818176398896355
            ],
            [
              112.90889462144496,
              27.81424063658571
            ],
            [
              112.90964169495088,
              27.814221484108927
            ],
            [
              112.91018305256388,
              27.813895891487036
            ],
            [
              112.90925191746953,
              27.81289037869888
            ],
            [
              112.91037794130456,
              27.812248760911757
            ],
            [
              112.9106919287201,
              27.810592028798766
            ],
            [
              112.9107976967397,
              27.81139769680904
            ],
            [
              112.911372212523,
              27.81134750890412
            ],
            [
              112.91142186203514,
              27.81040020784907
            ],
            [
              112.91347877039514,
              27.809628559162192
            ],
            [
              112.91482640001031,
              27.809477992925594
            ],
            [
              112.9161598440506,
              27.80900119846629
            ],
            [
              112.91640099882387,
              27.809804219507768
            ],
            [
              112.91522359610747,
              27.809917143865633
            ],
            [
              112.91530870955684,
              27.810456669732886
            ],
            [
              112.91696842181973,
              27.810506858049422
            ],
            [
              112.9169967929695,
              27.811360055882517
            ],
            [
              112.9142873481643,
              27.811360055882517
            ],
            [
              112.91339365694581,
              27.814245822412758
            ],
            [
              112.91323052283451,
              27.818931892961203
            ],
            [
              112.913063075065,
              27.818923315785355
            ]
          ]
        ]
      },
      "properties": {
        "assistFileId": "assist_layer_default",
        "sourceFileName": "辅助元素图层",
        "name": "三株岭社区",
        "type": "assistPolygon",
        "fill": "#c0392b",
        "fill-opacity": 0.4,
        "stroke": "#c0392b",
        "stroke-opacity": 1,
        "stroke-width": 3
      },
      "id": "assist_polygon_1774255394872"
    },
    {
      "type": "Feature",
      "geometry": {
        "type": "Point",
        "coordinates": [
          112.91144314039757,
          27.814311692275425
        ]
      },
      "properties": {
        "iconType": "default",
        "iconColor": "#e74c3c",
        "iconSize": 1,
        "text": "三株岭社区",
        "textColor": "#333333",
        "assistFileId": "assist_layer_default",
        "sourceFileName": "辅助元素图层",
        "type": "assistPoint"
      },
      "id": "assist_point_1774255411768"
    }
  ],
  "properties": {
    "fileName": "辅助元素图层",
    "exportTime": "2026/3/23 16:43:38",
    "source": "GIS-APP 辅助元素导出"
  }
}