{
  "type": "FeatureCollection",
  "features": [
    {
      "type": "Feature",
      "geometry": {
        "type": "Polygon",
        "coordinates": [
          [
            [
              112.7912971032411,
              27.890383900805944
            ],
            [
              112.79061045773328,
              27.888790809091788
            ],
            [
              112.78979506619275,
              27.88719769393512
            ],
            [
              112.78829302914441,
              27.88632526379679
            ],
            [
              112.78902258999648,
              27.885035571585277
            ],
            [
              112.78799262173474,
              27.88423898931005
            ],
            [
              112.78794970639052,
              27.882873406062032
            ],
            [
              112.78614726193251,
              27.883556199838665
            ],
            [
              112.78516020901502,
              27.883025138384454
            ],
            [
              112.78511729367078,
              27.88154573917228
            ],
            [
              112.7842160714418,
              27.881280203841115
            ],
            [
              112.78395857937635,
              27.880597395714247
            ],
            [
              112.78219905026258,
              27.880218056005845
            ],
            [
              112.78134074337784,
              27.880407726026135
            ],
            [
              112.78129782803359,
              27.87968697818188
            ],
            [
              112.77923789151015,
              27.87942143829335
            ],
            [
              112.77906623013318,
              27.87763851075296
            ],
            [
              112.77734961636365,
              27.87695567966729
            ],
            [
              112.77567591793836,
              27.87695567966729
            ],
            [
              112.77538457812322,
              27.876329545362964
            ],
            [
              112.77584757931533,
              27.875627940233954
            ],
            [
              112.77666348100146,
              27.875914259755504
            ],
            [
              112.77756419308486,
              27.875058904066236
            ],
            [
              112.77786460049452,
              27.87422431227992
            ],
            [
              112.77636256344618,
              27.873048285667593
            ],
            [
              112.77692046292128,
              27.872744792856537
            ],
            [
              112.77765002377332,
              27.872517172690294
            ],
            [
              112.77657714016738,
              27.871227316048476
            ],
            [
              112.77520384915172,
              27.871568750183414
            ],
            [
              112.77378764279187,
              27.8706961941443
            ],
            [
              112.77314391262831,
              27.869254564423144
            ],
            [
              112.77219977505506,
              27.86830611335654
            ],
            [
              112.77185645230115,
              27.86640918631805
            ],
            [
              112.77232852108779,
              27.86549864954479
            ],
            [
              112.77232852108779,
              27.86436046781978
            ],
            [
              112.77486052639784,
              27.86299463397117
            ],
            [
              112.77491987796554,
              27.863168068097593
            ],
            [
              112.77533259518445,
              27.86390519178279
            ],
            [
              112.77730670101941,
              27.864246648989834
            ],
            [
              112.77781102839822,
              27.86406265338873
            ],
            [
              112.77889456875624,
              27.861325258114633
            ],
            [
              112.77889456875624,
              27.859693797776856
            ],
            [
              112.77966704495252,
              27.858062312884
            ],
            [
              112.78095450527968,
              27.85810025467204
            ],
            [
              112.7823277962953,
              27.858214079956397
            ],
            [
              112.78322901852431,
              27.858783204585436
            ],
            [
              112.78455939419571,
              27.858821146121116
            ],
            [
              112.78511729367078,
              27.860187032561683
            ],
            [
              112.78563227780165,
              27.860945850925035
            ],
            [
              112.78614726193251,
              27.86170466397614
            ],
            [
              112.78839522561697,
              27.861402274114397
            ],
            [
              112.78998664884293,
              27.8610386805924
            ],
            [
              112.79105951843346,
              27.860754128289614
            ],
            [
              112.79388474168852,
              27.86095963836101
            ],
            [
              112.79520794751684,
              27.86192394964604
            ],
            [
              112.79580321438611,
              27.862008187709137
            ],
            [
              112.79674735195937,
              27.862084068509574
            ],
            [
              112.79794898159804,
              27.8618564259489
            ],
            [
              112.79760565884413,
              27.863449913833236
            ],
            [
              112.7979060662538,
              27.86546071034654
            ],
            [
              112.7964469445497,
              27.866902390542535
            ],
            [
              112.79563155300917,
              27.868988998961328
            ],
            [
              112.79445693880334,
              27.86941683022191
            ],
            [
              112.79395785458388,
              27.869861568748874
            ],
            [
              112.79341983153252,
              27.87080785651402
            ],
            [
              112.79352711849155,
              27.87210402403062
            ],
            [
              112.79346973343043,
              27.872846330548327
            ],
            [
              112.79316954961826,
              27.87332075865642
            ],
            [
              112.79275111157708,
              27.873650444762234
            ],
            [
              112.79177778830733,
              27.873730855855342
            ],
            [
              112.79073920376601,
              27.87320003175428
            ],
            [
              112.7898038523304,
              27.87287849523149
            ],
            [
              112.78958048947158,
              27.87301034911269
            ],
            [
              112.78844847693607,
              27.873787143585034
            ],
            [
              112.78773512966934,
              27.874072567627948
            ],
            [
              112.78786387570204,
              27.87574174710879
            ],
            [
              112.79001508622785,
              27.876136901038393
            ],
            [
              112.7909537804872,
              27.877145355400657
            ],
            [
              112.79039713835247,
              27.87880645614814
            ],
            [
              112.79037894539417,
              27.87912808485281
            ],
            [
              112.7902879806026,
              27.879313020925522
            ],
            [
              112.7907064186438,
              27.879642688793695
            ],
            [
              112.79061045773328,
              27.879838714968756
            ],
            [
              112.79056754238904,
              27.88112846907383
            ],
            [
              112.79254164822402,
              27.88173540686735
            ],
            [
              112.79271330960097,
              27.88249407432589
            ],
            [
              112.79425826199355,
              27.882873406062032
            ],
            [
              112.79370036251844,
              27.88397346058278
            ],
            [
              112.7943011773378,
              27.884466584843807
            ],
            [
              112.79485907681287,
              27.88530109770811
            ],
            [
              112.79601779110733,
              27.886021808187834
            ],
            [
              112.79507365353405,
              27.88746321475581
            ],
            [
              112.79357161648574,
              27.888070117043654
            ],
            [
              112.79378619320691,
              27.886704582112017
            ],
            [
              112.79254164822402,
              27.886135604140875
            ],
            [
              112.79172625668348,
              27.886059740185473
            ],
            [
              112.7909537804872,
              27.886780445615585
            ],
            [
              112.79151167996228,
              27.888601153754763
            ],
            [
              112.79215541012587,
              27.88970115008472
            ],
            [
              112.79159751065075,
              27.89076320490159
            ],
            [
              112.7912971032411,
              27.890383900805944
            ]
          ]
        ]
      },
      "properties": {
        "name": "清泉村",
        "type": "assistPolygon",
        "fill": "#9b59b6",
        "fill-opacity": 0.2,
        "stroke": "#9b59b6",
        "stroke-width": 2,
        "stroke-opacity": 0.8,
        "isAssistFeature": true,
        "sourceFileName": "辅助要素_姜畲镇_清泉村.geojson",
        "assistFileId": "assist_file_1773973304580_8"
      },
      "id": "assist_polygon_1773798750733_reimported_1773973304580"
    },
    {
      "type": "Feature",
      "geometry": {
        "type": "Point",
        "coordinates": [
          112.78365817196668,
          27.8726309828332
        ]
      },
      "properties": {
        "iconType": "default",
        "iconColor": "#e74c3c",
        "iconSize": 1,
        "text": "清泉村",
        "textColor": "#333333",
        "type": "assistPoint",
        "name": "辅助点_1",
        "isAssistFeature": true,
        "sourceFileName": "辅助要素_姜畲镇_清泉村.geojson",
        "assistFileId": "assist_file_1773973304580_8"
      },
      "id": "assist_point_1773798756381_reimported_1773973304581"
    }
  ],
  "properties": {
    "fileName": "辅助要素_姜畲镇_清泉村.geojson",
    "exportTime": "2026/3/20 10:34:43",
    "source": "GIS-APP 辅助元素导出"
  }
}