{
  "type": "FeatureCollection",
  "features": [
    {
      "type": "Feature",
      "geometry": {
        "type": "Polygon",
        "coordinates": [
          [
            [
              112.91482817396367,
              27.82186410389042
            ],
            [
              112.91394804197184,
              27.82070515951905
            ],
            [
              112.9132700143633,
              27.81947124494981
            ],
            [
              112.91299619552142,
              27.818958070743406
            ],
            [
              112.90939091410307,
              27.818398765756356
            ],
            [
              112.9095539015089,
              27.816132686173816
            ],
            [
              112.90966473294492,
              27.81425289979856
            ],
            [
              112.90984727883951,
              27.814033781477946
            ],
            [
              112.91135328246993,
              27.814045314032157
            ],
            [
              112.9113467629737,
              27.811859873137493
            ],
            [
              112.91421534131743,
              27.811658049201014
            ],
            [
              112.9135243207272,
              27.813832287142247
            ],
            [
              112.91341982474397,
              27.814184650746483
            ],
            [
              112.91342635574291,
              27.814381049636268
            ],
            [
              112.91511788447158,
              27.81457744817091
            ],
            [
              112.91693350218034,
              27.814583224593022
            ],
            [
              112.91910634958865,
              27.81465004017177
            ],
            [
              112.9205785082629,
              27.81476007402786
            ],
            [
              112.91885753403807,
              27.81740085312842
            ],
            [
              112.9178415372065,
              27.819078814815242
            ],
            [
              112.91667003065585,
              27.820408328887282
            ],
            [
              112.91577844159961,
              27.82133439458741
            ],
            [
              112.91482817396367,
              27.82186410389042
            ]
          ]
        ]
      },
      "properties": {
        "name": "纯冲塘社区",
        "type": "assistPolygon",
        "fill": "#9b59b6",
        "fill-opacity": 0.2,
        "stroke": "#9b59b6",
        "stroke-width": 2,
        "stroke-opacity": 0.8
      },
      "id": "assist_polygon_1773883237832"
    },
    {
      "type": "Feature",
      "geometry": {
        "type": "Point",
        "coordinates": [
          112.91477027699248,
          27.81697801548178
        ]
      },
      "properties": {
        "iconType": "default",
        "iconColor": "#e74c3c",
        "iconSize": 1,
        "text": "纯冲塘社区",
        "textColor": "#333333",
        "type": "assistPoint",
        "name": "辅助点_1"
      },
      "id": "assist_point_1773883268743"
    }
  ],
  "properties": {
    "description": "GIS-APP 辅助要素导出",
    "exportTime": "2026/3/19 09:21:30",
    "assistElements": {
      "lines": 0,
      "polygons": 1,
      "texts": 0,
      "points": 1
    }
  }
}