{
  "type": "FeatureCollection",
  "features": [
    {
      "type": "Feature",
      "geometry": {
        "type": "Polygon",
        "coordinates": [
          [
            [
              112.89732480052994,
              27.87773747645008
            ],
            [
              112.89573436214214,
              27.877672771400213
            ],
            [
              112.89538167078416,
              27.877461009148604
            ],
            [
              112.8949957066566,
              27.8765492502811
            ],
            [
              112.89497574299482,
              27.875702190004688
            ],
            [
              112.89495577933305,
              27.875566895041516
            ],
            [
              112.89279304930778,
              27.87531395183099
            ],
            [
              112.89307254057249,
              27.874319820467278
            ],
            [
              112.89309915878819,
              27.87403746196668
            ],
            [
              112.89298603137149,
              27.873160969433144
            ],
            [
              112.89434356037196,
              27.872966845966502
            ],
            [
              112.89468294262208,
              27.872696249038682
            ],
            [
              112.89455743440676,
              27.871901720653
            ],
            [
              112.89550810730864,
              27.87087264342189
            ],
            [
              112.89857585666753,
              27.871572676304652
            ],
            [
              112.89749781893197,
              27.87404922691894
            ],
            [
              112.89719170945145,
              27.876937484027422
            ],
            [
              112.897231636775,
              27.877378657050073
            ],
            [
              112.89737803696131,
              27.87766688912103
            ],
            [
              112.89732480052994,
              27.87773747645008
            ]
          ]
        ]
      },
      "properties": {
        "name": "建设社区",
        "type": "assistPolygon",
        "isAssistFeature": true,
        "sourceFileName": "辅助要素_建设社区等10个.geojson",
        "fill": "#9b59b6",
        "fill-opacity": 0.2,
        "stroke": "#9b59b6",
        "stroke-width": 2,
        "stroke-opacity": 0.8,
        "assistFileId": "assist_file_1774167534510_2"
      },
      "id": "assist_polygon_1773656654943_reimported_1773739547808_reimported_1774167534510"
    },
    {
      "type": "Feature",
      "geometry": {
        "type": "Polygon",
        "coordinates": [
          [
            [
              112.89734610295824,
              27.87751143501538
            ],
            [
              112.89728384369441,
              27.875750331804525
            ],
            [
              112.8989337141855,
              27.870549406762976
            ],
            [
              112.899774214247,
              27.867632376559072
            ],
            [
              112.90002325130227,
              27.866559109835833
            ],
            [
              112.89631882510528,
              27.865843592781516
            ],
            [
              112.89482460277372,
              27.867604857032305
            ],
            [
              112.89563397320332,
              27.870824594237888
            ],
            [
              112.89747062148587,
              27.87120985552852
            ],
            [
              112.89669238068818,
              27.873686502542697
            ],
            [
              112.89622543620956,
              27.87511742834431
            ],
            [
              112.89628769547339,
              27.87693357618049
            ],
            [
              112.89663012142435,
              27.877676536973397
            ],
            [
              112.89734610295824,
              27.87751143501538
            ]
          ]
        ]
      },
      "properties": {
        "name": "杉树巷社区",
        "type": "assistPolygon",
        "fill": "#9b59b6",
        "fill-opacity": 0.2,
        "stroke": "#9b59b6",
        "stroke-width": 2,
        "stroke-opacity": 0.8,
        "isAssistFeature": true,
        "sourceFileName": "辅助要素_建设社区等10个.geojson",
        "assistFileId": "assist_file_1774167534510_2"
      },
      "id": "assist_polygon_1773740989687_reimported_1774167534510"
    },
    {
      "type": "Feature",
      "geometry": {
        "type": "Polygon",
        "coordinates": [
          [
            [
              112.90030441020662,
              27.86660688248054
            ],
            [
              112.90216354855438,
              27.8671066091609
            ],
            [
              112.90172388745862,
              27.868494726736927
            ],
            [
              112.90158570825709,
              27.868916710955418
            ],
            [
              112.90123397938049,
              27.86917212165774
            ],
            [
              112.90091993574066,
              27.869360903094233
            ],
            [
              112.9006687008288,
              27.86951636991263
            ],
            [
              112.90059333035526,
              27.869682941256215
            ],
            [
              112.90075663304796,
              27.869738464980514
            ],
            [
              112.90118373239812,
              27.87225921209418
            ],
            [
              112.90480753137844,
              27.873442127794476
            ],
            [
              112.90641274389604,
              27.87373297416741
            ],
            [
              112.9072602163432,
              27.876861726675088
            ],
            [
              112.90828104426295,
              27.876666304479315
            ],
            [
              112.90874818844819,
              27.878328354949716
            ],
            [
              112.90885329588987,
              27.879030331338683
            ],
            [
              112.90040966474173,
              27.881363337825533
            ],
            [
              112.8999074847426,
              27.880423947452186
            ],
            [
              112.89917173265086,
              27.87949487203565
            ],
            [
              112.8974316205609,
              27.877719283514253
            ],
            [
              112.89739705859334,
              27.87614232429179
            ],
            [
              112.8979693102202,
              27.873251727009205
            ],
            [
              112.90030441020662,
              27.86660688248054
            ]
          ]
        ]
      },
      "properties": {
        "name": "公园社区",
        "type": "assistPolygon",
        "fill": "#9b59b6",
        "fill-opacity": 0.2,
        "stroke": "#9b59b6",
        "stroke-width": 2,
        "stroke-opacity": 0.8,
        "isAssistFeature": true,
        "sourceFileName": "辅助要素_建设社区等10个.geojson",
        "assistFileId": "assist_file_1774167534510_2"
      },
      "id": "assist_polygon_1773741141320_reimported_1774167534510"
    },
    {
      "type": "Feature",
      "geometry": {
        "type": "Polygon",
        "coordinates": [
          [
            [
              112.87765252316548,
              27.865007255465926
            ],
            [
              112.8785661948675,
              27.861421997042953
            ],
            [
              112.8847214568599,
              27.863065845667336
            ],
            [
              112.88441689962589,
              27.865049767700143
            ],
            [
              112.88408028373568,
              27.866211762310996
            ],
            [
              112.88026985252652,
              27.865489105392484
            ],
            [
              112.87765252316548,
              27.865007255465926
            ]
          ]
        ]
      },
      "properties": {
        "name": "烟竹社区",
        "type": "assistPolygon",
        "fill": "#9b59b6",
        "fill-opacity": 0.2,
        "stroke": "#9b59b6",
        "stroke-width": 2,
        "stroke-opacity": 0.8,
        "isAssistFeature": true,
        "sourceFileName": "辅助要素_建设社区等10个.geojson",
        "assistFileId": "assist_file_1774167534510_2"
      },
      "id": "assist_polygon_1773741375087_reimported_1774167534510"
    },
    {
      "type": "Feature",
      "geometry": {
        "type": "Polygon",
        "coordinates": [
          [
            [
              112.88012817683415,
              27.874025739576297
            ],
            [
              112.87971698071559,
              27.873618632042692
            ],
            [
              112.87978277209456,
              27.873211522979148
            ],
            [
              112.8788287970995,
              27.87267355508442
            ],
            [
              112.87894393201272,
              27.87181570886129
            ],
            [
              112.8796347414919,
              27.87120503452985
            ],
            [
              112.8809999126055,
              27.8702599365171
            ],
            [
              112.88172361777416,
              27.869896435086275
            ],
            [
              112.88210191820323,
              27.86969287375237
            ],
            [
              112.8829901018193,
              27.86996913547003
            ],
            [
              112.88374670267744,
              27.867337350501117
            ],
            [
              112.8844375121567,
              27.86495269455952
            ],
            [
              112.88458554275938,
              27.86354223311696
            ],
            [
              112.88473357336204,
              27.863033299223844
            ],
            [
              112.8858026832703,
              27.86332411888398
            ],
            [
              112.88433882508825,
              27.868107990287072
            ],
            [
              112.88297365397463,
              27.871713930045118
            ],
            [
              112.8824144272534,
              27.872411840007587
            ],
            [
              112.88012817683415,
              27.874025739576297
            ]
          ]
        ]
      },
      "properties": {
        "name": "南盘岭社区",
        "type": "assistPolygon",
        "fill": "#9b59b6",
        "fill-opacity": 0.2,
        "stroke": "#9b59b6",
        "stroke-width": 2,
        "stroke-opacity": 0.8,
        "isAssistFeature": true,
        "sourceFileName": "辅助要素_建设社区等10个.geojson",
        "assistFileId": "assist_file_1774167534510_2"
      },
      "id": "assist_polygon_1773740843705_reimported_1774167534511"
    },
    {
      "type": "Feature",
      "geometry": {
        "type": "Polygon",
        "coordinates": [
          [
            [
              112.88893478472029,
              27.87693581898648
            ],
            [
              112.88705794244042,
              27.87678650509511
            ],
            [
              112.88696410032644,
              27.87663719099794
            ],
            [
              112.8847494264362,
              27.876554238632792
            ],
            [
              112.88540632123414,
              27.873352228788164
            ],
            [
              112.8848245001274,
              27.87328586488873
            ],
            [
              112.88262859465995,
              27.87220744582494
            ],
            [
              112.88334179472629,
              27.871112424714894
            ],
            [
              112.88422399707937,
              27.86817587545822
            ],
            [
              112.88444921815295,
              27.868242242487668
            ],
            [
              112.88444913167142,
              27.868242089583987
            ],
            [
              112.88499341593258,
              27.86825868133502
            ],
            [
              112.88544394456127,
              27.868117804274092
            ],
            [
              112.88634482885563,
              27.868806360596963
            ],
            [
              112.88651365817927,
              27.868839391020828
            ],
            [
              112.88685157627118,
              27.869022052039057
            ],
            [
              112.88726439509121,
              27.869121448888166
            ],
            [
              112.88795882673476,
              27.869403506021257
            ],
            [
              112.88850311099594,
              27.869138040504566
            ],
            [
              112.8887283320695,
              27.868673474285316
            ],
            [
              112.88925384790788,
              27.86862369921512
            ],
            [
              112.88953537424983,
              27.86847437386733
            ],
            [
              112.88947906898144,
              27.868109355484208
            ],
            [
              112.88927341201459,
              27.867887672005992
            ],
            [
              112.8887283320695,
              27.867644784854605
            ],
            [
              112.8887283320695,
              27.867346131255232
            ],
            [
              112.88923654042131,
              27.867670185228675
            ],
            [
              112.89062881033114,
              27.86867469643667
            ],
            [
              112.8895181022211,
              27.869678897117097
            ],
            [
              112.88908896499676,
              27.870147520916333
            ],
            [
              112.88962921636383,
              27.872207445824912
            ],
            [
              112.88916000579385,
              27.87519381078073
            ],
            [
              112.88893478472029,
              27.87693581898648
            ]
          ]
        ]
      },
      "properties": {
        "name": "中心社区",
        "type": "assistPolygon",
        "fill": "#9b59b6",
        "fill-opacity": 0.2,
        "stroke": "#9b59b6",
        "stroke-width": 2,
        "stroke-opacity": 0.8,
        "isAssistFeature": true,
        "sourceFileName": "辅助要素_建设社区等10个.geojson",
        "assistFileId": "assist_file_1774167534510_2"
      },
      "id": "assist_polygon_1773739877898_reimported_1774167534511"
    },
    {
      "type": "Feature",
      "geometry": {
        "type": "Polygon",
        "coordinates": [
          [
            [
              112.88587632305186,
              27.86336480167168
            ],
            [
              112.88563276663841,
              27.864071047705878
            ],
            [
              112.88605168366954,
              27.864243302138036
            ],
            [
              112.88674338388368,
              27.864863415826875
            ],
            [
              112.88795142369433,
              27.86569884115856
            ],
            [
              112.8886723506781,
              27.86624143354274
            ],
            [
              112.88824369139046,
              27.866947660830675
            ],
            [
              112.89060539895893,
              27.868540466541347
            ],
            [
              112.89098404945098,
              27.86816109894785
            ],
            [
              112.89121268839351,
              27.868119260527877
            ],
            [
              112.89256175983458,
              27.866710563548608
            ],
            [
              112.89435548747764,
              27.867594838229707
            ],
            [
              112.89459564265299,
              27.86754192168995
            ],
            [
              112.89552115702405,
              27.866663447963347
            ],
            [
              112.89627131077744,
              27.865767741929332
            ],
            [
              112.88587632305186,
              27.86336480167168
            ]
          ]
        ]
      },
      "properties": {
        "name": "韶山路社区",
        "type": "assistPolygon",
        "fill": "#9b59b6",
        "fill-opacity": 0.2,
        "stroke": "#9b59b6",
        "stroke-width": 2,
        "stroke-opacity": 0.8,
        "isAssistFeature": true,
        "sourceFileName": "辅助要素_建设社区等10个.geojson",
        "assistFileId": "assist_file_1774167534510_2"
      },
      "id": "assist_polygon_1773740150569_reimported_1774167534511"
    },
    {
      "type": "Feature",
      "geometry": {
        "type": "Polygon",
        "coordinates": [
          [
            [
              112.8890803503648,
              27.87014601638478
            ],
            [
              112.89136269994303,
              27.868105309483838
            ],
            [
              112.89258700320073,
              27.866933724104598
            ],
            [
              112.89485289404341,
              27.86781239597893
            ],
            [
              112.89555259630747,
              27.869977322619036
            ],
            [
              112.89547881727077,
              27.870841752519
            ],
            [
              112.89444383925914,
              27.871834775603958
            ],
            [
              112.89165299865363,
              27.871307578222044
            ],
            [
              112.8890803503648,
              27.87014601638478
            ]
          ]
        ]
      },
      "properties": {
        "name": "福利社区",
        "type": "assistPolygon",
        "fill": "#9b59b6",
        "fill-opacity": 0.2,
        "stroke": "#9b59b6",
        "stroke-width": 2,
        "stroke-opacity": 0.8,
        "isAssistFeature": true,
        "sourceFileName": "辅助要素_建设社区等10个.geojson",
        "assistFileId": "assist_file_1774167534510_2"
      },
      "id": "assist_polygon_1773740504640_reimported_1774167534511"
    },
    {
      "type": "Feature",
      "geometry": {
        "type": "Polygon",
        "coordinates": [
          [
            [
              112.88919465410439,
              27.874855120488462
            ],
            [
              112.8894310006113,
              27.872959505910174
            ],
            [
              112.88958664343298,
              27.87222571071679
            ],
            [
              112.89075830780304,
              27.87100911659799
            ],
            [
              112.89157871720252,
              27.871377316661736
            ],
            [
              112.89402732371788,
              27.87180130306392
            ],
            [
              112.89421664896389,
              27.871845933114983
            ],
            [
              112.89443121757607,
              27.871912878157133
            ],
            [
              112.89468808251219,
              27.872695396982067
            ],
            [
              112.8943446914096,
              27.872954682204153
            ],
            [
              112.89298543496179,
              27.873144402705194
            ],
            [
              112.89301405088699,
              27.87337206686793
            ],
            [
              112.89299974292439,
              27.873447954815845
            ],
            [
              112.89302120486832,
              27.87355546265104
            ],
            [
              112.89302120486832,
              27.873662970379613
            ],
            [
              112.89304982079352,
              27.873726210170048
            ],
            [
              112.89304266681222,
              27.87373253414708
            ],
            [
              112.89307556947824,
              27.874083338884446
            ],
            [
              112.89304239970875,
              27.874430858934673
            ],
            [
              112.89296825975866,
              27.874633521690143
            ],
            [
              112.89293964383346,
              27.874791619680693
            ],
            [
              112.8928323341139,
              27.87499398477189
            ],
            [
              112.89276794828216,
              27.875259588380388
            ],
            [
              112.89273408715998,
              27.87531882760723
            ],
            [
              112.88937335512176,
              27.87494174724381
            ],
            [
              112.88919465410439,
              27.874855120488462
            ]
          ]
        ]
      },
      "properties": {
        "name": "和平社区",
        "type": "assistPolygon",
        "isAssistFeature": true,
        "sourceFileName": "辅助要素_建设社区等10个.geojson",
        "fill": "#9b59b6",
        "fill-opacity": 0.2,
        "stroke": "#9b59b6",
        "stroke-width": 2,
        "stroke-opacity": 0.8,
        "assistFileId": "assist_file_1774167534510_2"
      },
      "id": "assist_polygon_1773655538937_reimported_1773739547806_reimported_1774167534511"
    },
    {
      "type": "Feature",
      "geometry": {
        "type": "Point",
        "coordinates": [
          112.89135044440656,
          27.86626919740843
        ]
      },
      "properties": {
        "iconType": "default",
        "iconColor": "#e74c3c",
        "iconSize": 1,
        "text": "韶山路社区",
        "textColor": "#333333",
        "type": "assistPoint",
        "name": "辅助点_1",
        "isAssistFeature": true,
        "sourceFileName": "辅助要素_建设社区等10个.geojson",
        "assistFileId": "assist_file_1774167534510_2"
      },
      "id": "assist_point_1773740163177_reimported_1774167534511"
    },
    {
      "type": "Feature",
      "geometry": {
        "type": "Point",
        "coordinates": [
          112.89274367109073,
          27.869570340114194
        ]
      },
      "properties": {
        "iconType": "default",
        "iconColor": "#e74c3c",
        "iconSize": 1,
        "text": "福利社区",
        "textColor": "#333333",
        "type": "assistPoint",
        "name": "辅助点_2",
        "isAssistFeature": true,
        "sourceFileName": "辅助要素_建设社区等10个.geojson",
        "assistFileId": "assist_file_1774167534510_2"
      },
      "id": "assist_point_1773740603113_reimported_1774167534511"
    },
    {
      "type": "Feature",
      "geometry": {
        "type": "Point",
        "coordinates": [
          112.89281479084526,
          27.872582417334343
        ]
      },
      "properties": {
        "iconType": "default",
        "iconColor": "#e74c3c",
        "iconSize": 1,
        "text": "和平社区",
        "textColor": "#333333",
        "type": "assistPoint",
        "name": "辅助点_3",
        "isAssistFeature": true,
        "sourceFileName": "辅助要素_建设社区等10个.geojson",
        "assistFileId": "assist_file_1774167534510_2"
      },
      "id": "assist_point_1773655550161_reimported_1773739547809_reimported_1774167534512"
    },
    {
      "type": "Feature",
      "geometry": {
        "type": "Point",
        "coordinates": [
          112.89581236822475,
          27.87375575661376
        ]
      },
      "properties": {
        "iconType": "default",
        "iconColor": "#e74c3c",
        "iconSize": 1,
        "text": "建设社区",
        "textColor": "#333333",
        "type": "assistPoint",
        "name": "辅助点_4",
        "isAssistFeature": true,
        "sourceFileName": "辅助要素_建设社区等10个.geojson",
        "assistFileId": "assist_file_1774167534510_2"
      },
      "id": "assist_point_1773656671231_reimported_1773739547809_reimported_1774167534512"
    },
    {
      "type": "Feature",
      "geometry": {
        "type": "Point",
        "coordinates": [
          112.89765739927732,
          27.869173458904427
        ]
      },
      "properties": {
        "iconType": "default",
        "iconColor": "#e74c3c",
        "iconSize": 1,
        "text": "杉树巷社区",
        "textColor": "#333333",
        "type": "assistPoint",
        "name": "辅助点_5",
        "isAssistFeature": true,
        "sourceFileName": "辅助要素_建设社区等10个.geojson",
        "assistFileId": "assist_file_1774167534510_2"
      },
      "id": "assist_point_1773741009488_reimported_1774167534512"
    },
    {
      "type": "Feature",
      "geometry": {
        "type": "Point",
        "coordinates": [
          112.90237214416612,
          27.876121677441873
        ]
      },
      "properties": {
        "iconType": "default",
        "iconColor": "#e74c3c",
        "iconSize": 1,
        "text": "公园社区",
        "textColor": "#333333",
        "type": "assistPoint",
        "name": "辅助点_6",
        "isAssistFeature": true,
        "sourceFileName": "辅助要素_建设社区等10个.geojson",
        "assistFileId": "assist_file_1774167534510_2"
      },
      "id": "assist_point_1773741159255_reimported_1774167534512"
    },
    {
      "type": "Feature",
      "geometry": {
        "type": "Point",
        "coordinates": [
          112.8840613746176,
          27.86756279358154
        ]
      },
      "properties": {
        "iconType": "default",
        "iconColor": "#e74c3c",
        "iconSize": 1,
        "text": "南盘岭社区",
        "textColor": "#333333",
        "type": "assistPoint",
        "name": "辅助点_8",
        "isAssistFeature": true,
        "sourceFileName": "辅助要素_建设社区等10个.geojson",
        "assistFileId": "assist_file_1774167534510_2"
      },
      "id": "assist_point_1773740863663_reimported_1774167534512"
    },
    {
      "type": "Feature",
      "geometry": {
        "type": "Point",
        "coordinates": [
          112.88710494997899,
          27.871828469593197
        ]
      },
      "properties": {
        "iconType": "default",
        "iconColor": "#e74c3c",
        "iconSize": 1,
        "text": "中心社区",
        "textColor": "#333333",
        "type": "assistPoint",
        "name": "辅助点_9",
        "isAssistFeature": true,
        "sourceFileName": "辅助要素_建设社区等10个.geojson",
        "assistFileId": "assist_file_1774167534510_2"
      },
      "id": "assist_point_1773739917690_reimported_1774167534512"
    },
    {
      "type": "Feature",
      "geometry": {
        "type": "Point",
        "coordinates": [
          112.88138735661401,
          27.863958615076314
        ]
      },
      "properties": {
        "iconType": "default",
        "iconColor": "#e74c3c",
        "iconSize": 1,
        "text": "烟竹社区",
        "textColor": "#333333",
        "type": "assistPoint",
        "name": "辅助点_10",
        "isAssistFeature": true,
        "sourceFileName": "辅助要素_建设社区等10个.geojson",
        "assistFileId": "assist_file_1774167534510_2"
      },
      "id": "assist_point_1773741389055_reimported_1774167534512"
    }
  ],
  "properties": {
    "fileName": "辅助要素_建设社区等10个.geojson",
    "exportTime": "2026/3/22 16:19:27",
    "source": "GIS-APP 辅助元素导出"
  }
}