{
  "type": "FeatureCollection",
  "features": [
    {
      "type": "Feature",
      "geometry": {
        "type": "Polygon",
        "coordinates": [
          [
            [
              113.0302696541289,
              28.001342014582363
            ],
            [
              113.0315640075181,
              27.99971797795702
            ],
            [
              113.03285836090731,
              27.998635273275497
            ],
            [
              113.03456145747205,
              28.000078877100123
            ],
            [
              113.03715016425045,
              28.001161567277165
            ],
            [
              113.03837639377704,
              28.000379625462756
            ],
            [
              113.04082885283026,
              27.99977812789814
            ],
            [
              113.04205508235687,
              27.99785331312914
            ],
            [
              113.04212320621946,
              27.995326941571676
            ],
            [
              113.04341755960867,
              27.99286066459581
            ],
            [
              113.04314506415828,
              27.990995881125755
            ],
            [
              113.0443031698223,
              27.990093554962343
            ],
            [
              113.04464378913528,
              27.98834903629718
            ],
            [
              113.04600626638704,
              27.9874466879797
            ],
            [
              113.04757311522663,
              27.98780762821295
            ],
            [
              113.04913996406616,
              27.98654433211
            ],
            [
              113.05091118449349,
              27.986424017423403
            ],
            [
              113.05213741402011,
              27.987506844769143
            ],
            [
              113.05424925376037,
              27.98654433211
            ],
            [
              113.05533923556182,
              27.986784961080346
            ],
            [
              113.0547942446611,
              27.987747471591348
            ],
            [
              113.0560204741877,
              27.988950597646408
            ],
            [
              113.05751919916467,
              27.988589661239672
            ],
            [
              113.05901792414164,
              27.988409192583163
            ],
            [
              113.0599716582179,
              27.990634951566733
            ],
            [
              113.06453595701137,
              27.99286066459581
            ],
            [
              113.06664779675165,
              27.99370281429826
            ],
            [
              113.06903213194228,
              27.995447246322072
            ],
            [
              113.07134834327033,
              27.996770589713364
            ],
            [
              113.07318768756025,
              27.997492406532515
            ],
            [
              113.07529952730053,
              27.997432255315573
            ],
            [
              113.07761573862857,
              27.99857512269645
            ],
            [
              113.07761573862857,
              28.000078877100123
            ],
            [
              113.07720699545301,
              28.001342014582363
            ],
            [
              113.07638950910193,
              28.003627654291762
            ],
            [
              113.07577639433863,
              28.00585309899799
            ],
            [
              113.0741414216365,
              28.00645456264907
            ],
            [
              113.07291519210989,
              28.00759733433459
            ],
            [
              113.07168896258328,
              28.00825893345376
            ],
            [
              113.06971337056818,
              28.009161107522317
            ],
            [
              113.06930462739264,
              28.011627011423144
            ],
            [
              113.06971337056818,
              28.013130583655652
            ],
            [
              113.0682827694538,
              28.01385229087127
            ],
            [
              113.0670565399272,
              28.012890013509022
            ],
            [
              113.06603468198834,
              28.01367186452076
            ],
            [
              113.06412721383586,
              28.01367186452076
            ],
            [
              113.06242411727112,
              28.01463413489708
            ],
            [
              113.06031227753083,
              28.01421314266544
            ],
            [
              113.05704233212656,
              28.013792148788028
            ],
            [
              113.05309114809636,
              28.013250868527436
            ],
            [
              113.05159242311939,
              28.01252915728152
            ],
            [
              113.0502299458676,
              28.01276972823419
            ],
            [
              113.04804998226476,
              28.011867584390913
            ],
            [
              113.0458018947993,
              28.011747297974182
            ],
            [
              113.04430316982233,
              28.011807441199323
            ],
            [
              113.04164633918134,
              28.012048013764087
            ],
            [
              113.03987511875401,
              28.011687154715446
            ],
            [
              113.03817202218927,
              28.010965432991057
            ],
            [
              113.03633267789935,
              28.011145863875527
            ],
            [
              113.03456145747205,
              28.010604570315323
            ],
            [
              113.03326710408282,
              28.010003129835724
            ],
            [
              113.0309508927548,
              28.0081987882472
            ],
            [
              113.03101901661739,
              28.007176314597686
            ],
            [
              113.03210899841882,
              28.006755293215306
            ],
            [
              113.03170025524328,
              28.005131338184214
            ],
            [
              113.0315640075181,
              28.00410883542068
            ],
            [
              113.03462958133464,
              28.002244246575515
            ],
            [
              113.03258586545695,
              28.00272543388276
            ],
            [
              113.03149588365552,
              28.00170290828619
            ],
            [
              113.0302696541289,
              28.001342014582363
            ]
          ]
        ]
      },
      "properties": {
        "assistFileId": "assist_file_default_1773891410099",
        "sourceFileName": "辅助元素_1.geojson",
        "name": "玉屏村",
        "type": "assistPolygon",
        "fill": "#9b59b6",
        "fill-opacity": 0.2,
        "stroke": "#9b59b6",
        "stroke-width": 2,
        "stroke-opacity": 0.8
      },
      "id": "assist_polygon_1773891410099"
    },
    {
      "type": "Feature",
      "geometry": {
        "type": "Point",
        "coordinates": [
          113.05458987307333,
          28.00254498889437
        ]
      },
      "properties": {
        "iconType": "default",
        "iconColor": "#e74c3c",
        "iconSize": 1,
        "text": "玉屏村",
        "textColor": "#333333",
        "assistFileId": "assist_file_default_1773891410099",
        "sourceFileName": "辅助元素_1.geojson",
        "type": "assistPoint",
        "name": "辅助点_1"
      },
      "id": "assist_point_1773891416258"
    }
  ],
  "properties": {
    "description": "GIS-APP 辅助要素导出",
    "exportTime": "2026/3/19 11:36:58",
    "assistElements": {
      "lines": 0,
      "polygons": 1,
      "texts": 0,
      "points": 1
    },
    "fileCount": 1
  }
}