{
  "type": "FeatureCollection",
  "features": [
    {
      "type": "Feature",
      "geometry": {
        "type": "Polygon",
        "coordinates": [
          [
            [
              112.8821206384857,
              27.80498843023652
            ],
            [
              112.87567394091039,
              27.819173873519986
            ],
            [
              112.87488775827926,
              27.82376288495101
            ],
            [
              112.87237197385964,
              27.831549854400407
            ],
            [
              112.87032789901866,
              27.831549854400407
            ],
            [
              112.86969895291377,
              27.82974221485412
            ],
            [
              112.8681265876515,
              27.832245092362925
            ],
            [
              112.86623974933676,
              27.82904696085815
            ],
            [
              112.8648246206007,
              27.826544009597498
            ],
            [
              112.86105094397126,
              27.828212650184255
            ],
            [
              112.85979305176144,
              27.82626590033918
            ],
            [
              112.86529633017939,
              27.822233236025554
            ],
            [
              112.8687555337564,
              27.816948828463737
            ],
            [
              112.87158579122848,
              27.809299888373744
            ],
            [
              112.87315815649077,
              27.80568383828337
            ],
            [
              112.88007656364475,
              27.802624009583965
            ],
            [
              112.8821206384857,
              27.80498843023652
            ]
          ]
        ]
      },
      "properties": {
        "assistFileId": "assist_layer_default",
        "sourceFileName": "辅助元素图层",
        "name": "犁头村",
        "type": "assistPolygon",
        "fill": "#9b59b6",
        "fill-opacity": 0.2,
        "stroke": "#9b59b6",
        "stroke-width": 2,
        "stroke-opacity": 0.8
      },
      "id": "assist_polygon_1774172241307"
    },
    {
      "type": "Feature",
      "geometry": {
        "type": "Point",
        "coordinates": [
          112.87174302775472,
          27.81986919074987
        ]
      },
      "properties": {
        "iconType": "default",
        "iconColor": "#e74c3c",
        "iconSize": 1,
        "text": "犁头村",
        "textColor": "#333333",
        "assistFileId": "assist_layer_default",
        "sourceFileName": "辅助元素图层",
        "type": "assistPoint"
      },
      "id": "assist_point_1774172246527"
    },
    {
      "type": "Feature",
      "geometry": {
        "type": "Polygon",
        "coordinates": [
          [
            [
              112.85979305176144,
              27.82626590033918
            ],
            [
              112.856019375132,
              27.827934545201174
            ],
            [
              112.8571200308156,
              27.829464113790195
            ],
            [
              112.85476148292217,
              27.831132709485075
            ],
            [
              112.85507595597461,
              27.83460886811963
            ],
            [
              112.85743450386803,
              27.83586025796903
            ],
            [
              112.85947857870897,
              27.837528755318473
            ],
            [
              112.86781211459905,
              27.843507326783268
            ],
            [
              112.8693844798613,
              27.845870857178284
            ],
            [
              112.86891277028263,
              27.849346543607552
            ],
            [
              112.87032789901866,
              27.847956282402535
            ],
            [
              112.87158579122848,
              27.849346543607552
            ],
            [
              112.87378710259567,
              27.847956282402535
            ],
            [
              112.87535946785795,
              27.849207518289063
            ],
            [
              112.87614565048908,
              27.84740017293025
            ],
            [
              112.87787525227758,
              27.846566003375187
            ],
            [
              112.87787525227758,
              27.849207518289063
            ],
            [
              112.8797620905923,
              27.850736786989614
            ],
            [
              112.88054827322344,
              27.852266034123687
            ],
            [
              112.88290682111686,
              27.85143190199686
            ],
            [
              112.88227787501194,
              27.84948556874778
            ],
            [
              112.88023380017098,
              27.84767822802283
            ],
            [
              112.8785041983825,
              27.84517570652605
            ],
            [
              112.8728436834383,
              27.837389714852662
            ],
            [
              112.87252921038585,
              27.831410806273468
            ],
            [
              112.86985618943999,
              27.8298812651189
            ],
            [
              112.86781211459905,
              27.832245092362925
            ],
            [
              112.8646673840745,
              27.8264049550574
            ],
            [
              112.86105094397126,
              27.828073597781753
            ],
            [
              112.85979305176144,
              27.82626590033918
            ]
          ]
        ]
      },
      "properties": {
        "assistFileId": "assist_layer_default",
        "sourceFileName": "辅助元素图层",
        "name": "新石村",
        "type": "assistPolygon",
        "fill": "#9b59b6",
        "fill-opacity": 0.2,
        "stroke": "#9b59b6",
        "stroke-width": 2,
        "stroke-opacity": 0.8
      },
      "id": "assist_polygon_1774172284231"
    },
    {
      "type": "Feature",
      "geometry": {
        "type": "Point",
        "coordinates": [
          112.86796935112527,
          27.837389714852662
        ]
      },
      "properties": {
        "iconType": "default",
        "iconColor": "#e74c3c",
        "iconSize": 1,
        "text": "新石村",
        "textColor": "#333333",
        "assistFileId": "assist_layer_default",
        "sourceFileName": "辅助元素图层",
        "type": "assistPoint"
      },
      "id": "assist_point_1774172290801"
    },
    {
      "type": "Feature",
      "geometry": {
        "type": "Polygon",
        "coordinates": [
          [
            [
              112.85460424639592,
              27.851014833527202
            ],
            [
              112.85303188113366,
              27.846844060606387
            ],
            [
              112.85523319250085,
              27.841838921378965
            ],
            [
              112.85539042902708,
              27.837667795606123
            ],
            [
              112.85884963260408,
              27.83697259238616
            ],
            [
              112.86734040502036,
              27.842812160983314
            ],
            [
              112.86969895291377,
              27.846705032079882
            ],
            [
              112.8687555337564,
              27.849902643099128
            ],
            [
              112.86576803975807,
              27.8515709244636
            ],
            [
              112.86576803975807,
              27.849763618493597
            ],
            [
              112.86340949186467,
              27.849763618493597
            ],
            [
              112.86246607270732,
              27.85170994675208
            ],
            [
              112.85947857870897,
              27.85170994675208
            ],
            [
              112.85790621344673,
              27.850458739739068
            ],
            [
              112.85460424639592,
              27.851014833527202
            ]
          ]
        ]
      },
      "properties": {
        "assistFileId": "assist_layer_default",
        "sourceFileName": "辅助元素图层",
        "name": "高坪村",
        "type": "assistPolygon",
        "fill": "#9b59b6",
        "fill-opacity": 0.2,
        "stroke": "#9b59b6",
        "stroke-width": 2,
        "stroke-opacity": 0.8
      },
      "id": "assist_polygon_1774172312500"
    },
    {
      "type": "Feature",
      "geometry": {
        "type": "Point",
        "coordinates": [
          112.86073647091881,
          27.845592797452056
        ]
      },
      "properties": {
        "iconType": "default",
        "iconColor": "#e74c3c",
        "iconSize": 1,
        "text": "高坪村",
        "textColor": "#333333",
        "assistFileId": "assist_layer_default",
        "sourceFileName": "辅助元素图层",
        "type": "assistPoint"
      },
      "id": "assist_point_1774172317372"
    },
    {
      "type": "Feature",
      "geometry": {
        "type": "Polygon",
        "coordinates": [
          [
            [
              112.84375492608626,
              27.860885023677525
            ],
            [
              112.84375492608626,
              27.85768773653531
            ],
            [
              112.84501281829608,
              27.85782675098072
            ],
            [
              112.84517005482232,
              27.855880532523102
            ],
            [
              112.84328321650757,
              27.856158565870473
            ],
            [
              112.84422663566494,
              27.852127012548152
            ],
            [
              112.85837792302539,
              27.850736786989614
            ],
            [
              112.86026476134013,
              27.852266034123687
            ],
            [
              112.8612081804975,
              27.859216885630104
            ],
            [
              112.85916410565652,
              27.85977293449831
            ],
            [
              112.8601075248139,
              27.861302054178154
            ],
            [
              112.86026476134013,
              27.863526189749237
            ],
            [
              112.85790621344673,
              27.86533326629329
            ],
            [
              112.85853515955162,
              27.867001310204785
            ],
            [
              112.8566483212369,
              27.866862307526134
            ],
            [
              112.85523319250085,
              27.86825232628871
            ],
            [
              112.85523319250085,
              27.870198322600146
            ],
            [
              112.85334635418613,
              27.86992032526686
            ],
            [
              112.84878649492552,
              27.869225328813116
            ],
            [
              112.84894373145175,
              27.86741831717086
            ],
            [
              112.85161675239763,
              27.866167291458453
            ],
            [
              112.85177398892387,
              27.863109167806257
            ],
            [
              112.84642794703214,
              27.861024034022677
            ],
            [
              112.84375492608626,
              27.860885023677525
            ]
          ]
        ]
      },
      "properties": {
        "assistFileId": "assist_layer_default",
        "sourceFileName": "辅助元素图层",
        "name": "繁白村",
        "type": "assistPolygon",
        "fill": "#9b59b6",
        "fill-opacity": 0.2,
        "stroke": "#9b59b6",
        "stroke-width": 2,
        "stroke-opacity": 0.8
      },
      "id": "assist_polygon_1774172349467"
    },
    {
      "type": "Feature",
      "geometry": {
        "type": "Point",
        "coordinates": [
          112.85287464460745,
          27.860746013154085
        ]
      },
      "properties": {
        "iconType": "default",
        "iconColor": "#e74c3c",
        "iconSize": 1,
        "text": "繁白村",
        "textColor": "#333333",
        "assistFileId": "assist_layer_default",
        "sourceFileName": "辅助元素图层",
        "type": "assistPoint"
      },
      "id": "assist_point_1774172355677"
    },
    {
      "type": "Feature",
      "geometry": {
        "type": "Polygon",
        "coordinates": [
          [
            [
              112.86026476134013,
              27.852127012548152
            ],
            [
              112.86293778228598,
              27.85170994675208
            ],
            [
              112.86372396491711,
              27.849763618493597
            ],
            [
              112.8659252762843,
              27.851292879351888
            ],
            [
              112.86907000680884,
              27.85059776345345
            ],
            [
              112.86907000680884,
              27.853239180161665
            ],
            [
              112.87001342596622,
              27.855046428202925
            ],
            [
              112.87315815649077,
              27.85852182053378
            ],
            [
              112.8711140816498,
              27.859216885630104
            ],
            [
              112.86891277028263,
              27.85907787296736
            ],
            [
              112.8693844798613,
              27.861024034022677
            ],
            [
              112.86907000680884,
              27.863804203486467
            ],
            [
              112.86781211459905,
              27.86561127539487
            ],
            [
              112.8648246206007,
              27.867557319136253
            ],
            [
              112.8618371266024,
              27.869086328987407
            ],
            [
              112.86388120144335,
              27.87131030480053
            ],
            [
              112.86246607270732,
              27.872561271134288
            ],
            [
              112.86230883618109,
              27.875758119472664
            ],
            [
              112.85476148292217,
              27.875758119472664
            ],
            [
              112.8566483212369,
              27.872978256702325
            ],
            [
              112.85743450386803,
              27.87103231032036
            ],
            [
              112.85696279428936,
              27.86866932844046
            ],
            [
              112.85790621344673,
              27.866445298420444
            ],
            [
              112.86026476134013,
              27.852127012548152
            ]
          ]
        ]
      },
      "properties": {
        "assistFileId": "assist_layer_default",
        "sourceFileName": "辅助元素图层",
        "name": "立洪村",
        "type": "assistPolygon",
        "fill": "#9b59b6",
        "fill-opacity": 0.2,
        "stroke": "#9b59b6",
        "stroke-width": 2,
        "stroke-opacity": 0.8
      },
      "id": "assist_polygon_1774172383861"
    },
    {
      "type": "Feature",
      "geometry": {
        "type": "Point",
        "coordinates": [
          112.86372396491711,
          27.86269214425863
        ]
      },
      "properties": {
        "iconType": "default",
        "iconColor": "#e74c3c",
        "iconSize": 1,
        "text": "立洪村",
        "textColor": "#333333",
        "assistFileId": "assist_layer_default",
        "sourceFileName": "辅助元素图层",
        "type": "assistPoint"
      },
      "id": "assist_point_1774172391129"
    },
    {
      "type": "Feature",
      "geometry": {
        "type": "Polygon",
        "coordinates": [
          [
            [
              112.8728436834383,
              27.859216885630104
            ],
            [
              112.87708906964644,
              27.860885023677525
            ],
            [
              112.87756077922513,
              27.86338718261318
            ],
            [
              112.87708906964644,
              27.86853032790151
            ],
            [
              112.88086274627588,
              27.86936432846049
            ],
            [
              112.87787525227758,
              27.870754315126888
            ],
            [
              112.87535946785795,
              27.870337320999326
            ],
            [
              112.87237197385964,
              27.869642327220305
            ],
            [
              112.87017066249243,
              27.86936432846049
            ],
            [
              112.86623974933676,
              27.867835322532173
            ],
            [
              112.86828382417771,
              27.86547227093321
            ],
            [
              112.86954171638753,
              27.86408221651054
            ],
            [
              112.8728436834383,
              27.859216885630104
            ]
          ]
        ]
      },
      "properties": {
        "assistFileId": "assist_layer_default",
        "sourceFileName": "辅助元素图层",
        "name": "砂子村",
        "type": "assistPolygon",
        "fill": "#9b59b6",
        "fill-opacity": 0.2,
        "stroke": "#9b59b6",
        "stroke-width": 2,
        "stroke-opacity": 0.8
      },
      "id": "assist_polygon_1774172413161"
    },
    {
      "type": "Feature",
      "geometry": {
        "type": "Point",
        "coordinates": [
          112.87300091996454,
          27.867140312705104
        ]
      },
      "properties": {
        "iconType": "default",
        "iconColor": "#e74c3c",
        "iconSize": 1,
        "text": "砂子村",
        "textColor": "#333333",
        "assistFileId": "assist_layer_default",
        "sourceFileName": "辅助元素图层",
        "type": "assistPoint"
      },
      "id": "assist_point_1774172419429"
    },
    {
      "type": "Feature",
      "geometry": {
        "type": "Polygon",
        "coordinates": [
          [
            [
              112.8220562854669,
              27.890073282933344
            ],
            [
              112.82001221062595,
              27.888961493361663
            ],
            [
              112.82142733936197,
              27.887293787596576
            ],
            [
              112.82064115673084,
              27.884097279745603
            ],
            [
              112.82237075851934,
              27.882151533114538
            ],
            [
              112.82221352199313,
              27.88034473708197
            ],
            [
              112.82079839325705,
              27.879093860632423
            ],
            [
              112.82284246809803,
              27.87645307401911
            ],
            [
              112.82535825251765,
              27.877009034446075
            ],
            [
              112.82771680041108,
              27.88076169268804
            ],
            [
              112.82755956388483,
              27.88270746429086
            ],
            [
              112.83353455188148,
              27.88270746429086
            ],
            [
              112.83683651893224,
              27.88131763099902
            ],
            [
              112.83777993808961,
              27.878676898605505
            ],
            [
              112.83730822851092,
              27.87450719005365
            ],
            [
              112.8423397973502,
              27.874924168131713
            ],
            [
              112.84281150692888,
              27.877842969736108
            ],
            [
              112.84139637819283,
              27.880205751523263
            ],
            [
              112.84092466861416,
              27.882151533114538
            ],
            [
              112.83872335724698,
              27.88340237424788
            ],
            [
              112.8393523033519,
              27.887015834138225
            ],
            [
              112.83777993808961,
              27.889934309861303
            ],
            [
              112.83589309977489,
              27.887015834138225
            ],
            [
              112.8296036387258,
              27.885348098403668
            ],
            [
              112.82567272557012,
              27.886320947370578
            ],
            [
              112.82551548904388,
              27.888961493361663
            ],
            [
              112.8220562854669,
              27.890073282933344
            ]
          ]
        ]
      },
      "properties": {
        "assistFileId": "assist_layer_default",
        "sourceFileName": "辅助元素图层",
        "name": "花园村",
        "type": "assistPolygon",
        "fill": "#9b59b6",
        "fill-opacity": 0.2,
        "stroke": "#9b59b6",
        "stroke-width": 2,
        "stroke-opacity": 0.8
      },
      "id": "assist_polygon_1774172456975"
    },
    {
      "type": "Feature",
      "geometry": {
        "type": "Point",
        "coordinates": [
          112.82535825251765,
          27.885348098403668
        ]
      },
      "properties": {
        "iconType": "default",
        "iconColor": "#e74c3c",
        "iconSize": 1,
        "text": "花园村",
        "textColor": "#333333",
        "assistFileId": "assist_layer_default",
        "sourceFileName": "辅助元素图层",
        "type": "assistPoint"
      },
      "id": "assist_point_1774172462296"
    },
    {
      "type": "Feature",
      "geometry": {
        "type": "Polygon",
        "coordinates": [
          [
            [
              112.84674242008457,
              27.89868926495849
            ],
            [
              112.8440693991387,
              27.895771025276872
            ],
            [
              112.8423397973502,
              27.891185061087313
            ],
            [
              112.83872335724698,
              27.888544569328715
            ],
            [
              112.83919506682567,
              27.8839582990028
            ],
            [
              112.84171085124531,
              27.881178646688824
            ],
            [
              112.84281150692888,
              27.878954873468487
            ],
            [
              112.84658518355835,
              27.879371834425285
            ],
            [
              112.84800031229437,
              27.883263392613216
            ],
            [
              112.85114504281894,
              27.888266619081435
            ],
            [
              112.84878649492552,
              27.892435797862362
            ],
            [
              112.84988715060912,
              27.895493093584264
            ],
            [
              112.84737136618948,
              27.89618792147762
            ],
            [
              112.84878649492552,
              27.89868926495849
            ],
            [
              112.84674242008457,
              27.89868926495849
            ]
          ]
        ]
      },
      "properties": {
        "assistFileId": "assist_layer_default",
        "sourceFileName": "辅助元素图层",
        "name": "上新村",
        "type": "assistPolygon",
        "fill": "#9b59b6",
        "fill-opacity": 0.2,
        "stroke": "#9b59b6",
        "stroke-width": 2,
        "stroke-opacity": 0.8
      },
      "id": "assist_polygon_1774172479283"
    },
    {
      "type": "Feature",
      "geometry": {
        "type": "Point",
        "coordinates": [
          112.84422663566494,
          27.888961493361663
        ]
      },
      "properties": {
        "iconType": "default",
        "iconColor": "#e74c3c",
        "iconSize": 1,
        "text": "上新村",
        "textColor": "#333333",
        "assistFileId": "assist_layer_default",
        "sourceFileName": "辅助元素图层",
        "type": "assistPoint"
      },
      "id": "assist_point_1774172483859"
    },
    {
      "type": "Feature",
      "geometry": {
        "type": "Polygon",
        "coordinates": [
          [
            [
              112.8434404530338,
              27.87839892302911
            ],
            [
              112.8429687434551,
              27.875341144604718
            ],
            [
              112.8520884619763,
              27.875758119472664
            ],
            [
              112.85460424639592,
              27.879232847618027
            ],
            [
              112.8520884619763,
              27.879788793776896
            ],
            [
              112.8531891176599,
              27.88256848176431
            ],
            [
              112.8579062134467,
              27.88507013995053
            ],
            [
              112.85743450386802,
              27.886876857141488
            ],
            [
              112.8555476655533,
              27.886459925080885
            ],
            [
              112.85523319250085,
              27.888544569328715
            ],
            [
              112.85381806376479,
              27.892435797862362
            ],
            [
              112.85774897692049,
              27.894381359676856
            ],
            [
              112.85774897692049,
              27.8978554902218
            ],
            [
              112.8555476655533,
              27.89521516117796
            ],
            [
              112.84988715060912,
              27.895771025276872
            ],
            [
              112.8486292583993,
              27.892157857605653
            ],
            [
              112.85114504281894,
              27.88840559429427
            ],
            [
              112.84815754882062,
              27.881595599084307
            ],
            [
              112.84658518355835,
              27.878954873468487
            ],
            [
              112.8434404530338,
              27.87839892302911
            ]
          ]
        ]
      },
      "properties": {
        "assistFileId": "assist_layer_default",
        "sourceFileName": "辅助元素图层",
        "name": "卫星村",
        "type": "assistPolygon",
        "fill": "#9b59b6",
        "fill-opacity": 0.2,
        "stroke": "#9b59b6",
        "stroke-width": 2,
        "stroke-opacity": 0.8
      },
      "id": "assist_polygon_1774172505567"
    },
    {
      "type": "Feature",
      "geometry": {
        "type": "Point",
        "coordinates": [
          112.85020162366158,
          27.8839582990028
        ]
      },
      "properties": {
        "iconType": "default",
        "iconColor": "#e74c3c",
        "iconSize": 1,
        "text": "卫星村",
        "textColor": "#333333",
        "assistFileId": "assist_layer_default",
        "sourceFileName": "辅助元素图层",
        "type": "assistPoint"
      },
      "id": "assist_point_1774172510996"
    },
    {
      "type": "Feature",
      "geometry": {
        "type": "Polygon",
        "coordinates": [
          [
            [
              112.85633384818443,
              27.900634714362496
            ],
            [
              112.85774897692049,
              27.8978554902218
            ],
            [
              112.85759174039426,
              27.89493722805794
            ],
            [
              112.85444700986972,
              27.89257476772309
            ],
            [
              112.85570490207954,
              27.887015834138225
            ],
            [
              112.85806344997295,
              27.88659890261279
            ],
            [
              112.8572772673418,
              27.88437524069603
            ],
            [
              112.85303188113366,
              27.882429499059413
            ],
            [
              112.85995028828766,
              27.883263392613216
            ],
            [
              112.86623974933676,
              27.88437524069603
            ],
            [
              112.8659252762843,
              27.888822518862426
            ],
            [
              112.86561080323186,
              27.893825488441053
            ],
            [
              112.86309501881222,
              27.896465851385926
            ],
            [
              112.8648246206007,
              27.8974386004446
            ],
            [
              112.8618371266024,
              27.899384072332026
            ],
            [
              112.85633384818443,
              27.900634714362496
            ]
          ]
        ]
      },
      "properties": {
        "assistFileId": "assist_layer_default",
        "sourceFileName": "辅助元素图层",
        "name": "湘大社区",
        "type": "assistPolygon",
        "fill": "#9b59b6",
        "fill-opacity": 0.2,
        "stroke": "#9b59b6",
        "stroke-width": 2,
        "stroke-opacity": 0.8
      },
      "id": "assist_polygon_1774172532200"
    },
    {
      "type": "Feature",
      "geometry": {
        "type": "Point",
        "coordinates": [
          112.86042199786634,
          27.890629173437574
        ]
      },
      "properties": {
        "iconType": "default",
        "iconColor": "#e74c3c",
        "iconSize": 1,
        "text": "湘大社区",
        "textColor": "#333333",
        "assistFileId": "assist_layer_default",
        "sourceFileName": "辅助元素图层",
        "type": "assistPoint"
      },
      "id": "assist_point_1774172542960"
    },
    {
      "type": "Feature",
      "geometry": {
        "type": "Polygon",
        "coordinates": [
          [
            [
              112.82299970462427,
              27.87631408346651
            ],
            [
              112.82488654293898,
              27.87409021037054
            ],
            [
              112.82598719862257,
              27.87144930177314
            ],
            [
              112.82881745609465,
              27.872700266501965
            ],
            [
              112.8313332405143,
              27.87228327986398
            ],
            [
              112.83715099198471,
              27.87422920377658
            ],
            [
              112.83762270156339,
              27.8781209467393
            ],
            [
              112.83840888419454,
              27.880205751523263
            ],
            [
              112.83494968061753,
              27.88229051617614
            ],
            [
              112.82818850998976,
              27.88256848176431
            ],
            [
              112.82661614472747,
              27.878676898605505
            ],
            [
              112.82535825251765,
              27.876592064393364
            ],
            [
              112.82299970462427,
              27.87631408346651
            ]
          ]
        ]
      },
      "properties": {
        "assistFileId": "assist_layer_default",
        "sourceFileName": "辅助元素图层",
        "name": "花园社区",
        "type": "assistPolygon",
        "fill": "#9b59b6",
        "fill-opacity": 0.2,
        "stroke": "#9b59b6",
        "stroke-width": 2,
        "stroke-opacity": 0.8
      },
      "id": "assist_polygon_1774172570354"
    },
    {
      "type": "Feature",
      "geometry": {
        "type": "Point",
        "coordinates": [
          112.8313332405143,
          27.877426002893642
        ]
      },
      "properties": {
        "iconType": "default",
        "iconColor": "#e74c3c",
        "iconSize": 1,
        "text": "花园社区",
        "textColor": "#333333",
        "assistFileId": "assist_layer_default",
        "sourceFileName": "辅助元素图层",
        "type": "assistPoint"
      },
      "id": "assist_point_1774172577603"
    },
    {
      "type": "Feature",
      "geometry": {
        "type": "Polygon",
        "coordinates": [
          [
            [
              112.86560460862827,
              27.897553842828728
            ],
            [
              112.86333876477322,
              27.896140289936483
            ],
            [
              112.86573789356092,
              27.893077528668996
            ],
            [
              112.8662710332915,
              27.88435996459117
            ],
            [
              112.85414210442042,
              27.88271061675269
            ],
            [
              112.85200954549802,
              27.879883104871297
            ],
            [
              112.8560080934775,
              27.879529660695567
            ],
            [
              112.85720765787136,
              27.8765842477101
            ],
            [
              112.86240577024469,
              27.876702065767333
            ],
            [
              112.86427175930177,
              27.878469321247877
            ],
            [
              112.86427175930177,
              27.882592805231525
            ],
            [
              112.8681370223486,
              27.883535293812116
            ],
            [
              112.86827030728124,
              27.886009287307786
            ],
            [
              112.8689367319445,
              27.888836639229453
            ],
            [
              112.86827030728124,
              27.890957104716506
            ],
            [
              112.8700030114057,
              27.892841928058772
            ],
            [
              112.86693745795476,
              27.893313128766437
            ],
            [
              112.86707074288739,
              27.89578689882869
            ],
            [
              112.86560460862827,
              27.897553842828728
            ]
          ]
        ]
      },
      "properties": {
        "assistFileId": "assist_layer_default",
        "sourceFileName": "辅助元素图层",
        "name": "红旗村",
        "type": "assistPolygon",
        "fill": "#9b59b6",
        "fill-opacity": 0.2,
        "stroke": "#9b59b6",
        "stroke-width": 2,
        "stroke-opacity": 0.8
      },
      "id": "assist_polygon_1774172733584"
    },
    {
      "type": "Feature",
      "geometry": {
        "type": "Point",
        "coordinates": [
          112.85974007159167,
          27.880589989762413
        ]
      },
      "properties": {
        "iconType": "default",
        "iconColor": "#e74c3c",
        "iconSize": 1,
        "text": "红旗村",
        "textColor": "#333333",
        "assistFileId": "assist_layer_default",
        "sourceFileName": "辅助元素图层",
        "type": "assistPoint"
      },
      "id": "assist_point_1774172743452"
    },
    {
      "type": "Feature",
      "geometry": {
        "type": "Polygon",
        "coordinates": [
          [
            [
              112.85467524415103,
              27.878587137254712
            ],
            [
              112.85214283043068,
              27.875759517721193
            ],
            [
              112.84187989061668,
              27.87422785965431
            ],
            [
              112.84081361115548,
              27.872107066579446
            ],
            [
              112.84454558926967,
              27.871046654473417
            ],
            [
              112.84801099751856,
              27.87116447855327
            ],
            [
              112.84934384684504,
              27.869750581138177
            ],
            [
              112.85374224962247,
              27.870221882326632
            ],
            [
              112.85614137841014,
              27.868572319198122
            ],
            [
              112.857340942804,
              27.871046654473417
            ],
            [
              112.85627466334282,
              27.873049646404937
            ],
            [
              112.85467524415103,
              27.875995155501627
            ],
            [
              112.85467524415103,
              27.878587137254712
            ]
          ]
        ]
      },
      "properties": {
        "assistFileId": "assist_layer_default",
        "sourceFileName": "辅助元素图层",
        "name": "羊牯村",
        "type": "assistPolygon",
        "fill": "#9b59b6",
        "fill-opacity": 0.2,
        "stroke": "#9b59b6",
        "stroke-width": 2,
        "stroke-opacity": 0.8
      },
      "id": "assist_polygon_1774172780012"
    },
    {
      "type": "Feature",
      "geometry": {
        "type": "Point",
        "coordinates": [
          112.84947713177769,
          27.873403111725196
        ]
      },
      "properties": {
        "iconType": "default",
        "iconColor": "#e74c3c",
        "iconSize": 1,
        "text": "羊牯村",
        "textColor": "#333333",
        "assistFileId": "assist_layer_default",
        "sourceFileName": "辅助元素图层",
        "type": "assistPoint"
      },
      "id": "assist_point_1774172784922"
    },
    {
      "type": "Feature",
      "geometry": {
        "type": "Polygon",
        "coordinates": [
          [
            [
              112.87773353749935,
              27.847125713652474
            ],
            [
              112.87800010736464,
              27.85007192731794
            ],
            [
              112.87973281148909,
              27.85172177200829
            ],
            [
              112.87733368270139,
              27.852075306890384
            ],
            [
              112.8781333922973,
              27.853725121099117
            ],
            [
              112.88066580601765,
              27.854785702691444
            ],
            [
              112.87879981696055,
              27.85702467420488
            ],
            [
              112.87520112377901,
              27.85490354445021
            ],
            [
              112.87306856485662,
              27.85490354445021
            ],
            [
              112.87333513472193,
              27.8531359046206
            ],
            [
              112.87386827445253,
              27.85113254464335
            ],
            [
              112.87200228539542,
              27.84995408030811
            ],
            [
              112.87373498951986,
              27.848304208723434
            ],
            [
              112.8757342635096,
              27.849364843337924
            ],
            [
              112.87586754844227,
              27.847243563735844
            ],
            [
              112.87773353749935,
              27.847125713652474
            ]
          ]
        ]
      },
      "properties": {
        "assistFileId": "assist_layer_default",
        "sourceFileName": "辅助元素图层",
        "name": "工农村",
        "type": "assistPolygon",
        "fill": "#9b59b6",
        "fill-opacity": 0.2,
        "stroke": "#9b59b6",
        "stroke-width": 2,
        "stroke-opacity": 0.8
      },
      "id": "assist_polygon_1774172828938"
    },
    {
      "type": "Feature",
      "geometry": {
        "type": "Point",
        "coordinates": [
          112.87560097857695,
          27.85266452913237
        ]
      },
      "properties": {
        "iconType": "default",
        "iconColor": "#e74c3c",
        "iconSize": 1,
        "text": "工农村",
        "textColor": "#333333",
        "assistFileId": "assist_layer_default",
        "sourceFileName": "辅助元素图层",
        "type": "assistPoint"
      },
      "id": "assist_point_1774172834229"
    },
    {
      "type": "Feature",
      "geometry": {
        "type": "Polygon",
        "coordinates": [
          [
            [
              112.87373498951986,
              27.857849546790646
            ],
            [
              112.87106929086687,
              27.855846273909037
            ],
            [
              112.86827030728124,
              27.85007192731794
            ],
            [
              112.86920330180979,
              27.847361413691146
            ],
            [
              112.87160243059749,
              27.849011299618994
            ],
            [
              112.87320184978928,
              27.85113254464335
            ],
            [
              112.87319777787057,
              27.85350286171841
            ],
            [
              112.87302707810179,
              27.854842298267144
            ],
            [
              112.87522483762487,
              27.85504981512524
            ],
            [
              112.87584362428669,
              27.855974203576807
            ],
            [
              112.87373498951986,
              27.857849546790646
            ]
          ]
        ]
      },
      "properties": {
        "assistFileId": "assist_layer_default",
        "sourceFileName": "辅助元素图层",
        "name": "和平村",
        "type": "assistPolygon",
        "fill": "#9b59b6",
        "fill-opacity": 0.2,
        "stroke": "#9b59b6",
        "stroke-width": 2,
        "stroke-opacity": 0.8
      },
      "id": "assist_polygon_1774172848667"
    },
    {
      "type": "Feature",
      "geometry": {
        "type": "Point",
        "coordinates": [
          112.87146914566483,
          27.85348943489194
        ]
      },
      "properties": {
        "iconType": "default",
        "iconColor": "#e74c3c",
        "iconSize": 1,
        "text": "和平村",
        "textColor": "#333333",
        "assistFileId": "assist_layer_default",
        "sourceFileName": "辅助元素图层",
        "type": "assistPoint"
      },
      "id": "assist_point_1774172861087"
    }
  ],
  "properties": {
    "fileName": "辅助元素图层",
    "exportTime": "2026/3/22 17:49:53",
    "source": "GIS-APP 辅助元素导出"
  }
}