{
  "type": "FeatureCollection",
  "features": [
    {
      "type": "Feature",
      "geometry": {
        "type": "Polygon",
        "coordinates": [
          [
            [
              112.83361611715902,
              27.963922595813102
            ],
            [
              112.83062542510937,
              27.962351958061262
            ],
            [
              112.82868551675284,
              27.960995479790327
            ],
            [
              112.82828136917854,
              27.959282009185856
            ],
            [
              112.8254523361586,
              27.958782241802567
            ],
            [
              112.82537150664375,
              27.959995958576627
            ],
            [
              112.82375491634664,
              27.96056711468924
            ],
            [
              112.82173417847528,
              27.961923598343773
            ],
            [
              112.81914763399989,
              27.962708923193773
            ],
            [
              112.81745021418793,
              27.96285170891622
            ],
            [
              112.81704606661366,
              27.96570738369418
            ],
            [
              112.81518698777197,
              27.96570738369418
            ],
            [
              112.81348956796002,
              27.966278509581954
            ],
            [
              112.81227712523719,
              27.965493210706995
            ],
            [
              112.81211546620746,
              27.963922595813102
            ],
            [
              112.8109838529995,
              27.962923101706608
            ],
            [
              112.80904394464297,
              27.963494242329475
            ],
            [
              112.80686154774186,
              27.962708923193773
            ],
            [
              112.8066190591973,
              27.96106687380852
            ],
            [
              112.80807399046469,
              27.960852691612175
            ],
            [
              112.8093672627024,
              27.958639450696637
            ],
            [
              112.81057970542523,
              27.956854545935542
            ],
            [
              112.81235795475206,
              27.954998213677598
            ],
            [
              112.81284293184119,
              27.956283370178994
            ],
            [
              112.8162377714651,
              27.95478401944004
            ],
            [
              112.81955178157416,
              27.951928055666457
            ],
            [
              112.81914763399989,
              27.95007163870389
            ],
            [
              112.81890514545532,
              27.94878640826464
            ],
            [
              112.82173417847528,
              27.948715006125056
            ],
            [
              112.82213832604954,
              27.947715371214002
            ],
            [
              112.82496735906948,
              27.947929579473893
            ],
            [
              112.82642229033688,
              27.946287305290028
            ],
            [
              112.82569482470318,
              27.94485922048304
            ],
            [
              112.82585648373288,
              27.943573928012313
            ],
            [
              112.82415906392092,
              27.942074400799612
            ],
            [
              112.82351242780209,
              27.940717667765284
            ],
            [
              112.82593731324775,
              27.938789649404654
            ],
            [
              112.82787722160428,
              27.939432326014725
            ],
            [
              112.82820053966371,
              27.93771851322535
            ],
            [
              112.8311104021985,
              27.936933006611213
            ],
            [
              112.83216118589164,
              27.934933509460393
            ],
            [
              112.83353528764417,
              27.933148212880525
            ],
            [
              112.83604100260467,
              27.93414798259917
            ],
            [
              112.83773842241663,
              27.93414798259917
            ],
            [
              112.83967833077317,
              27.932505498891203
            ],
            [
              112.84169906864456,
              27.93229126004529
            ],
            [
              112.84258819330796,
              27.934647863989767
            ],
            [
              112.84420478360506,
              27.93557620900839
            ],
            [
              112.84582137390217,
              27.935147743067816
            ],
            [
              112.84832708886269,
              27.93600467324994
            ],
            [
              112.85018616770435,
              27.93579044134154
            ],
            [
              112.85156026945691,
              27.936361725486663
            ],
            [
              112.85261105315003,
              27.938075559798392
            ],
            [
              112.85447013199172,
              27.937218646040733
            ],
            [
              112.85479345005115,
              27.938789649404654
            ],
            [
              112.85592506325911,
              27.939646550701838
            ],
            [
              112.85422764344715,
              27.94064626029146
            ],
            [
              112.85244939412031,
              27.942502839270247
            ],
            [
              112.8505094857638,
              27.943502522426613
            ],
            [
              112.85018616770435,
              27.944573601255755
            ],
            [
              112.84873123643696,
              27.945216243455036
            ],
            [
              112.84743796419929,
              27.946001689839264
            ],
            [
              112.84719547565471,
              27.947715371214002
            ],
            [
              112.84638718050616,
              27.949214820110655
            ],
            [
              112.84590220341703,
              27.950999851174643
            ],
            [
              112.84501307875362,
              27.952070855649325
            ],
            [
              112.84460893117935,
              27.95357024406691
            ],
            [
              112.84234570476339,
              27.95364164299599
            ],
            [
              112.84186072767426,
              27.951571054883104
            ],
            [
              112.84048662592173,
              27.952713453235035
            ],
            [
              112.83846588805034,
              27.952713453235035
            ],
            [
              112.8370917862978,
              27.9517138553381
            ],
            [
              112.83499021891154,
              27.95164245513422
            ],
            [
              112.834181923763,
              27.95456982477748
            ],
            [
              112.83272699249561,
              27.95599778116744
            ],
            [
              112.83288865152531,
              27.95763990766639
            ],
            [
              112.83288865152531,
              27.95949619449891
            ],
            [
              112.83353528764417,
              27.96078129745227
            ],
            [
              112.83288865152531,
              27.961566630613845
            ],
            [
              112.83442441230757,
              27.96285170891622
            ],
            [
              112.83361611715902,
              27.963922595813102
            ]
          ]
        ]
      },
      "properties": {
        "name": "响塘村",
        "type": "assistPolygon",
        "fill": "#9b59b6",
        "fill-opacity": 0.2,
        "stroke": "#9b59b6",
        "stroke-width": 2,
        "stroke-opacity": 0.8,
        "isAssistFeature": true,
        "sourceFileName": "辅助要素_鹤岭镇_响塘村.geojson",
        "assistFileId": "assist_file_1773974655795_8"
      },
      "id": "assist_imported_1773974655795_0"
    },
    {
      "type": "Feature",
      "geometry": {
        "type": "Point",
        "coordinates": [
          112.8345860713373,
          27.948500799423087
        ]
      },
      "properties": {
        "iconType": "default",
        "iconColor": "#e74c3c",
        "iconSize": 1,
        "text": "响塘村",
        "textColor": "#333333",
        "type": "assistPoint",
        "name": "辅助点_1",
        "isAssistFeature": true,
        "sourceFileName": "辅助要素_鹤岭镇_响塘村.geojson",
        "assistFileId": "assist_file_1773974655795_8"
      },
      "id": "assist_imported_1773974655796_1"
    }
  ],
  "properties": {
    "fileName": "辅助要素_鹤岭镇_响塘村.geojson",
    "exportTime": "2026/3/20 10:50:55",
    "source": "GIS-APP 辅助元素导出"
  }
}