{
  "type": "FeatureCollection",
  "features": [
    {
      "type": "Feature",
      "geometry": {
        "type": "Polygon",
        "coordinates": [
          [
            [
              113.03690634109824,
              27.9757669358804
            ],
            [
              113.03704999818834,
              27.974709679071594
            ],
            [
              113.03810348351567,
              27.974117610732392
            ],
            [
              113.03858234048263,
              27.973736993655507
            ],
            [
              113.03968371150667,
              27.97339866623757
            ],
            [
              113.0392048545397,
              27.972637425667727
            ],
            [
              113.03819925490906,
              27.97170701323209
            ],
            [
              113.03709788388502,
              27.972087637471063
            ],
            [
              113.03647536982797,
              27.971326387650294
            ],
            [
              113.03537399880392,
              27.971749304880518
            ],
            [
              113.03417685638651,
              27.971284095836097
            ],
            [
              113.03326702814927,
              27.971241804005317
            ],
            [
              113.0325487426988,
              27.970776592772523
            ],
            [
              113.0324050856087,
              27.96997304137301
            ],
            [
              113.03111217179789,
              27.970184502847843
            ],
            [
              113.03010657216724,
              27.97039596390823
            ],
            [
              113.0288136583564,
              27.970353671729313
            ],
            [
              113.0289094297498,
              27.969169483988907
            ],
            [
              113.02790383011916,
              27.968239041646683
            ],
            [
              113.02785594442247,
              27.96743547134892
            ],
            [
              113.02900520114322,
              27.967308591281167
            ],
            [
              113.02953194380687,
              27.966293545368444
            ],
            [
              113.03020234356062,
              27.966208957778065
            ],
            [
              113.02981925798704,
              27.965447666480912
            ],
            [
              113.03001080077385,
              27.96430571946533
            ],
            [
              113.03053754343752,
              27.964770958597015
            ],
            [
              113.0307290862243,
              27.96561684278886
            ],
            [
              113.03130371458468,
              27.964770958597015
            ],
            [
              113.0325966283955,
              27.964348014014703
            ],
            [
              113.03350645663272,
              27.964221130316815
            ],
            [
              113.0325487426988,
              27.963629004420724
            ],
            [
              113.0326923997889,
              27.963121465352657
            ],
            [
              113.03159102876485,
              27.963079170322573
            ],
            [
              113.03101640040448,
              27.96244474288237
            ],
            [
              113.03111217179789,
              27.96172572060847
            ],
            [
              113.03187834294505,
              27.96168342503141
            ],
            [
              113.03120794319126,
              27.960414550012928
            ],
            [
              113.03092062901109,
              27.959780106909903
            ],
            [
              113.03053754343752,
              27.958764990188598
            ],
            [
              113.03163891446154,
              27.958130537390034
            ],
            [
              113.03216565712522,
              27.95732689182543
            ],
            [
              113.03321914245255,
              27.957073107772572
            ],
            [
              113.03326702814927,
              27.95656553787707
            ],
            [
              113.03206988573181,
              27.95643864503029
            ],
            [
              113.03154314306816,
              27.95571958274796
            ],
            [
              113.03302759966576,
              27.95512741021342
            ],
            [
              113.03360222802614,
              27.954408339197613
            ],
            [
              113.0340331992964,
              27.95373156210195
            ],
            [
              113.0340810849931,
              27.952377995183866
            ],
            [
              113.03513457032045,
              27.952420294406892
            ],
            [
              113.0357091986808,
              27.952970182798495
            ],
            [
              113.0359007414676,
              27.954112249740277
            ],
            [
              113.03834291199915,
              27.954323742292686
            ],
            [
              113.03901331175291,
              27.953816159470904
            ],
            [
              113.04021045417034,
              27.95385845813054
            ],
            [
              113.04121605380098,
              27.95385845813054
            ],
            [
              113.0409766253175,
              27.95516970835932
            ],
            [
              113.04044988265382,
              27.955846476439916
            ],
            [
              113.04169491076797,
              27.958299725167592
            ],
            [
              113.04140759658777,
              27.958976473626095
            ],
            [
              113.0406893111373,
              27.95973781057046
            ],
            [
              113.04198222494813,
              27.959991588358605
            ],
            [
              113.04212588203825,
              27.959272549742565
            ],
            [
              113.04322725306227,
              27.959230253204225
            ],
            [
              113.0438976528161,
              27.95984479539699
            ],
            [
              113.04399342420948,
              27.958745085843702
            ],
            [
              113.04475959535664,
              27.959252645491247
            ],
            [
              113.045334223717,
              27.959760202752207
            ],
            [
              113.04643559474104,
              27.95899886596581
            ],
            [
              113.04724965158489,
              27.958745085843702
            ],
            [
              113.04844679400233,
              27.959675610041103
            ],
            [
              113.04811159412543,
              27.960479238119788
            ],
            [
              113.04772850855186,
              27.96107138129652
            ],
            [
              113.047393308675,
              27.961621225623276
            ],
            [
              113.04686656601132,
              27.962001885439392
            ],
            [
              113.0470581087981,
              27.9631015618111
            ],
            [
              113.04753696576509,
              27.962805496197888
            ],
            [
              113.04782427994526,
              27.961705816809527
            ],
            [
              113.04878199387922,
              27.960310053758334
            ],
            [
              113.04959605072304,
              27.960606126216845
            ],
            [
              113.04997913629663,
              27.961409747367554
            ],
            [
              113.04916507945278,
              27.961367451666675
            ],
            [
              113.04935662223959,
              27.962594020262586
            ],
            [
              113.04782427994526,
              27.96305926677323
            ],
            [
              113.04758485146178,
              27.964581877694485
            ],
            [
              113.04844679400233,
              27.964624172135643
            ],
            [
              113.04911719375608,
              27.965343175099378
            ],
            [
              113.04763273715848,
              27.965681527777676
            ],
            [
              113.04801582273205,
              27.966569698510725
            ],
            [
              113.04906930805939,
              27.966358229951638
            ],
            [
              113.05050587896031,
              27.96728868851187
            ],
            [
              113.04954816502635,
              27.96830372506365
            ],
            [
              113.04811159412543,
              27.968811239758892
            ],
            [
              113.04849467969902,
              27.9696993847315
            ],
            [
              113.04744119437169,
              27.970037723750465
            ],
            [
              113.0472017658882,
              27.970883566656042
            ],
            [
              113.04753696576509,
              27.971856277799574
            ],
            [
              113.04839890830563,
              27.971729402930364
            ],
            [
              113.04926085084618,
              27.97202544405971
            ],
            [
              113.04897353666598,
              27.972448358549627
            ],
            [
              113.04753696576509,
              27.975873904815515
            ],
            [
              113.04509479523352,
              27.9757470346714
            ],
            [
              113.04107239671096,
              27.973463346561246
            ],
            [
              113.03853445478602,
              27.974393743849546
            ],
            [
              113.03690634109824,
              27.9757669358804
            ]
          ]
        ]
      },
      "properties": {
        "assistFileId": "assist_file_default_1773899667253",
        "sourceFileName": "辅助元素_1.geojson",
        "name": "高峰村",
        "type": "assistPolygon",
        "fill": "#9b59b6",
        "fill-opacity": 0.2,
        "stroke": "#9b59b6",
        "stroke-width": 2,
        "stroke-opacity": 0.8
      },
      "id": "assist_polygon_1773899667253"
    },
    {
      "type": "Feature",
      "geometry": {
        "type": "Point",
        "coordinates": [
          113.03954005441666,
          27.965766115781463
        ]
      },
      "properties": {
        "iconType": "default",
        "iconColor": "#e74c3c",
        "iconSize": 1,
        "text": "高峰村",
        "textColor": "#333333",
        "assistFileId": "assist_file_default_1773899667253",
        "sourceFileName": "辅助元素_1.geojson",
        "type": "assistPoint",
        "name": "辅助点_1"
      },
      "id": "assist_point_1773899706212"
    }
  ],
  "properties": {
    "description": "GIS-APP 辅助要素导出",
    "exportTime": "2026/3/19 13:55:13",
    "assistElements": {
      "lines": 0,
      "polygons": 1,
      "texts": 0,
      "points": 1
    },
    "fileCount": 1
  }
}