{
  "type": "FeatureCollection",
  "features": [
    {
      "type": "Feature",
      "geometry": {
        "type": "Polygon",
        "coordinates": [
          [
            [
              113.07616464262536,
              27.995111118067
            ],
            [
              113.07492103387727,
              27.994490456056866
            ],
            [
              113.07378556502032,
              27.994013021309343
            ],
            [
              113.07232567648994,
              27.994442712677298
            ],
            [
              113.07135241746968,
              27.994108508428027
            ],
            [
              113.0699465988849,
              27.99363107198863
            ],
            [
              113.0694058994292,
              27.992819425188245
            ],
            [
              113.06816229068109,
              27.99262844858231
            ],
            [
              113.06697275187857,
              27.991816794232236
            ],
            [
              113.06535065351149,
              27.991100623553947
            ],
            [
              113.0644855343824,
              27.990145721914885
            ],
            [
              113.06243087645076,
              27.989477285734765
            ],
            [
              113.06091691797481,
              27.98857011571819
            ],
            [
              113.05983551906344,
              27.987662938068127
            ],
            [
              113.05940295949888,
              27.98589630705405
            ],
            [
              113.05718609173054,
              27.986278283780123
            ],
            [
              113.05659132232928,
              27.986755752784745
            ],
            [
              113.05605062287357,
              27.985991801362445
            ],
            [
              113.05556399336346,
              27.985275591988056
            ],
            [
              113.05518550374447,
              27.984416134459067
            ],
            [
              113.05345526548626,
              27.98508460201805
            ],
            [
              113.05237386657487,
              27.98398640312564
            ],
            [
              113.05123839771792,
              27.984225142966736
            ],
            [
              113.04999478896981,
              27.98350892185769
            ],
            [
              113.05037327858881,
              27.981885469731893
            ],
            [
              113.05042734853437,
              27.979784495407046
            ],
            [
              113.04853490043946,
              27.979784495407046
            ],
            [
              113.04777792120147,
              27.979115994993023
            ],
            [
              113.04788606109263,
              27.978208737803584
            ],
            [
              113.04729129169137,
              27.977158219944684
            ],
            [
              113.04610175288884,
              27.97629869772257
            ],
            [
              113.04788606109263,
              27.97605994033424
            ],
            [
              113.04912966984071,
              27.975104905496153
            ],
            [
              113.04940001956855,
              27.97376784251763
            ],
            [
              113.04972443924197,
              27.97228750346072
            ],
            [
              113.04853490043946,
              27.97219199701756
            ],
            [
              113.0482645507116,
              27.971332435224554
            ],
            [
              113.04864304033059,
              27.97004307969445
            ],
            [
              113.04940001956855,
              27.968849218242852
            ],
            [
              113.05091397804452,
              27.967798609238343
            ],
            [
              113.0498866490787,
              27.9664614557108
            ],
            [
              113.04902152994956,
              27.96689125686595
            ],
            [
              113.04848083049389,
              27.96598389686399
            ],
            [
              113.04956222940528,
              27.965458579691486
            ],
            [
              113.04929187967741,
              27.96459896425688
            ],
            [
              113.04821048076603,
              27.9648377470089
            ],
            [
              113.04831862065718,
              27.963596070929043
            ],
            [
              113.04956222940528,
              27.96283195547153
            ],
            [
              113.04983257913311,
              27.961399224407245
            ],
            [
              113.0498866490787,
              27.96073061006858
            ],
            [
              113.04912966984071,
              27.960539576639675
            ],
            [
              113.04766978131033,
              27.96311849940207
            ],
            [
              113.04875118022171,
              27.95982319826996
            ],
            [
              113.05686167205712,
              27.95982319826996
            ],
            [
              113.0588622600432,
              27.96073061006858
            ],
            [
              113.05783493107738,
              27.961638014238716
            ],
            [
              113.05788900102294,
              27.96354831387147
            ],
            [
              113.05696981194825,
              27.965124285613882
            ],
            [
              113.05837563053306,
              27.966604722952738
            ],
            [
              113.05945702944445,
              27.966939012444172
            ],
            [
              113.0605924983014,
              27.966700234341687
            ],
            [
              113.06140354748496,
              27.96708227905208
            ],
            [
              113.0609709879204,
              27.968132895031204
            ],
            [
              113.06275529612418,
              27.968849218242852
            ],
            [
              113.0639448349267,
              27.968132895031204
            ],
            [
              113.06475588411026,
              27.968705953980972
            ],
            [
              113.06502623383808,
              27.970186342180924
            ],
            [
              113.06654019231404,
              27.97104591310503
            ],
            [
              113.06789194095326,
              27.97180997039949
            ],
            [
              113.06697275187857,
              27.9730515519621
            ],
            [
              113.06583728302164,
              27.9730515519621
            ],
            [
              113.06583728302164,
              27.97410210981593
            ],
            [
              113.06681054204186,
              27.974818393395893
            ],
            [
              113.06740531144312,
              27.97534366499839
            ],
            [
              113.066918681933,
              27.97648970325271
            ],
            [
              113.06654019231404,
              27.97773123095429
            ],
            [
              113.066918681933,
              27.979163745160022
            ],
            [
              113.06810822073552,
              27.979641245667125
            ],
            [
              113.0691896196469,
              27.97992774495664
            ],
            [
              113.07027101855832,
              27.97987999512793
            ],
            [
              113.07281230600006,
              27.98159897564321
            ],
            [
              113.07394777485702,
              27.98198096759232
            ],
            [
              113.07562394316966,
              27.982697198849877
            ],
            [
              113.077840810938,
              27.98374766275593
            ],
            [
              113.07859779017599,
              27.984368386617703
            ],
            [
              113.07859779017599,
              27.985562076308682
            ],
            [
              113.07940883935952,
              27.986564765436626
            ],
            [
              113.07865186012155,
              27.987280966247596
            ],
            [
              113.07962511914178,
              27.987853923470922
            ],
            [
              113.08027395848863,
              27.987328712799155
            ],
            [
              113.08151756723672,
              27.98847462369342
            ],
            [
              113.08270710603924,
              27.98928630320775
            ],
            [
              113.08335594538606,
              27.989906995183475
            ],
            [
              113.08313966560382,
              27.991578071201474
            ],
            [
              113.08254489620253,
              27.99253296015243
            ],
            [
              113.08151756723672,
              27.99310588946274
            ],
            [
              113.08076058799875,
              27.99272393692756
            ],
            [
              113.07957104919623,
              27.992819425188245
            ],
            [
              113.07859779017599,
              27.9937743031425
            ],
            [
              113.077840810938,
              27.994538199415302
            ],
            [
              113.07616464262536,
              27.995111118067
            ]
          ]
        ]
      },
      "properties": {
        "assistFileId": "assist_file_default_1773891084075",
        "sourceFileName": "辅助元素_1.geojson",
        "name": "白鹤村",
        "type": "assistPolygon",
        "fill": "#9b59b6",
        "fill-opacity": 0.2,
        "stroke": "#9b59b6",
        "stroke-width": 2,
        "stroke-opacity": 0.8
      },
      "id": "assist_polygon_1773891084075"
    },
    {
      "type": "Feature",
      "geometry": {
        "type": "Point",
        "coordinates": [
          113.05940295949888,
          27.977874483231076
        ]
      },
      "properties": {
        "iconType": "default",
        "iconColor": "#e74c3c",
        "iconSize": 1,
        "text": "白鹤村",
        "textColor": "#333333",
        "assistFileId": "assist_file_default_1773891084075",
        "sourceFileName": "辅助元素_1.geojson",
        "type": "assistPoint",
        "name": "辅助点_1"
      },
      "id": "assist_point_1773891102331"
    }
  ],
  "properties": {
    "description": "GIS-APP 辅助要素导出",
    "exportTime": "2026/3/19 11:31:43",
    "assistElements": {
      "lines": 0,
      "polygons": 1,
      "texts": 0,
      "points": 1
    },
    "fileCount": 1
  }
}