{
  "type": "FeatureCollection",
  "features": [
    {
      "type": "Feature",
      "geometry": {
        "type": "Polygon",
        "coordinates": [
          [
            [
              112.7902696706588,
              27.964592295355757
            ],
            [
              112.78757816711702,
              27.96312066242301
            ],
            [
              112.78610424851081,
              27.963686677464267
            ],
            [
              112.78578383142249,
              27.96266784825268
            ],
            [
              112.78565566458717,
              27.961875418883167
            ],
            [
              112.78418174598094,
              27.96091317539853
            ],
            [
              112.78193882636279,
              27.960064129905675
            ],
            [
              112.7807212414272,
              27.958988662693926
            ],
            [
              112.77854240522672,
              27.958932058859645
            ],
            [
              112.77732482029113,
              27.95740374411433
            ],
            [
              112.77700440320282,
              27.95553577448611
            ],
            [
              112.77770932079711,
              27.953894198736876
            ],
            [
              112.77860648864436,
              27.952252598028124
            ],
            [
              112.78104165851552,
              27.952422419948533
            ],
            [
              112.78354091180432,
              27.95162991536816
            ],
            [
              112.78296416104537,
              27.95015810571563
            ],
            [
              112.7817465761098,
              27.95015810571563
            ],
            [
              112.78200290978043,
              27.949195757788573
            ],
            [
              112.77982407357993,
              27.948573057501093
            ],
            [
              112.77899098915034,
              27.948063572776988
            ],
            [
              112.77899098915034,
              27.946704935095028
            ],
            [
              112.7795677399093,
              27.945119836197264
            ],
            [
              112.78097757509785,
              27.944497112408385
            ],
            [
              112.78219516003345,
              27.944327278024687
            ],
            [
              112.7822592434511,
              27.942798756554396
            ],
            [
              112.78149024243915,
              27.941440052644538
            ],
            [
              112.78033674092121,
              27.939175508151195
            ],
            [
              112.78014449066825,
              27.937929988446086
            ],
            [
              112.78155432585682,
              27.936967531566523
            ],
            [
              112.783412744969,
              27.938213062367225
            ],
            [
              112.78495074699289,
              27.938043218103545
            ],
            [
              112.78700141635807,
              27.93679768534483
            ],
            [
              112.78898800230557,
              27.937420453519024
            ],
            [
              112.79155133901205,
              27.936741069878266
            ],
            [
              112.79340975812426,
              27.935325673572734
            ],
            [
              112.7953322606541,
              27.93436319349439
            ],
            [
              112.7977033471076,
              27.932155118568147
            ],
            [
              112.79706251293098,
              27.930852899384746
            ],
            [
              112.79706251293098,
              27.929154329042376
            ],
            [
              112.79828009786655,
              27.928531513228222
            ],
            [
              112.80058710090236,
              27.929097709571238
            ],
            [
              112.80417577229143,
              27.929267567895707
            ],
            [
              112.8062264416566,
              27.93073966219248
            ],
            [
              112.8062264416566,
              27.932494825339674
            ],
            [
              112.80558560747998,
              27.933740407698835
            ],
            [
              112.80545744064466,
              27.935042592086702
            ],
            [
              112.80552152406233,
              27.936457992100443
            ],
            [
              112.80603419140361,
              27.93759029876172
            ],
            [
              112.80673910899789,
              27.93651460771534
            ],
            [
              112.80802077735115,
              27.93702414691444
            ],
            [
              112.80712360950388,
              27.93860936461077
            ],
            [
              112.80866161152777,
              27.93866597909833
            ],
            [
              112.80987919646334,
              27.940364399929138
            ],
            [
              112.8089179451984,
              27.941836343050284
            ],
            [
              112.80795669393346,
              27.944270666504096
            ],
            [
              112.80673910899789,
              27.945516113102656
            ],
            [
              112.80693135925088,
              27.946818155554666
            ],
            [
              112.80635460849193,
              27.948176791812287
            ],
            [
              112.80590602456829,
              27.949648628469603
            ],
            [
              112.8062264416566,
              27.952082775840623
            ],
            [
              112.80629052507426,
              27.953837592231366
            ],
            [
              112.8064186919096,
              27.955252745965268
            ],
            [
              112.8064186919096,
              27.956498065906857
            ],
            [
              112.80731585975684,
              27.956950905960383
            ],
            [
              112.80699544266855,
              27.95791318476695
            ],
            [
              112.80750811000983,
              27.95927168142009
            ],
            [
              112.80705952608622,
              27.961196189078635
            ],
            [
              112.80481660646807,
              27.960177336357262
            ],
            [
              112.80398352203844,
              27.959215077734214
            ],
            [
              112.80225326976158,
              27.95932828507631
            ],
            [
              112.8015483521673,
              27.960743366834237
            ],
            [
              112.80109976824367,
              27.962045225666458
            ],
            [
              112.80013851697873,
              27.963630076093736
            ],
            [
              112.79789559736057,
              27.96436589159532
            ],
            [
              112.79719067976629,
              27.965724307033156
            ],
            [
              112.79546042748943,
              27.965101702080048
            ],
            [
              112.79616534508371,
              27.964139487359958
            ],
            [
              112.7953322606541,
              27.963064060755613
            ],
            [
              112.79546042748943,
              27.961535804515222
            ],
            [
              112.79392242546554,
              27.961196189078635
            ],
            [
              112.79264075711231,
              27.961875418883167
            ],
            [
              112.79289709078296,
              27.962950857331762
            ],
            [
              112.79270484052998,
              27.96374327880514
            ],
            [
              112.79167950584737,
              27.96374327880514
            ],
            [
              112.7902696706588,
              27.964592295355757
            ]
          ]
        ]
      },
      "properties": {
        "name": "双泉村",
        "type": "assistPolygon",
        "fill": "#9b59b6",
        "fill-opacity": 0.2,
        "stroke": "#9b59b6",
        "stroke-width": 2,
        "stroke-opacity": 0.8,
        "isAssistFeature": true,
        "sourceFileName": "辅助要素_鹤岭镇_双泉村.geojson",
        "assistFileId": "assist_file_1773974655604_6"
      },
      "id": "assist_imported_1773974655604_0"
    },
    {
      "type": "Feature",
      "geometry": {
        "type": "Point",
        "coordinates": [
          112.79417875913617,
          27.94953541097742
        ]
      },
      "properties": {
        "iconType": "default",
        "iconColor": "#e74c3c",
        "iconSize": 1,
        "text": "双泉村",
        "textColor": "#333333",
        "type": "assistPoint",
        "name": "辅助点_1",
        "isAssistFeature": true,
        "sourceFileName": "辅助要素_鹤岭镇_双泉村.geojson",
        "assistFileId": "assist_file_1773974655604_6"
      },
      "id": "assist_imported_1773974655604_1"
    }
  ],
  "properties": {
    "fileName": "辅助要素_鹤岭镇_双泉村.geojson",
    "exportTime": "2026/3/20 10:50:52",
    "source": "GIS-APP 辅助元素导出"
  }
}