{
  "type": "FeatureCollection",
  "features": [
    {
      "type": "Feature",
      "geometry": {
        "type": "Polygon",
        "coordinates": [
          [
            [
              112.9172780607954,
              27.826004438023134
            ],
            [
              112.91459085767926,
              27.82463742782265
            ],
            [
              112.91362774505798,
              27.824006494231824
            ],
            [
              112.91291432830148,
              27.82311266536783
            ],
            [
              112.91505457857099,
              27.82165097642752
            ],
            [
              112.91576799532749,
              27.821303953860465
            ],
            [
              112.91667165655244,
              27.820325975204028
            ],
            [
              112.91786068447993,
              27.8190535381744
            ],
            [
              112.92090459597432,
              27.819021989959452
            ],
            [
              112.92098782792925,
              27.8195267602989
            ],
            [
              112.92086892513649,
              27.820094624125957
            ],
            [
              112.92069057094737,
              27.821240858729098
            ],
            [
              112.91991770279452,
              27.821167247696195
            ],
            [
              112.91934696938931,
              27.821745618753297
            ],
            [
              112.91847897900217,
              27.822975961480964
            ],
            [
              112.91797958727263,
              27.823648963569312
            ],
            [
              112.91786068447988,
              27.82394340067107
            ],
            [
              112.91742074414672,
              27.826078045776285
            ],
            [
              112.9172780607954,
              27.826004438023134
            ]
          ]
        ]
      },
      "properties": {
        "name": "岳塘岭社区",
        "type": "assistPolygon",
        "fill": "#9b59b6",
        "fill-opacity": 0.2,
        "stroke": "#9b59b6",
        "stroke-width": 2,
        "stroke-opacity": 0.8
      },
      "id": "assist_polygon_1773883933973"
    },
    {
      "type": "Feature",
      "geometry": {
        "type": "Polygon",
        "coordinates": [
          [
            [
              112.91686062783158,
              27.817798465218758
            ],
            [
              112.91763819973481,
              27.81684453706481
            ],
            [
              112.91865405980184,
              27.81738805529588
            ],
            [
              112.91855372794336,
              27.817665359467796
            ],
            [
              112.91862270609609,
              27.8177873730791
            ],
            [
              112.9183844179322,
              27.818192235443462
            ],
            [
              112.91816494199179,
              27.818475083596866
            ],
            [
              112.91754413861746,
              27.8181201367767
            ],
            [
              112.91686062783158,
              27.817798465218758
            ]
          ]
        ]
      },
      "properties": {
        "name": "岳塘岭社区",
        "type": "assistPolygon",
        "fill": "#9b59b6",
        "fill-opacity": 0.2,
        "stroke": "#9b59b6",
        "stroke-width": 2,
        "stroke-opacity": 0.8
      },
      "id": "assist_polygon_1773883952189"
    },
    {
      "type": "Feature",
      "geometry": {
        "type": "Point",
        "coordinates": [
          112.9173293036852,
          27.82173972667232
        ]
      },
      "properties": {
        "iconType": "default",
        "iconColor": "#e74c3c",
        "iconSize": 1,
        "text": "岳塘岭社区",
        "textColor": "#333333",
        "type": "assistPoint",
        "name": "辅助点_1"
      },
      "id": "assist_point_1773883959049"
    }
  ],
  "properties": {
    "description": "GIS-APP 辅助要素导出",
    "exportTime": "2026/3/19 09:33:04",
    "assistElements": {
      "lines": 1,
      "polygons": 2,
      "texts": 0,
      "points": 1
    }
  }
}