{
  "type": "FeatureCollection",
  "features": [
    {
      "type": "Feature",
      "geometry": {
        "type": "Polygon",
        "coordinates": [
          [
            [
              112.7711906582399,
              27.866617771441867
            ],
            [
              112.77082100519867,
              27.865833478901607
            ],
            [
              112.77004473381207,
              27.865408651405616
            ],
            [
              112.7679007461729,
              27.86501650146964
            ],
            [
              112.76786378086878,
              27.863774683977596
            ],
            [
              112.76908363590486,
              27.86338252812915
            ],
            [
              112.77063617867806,
              27.862892331323224
            ],
            [
              112.7710058317193,
              27.861911931060092
            ],
            [
              112.76985990729145,
              27.860768119544773
            ],
            [
              112.76982294198733,
              27.859918423176893
            ],
            [
              112.76915756651312,
              27.85897067706263
            ],
            [
              112.76919453181723,
              27.85740197563109
            ],
            [
              112.76893577468837,
              27.855539113197764
            ],
            [
              112.76568282792552,
              27.854264504668762
            ],
            [
              112.76357580559048,
              27.85403572719278
            ],
            [
              112.76228201994614,
              27.854820105100615
            ],
            [
              112.7608034077812,
              27.854427916856025
            ],
            [
              112.75847459362143,
              27.85400304465682
            ],
            [
              112.75755046101834,
              27.85334939186852
            ],
            [
              112.75755046101834,
              27.852140123821826
            ],
            [
              112.75858548953379,
              27.85066937423821
            ],
            [
              112.7601749976111,
              27.849362024528503
            ],
            [
              112.76121002612658,
              27.849558127989724
            ],
            [
              112.76339097906987,
              27.847891237265927
            ],
            [
              112.76394545863171,
              27.84687801665922
            ],
            [
              112.76535014018839,
              27.846616538836997
            ],
            [
              112.76608944627087,
              27.847302916775774
            ],
            [
              112.76985990729148,
              27.848250764883247
            ],
            [
              112.77200389493063,
              27.848446870353968
            ],
            [
              112.7744805703069,
              27.84857760713743
            ],
            [
              112.77655062733783,
              27.848348817662924
            ],
            [
              112.77899033740997,
              27.847891237265927
            ],
            [
              112.78168880461095,
              27.84674727782688
            ],
            [
              112.78468299424497,
              27.845766731561156
            ],
            [
              112.78704877370888,
              27.844688120430078
            ],
            [
              112.78852738587379,
              27.843740241187476
            ],
            [
              112.79396128557993,
              27.840929240246993
            ],
            [
              112.7979905037294,
              27.844688120430078
            ],
            [
              112.79562472426547,
              27.84707412461215
            ],
            [
              112.79562472426547,
              27.84785855287798
            ],
            [
              112.7945527304459,
              27.84815271201488
            ],
            [
              112.7939243202758,
              27.849067868671767
            ],
            [
              112.79484845287888,
              27.850309854639235
            ],
            [
              112.7940721814923,
              27.851224993092117
            ],
            [
              112.7932959101057,
              27.851649876177092
            ],
            [
              112.79399825088406,
              27.852859149691284
            ],
            [
              112.79562472426547,
              27.85331670912565
            ],
            [
              112.79617920382734,
              27.854199139724884
            ],
            [
              112.79592044669847,
              27.85547374902235
            ],
            [
              112.7964379609562,
              27.855963979377492
            ],
            [
              112.79673368338919,
              27.859755019265634
            ],
            [
              112.79776871190464,
              27.860408633432783
            ],
            [
              112.79684457930155,
              27.860572036358775
            ],
            [
              112.79532900183249,
              27.86187925089861
            ],
            [
              112.79307411828096,
              27.860245230260517
            ],
            [
              112.78941455317275,
              27.861029563241004
            ],
            [
              112.78830559404904,
              27.86138904729367
            ],
            [
              112.78712270431708,
              27.860147188238855
            ],
            [
              112.78667912066761,
              27.858839952810385
            ],
            [
              112.78560712684802,
              27.858284372979554
            ],
            [
              112.7842763758996,
              27.857728790301323
            ],
            [
              112.78205845765218,
              27.85746733864397
            ],
            [
              112.77968872595693,
              27.858068114295534
            ],
            [
              112.77890907444868,
              27.85966525183703
            ],
            [
              112.77866186787288,
              27.861901204861127
            ],
            [
              112.77856995538677,
              27.86289649610174
            ],
            [
              112.77791834359036,
              27.863807363567588
            ],
            [
              112.7768833150749,
              27.863186449672853
            ],
            [
              112.77595918247182,
              27.862990370861766
            ],
            [
              112.77501022641657,
              27.863056244416995
            ],
            [
              112.77332974522758,
              27.86385498246139
            ],
            [
              112.77237205164676,
              27.86435019709269
            ],
            [
              112.77196799340133,
              27.86603836003826
            ],
            [
              112.7711906582399,
              27.866617771441867
            ]
          ]
        ]
      },
      "properties": {
        "name": "姜畲村",
        "type": "assistPolygon",
        "fill": "#9b59b6",
        "fill-opacity": 0.2,
        "stroke": "#9b59b6",
        "stroke-width": 2,
        "stroke-opacity": 0.8,
        "isAssistFeature": true,
        "sourceFileName": "辅助要素_姜畲镇_姜畲村.geojson",
        "assistFileId": "assist_file_1773973277937_3"
      },
      "id": "assist_polygon_1773796934829_reimported_1773973277937"
    },
    {
      "type": "Feature",
      "geometry": {
        "type": "Point",
        "coordinates": [
          112.78094949852849,
          27.85357817079266
        ]
      },
      "properties": {
        "iconType": "default",
        "iconColor": "#e74c3c",
        "iconSize": 1,
        "text": "姜畲村",
        "textColor": "#333333",
        "type": "assistPoint",
        "name": "辅助点_1",
        "isAssistFeature": true,
        "sourceFileName": "辅助要素_姜畲镇_姜畲村.geojson",
        "assistFileId": "assist_file_1773973277937_3"
      },
      "id": "assist_point_1773797060520_reimported_1773973277937"
    }
  ],
  "properties": {
    "fileName": "辅助要素_姜畲镇_姜畲村.geojson",
    "exportTime": "2026/3/20 10:34:38",
    "source": "GIS-APP 辅助元素导出"
  }
}