{
  "type": "FeatureCollection",
  "features": [
    {
      "type": "Feature",
      "geometry": {
        "type": "Polygon",
        "coordinates": [
          [
            [
              112.76564623054777,
              27.90652115351149
            ],
            [
              112.76382879305267,
              27.905166989044815
            ],
            [
              112.763187344525,
              27.90466310956758
            ],
            [
              112.76293789231978,
              27.903907285951618
            ],
            [
              112.76208262761621,
              27.903340414774632
            ],
            [
              112.76136990702992,
              27.90252159560903
            ],
            [
              112.76037209820907,
              27.901545303120756
            ],
            [
              112.75965937762277,
              27.901293355242217
            ],
            [
              112.75933865335891,
              27.90056900182377
            ],
            [
              112.75916047321233,
              27.89905729211422
            ],
            [
              112.7590535651244,
              27.89644324424617
            ],
            [
              112.75769939601042,
              27.896065304390447
            ],
            [
              112.75802012027425,
              27.895088953654692
            ],
            [
              112.7585902967433,
              27.893923620279494
            ],
            [
              112.7595168335055,
              27.894270072052947
            ],
            [
              112.75983755776933,
              27.89382913323975
            ],
            [
              112.75933865335891,
              27.893230713405885
            ],
            [
              112.76147681511785,
              27.892506306022725
            ],
            [
              112.75987319379865,
              27.889451143289236
            ],
            [
              112.75862593277262,
              27.88901018484664
            ],
            [
              112.75898229306577,
              27.88831724652239
            ],
            [
              112.76019391806248,
              27.887687298742648
            ],
            [
              112.76169063129375,
              27.886584881308522
            ],
            [
              112.76375752099406,
              27.88642739218737
            ],
            [
              112.76471969378557,
              27.88667937467129
            ],
            [
              112.76610949892886,
              27.88541945638744
            ],
            [
              112.76667967539792,
              27.88576593537698
            ],
            [
              112.76721421583764,
              27.885387958242518
            ],
            [
              112.76842584083438,
              27.885891927461913
            ],
            [
              112.76863965701027,
              27.88463200001533
            ],
            [
              112.76831893274644,
              27.883970532237242
            ],
            [
              112.77049273053467,
              27.882584586647667
            ],
            [
              112.77173999156071,
              27.88148211726211
            ],
            [
              112.77252398420565,
              27.881009626946863
            ],
            [
              112.77259525626428,
              27.88006464013222
            ],
            [
              112.77332267348281,
              27.87967484357297
            ],
            [
              112.77512541434568,
              27.88034813704239
            ],
            [
              112.77715666801669,
              27.88078913076096
            ],
            [
              112.7776555724271,
              27.882301095591913
            ],
            [
              112.77900974154109,
              27.882364093668443
            ],
            [
              112.77911664962902,
              27.88296257356761
            ],
            [
              112.77997191433259,
              27.882868076961316
            ],
            [
              112.78104099521207,
              27.882868076961316
            ],
            [
              112.78143299153452,
              27.883655546160853
            ],
            [
              112.78207444006219,
              27.8848209900669
            ],
            [
              112.78289406873647,
              27.885135972753176
            ],
            [
              112.78374933344004,
              27.88478949174788
            ],
            [
              112.78357115329347,
              27.88573443733283
            ],
            [
              112.78460459814359,
              27.88608091531445
            ],
            [
              112.78403442167458,
              27.886805365693334
            ],
            [
              112.7830366128537,
              27.886490387863333
            ],
            [
              112.78093408712411,
              27.886899858863643
            ],
            [
              112.78032827462576,
              27.886805365693334
            ],
            [
              112.77918792168765,
              27.88800227309065
            ],
            [
              112.77890283345313,
              27.889955093595816
            ],
            [
              112.77897410551174,
              27.890868497547174
            ],
            [
              112.77861774521861,
              27.89282126635021
            ],
            [
              112.77872465330657,
              27.894553531770057
            ],
            [
              112.77779811654436,
              27.895088953654692
            ],
            [
              112.77758430036846,
              27.89575035350252
            ],
            [
              112.77776248051505,
              27.896506234093806
            ],
            [
              112.77662212757694,
              27.89795499047122
            ],
            [
              112.77623013125447,
              27.89867936138721
            ],
            [
              112.77712103198735,
              27.899813149608747
            ],
            [
              112.7767646716942,
              27.901104393948344
            ],
            [
              112.77544613860951,
              27.901387835765405
            ],
            [
              112.77409196949554,
              27.90167127684002
            ],
            [
              112.77352179302649,
              27.902427116075785
            ],
            [
              112.77231016802976,
              27.90349787928838
            ],
            [
              112.77284470846949,
              27.90460012446792
            ],
            [
              112.77231016802976,
              27.906332201347624
            ],
            [
              112.77067091068126,
              27.905702358418026
            ],
            [
              112.76920983347931,
              27.904789079656894
            ],
            [
              112.76810511657055,
              27.905261466185536
            ],
            [
              112.76739239598422,
              27.9058283272973
            ],
            [
              112.76564623054777,
              27.90652115351149
            ]
          ]
        ]
      },
      "properties": {
        "name": "石龙村",
        "type": "assistPolygon",
        "fill": "#9b59b6",
        "fill-opacity": 0.2,
        "stroke": "#9b59b6",
        "stroke-width": 2,
        "stroke-opacity": 0.8,
        "isAssistFeature": true,
        "sourceFileName": "辅助要素_姜畲镇_石龙村.geojson",
        "assistFileId": "assist_file_1773973328678_11"
      },
      "id": "assist_polygon_1773801882998_reimported_1773973328678"
    },
    {
      "type": "Feature",
      "geometry": {
        "type": "Point",
        "coordinates": [
          112.76945928568452,
          27.893986611593533
        ]
      },
      "properties": {
        "iconType": "default",
        "iconColor": "#e74c3c",
        "iconSize": 1,
        "text": "石龙村",
        "textColor": "#333333",
        "type": "assistPoint",
        "name": "辅助点_1",
        "isAssistFeature": true,
        "sourceFileName": "辅助要素_姜畲镇_石龙村.geojson",
        "assistFileId": "assist_file_1773973328678_11"
      },
      "id": "assist_point_1773801888221_reimported_1773973328678"
    }
  ],
  "properties": {
    "fileName": "辅助要素_姜畲镇_石龙村.geojson",
    "exportTime": "2026/3/20 10:34:47",
    "source": "GIS-APP 辅助元素导出"
  }
}