{
  "type": "FeatureCollection",
  "features": [
    {
      "type": "Feature",
      "geometry": {
        "type": "Polygon",
        "coordinates": [
          [
            [
              112.896392848401,
              27.865551715672666
            ],
            [
              112.89760081026567,
              27.863737446569303
            ],
            [
              112.89834426456382,
              27.862539967346592
            ],
            [
              112.89880765046193,
              27.86107686387237
            ],
            [
              112.90132826606185,
              27.86253096369329
            ],
            [
              112.90012651801825,
              27.86648799724003
            ],
            [
              112.896392848401,
              27.865551715672666
            ]
          ]
        ]
      },
      "properties": {
        "type": "assistPolygon",
        "name": "辅助多边形_1",
        "fill": "#9b59b6",
        "fill-opacity": 0.2,
        "stroke": "#9b59b6",
        "stroke-width": 2,
        "stroke-opacity": 0.8
      }
    },
    {
      "type": "Feature",
      "geometry": {
        "type": "Polygon",
        "coordinates": [
          [
            [
              112.89882491613899,
              27.861050587047984
            ],
            [
              112.89893911818264,
              27.859512074871887
            ],
            [
              112.89940136454986,
              27.8589158955333
            ],
            [
              112.90028235174375,
              27.858026428328202
            ],
            [
              112.90157120337928,
              27.85638209676496
            ],
            [
              112.9020008205911,
              27.855588769986426
            ],
            [
              112.90419241219074,
              27.85655999348812
            ],
            [
              112.90434005630131,
              27.856657450290953
            ],
            [
              112.90325864856216,
              27.858644001395476
            ],
            [
              112.90139236475945,
              27.862452199234326
            ],
            [
              112.89882491613899,
              27.861050587047984
            ]
          ]
        ]
      },
      "properties": {
        "type": "assistPolygon",
        "name": "辅助多边形_2",
        "fill": "#9b59b6",
        "fill-opacity": 0.2,
        "stroke": "#9b59b6",
        "stroke-width": 2,
        "stroke-opacity": 0.8
      }
    },
    {
      "type": "Feature",
      "geometry": {
        "type": "Polygon",
        "coordinates": [
          [
            [
              112.90030640597674,
              27.86649267520103
            ],
            [
              112.90150451341984,
              27.86262281402263
            ],
            [
              112.9028670669826,
              27.863121265433563
            ],
            [
              112.9033525745739,
              27.863730480711624
            ],
            [
              112.9042061282425,
              27.865080434182772
            ],
            [
              112.90473078967186,
              27.86612577121592
            ],
            [
              112.90513015881953,
              27.867787213300147
            ],
            [
              112.90030640597674,
              27.86649267520103
            ]
          ]
        ]
      },
      "properties": {
        "type": "assistPolygon",
        "name": "辅助多边形_3",
        "fill": "#9b59b6",
        "fill-opacity": 0.2,
        "stroke": "#9b59b6",
        "stroke-width": 2,
        "stroke-opacity": 0.8
      }
    },
    {
      "type": "Feature",
      "geometry": {
        "type": "Polygon",
        "coordinates": [
          [
            [
              112.90277699317093,
              27.8601784119234
            ],
            [
              112.9055347916533,
              27.862106744878417
            ],
            [
              112.9067966933831,
              27.862816008140015
            ],
            [
              112.90955449186546,
              27.864131088156043
            ],
            [
              112.90939678779301,
              27.864362188237166
            ],
            [
              112.90750379137373,
              27.866358106142414
            ],
            [
              112.90620127090178,
              27.86782431472062
            ],
            [
              112.90581919822999,
              27.86797784326724
            ],
            [
              112.90522872228269,
              27.867778256114207
            ],
            [
              112.90486401655055,
              27.86615083945503
            ],
            [
              112.90343992750118,
              27.863609871180174
            ],
            [
              112.90291023584255,
              27.862988054160454
            ],
            [
              112.90152956414227,
              27.86255047708208
            ],
            [
              112.90277699317093,
              27.8601784119234
            ]
          ]
        ]
      },
      "properties": {
        "type": "assistPolygon",
        "name": "辅助多边形_4",
        "fill": "#9b59b6",
        "fill-opacity": 0.2,
        "stroke": "#9b59b6",
        "stroke-width": 2,
        "stroke-opacity": 0.8
      }
    },
    {
      "type": "Feature",
      "geometry": {
        "type": "Polygon",
        "coordinates": [
          [
            [
              112.9096379258604,
              27.864179854160994
            ],
            [
              112.91153881855514,
              27.86534206246003
            ],
            [
              112.91129898629926,
              27.865695434134096
            ],
            [
              112.91113909812869,
              27.865883898555765
            ],
            [
              112.91046401474176,
              27.86595457262939
            ],
            [
              112.91019753445745,
              27.86611162596131
            ],
            [
              112.91025971319047,
              27.86638646874451
            ],
            [
              112.91141446108911,
              27.86667701607162
            ],
            [
              112.9117342374303,
              27.867030383392603
            ],
            [
              112.91133451700384,
              27.86779208236547
            ],
            [
              112.91097920995807,
              27.867689999308666
            ],
            [
              112.91105027136724,
              27.868027658283353
            ],
            [
              112.91090814854894,
              27.868326053710817
            ],
            [
              112.91080155643522,
              27.868514513557372
            ],
            [
              112.91053507615091,
              27.868420283675064
            ],
            [
              112.91026859586658,
              27.86859303839671
            ],
            [
              112.91004652896301,
              27.868899284726368
            ],
            [
              112.90967345656497,
              27.869425398195062
            ],
            [
              112.90620921286894,
              27.86805121584699
            ],
            [
              112.90626250892583,
              27.867862755194608
            ],
            [
              112.9096379258604,
              27.864179854160994
            ]
          ]
        ]
      },
      "properties": {
        "type": "assistPolygon",
        "name": "辅助多边形_5",
        "fill": "#9b59b6",
        "fill-opacity": 0.2,
        "stroke": "#9b59b6",
        "stroke-width": 2,
        "stroke-opacity": 0.8
      }
    },
    {
      "type": "Feature",
      "geometry": {
        "type": "Polygon",
        "coordinates": [
          [
            [
              112.90422911110488,
              27.85753222881884
            ],
            [
              112.90739966414336,
              27.85897350196751
            ],
            [
              112.90906837626886,
              27.859824638528025
            ],
            [
              112.91045469095775,
              27.860437452713427
            ],
            [
              112.91389480518572,
              27.86175385665595
            ],
            [
              112.91547366358141,
              27.86242340080318
            ],
            [
              112.91472916124847,
              27.86329720643502
            ],
            [
              112.91315030285281,
              27.863830564851753
            ],
            [
              112.91241863676701,
              27.863966741048174
            ],
            [
              112.91182816939951,
              27.86387595693624
            ],
            [
              112.9102878197452,
              27.863558211945616
            ],
            [
              112.90846507265425,
              27.863558211945616
            ],
            [
              112.90687337801147,
              27.86270710470272
            ],
            [
              112.90541004583986,
              27.86195812480031
            ],
            [
              112.90455001728287,
              27.861265881197212
            ],
            [
              112.90277861518041,
              27.860097000815927
            ],
            [
              112.90422911110488,
              27.85753222881884
            ]
          ]
        ]
      },
      "properties": {
        "type": "assistPolygon",
        "name": "辅助多边形_6",
        "fill": "#9b59b6",
        "fill-opacity": 0.2,
        "stroke": "#9b59b6",
        "stroke-width": 2,
        "stroke-opacity": 0.8
      }
    },
    {
      "type": "Feature",
      "geometry": {
        "type": "Point",
        "coordinates": [
          112.89931417690558,
          27.86389923226207
        ]
      },
      "properties": {
        "iconType": "star",
        "iconColor": "#e74c3c",
        "iconSize": 1,
        "text": "风车坪社区",
        "textColor": "#333333",
        "type": "assistPoint",
        "name": "辅助点_1"
      },
      "id": "assist_point_1773542967252"
    },
    {
      "type": "Feature",
      "geometry": {
        "type": "Point",
        "coordinates": [
          112.90143283527793,
          27.859139232350373
        ]
      },
      "properties": {
        "iconType": "flag",
        "iconColor": "#e74c3c",
        "iconSize": 1,
        "text": "古梁巷社区",
        "textColor": "#333333",
        "type": "assistPoint",
        "name": "辅助点_2"
      },
      "id": "assist_point_1773543082779"
    },
    {
      "type": "Feature",
      "geometry": {
        "type": "Point",
        "coordinates": [
          112.90261648241932,
          27.86542657338984
        ]
      },
      "properties": {
        "iconType": "car",
        "iconColor": "#e74c3c",
        "iconSize": 1,
        "text": "车站路社区",
        "textColor": "#333333",
        "type": "assistPoint",
        "name": "辅助点_3"
      },
      "id": "assist_point_1773543187354"
    },
    {
      "type": "Feature",
      "geometry": {
        "type": "Point",
        "coordinates": [
          112.90569762965261,
          27.864331481520765
        ]
      },
      "properties": {
        "iconType": "bus",
        "iconColor": "#e74c3c",
        "iconSize": 1,
        "text": "雨湖路社区",
        "textColor": "#333333",
        "type": "assistPoint",
        "name": "辅助点_4"
      },
      "id": "assist_point_1773543250818"
    },
    {
      "type": "Feature",
      "geometry": {
        "type": "Point",
        "coordinates": [
          112.90914049599638,
          27.867132467070803
        ]
      },
      "properties": {
        "iconType": "star",
        "iconColor": "#e74c3c",
        "iconSize": 1,
        "text": "和平桥社区",
        "textColor": "#333333",
        "type": "assistPoint",
        "name": "辅助点_5"
      },
      "id": "assist_point_1773543367647"
    },
    {
      "type": "Feature",
      "geometry": {
        "type": "Point",
        "coordinates": [
          112.90841372766579,
          27.861481498531276
        ]
      },
      "properties": {
        "iconType": "default",
        "iconColor": "#e74c3c",
        "iconSize": 1,
        "text": "关圣殿社区",
        "textColor": "#333333",
        "type": "assistPoint",
        "name": "辅助点_6"
      },
      "id": "assist_point_1773543495016"
    }
  ],
  "properties": {
    "description": "GIS-APP 辅助要素导出",
    "exportTime": "2026/3/15 11:00:57",
    "assistElements": {
      "lines": 0,
      "polygons": 6,
      "texts": 0,
      "points": 6
    }
  }
}