{
  "type": "FeatureCollection",
  "features": [
    {
      "type": "Feature",
      "geometry": {
        "type": "Polygon",
        "coordinates": [
          [
            [
              112.76019078912117,
              27.928561284971494
            ],
            [
              112.75644540019027,
              27.928306732982776
            ],
            [
              112.75392446533296,
              27.927924903875606
            ],
            [
              112.75260948807806,
              27.92751600104542
            ],
            [
              112.75152331763944,
              27.927333205480167
            ],
            [
              112.74994578438334,
              27.92641922301671
            ],
            [
              112.74927339315944,
              27.925985078639243
            ],
            [
              112.74837840864684,
              27.92461566177846
            ],
            [
              112.74659864409654,
              27.923502784288345
            ],
            [
              112.74791756534343,
              27.922108908547727
            ],
            [
              112.74587453047079,
              27.9212177326727
            ],
            [
              112.74566764086345,
              27.919663869987232
            ],
            [
              112.74693787444266,
              27.918315093907736
            ],
            [
              112.74528126010787,
              27.91780594107638
            ],
            [
              112.74506517997725,
              27.9167876282214
            ],
            [
              112.7454253135283,
              27.915387432388016
            ],
            [
              112.74535328681807,
              27.913987218425106
            ],
            [
              112.74333653893221,
              27.913032516692567
            ],
            [
              112.7417519513076,
              27.912714280908943
            ],
            [
              112.7407435773647,
              27.91226874923875
            ],
            [
              112.7393750698707,
              27.912841575334767
            ],
            [
              112.7385107493482,
              27.913605338743395
            ],
            [
              112.73649400146233,
              27.912968869610765
            ],
            [
              112.73534157409901,
              27.912714280908943
            ],
            [
              112.73476536041731,
              27.913923571905144
            ],
            [
              112.73368495976418,
              27.914241804130455
            ],
            [
              112.73260455911104,
              27.91366898545067
            ],
            [
              112.73166821187834,
              27.913605338743395
            ],
            [
              112.73073186464562,
              27.914560035419356
            ],
            [
              112.72857106333934,
              27.914241804130455
            ],
            [
              112.72720255584538,
              27.913987218425106
            ],
            [
              112.72641026203307,
              27.912905222491503
            ],
            [
              112.72605012848202,
              27.911759567939768
            ],
            [
              112.72540188809013,
              27.910995791496816
            ],
            [
              112.72727458255558,
              27.910295658352865
            ],
            [
              112.72648228874327,
              27.90800428183313
            ],
            [
              112.72727458255558,
              27.906285717591004
            ],
            [
              112.7265543154535,
              27.905076341203255
            ],
            [
              112.7265543154535,
              27.903612341172547
            ],
            [
              112.72648228874327,
              27.902084667846395
            ],
            [
              112.72669836887391,
              27.900811590265064
            ],
            [
              112.7265543154535,
              27.899347532530115
            ],
            [
              112.72669836887391,
              27.898265390169144
            ],
            [
              112.72849903662913,
              27.897437862238874
            ],
            [
              112.7298675441231,
              27.89788345498762
            ],
            [
              112.73029970438435,
              27.896673984686984
            ],
            [
              112.73166821187834,
              27.895910101743553
            ],
            [
              112.73303671937232,
              27.894891582765723
            ],
            [
              112.73411712002545,
              27.893554762062095
            ],
            [
              112.73512549396837,
              27.893427444943526
            ],
            [
              112.73519752067858,
              27.891581329895942
            ],
            [
              112.7361338679113,
              27.893236468984867
            ],
            [
              112.7377184555359,
              27.893045492689268
            ],
            [
              112.7376464288257,
              27.892090606157254
            ],
            [
              112.7393030431605,
              27.89196328731653
            ],
            [
              112.74124776433614,
              27.89196328731653
            ],
            [
              112.743264512222,
              27.891581329895942
            ],
            [
              112.74376869919347,
              27.89285451605673
            ],
            [
              112.74456099300578,
              27.89368207903094
            ],
            [
              112.74592950049974,
              27.894127687242502
            ],
            [
              112.74722598128349,
              27.894127687242502
            ],
            [
              112.74672179431205,
              27.892472561780863
            ],
            [
              112.74780219496519,
              27.892154265521427
            ],
            [
              112.7487385421979,
              27.89100839123809
            ],
            [
              112.74888259561833,
              27.89005348673652
            ],
            [
              112.75053920995312,
              27.88916223493571
            ],
            [
              112.75161961060626,
              27.88846196051641
            ],
            [
              112.75255595783898,
              27.887507033554172
            ],
            [
              112.75197974415731,
              27.886488435511097
            ],
            [
              112.75241190441857,
              27.885660817545144
            ],
            [
              112.75464473243505,
              27.88553349114278
            ],
            [
              112.75615729334942,
              27.887125060410995
            ],
            [
              112.75666148032091,
              27.888270975797766
            ],
            [
              112.75781390768425,
              27.888334637408093
            ],
            [
              112.75673350703111,
              27.88916223493571
            ],
            [
              112.75810201452508,
              27.889416879056057
            ],
            [
              112.75860620149655,
              27.89043544954791
            ],
            [
              112.75947052201906,
              27.89196328731653
            ],
            [
              112.76019078912117,
              27.893363786328067
            ],
            [
              112.75875025491698,
              27.89380939585
            ],
            [
              112.75738174742298,
              27.89406402903886
            ],
            [
              112.75788593439447,
              27.895018898162107
            ],
            [
              112.75730972071278,
              27.89584644458826
            ],
            [
              112.75644540019027,
              27.89616472999043
            ],
            [
              112.75586918650859,
              27.897692486891373
            ],
            [
              112.75673350703111,
              27.898520012874656
            ],
            [
              112.75752580084341,
              27.899156567017442
            ],
            [
              112.75752580084341,
              27.90259389468504
            ],
            [
              112.7580299878149,
              27.90450347398523
            ],
            [
              112.76184740345595,
              27.90813158180204
            ],
            [
              112.76501657870516,
              27.912205101707457
            ],
            [
              112.76465644515413,
              27.915323786692085
            ],
            [
              112.76386415134182,
              27.91685127305577
            ],
            [
              112.76444036502349,
              27.918187805924646
            ],
            [
              112.7636480712112,
              27.919587965497215
            ],
            [
              112.7637921246316,
              27.92181545472191
            ],
            [
              112.76429631160308,
              27.924361100497805
            ],
            [
              112.76134321648449,
              27.92639757395827
            ],
            [
              112.76057473796128,
              27.927493151616687
            ],
            [
              112.76019078912117,
              27.928561284971494
            ]
          ]
        ]
      },
      "properties": {
        "name": "新泉村",
        "type": "assistPolygon",
        "fill": "#9b59b6",
        "fill-opacity": 0.2,
        "stroke": "#9b59b6",
        "stroke-width": 2,
        "stroke-opacity": 0.8,
        "isAssistFeature": true,
        "sourceFileName": "辅助要素_鹤岭镇_新泉村.geojson",
        "assistFileId": "assist_file_1773974655905_9"
      },
      "id": "assist_imported_1773974655905_0"
    },
    {
      "type": "Feature",
      "geometry": {
        "type": "Point",
        "coordinates": [
          112.74945880929998,
          27.908513480809916
        ]
      },
      "properties": {
        "iconType": "default",
        "iconColor": "#e74c3c",
        "iconSize": 1,
        "text": "新泉村",
        "textColor": "#333333",
        "type": "assistPoint",
        "name": "辅助点_1",
        "isAssistFeature": true,
        "sourceFileName": "辅助要素_鹤岭镇_新泉村.geojson",
        "assistFileId": "assist_file_1773974655905_9"
      },
      "id": "assist_imported_1773974655905_1"
    }
  ],
  "properties": {
    "fileName": "辅助要素_鹤岭镇_新泉村.geojson",
    "exportTime": "2026/3/20 10:50:56",
    "source": "GIS-APP 辅助元素导出"
  }
}