{
  "type": "FeatureCollection",
  "features": [
    {
      "type": "Feature",
      "geometry": {
        "type": "Polygon",
        "coordinates": [
          [
            [
              112.80873829189642,
              28.05840087388445
            ],
            [
              112.81023417978135,
              28.05855173938994
            ],
            [
              112.81040359755005,
              28.05956754204844
            ],
            [
              112.81064916122934,
              28.0606510360184
            ],
            [
              112.81138585226728,
              28.061571997305336
            ],
            [
              112.81138585226728,
              28.062547124184235
            ],
            [
              112.81138585226728,
              28.063847279593517
            ],
            [
              112.81175419778623,
              28.06541827972721
            ],
            [
              112.8114472431871,
              28.067151770463056
            ],
            [
              112.81157002502675,
              28.068506040642433
            ],
            [
              112.81150863410691,
              28.069481104602474
            ],
            [
              112.81114028858796,
              28.070347820693925
            ],
            [
              112.81335036170172,
              28.074518794092242
            ],
            [
              112.81107889766815,
              28.07381461514052
            ],
            [
              112.8098510792716,
              28.073760447337676
            ],
            [
              112.80880743363457,
              28.07408545374517
            ],
            [
              112.80776378799752,
              28.073868782916094
            ],
            [
              112.80733405155873,
              28.07327293588274
            ],
            [
              112.80733405155873,
              28.071864557029897
            ],
            [
              112.80573788764326,
              28.072027063224454
            ],
            [
              112.80414172372775,
              28.07240624338911
            ],
            [
              112.80303668717089,
              28.072568748764255
            ],
            [
              112.80180886877436,
              28.07478963092143
            ],
            [
              112.8002740957787,
              28.074843798205336
            ],
            [
              112.79959879566061,
              28.07435629166693
            ],
            [
              112.79916905922181,
              28.073435439946863
            ],
            [
              112.79849375910375,
              28.072189569173176
            ],
            [
              112.7970203770279,
              28.071756219430284
            ],
            [
              112.7963450769098,
              28.07208123190135
            ],
            [
              112.79622229507018,
              28.07321876780675
            ],
            [
              112.79579255863139,
              28.074464626644442
            ],
            [
              112.79450334931504,
              28.07516880133511
            ],
            [
              112.79339831275814,
              28.076577136867797
            ],
            [
              112.7921091034418,
              28.077064633326955
            ],
            [
              112.79118823964438,
              28.076143804824454
            ],
            [
              112.790267375847,
              28.07478963092143
            ],
            [
              112.78989903032807,
              28.07338127195281
            ],
            [
              112.78805730273325,
              28.0731104315728
            ],
            [
              112.78664531157725,
              28.072785422215432
            ],
            [
              112.78535610226089,
              28.07197289452023
            ],
            [
              112.78394411110489,
              28.0724604118748
            ],
            [
              112.78247072902907,
              28.073435439946863
            ],
            [
              112.78099734695323,
              28.075927138147193
            ],
            [
              112.78087456511356,
              28.076685469605493
            ],
            [
              112.77848031924033,
              28.07711879946362
            ],
            [
              112.77651580980591,
              28.077931288235575
            ],
            [
              112.77479686405076,
              28.07744379570994
            ],
            [
              112.77277096369649,
              28.076847968507153
            ],
            [
              112.77203427265859,
              28.07516880133511
            ],
            [
              112.77215705449822,
              28.07348960791363
            ],
            [
              112.77234122725773,
              28.072189569173176
            ],
            [
              112.77215705449822,
              28.070889514700553
            ],
            [
              112.77258679093701,
              28.069806123956113
            ],
            [
              112.77387600025335,
              28.068776892630027
            ],
            [
              112.77344626381459,
              28.06758513877756
            ],
            [
              112.77221844541805,
              28.06677257175413
            ],
            [
              112.77080645426204,
              28.06585165503283
            ],
            [
              112.76884194482761,
              28.06460569631851
            ],
            [
              112.7695172449457,
              28.064063970632503
            ],
            [
              112.76982419954483,
              28.06308885751625
            ],
            [
              112.76853499022849,
              28.06168034517323
            ],
            [
              112.77006976322414,
              28.060596861579313
            ],
            [
              112.77111340886117,
              28.06000094094709
            ],
            [
              112.77111340886117,
              28.05913414140231
            ],
            [
              112.77221844541805,
              28.059025790967738
            ],
            [
              112.77369182749388,
              28.057942280615066
            ],
            [
              112.77479686405076,
              28.0587007390087
            ],
            [
              112.77584050968782,
              28.059730066840245
            ],
            [
              112.7769455462447,
              28.060867733501766
            ],
            [
              112.77706832808433,
              28.06243877719014
            ],
            [
              112.77663859164556,
              28.064063970632503
            ],
            [
              112.77608607336713,
              28.065309935627724
            ],
            [
              112.77584050968782,
              28.066718400400774
            ],
            [
              112.77755945544295,
              28.06639337170708
            ],
            [
              112.77933979211791,
              28.066826743080213
            ],
            [
              112.78032204683514,
              28.065689139498033
            ],
            [
              112.78179542891097,
              28.06509324710106
            ],
            [
              112.78302324730748,
              28.06308885751625
            ],
            [
              112.78455802030315,
              28.06314303069928
            ],
            [
              112.78523332042126,
              28.062222082874285
            ],
            [
              112.786031402379,
              28.061788692931884
            ],
            [
              112.7860927932988,
              28.060705210430214
            ],
            [
              112.78646113881778,
              28.06000094094709
            ],
            [
              112.78621557513846,
              28.058429861625314
            ],
            [
              112.78676809341691,
              28.057563049411414
            ],
            [
              112.78824147549273,
              28.0571296406833
            ],
            [
              112.7871978298557,
              28.0564253477733
            ],
            [
              112.78756617537465,
              28.055504342390307
            ],
            [
              112.78584722961952,
              28.05588358085656
            ],
            [
              112.7841896747842,
              28.05599193445829
            ],
            [
              112.78283907454802,
              28.05631699460838
            ],
            [
              112.7816726470713,
              28.05631699460838
            ],
            [
              112.78075178327391,
              28.057183816869895
            ],
            [
              112.7797695285567,
              28.05815898355931
            ],
            [
              112.77823475556104,
              28.058484037156603
            ],
            [
              112.77620885520675,
              28.058429861625314
            ],
            [
              112.77504242773007,
              28.057779753120172
            ],
            [
              112.7762702461266,
              28.0564253477733
            ],
            [
              112.77725250084383,
              28.054637506586815
            ],
            [
              112.77768223728259,
              28.052578743542355
            ],
            [
              112.78007648315582,
              28.053824841673432
            ],
            [
              112.78222516534976,
              28.053662307953616
            ],
            [
              112.78517192950142,
              28.053228883499543
            ],
            [
              112.7865225297376,
              28.05284963566895
            ],
            [
              112.78848703917204,
              28.05284963566895
            ],
            [
              112.78885538469099,
              28.05219949341854
            ],
            [
              112.78842564825223,
              28.051061735020923
            ],
            [
              112.78928512112978,
              28.049653065086915
            ],
            [
              112.79155658516336,
              28.049382164907044
            ],
            [
              112.79272301264007,
              28.04997814440192
            ],
            [
              112.79309135815902,
              28.04873200169095
            ],
            [
              112.79425778563572,
              28.04732330123771
            ],
            [
              112.7944419583952,
              28.045372762454647
            ],
            [
              112.79524004035294,
              28.04466839253365
            ],
            [
              112.79695898610807,
              28.04564367273437
            ],
            [
              112.79757289530633,
              28.045047669218135
            ],
            [
              112.79745011346668,
              28.043259638853158
            ],
            [
              112.79867793186322,
              28.04174249887049
            ],
            [
              112.80162469601488,
              28.040442076139996
            ],
            [
              112.80389616004847,
              28.039629303950363
            ],
            [
              112.80477604236764,
              28.043277994532943
            ],
            [
              112.80543093304412,
              28.046727307029442
            ],
            [
              112.80543093304412,
              28.049273804644017
            ],
            [
              112.80604484224236,
              28.05198277846148
            ],
            [
              112.80629040592167,
              28.053824841673432
            ],
            [
              112.80563539302646,
              28.056002083899955
            ],
            [
              112.80551572199566,
              28.056756426142783
            ],
            [
              112.80543879061872,
              28.057163768752957
            ],
            [
              112.8061062331622,
              28.057779753120172
            ],
            [
              112.8066440488575,
              28.05817457522926
            ],
            [
              112.80873829189642,
              28.05840087388445
            ]
          ]
        ]
      },
      "properties": {
        "name": "晶鑫村",
        "type": "assistPolygon",
        "fill": "#9b59b6",
        "fill-opacity": 0.2,
        "stroke": "#9b59b6",
        "stroke-width": 2,
        "stroke-opacity": 0.8,
        "isAssistFeature": true,
        "sourceFileName": "辅助要素_鹤岭镇_晶鑫村.geojson",
        "assistFileId": "assist_file_1773974655992_10"
      },
      "id": "assist_imported_1773974655992_0"
    },
    {
      "type": "Feature",
      "geometry": {
        "type": "Point",
        "coordinates": [
          112.7963450769098,
          28.062222082874285
        ]
      },
      "properties": {
        "iconType": "default",
        "iconColor": "#e74c3c",
        "iconSize": 1,
        "text": "晶鑫村",
        "textColor": "#333333",
        "type": "assistPoint",
        "name": "辅助点_1",
        "isAssistFeature": true,
        "sourceFileName": "辅助要素_鹤岭镇_晶鑫村.geojson",
        "assistFileId": "assist_file_1773974655992_10"
      },
      "id": "assist_imported_1773974655993_1"
    }
  ],
  "properties": {
    "fileName": "辅助要素_鹤岭镇_晶鑫村.geojson",
    "exportTime": "2026/3/20 10:50:57",
    "source": "GIS-APP 辅助元素导出"
  }
}