{
  "type": "FeatureCollection",
  "features": [
    {
      "type": "Feature",
      "geometry": {
        "type": "Polygon",
        "coordinates": [
          [
            [
              112.80723953629678,
              27.96020056015425
            ],
            [
              112.80792077492268,
              27.959297976353227
            ],
            [
              112.8077845271975,
              27.95767330649258
            ],
            [
              112.80751203174714,
              27.95622913497772
            ],
            [
              112.80649017380829,
              27.95514599366315
            ],
            [
              112.80655829767088,
              27.9540628414817
            ],
            [
              112.80689891698383,
              27.953100030420003
            ],
            [
              112.8063539260831,
              27.951776151191268
            ],
            [
              112.80696704084642,
              27.951114205489887
            ],
            [
              112.80614955449536,
              27.948887631077767
            ],
            [
              112.80669454539608,
              27.947322983755413
            ],
            [
              112.80744390788455,
              27.946059213600037
            ],
            [
              112.80717141243419,
              27.94473524805251
            ],
            [
              112.8083295180982,
              27.9435918102009
            ],
            [
              112.80914700444929,
              27.941425263181728
            ],
            [
              112.81010073852553,
              27.93986050775453
            ],
            [
              112.80976011921258,
              27.938536466228868
            ],
            [
              112.80771640333491,
              27.93805499255994
            ],
            [
              112.80846576582339,
              27.936670743809742
            ],
            [
              112.8077845271975,
              27.93570777769756
            ],
            [
              112.80642204994572,
              27.936670743809742
            ],
            [
              112.80594518290758,
              27.935045733517043
            ],
            [
              112.80574081131981,
              27.933541072566584
            ],
            [
              112.80662642153347,
              27.93161507597742
            ],
            [
              112.80628580222053,
              27.92956866699069
            ],
            [
              112.80424208634284,
              27.928605637589015
            ],
            [
              112.80465082951838,
              27.927100886970635
            ],
            [
              112.80492332496873,
              27.92571649789997
            ],
            [
              112.80553643973204,
              27.923609784860318
            ],
            [
              112.8045145817932,
              27.923068052014145
            ],
            [
              112.80519582041909,
              27.9219845781778
            ],
            [
              112.80492332496873,
              27.919877792412436
            ],
            [
              112.80396959089248,
              27.91915545641389
            ],
            [
              112.80356084771697,
              27.917650574251354
            ],
            [
              112.80519582041909,
              27.916807831092015
            ],
            [
              112.80403771475507,
              27.91578449128312
            ],
            [
              112.80417396248028,
              27.913677584713426
            ],
            [
              112.8058089351824,
              27.91433975977263
            ],
            [
              112.80669454539608,
              27.91608547458513
            ],
            [
              112.80798889878525,
              27.91548350714342
            ],
            [
              112.80812514651043,
              27.916687438675964
            ],
            [
              112.80935137603706,
              27.916567046125863
            ],
            [
              112.81125884418955,
              27.915965081364845
            ],
            [
              112.8122807021284,
              27.91439995730424
            ],
            [
              112.81282569302913,
              27.912955207297628
            ],
            [
              112.81595939070824,
              27.91307560386865
            ],
            [
              112.81704937250967,
              27.913496990811822
            ],
            [
              112.81854809748664,
              27.91265421528368
            ],
            [
              112.81977432701323,
              27.914881536350848
            ],
            [
              112.82100055653987,
              27.91560390089981
            ],
            [
              112.82263552924199,
              27.917590378529212
            ],
            [
              112.82427050194414,
              27.917530182773547
            ],
            [
              112.82508798829521,
              27.91674763490076
            ],
            [
              112.82624609395924,
              27.917770965595096
            ],
            [
              112.82856230528728,
              27.91584468801055
            ],
            [
              112.82842605756208,
              27.917469986984386
            ],
            [
              112.83074226889012,
              27.917710769939973
            ],
            [
              112.83183225069156,
              27.918011747880456
            ],
            [
              112.8315597552412,
              27.918914676675328
            ],
            [
              112.8334672233937,
              27.92072051164493
            ],
            [
              112.83319472794335,
              27.922405930404437
            ],
            [
              112.83271786090522,
              27.92385055414283
            ],
            [
              112.83578343472175,
              27.924392283067775
            ],
            [
              112.83523844382103,
              27.92619802654424
            ],
            [
              112.83428470974478,
              27.927582409447737
            ],
            [
              112.83503407223327,
              27.928545447966513
            ],
            [
              112.83585155858434,
              27.929749234048202
            ],
            [
              112.83312660408077,
              27.93269845328257
            ],
            [
              112.8321728700045,
              27.934323498875628
            ],
            [
              112.83196849841676,
              27.93540684902746
            ],
            [
              112.83094664047789,
              27.936309632523432
            ],
            [
              112.82869855301246,
              27.937031853889167
            ],
            [
              112.82849418142469,
              27.938596650286613
            ],
            [
              112.82549673147075,
              27.938596650286613
            ],
            [
              112.82406613035637,
              27.93986050775453
            ],
            [
              112.82549673147075,
              27.942207632395792
            ],
            [
              112.82651858940959,
              27.943411266275717
            ],
            [
              112.82617797009665,
              27.944675067414735
            ],
            [
              112.82651858940959,
              27.94593885376635
            ],
            [
              112.82508798829521,
              27.9470220874407
            ],
            [
              112.82277177696717,
              27.94654065159341
            ],
            [
              112.82202241447868,
              27.94780441611522
            ],
            [
              112.81943370770028,
              27.947443342046583
            ],
            [
              112.81984245087584,
              27.948887631077767
            ],
            [
              112.81943370770028,
              27.950692965203473
            ],
            [
              112.81847997362405,
              27.952377916489326
            ],
            [
              112.81643625774636,
              27.953942490568522
            ],
            [
              112.81507378049457,
              27.954123016887962
            ],
            [
              112.81418817028091,
              27.955206168465708
            ],
            [
              112.81296194075429,
              27.955085818827058
            ],
            [
              112.81323443620465,
              27.953882315061648
            ],
            [
              112.81187195895286,
              27.954544243792796
            ],
            [
              112.81180383509027,
              27.95610878647942
            ],
            [
              112.81044135783849,
              27.957191918134285
            ],
            [
              112.80928325217447,
              27.958816595240037
            ],
            [
              112.80867013741118,
              27.960080216083497
            ],
            [
              112.80723953629678,
              27.96020056015425
            ]
          ]
        ]
      },
      "properties": {
        "name": "双丰村",
        "type": "assistPolygon",
        "fill": "#9b59b6",
        "fill-opacity": 0.2,
        "stroke": "#9b59b6",
        "stroke-width": 2,
        "stroke-opacity": 0.8,
        "isAssistFeature": true,
        "sourceFileName": "辅助要素_鹤岭镇_双丰村.geojson",
        "assistFileId": "assist_file_1773974655493_5"
      },
      "id": "assist_imported_1773974655493_0"
    },
    {
      "type": "Feature",
      "geometry": {
        "type": "Point",
        "coordinates": [
          112.81895684066215,
          27.935587406330086
        ]
      },
      "properties": {
        "iconType": "default",
        "iconColor": "#e74c3c",
        "iconSize": 1,
        "text": "双丰村",
        "textColor": "#333333",
        "type": "assistPoint",
        "name": "辅助点_1",
        "isAssistFeature": true,
        "sourceFileName": "辅助要素_鹤岭镇_双丰村.geojson",
        "assistFileId": "assist_file_1773974655493_5"
      },
      "id": "assist_imported_1773974655495_1"
    }
  ],
  "properties": {
    "fileName": "辅助要素_鹤岭镇_双丰村.geojson",
    "exportTime": "2026/3/20 10:50:51",
    "source": "GIS-APP 辅助元素导出"
  }
}