{
  "type": "FeatureCollection",
  "features": [
    {
      "type": "Feature",
      "geometry": {
        "type": "Polygon",
        "coordinates": [
          [
            [
              113.02301558527796,
              27.975941193440676
            ],
            [
              113.02252997313472,
              27.97545871837532
            ],
            [
              113.0206482260796,
              27.97545871837532
            ],
            [
              113.02095173366912,
              27.974547370697294
            ],
            [
              113.02028401697216,
              27.973367968155372
            ],
            [
              113.01967700179307,
              27.971974112163736
            ],
            [
              113.01815946384541,
              27.971330787939806
            ],
            [
              113.01712753804098,
              27.97165245053131
            ],
            [
              113.01615631375448,
              27.971116345679377
            ],
            [
              113.01603491071866,
              27.968489393398272
            ],
            [
              113.0171882395589,
              27.968703840879897
            ],
            [
              113.01682403045146,
              27.967041861749507
            ],
            [
              113.01785595625589,
              27.965915990375436
            ],
            [
              113.01846297143496,
              27.965540697307063
            ],
            [
              113.0199198078647,
              27.96596960356439
            ],
            [
              113.01894858357821,
              27.96495094841977
            ],
            [
              113.02016261393635,
              27.964736493479904
            ],
            [
              113.02089103215123,
              27.963503369305243
            ],
            [
              113.01998050938262,
              27.96264553548245
            ],
            [
              113.02046612152587,
              27.961894925294317
            ],
            [
              113.0199198078647,
              27.96141238741677
            ],
            [
              113.01676332893356,
              27.962431075961376
            ],
            [
              113.01791665777378,
              27.961680464281756
            ],
            [
              113.01670262741565,
              27.95991114466851
            ],
            [
              113.01627771679028,
              27.95846349795812
            ],
            [
              113.01542789553962,
              27.957123067026913
            ],
            [
              113.01415316366354,
              27.95127859369019
            ],
            [
              113.01306053634124,
              27.95117135269163
            ],
            [
              113.01263562571587,
              27.947739584501832
            ],
            [
              113.01360685000239,
              27.947632339988644
            ],
            [
              113.01476017884262,
              27.94597003641556
            ],
            [
              113.01579210464703,
              27.946130905621473
            ],
            [
              113.01700613500519,
              27.948490293112314
            ],
            [
              113.01882718054237,
              27.948543914956232
            ],
            [
              113.01943419572146,
              27.94913375348206
            ],
            [
              113.02180155491982,
              27.94950910359381
            ],
            [
              113.02325839134959,
              27.95079600835777
            ],
            [
              113.02435101867191,
              27.95181479708559
            ],
            [
              113.02556504903006,
              27.95219013787805
            ],
            [
              113.02738609456726,
              27.9531016743705
            ],
            [
              113.02835731885378,
              27.95304805478986
            ],
            [
              113.02896433403285,
              27.95401320316749
            ],
            [
              113.03017836439098,
              27.954281298407878
            ],
            [
              113.03048187198053,
              27.95363786871249
            ],
            [
              113.03169590233864,
              27.953477010689483
            ],
            [
              113.03236361903564,
              27.953208913451917
            ],
            [
              113.03412396305494,
              27.953691488000217
            ],
            [
              113.03206011144609,
              27.95487110559347
            ],
            [
              113.03394185850121,
              27.95556814629495
            ],
            [
              113.03515588885936,
              27.955889855870097
            ],
            [
              113.03667342680703,
              27.95696221419668
            ],
            [
              113.03345624635794,
              27.95637241843525
            ],
            [
              113.03236361903564,
              27.957015831833388
            ],
            [
              113.03169590233864,
              27.95755200673581
            ],
            [
              113.0312709917133,
              27.958088178975146
            ],
            [
              113.03163520082074,
              27.959267748527424
            ],
            [
              113.03230291751771,
              27.960608152826907
            ],
            [
              113.03175660385656,
              27.961037078687227
            ],
            [
              113.03321344028632,
              27.961841310081127
            ],
            [
              113.03284923117889,
              27.962806379843585
            ],
            [
              113.03388115698331,
              27.963181682420725
            ],
            [
              113.03248502207144,
              27.963556983692797
            ],
            [
              113.03193870841027,
              27.964414810270966
            ],
            [
              113.0304211704626,
              27.96462926585012
            ],
            [
              113.02975345376562,
              27.965326243539124
            ],
            [
              113.0295713492119,
              27.96607682986233
            ],
            [
              113.02823591581796,
              27.96629128213864
            ],
            [
              113.0286001249254,
              27.967363537127355
            ],
            [
              113.02932854314028,
              27.96918634615524
            ],
            [
              113.0286608264433,
              27.968864676211425
            ],
            [
              113.0270218854598,
              27.968864676211425
            ],
            [
              113.02653627331655,
              27.969454403709207
            ],
            [
              113.02641487028076,
              27.97031218340662
            ],
            [
              113.02738609456726,
              27.970151350232783
            ],
            [
              113.02726469153143,
              27.971116345679377
            ],
            [
              113.02647557179866,
              27.971169956284427
            ],
            [
              113.02592925813751,
              27.972027722342588
            ],
            [
              113.02441172018983,
              27.971438008910212
            ],
            [
              113.02368330197494,
              27.972992701006135
            ],
            [
              113.02392610804657,
              27.974172107650816
            ],
            [
              113.02356189893914,
              27.975297892873982
            ],
            [
              113.02301558527796,
              27.975941193440676
            ]
          ]
        ]
      },
      "properties": {
        "assistFileId": "assist_file_default_1773890049470",
        "sourceFileName": "辅助元素_1.geojson",
        "name": "新民村",
        "type": "assistPolygon",
        "fill": "#9b59b6",
        "fill-opacity": 0.2,
        "stroke": "#9b59b6",
        "stroke-width": 2,
        "stroke-opacity": 0.8
      },
      "id": "assist_polygon_1773890049470"
    },
    {
      "type": "Feature",
      "geometry": {
        "type": "Point",
        "coordinates": [
          113.02422961563609,
          27.961251540978196
        ]
      },
      "properties": {
        "iconType": "default",
        "iconColor": "#e74c3c",
        "iconSize": 1,
        "text": "新民村",
        "textColor": "#333333",
        "assistFileId": "assist_file_default_1773890049470",
        "sourceFileName": "辅助元素_1.geojson",
        "type": "assistPoint",
        "name": "辅助点_1"
      },
      "id": "assist_point_1773890057653"
    }
  ],
  "properties": {
    "description": "GIS-APP 辅助要素导出",
    "exportTime": "2026/3/19 11:14:21",
    "assistElements": {
      "lines": 0,
      "polygons": 1,
      "texts": 0,
      "points": 1
    },
    "fileCount": 1
  }
}