{
  "type": "FeatureCollection",
  "features": [
    {
      "type": "Feature",
      "geometry": {
        "type": "Polygon",
        "coordinates": [
          [
            [
              112.8370471390054,
              27.850033315606026
            ],
            [
              112.83620528069179,
              27.84939046709586
            ],
            [
              112.83413890119473,
              27.84928896435116
            ],
            [
              112.83390930347284,
              27.846683694725
            ],
            [
              112.83299091258526,
              27.846345343428638
            ],
            [
              112.83214905427162,
              27.846379178605744
            ],
            [
              112.83096279937517,
              27.846785199908098
            ],
            [
              112.82793976270352,
              27.84675136485764
            ],
            [
              112.82824589299939,
              27.844856585184772
            ],
            [
              112.8257968506325,
              27.844822749532653
            ],
            [
              112.82487845974491,
              27.844721242512932
            ],
            [
              112.82468712831002,
              27.843740003091696
            ],
            [
              112.8238070037094,
              27.843063281077647
            ],
            [
              112.8228886128218,
              27.84198051707378
            ],
            [
              112.82185542307327,
              27.841303784083124
            ],
            [
              112.82074570075079,
              27.840491698921753
            ],
            [
              112.82032477159397,
              27.839611933136922
            ],
            [
              112.81837319095787,
              27.839679607681347
            ],
            [
              112.81756959893123,
              27.840762394650994
            ],
            [
              112.8167660069046,
              27.841202273770392
            ],
            [
              112.815924148591,
              27.839950305436915
            ],
            [
              112.81734000120933,
              27.839070535261712
            ],
            [
              112.82197022193425,
              27.836465020201018
            ],
            [
              112.82491672603189,
              27.831253802379123
            ],
            [
              112.82656217637215,
              27.82732830423481
            ],
            [
              112.82805456156447,
              27.824824032971208
            ],
            [
              112.83111586452308,
              27.822962712849048
            ],
            [
              112.83513382465628,
              27.822048962201606
            ],
            [
              112.83876912191961,
              27.821812062630258
            ],
            [
              112.84466213011497,
              27.823605717953797
            ],
            [
              112.84745556906469,
              27.824722507241958
            ],
            [
              112.84956021484874,
              27.825297818452142
            ],
            [
              112.85484096245236,
              27.825027084144807
            ],
            [
              112.86318301301459,
              27.823741086964233
            ],
            [
              112.86440753419802,
              27.82627922465612
            ],
            [
              112.86524939251164,
              27.826956051351317
            ],
            [
              112.86387180618026,
              27.828005124388625
            ],
            [
              112.86429273533707,
              27.828851143646105
            ],
            [
              112.86498152850275,
              27.828986506115342
            ],
            [
              112.86563205538147,
              27.830678522736818
            ],
            [
              112.86662697884302,
              27.83165988029066
            ],
            [
              112.86639738112113,
              27.83297962300945
            ],
            [
              112.86712444057379,
              27.83365640792161
            ],
            [
              112.86712444057379,
              27.83473925500165
            ],
            [
              112.8576344014021,
              27.83460389970756
            ],
            [
              112.85552975561804,
              27.835111481189756
            ],
            [
              112.85265978409434,
              27.83700643107788
            ],
            [
              112.85304244696417,
              27.83879983531098
            ],
            [
              112.85464963101745,
              27.83883367284176
            ],
            [
              112.85568282076599,
              27.838055406963818
            ],
            [
              112.85751960254115,
              27.837750866622358
            ],
            [
              112.85732827110623,
              27.83700643107788
            ],
            [
              112.85836146085475,
              27.83714178337496
            ],
            [
              112.85839972714173,
              27.838055406963818
            ],
            [
              112.86004517748201,
              27.83873216021776
            ],
            [
              112.86123143237845,
              27.839544258550262
            ],
            [
              112.86142276381338,
              27.840525535924854
            ],
            [
              112.86146103010034,
              27.842149699661803
            ],
            [
              112.86107836723053,
              27.84299560864403
            ],
            [
              112.86012171005598,
              27.842894099914446
            ],
            [
              112.86019824262992,
              27.84221737262311
            ],
            [
              112.8567542768015,
              27.841946680524515
            ],
            [
              112.85449656586951,
              27.841845170813386
            ],
            [
              112.85457309844348,
              27.842691082170347
            ],
            [
              112.85591241848786,
              27.843367806506407
            ],
            [
              112.85690734194941,
              27.843536986930786
            ],
            [
              112.85767266768907,
              27.8434693147927
            ],
            [
              112.85817012941983,
              27.84458589967224
            ],
            [
              112.85794053169795,
              27.845533296010686
            ],
            [
              112.85633334764468,
              27.846582189446934
            ],
            [
              112.85499402760027,
              27.84742806386157
            ],
            [
              112.8545348321565,
              27.848476938973405
            ],
            [
              112.8520475235026,
              27.849018289900826
            ],
            [
              112.85086126860615,
              27.84922129580191
            ],
            [
              112.85055513831028,
              27.850202485633233
            ],
            [
              112.84749383535167,
              27.850202485633233
            ],
            [
              112.84424120095817,
              27.850270153570207
            ],
            [
              112.8417156260173,
              27.850202485633233
            ],
            [
              112.84144776200841,
              27.85084532932973
            ],
            [
              112.83961098023325,
              27.85081149554597
            ],
            [
              112.83781246474506,
              27.850439323227945
            ],
            [
              112.8370471390054,
              27.850033315606026
            ]
          ]
        ]
      },
      "properties": {
        "name": "尚源新村",
        "type": "assistPolygon",
        "fill": "#9b59b6",
        "fill-opacity": 0.2,
        "stroke": "#9b59b6",
        "stroke-width": 2,
        "stroke-opacity": 0.8,
        "isAssistFeature": true,
        "sourceFileName": "辅助要素_姜畲镇_尚源新村.geojson",
        "assistFileId": "assist_file_1773973323451_10"
      },
      "id": "assist_polygon_1773801667845_reimported_1773973323451"
    },
    {
      "type": "Feature",
      "geometry": {
        "type": "Point",
        "coordinates": [
          112.84049110483386,
          27.837310973508878
        ]
      },
      "properties": {
        "iconType": "default",
        "iconColor": "#e74c3c",
        "iconSize": 1,
        "text": "尚源新村",
        "textColor": "#333333",
        "type": "assistPoint",
        "name": "辅助点_1",
        "isAssistFeature": true,
        "sourceFileName": "辅助要素_姜畲镇_尚源新村.geojson",
        "assistFileId": "assist_file_1773973323451_10"
      },
      "id": "assist_point_1773801672733_reimported_1773973323452"
    }
  ],
  "properties": {
    "fileName": "辅助要素_姜畲镇_尚源新村.geojson",
    "exportTime": "2026/3/20 10:34:45",
    "source": "GIS-APP 辅助元素导出"
  }
}