{
  "type": "FeatureCollection",
  "features": [
    {
      "type": "Feature",
      "geometry": {
        "type": "Polygon",
        "coordinates": [
          [
            [
              112.75628394415655,
              27.857369612815276
            ],
            [
              112.75521551462472,
              27.856538350170595
            ],
            [
              112.75671131596927,
              27.85623607126496
            ],
            [
              112.75662584160672,
              27.8555559406457
            ],
            [
              112.75474540563071,
              27.855442585127648
            ],
            [
              112.75380518764274,
              27.8539689526081
            ],
            [
              112.75273675811091,
              27.85362888072072
            ],
            [
              112.75230938629818,
              27.853213235854327
            ],
            [
              112.75141190549147,
              27.853931166895507
            ],
            [
              112.749616943878,
              27.85449795120165
            ],
            [
              112.74876220025256,
              27.853326593703173
            ],
            [
              112.74782198226455,
              27.852759803273756
            ],
            [
              112.7464971296451,
              27.8516262135266
            ],
            [
              112.74641165528257,
              27.85102162748241
            ],
            [
              112.74705271300166,
              27.850794906846787
            ],
            [
              112.74713818736419,
              27.84992580668556
            ],
            [
              112.74585607192603,
              27.849396785785842
            ],
            [
              112.74551417447583,
              27.84822537318118
            ],
            [
              112.74581333474475,
              27.84728067638015
            ],
            [
              112.74491585393802,
              27.84731846441018
            ],
            [
              112.74367647568111,
              27.84569356722956
            ],
            [
              112.74367647568111,
              27.845088948110842
            ],
            [
              112.74521501420693,
              27.84448432562175
            ],
            [
              112.7440183731313,
              27.84180127266572
            ],
            [
              112.74299268078077,
              27.84233033061406
            ],
            [
              112.74192425124895,
              27.841952432342836
            ],
            [
              112.73983012936658,
              27.842368120368775
            ],
            [
              112.7379496933906,
              27.842065801962434
            ],
            [
              112.73675305231497,
              27.842216961270935
            ],
            [
              112.7350863022453,
              27.842179171463528
            ],
            [
              112.73406060989478,
              27.84168790276965
            ],
            [
              112.73427429580114,
              27.84123442200064
            ],
            [
              112.73542819969549,
              27.8412722121371
            ],
            [
              112.73649662922733,
              27.8401762928342
            ],
            [
              112.73504356506405,
              27.839873968319594
            ],
            [
              112.73512903942661,
              27.8380222122844
            ],
            [
              112.73606925741458,
              27.837795464475448
            ],
            [
              112.73619746895841,
              27.837190801334856
            ],
            [
              112.73752232157786,
              27.836850676837415
            ],
            [
              112.7379069562093,
              27.836208216544378
            ],
            [
              112.73581283432696,
              27.83552796032309
            ],
            [
              112.73671031513369,
              27.835074453806286
            ],
            [
              112.73906086010369,
              27.835754712870695
            ],
            [
              112.73923180882878,
              27.834734322674848
            ],
            [
              112.7397873921853,
              27.833827301112066
            ],
            [
              112.74081308453586,
              27.833902886531874
            ],
            [
              112.74179603970514,
              27.83465873783419
            ],
            [
              112.74235162306167,
              27.834394190477255
            ],
            [
              112.74145414225494,
              27.83288247892243
            ],
            [
              112.74256530896803,
              27.832504547743213
            ],
            [
              112.7444884821253,
              27.833033651025545
            ],
            [
              112.74585607192603,
              27.83239116813283
            ],
            [
              112.7454287001133,
              27.830992809864995
            ],
            [
              112.74662534118892,
              27.830425902731648
            ],
            [
              112.74765103353947,
              27.828762958057695
            ],
            [
              112.74628344373875,
              27.82759132264735
            ],
            [
              112.74645439246383,
              27.826684241385976
            ],
            [
              112.7460270206511,
              27.826041720906275
            ],
            [
              112.7463689181013,
              27.824983443590398
            ],
            [
              112.74944599515291,
              27.82592833454447
            ],
            [
              112.75282223247346,
              27.827477937904263
            ],
            [
              112.75453171972435,
              27.828536190900778
            ],
            [
              112.75598478388763,
              27.830010168951844
            ],
            [
              112.75837806603889,
              27.834356397945044
            ],
            [
              112.76000207892727,
              27.837077426620837
            ],
            [
              112.7614978802718,
              27.839004780647187
            ],
            [
              112.7635065277916,
              27.841990222229185
            ],
            [
              112.76406211114816,
              27.84331285995816
            ],
            [
              112.76517327786124,
              27.845164525684993
            ],
            [
              112.76624170739305,
              27.84603366400269
            ],
            [
              112.76752382283124,
              27.84701615980123
            ],
            [
              112.76542970094889,
              27.84777191974365
            ],
            [
              112.76581433558033,
              27.84848988681081
            ],
            [
              112.76393389960433,
              27.84951014762447
            ],
            [
              112.76265178416615,
              27.849888019564034
            ],
            [
              112.76098503409652,
              27.85177735951096
            ],
            [
              112.76072861100889,
              27.8532510218171
            ],
            [
              112.75919007248307,
              27.853704452343422
            ],
            [
              112.7569677390569,
              27.854195666607083
            ],
            [
              112.75782248268236,
              27.85551815548618
            ],
            [
              112.75863448912652,
              27.855896006488663
            ],
            [
              112.75807890576999,
              27.85718069004666
            ],
            [
              112.75628394415655,
              27.857369612815276
            ]
          ]
        ]
      },
      "properties": {
        "name": "易建河村",
        "type": "assistPolygon",
        "fill": "#9b59b6",
        "fill-opacity": 0.2,
        "stroke": "#9b59b6",
        "stroke-width": 2,
        "stroke-opacity": 0.8,
        "isAssistFeature": true,
        "sourceFileName": "辅助要素_姜畲镇_易建河村.geojson",
        "assistFileId": "assist_file_1773973350213_15"
      },
      "id": "assist_polygon_1773803135854_reimported_1773973350213"
    },
    {
      "type": "Feature",
      "geometry": {
        "type": "Point",
        "coordinates": [
          112.75222391193563,
          27.842292540846174
        ]
      },
      "properties": {
        "iconType": "default",
        "iconColor": "#e74c3c",
        "iconSize": 1,
        "text": "易建河村",
        "textColor": "#333333",
        "type": "assistPoint",
        "name": "辅助点_1",
        "isAssistFeature": true,
        "sourceFileName": "辅助要素_姜畲镇_易建河村.geojson",
        "assistFileId": "assist_file_1773973350213_15"
      },
      "id": "assist_point_1773803141214_reimported_1773973350213"
    }
  ],
  "properties": {
    "fileName": "辅助要素_姜畲镇_易建河村.geojson",
    "exportTime": "2026/3/20 10:34:53",
    "source": "GIS-APP 辅助元素导出"
  }
}