{
  "type": "FeatureCollection",
  "features": [
    {
      "type": "Feature",
      "geometry": {
        "type": "Polygon",
        "coordinates": [
          [
            [
              112.91276699022819,
              27.81412294550104
            ],
            [
              112.9126834251843,
              27.813437591994358
            ],
            [
              112.91272140929516,
              27.81293365283325
            ],
            [
              112.91284295844991,
              27.81259769209352
            ],
            [
              112.91296450760466,
              27.811757785697736
            ],
            [
              112.91288853938295,
              27.811529330034546
            ],
            [
              112.91294931396031,
              27.811193364951052
            ],
            [
              112.91307086311504,
              27.8110724172666
            ],
            [
              112.91314683133677,
              27.810319850870698
            ],
            [
              112.91457503390501,
              27.81033328960207
            ],
            [
              112.91477255128147,
              27.80972854504475
            ],
            [
              112.91431674195118,
              27.808955810988735
            ],
            [
              112.91408124046389,
              27.808310741827995
            ],
            [
              112.91301008853767,
              27.808902055371632
            ],
            [
              112.911961727078,
              27.809513523946364
            ],
            [
              112.91124002897169,
              27.810004040205058
            ],
            [
              112.91082220375226,
              27.810393763872625
            ],
            [
              112.91065507366446,
              27.810830521493656
            ],
            [
              112.91046515311018,
              27.811791382078255
            ],
            [
              112.91041957217716,
              27.812120626057535
            ],
            [
              112.91007771517944,
              27.812456588272937
            ],
            [
              112.90932562978445,
              27.812873179976776
            ],
            [
              112.90983461686993,
              27.813363681063706
            ],
            [
              112.91015368340115,
              27.81375339267686
            ],
            [
              112.9102448452672,
              27.814075911575074
            ],
            [
              112.91276699022819,
              27.81412294550104
            ]
          ]
        ]
      },
      "properties": {
        "name": "三株岭社区",
        "type": "assistPolygon",
        "fill": "#9b59b6",
        "fill-opacity": 0.2,
        "stroke": "#9b59b6",
        "stroke-width": 2,
        "stroke-opacity": 0.8
      },
      "id": "assist_polygon_1773883697110"
    },
    {
      "type": "Feature",
      "geometry": {
        "type": "Point",
        "coordinates": [
          112.91171862876851,
          27.81195264456018
        ]
      },
      "properties": {
        "iconType": "default",
        "iconColor": "#e74c3c",
        "iconSize": 1,
        "text": "三株岭社区",
        "textColor": "#333333",
        "type": "assistPoint",
        "name": "辅助点_1"
      },
      "id": "assist_point_1773883703254"
    }
  ],
  "properties": {
    "description": "GIS-APP 辅助要素导出",
    "exportTime": "2026/3/19 09:28:48",
    "assistElements": {
      "lines": 0,
      "polygons": 1,
      "texts": 0,
      "points": 1
    }
  }
}