{
  "type": "FeatureCollection",
  "features": [
    {
      "type": "Feature",
      "geometry": {
        "type": "Polygon",
        "coordinates": [
          [
            [
              112.74762485259846,
              27.879122577096865
            ],
            [
              112.74725872877913,
              27.878511274162364
            ],
            [
              112.74685192453542,
              27.877612292991017
            ],
            [
              112.74697396580852,
              27.876857143040993
            ],
            [
              112.74738077005226,
              27.87624582732073
            ],
            [
              112.74766553302285,
              27.875346827347173
            ],
            [
              112.74766553302285,
              27.87462762199648
            ],
            [
              112.74644512029168,
              27.874124175409904
            ],
            [
              112.74705532665726,
              27.87293747062725
            ],
            [
              112.74734008962785,
              27.87117536984789
            ],
            [
              112.74734008962785,
              27.870564022064855
            ],
            [
              112.74546879010677,
              27.870276327796873
            ],
            [
              112.74603831604797,
              27.869916708887644
            ],
            [
              112.7452653879849,
              27.868945731870795
            ],
            [
              112.74428905779999,
              27.86890976959198
            ],
            [
              112.74359749058569,
              27.868514183737034
            ],
            [
              112.74241775827888,
              27.867471268651457
            ],
            [
              112.73957012857285,
              27.867291454691156
            ],
            [
              112.7383903962661,
              27.867039714645472
            ],
            [
              112.73729202480803,
              27.866823936997974
            ],
            [
              112.73721066395929,
              27.866032748614572
            ],
            [
              112.73761746820303,
              27.86513366389444
            ],
            [
              112.73786155074923,
              27.864414390747783
            ],
            [
              112.73700726183742,
              27.864378426965132
            ],
            [
              112.73603093165251,
              27.864738064254524
            ],
            [
              112.7354614057113,
              27.865277517950915
            ],
            [
              112.73440371467765,
              27.864881918836133
            ],
            [
              112.73363078661458,
              27.864558245759
            ],
            [
              112.73334602364397,
              27.863443364427454
            ],
            [
              112.73314262152212,
              27.86193286174783
            ],
            [
              112.73314262152212,
              27.861141637657212
            ],
            [
              112.73354942576584,
              27.860458303112637
            ],
            [
              112.73424099298016,
              27.859882860154883
            ],
            [
              112.73407827128266,
              27.85934337960755
            ],
            [
              112.73220697176157,
              27.85901968999036
            ],
            [
              112.73249173473218,
              27.857509125663668
            ],
            [
              112.73285785855151,
              27.85646610467745
            ],
            [
              112.73281717812715,
              27.855818707293864
            ],
            [
              112.73184084794224,
              27.854272131228967
            ],
            [
              112.73118996115228,
              27.85319311160704
            ],
            [
              112.7314340436985,
              27.852114081247052
            ],
            [
              112.7318815283666,
              27.850927135448956
            ],
            [
              112.73163744582037,
              27.850279704992033
            ],
            [
              112.73273581727841,
              27.84927258326485
            ],
            [
              112.73452575595076,
              27.848265452184464
            ],
            [
              112.73513596231633,
              27.84912870796883
            ],
            [
              112.73619365335001,
              27.850315673452172
            ],
            [
              112.73725134438368,
              27.850279704992033
            ],
            [
              112.73810563329549,
              27.849991956881553
            ],
            [
              112.73782087032488,
              27.849236614458746
            ],
            [
              112.73875652008543,
              27.849236614458746
            ],
            [
              112.74119734554773,
              27.849560333284188
            ],
            [
              112.74184823233767,
              27.850855198922417
            ],
            [
              112.74278388209822,
              27.850999071927788
            ],
            [
              112.74367885143441,
              27.850459547173358
            ],
            [
              112.74530606840928,
              27.850639389056454
            ],
            [
              112.74518402713616,
              27.85125084922788
            ],
            [
              112.7441263361025,
              27.851934241809772
            ],
            [
              112.74522470756054,
              27.853121176583784
            ],
            [
              112.74599763562361,
              27.854056328163637
            ],
            [
              112.74672988326229,
              27.85448793386476
            ],
            [
              112.74746213090098,
              27.855027438575036
            ],
            [
              112.7477468938716,
              27.8557467740126
            ],
            [
              112.74856050235901,
              27.856286272458675
            ],
            [
              112.74982159551452,
              27.856106439941613
            ],
            [
              112.75079792569946,
              27.855459040410295
            ],
            [
              112.75087928654823,
              27.85499147167785
            ],
            [
              112.75148949291378,
              27.85473970306363
            ],
            [
              112.75230310140124,
              27.855387106890404
            ],
            [
              112.75315739031302,
              27.856034506851273
            ],
            [
              112.75364555540548,
              27.85696963330298
            ],
            [
              112.75519141153161,
              27.85736526129665
            ],
            [
              112.75441848346854,
              27.85804861533954
            ],
            [
              112.7550286898341,
              27.858983724417698
            ],
            [
              112.75624910256526,
              27.85934337960755
            ],
            [
              112.7575101957208,
              27.85952320675497
            ],
            [
              112.75828312378387,
              27.858911793236544
            ],
            [
              112.75909673227129,
              27.857976683537885
            ],
            [
              112.75897469099819,
              27.857041565772874
            ],
            [
              112.75812040208638,
              27.856645936597886
            ],
            [
              112.75771359784267,
              27.855710807354086
            ],
            [
              112.75897469099819,
              27.85527920652109
            ],
            [
              112.76060190797305,
              27.85531517332278
            ],
            [
              112.76174095985544,
              27.854811637013086
            ],
            [
              112.7635715789522,
              27.855027438575036
            ],
            [
              112.76495471338085,
              27.855530973882452
            ],
            [
              112.76593104356576,
              27.856034506851273
            ],
            [
              112.76678533247755,
              27.855099372333555
            ],
            [
              112.76947024048611,
              27.855351140112546
            ],
            [
              112.77162630297781,
              27.856142406468905
            ],
            [
              112.77150426170468,
              27.857473159589816
            ],
            [
              112.77187038552404,
              27.858120547093492
            ],
            [
              112.77166698340217,
              27.858911793236544
            ],
            [
              112.77235855061649,
              27.860458303112637
            ],
            [
              112.77248059188962,
              27.861285497012375
            ],
            [
              112.77337556122579,
              27.861860932523726
            ],
            [
              112.77337556122579,
              27.862616186996178
            ],
            [
              112.77121949873407,
              27.8627960087139
            ],
            [
              112.77060929236852,
              27.863011794381364
            ],
            [
              112.77056861194413,
              27.864558245759
            ],
            [
              112.76934819921298,
              27.865097700350475
            ],
            [
              112.76788370393561,
              27.864558245759
            ],
            [
              112.76666329120445,
              27.864486318277272
            ],
            [
              112.76580900229264,
              27.864450354518482
            ],
            [
              112.76564628059515,
              27.865169627426454
            ],
            [
              112.76393770277153,
              27.865241554454684
            ],
            [
              112.76296137258662,
              27.864881918836133
            ],
            [
              112.76174095985544,
              27.86466613689211
            ],
            [
              112.76023578415369,
              27.865277517950915
            ],
            [
              112.75925945396878,
              27.865745042315694
            ],
            [
              112.75901537142255,
              27.86632045414963
            ],
            [
              112.75783563911577,
              27.86660815892084
            ],
            [
              112.75673726765773,
              27.867974746152882
            ],
            [
              112.75580161789718,
              27.868406296435026
            ],
            [
              112.75482528771226,
              27.869197467488462
            ],
            [
              112.7537675966786,
              27.87006055659458
            ],
            [
              112.75336079243489,
              27.870923638825587
            ],
            [
              112.75384895752735,
              27.87146306172862
            ],
            [
              112.75254718394744,
              27.872577860550905
            ],
            [
              112.75246582309869,
              27.873476883503557
            ],
            [
              112.75234378182559,
              27.87441185946014
            ],
            [
              112.75262854479618,
              27.87545470773793
            ],
            [
              112.75336079243489,
              27.87595814814094
            ],
            [
              112.75327943158615,
              27.87660542522103
            ],
            [
              112.75226242097685,
              27.877180779378506
            ],
            [
              112.75112336909443,
              27.87779208982218
            ],
            [
              112.74994363678765,
              27.87750441474904
            ],
            [
              112.74921138914895,
              27.87750441474904
            ],
            [
              112.7484384610859,
              27.877828049152612
            ],
            [
              112.74921138914895,
              27.879122577096865
            ],
            [
              112.74762485259846,
              27.879122577096865
            ]
          ]
        ]
      },
      "properties": {
        "name": "联映村",
        "type": "assistPolygon",
        "fill": "#9b59b6",
        "fill-opacity": 0.2,
        "stroke": "#9b59b6",
        "stroke-width": 2,
        "stroke-opacity": 0.8,
        "isAssistFeature": true,
        "sourceFileName": "辅助要素_姜畲镇_联映村.geojson",
        "assistFileId": "assist_file_1773973292060_6"
      },
      "id": "assist_polygon_1773797861877_reimported_1773973292060"
    },
    {
      "type": "Feature",
      "geometry": {
        "type": "Point",
        "coordinates": [
          112.75022839975826,
          27.86387493275498
        ]
      },
      "properties": {
        "iconType": "default",
        "iconColor": "#e74c3c",
        "iconSize": 1,
        "text": "联映村",
        "textColor": "#333333",
        "type": "assistPoint",
        "name": "辅助点_1",
        "isAssistFeature": true,
        "sourceFileName": "辅助要素_姜畲镇_联映村.geojson",
        "assistFileId": "assist_file_1773973292060_6"
      },
      "id": "assist_point_1773797870429_reimported_1773973292061"
    }
  ],
  "properties": {
    "fileName": "辅助要素_姜畲镇_联映村.geojson",
    "exportTime": "2026/3/20 10:34:41",
    "source": "GIS-APP 辅助元素导出"
  }
}