{
  "type": "FeatureCollection",
  "features": [
    {
      "type": "Feature",
      "geometry": {
        "type": "Polygon",
        "coordinates": [
          [
            [
              112.79118764013721,
              27.869160924521097
            ],
            [
              112.79174553961231,
              27.867491643649018
            ],
            [
              112.79264676184131,
              27.866391421741795
            ],
            [
              112.79324757666065,
              27.86597409326862
            ],
            [
              112.79316174597217,
              27.86384948703376
            ],
            [
              112.79350506872608,
              27.86229394534425
            ],
            [
              112.79217469305468,
              27.861914541545474
            ],
            [
              112.79093014807178,
              27.862218064690722
            ],
            [
              112.78972851843311,
              27.861307492705023
            ],
            [
              112.79118764013721,
              27.860738381329327
            ],
            [
              112.7902864179082,
              27.85986573808303
            ],
            [
              112.78985726446584,
              27.8564889219425
            ],
            [
              112.78917061895801,
              27.855578301830263
            ],
            [
              112.78917061895801,
              27.854250300456172
            ],
            [
              112.78921353430225,
              27.853377604982143
            ],
            [
              112.78723942846727,
              27.85239107120546
            ],
            [
              112.7866815289922,
              27.851935744896537
            ],
            [
              112.78749692053273,
              27.851556304845218
            ],
            [
              112.78805482000782,
              27.85026619873915
            ],
            [
              112.78698193640187,
              27.849089912148003
            ],
            [
              112.78796898931934,
              27.848103339362424
            ],
            [
              112.78899895758104,
              27.84787566744501
            ],
            [
              112.7889560422368,
              27.846964974995984
            ],
            [
              112.78929936499071,
              27.845978382880034
            ],
            [
              112.79075848669481,
              27.845598921984234
            ],
            [
              112.79067265600634,
              27.844915889026325
            ],
            [
              112.79238926977588,
              27.84518151346552
            ],
            [
              112.79294716925098,
              27.84468821041783
            ],
            [
              112.7918313703008,
              27.843549810206724
            ],
            [
              112.79316174597217,
              27.843284181771665
            ],
            [
              112.79277550787401,
              27.842031924673506
            ],
            [
              112.79054390997364,
              27.84172834501811
            ],
            [
              112.7916167935796,
              27.840969392162762
            ],
            [
              112.7912734708257,
              27.838350964053802
            ],
            [
              112.80032860845996,
              27.8374401916373
            ],
            [
              112.8035043439336,
              27.836946853386152
            ],
            [
              112.80620801062061,
              27.836833005778885
            ],
            [
              112.80904042334033,
              27.836984802562043
            ],
            [
              112.80895459265186,
              27.838426861410056
            ],
            [
              112.80921208471727,
              27.839603263642772
            ],
            [
              112.8104566297002,
              27.840096589815005
            ],
            [
              112.81140076727344,
              27.841386816890292
            ],
            [
              112.81294571966603,
              27.843056499738154
            ],
            [
              112.81419026464893,
              27.843739544404926
            ],
            [
              112.81479107946826,
              27.845864544750697
            ],
            [
              112.8135036191411,
              27.846244004717178
            ],
            [
              112.81277405828907,
              27.84836895599524
            ],
            [
              112.81118619055226,
              27.84787566744501
            ],
            [
              112.80998456091359,
              27.8472305944169
            ],
            [
              112.80861126989794,
              27.84787566744501
            ],
            [
              112.80968415350392,
              27.85125275184818
            ],
            [
              112.81007039160204,
              27.852277239807478
            ],
            [
              112.81346070379689,
              27.854136471010094
            ],
            [
              112.81556355566455,
              27.855085046075885
            ],
            [
              112.81723725408983,
              27.85535064560709
            ],
            [
              112.81873929113819,
              27.855009160376028
            ],
            [
              112.81989800543263,
              27.855236817316225
            ],
            [
              112.8199838361211,
              27.857437476425915
            ],
            [
              112.81723725408983,
              27.85751336042604
            ],
            [
              112.8163789472051,
              27.857437476425915
            ],
            [
              112.81616437048389,
              27.85815837228249
            ],
            [
              112.81431901068166,
              27.858727497203986
            ],
            [
              112.81457650274709,
              27.86043485404049
            ],
            [
              112.81311738104297,
              27.86062455869559
            ],
            [
              112.81152951330617,
              27.861231611360907
            ],
            [
              112.81032788366747,
              27.860928085453253
            ],
            [
              112.80869710058643,
              27.861914541545474
            ],
            [
              112.806637164063,
              27.862635407627607
            ],
            [
              112.8044055661626,
              27.862597467427037
            ],
            [
              112.80277478308156,
              27.861914541545474
            ],
            [
              112.80101525396778,
              27.861193670668925
            ],
            [
              112.79977070898487,
              27.861648958096126
            ],
            [
              112.79852616400197,
              27.862218064690722
            ],
            [
              112.7977966031499,
              27.861573076991064
            ],
            [
              112.79625165075733,
              27.861345433357144
            ],
            [
              112.79517876715137,
              27.862445706491883
            ],
            [
              112.79470669836476,
              27.86381154725818
            ],
            [
              112.79552208990528,
              27.863963306280795
            ],
            [
              112.7963374814458,
              27.863166569041226
            ],
            [
              112.79732453436327,
              27.864153004760254
            ],
            [
              112.79728161901903,
              27.86525324939322
            ],
            [
              112.7967666348882,
              27.86574645887862
            ],
            [
              112.79668080419971,
              27.866619054777033
            ],
            [
              112.79535042852831,
              27.866619054777033
            ],
            [
              112.79449212164354,
              27.866581115971016
            ],
            [
              112.79423462957813,
              27.867795151174874
            ],
            [
              112.79410588354541,
              27.868553916270272
            ],
            [
              112.7944062909551,
              27.86950236516782
            ],
            [
              112.79118764013721,
              27.869160924521097
            ]
          ]
        ]
      },
      "properties": {
        "name": "棋盘村",
        "type": "assistPolygon",
        "fill": "#9b59b6",
        "fill-opacity": 0.2,
        "stroke": "#9b59b6",
        "stroke-width": 2,
        "stroke-opacity": 0.8
      },
      "id": "assist_polygon_1773798102503"
    },
    {
      "type": "Feature",
      "geometry": {
        "type": "Point",
        "coordinates": [
          112.8003715238042,
          27.851404528452917
        ]
      },
      "properties": {
        "iconType": "default",
        "iconColor": "#e74c3c",
        "iconSize": 1,
        "text": "棋盘村",
        "textColor": "#333333",
        "type": "assistPoint",
        "name": "辅助点_1"
      },
      "id": "assist_point_1773798109093"
    }
  ],
  "properties": {
    "description": "GIS-APP 辅助要素导出",
    "exportTime": "2026/3/18 09:41:57",
    "assistElements": {
      "lines": 0,
      "polygons": 1,
      "texts": 0,
      "points": 1
    }
  }
}