{
  "type": "FeatureCollection",
  "features": [
    {
      "type": "Feature",
      "geometry": {
        "type": "Polygon",
        "coordinates": [
          [
            [
              112.77889367330314,
              27.938373855758485
            ],
            [
              112.77712252506723,
              27.939938568942097
            ],
            [
              112.77576010334732,
              27.940179292035793
            ],
            [
              112.7739889551114,
              27.939758026269814
            ],
            [
              112.77262653339149,
              27.93927657766865
            ],
            [
              112.77160471710155,
              27.93801276488243
            ],
            [
              112.7705829008116,
              27.936809119912795
            ],
            [
              112.76935672126366,
              27.935665644771532
            ],
            [
              112.76799429954373,
              27.93500362731659
            ],
            [
              112.76656375673782,
              27.934702708950738
            ],
            [
              112.76567818261987,
              27.93379994882511
            ],
            [
              112.76445200307192,
              27.932716626718914
            ],
            [
              112.76302146026602,
              27.932054591196533
            ],
            [
              112.76165903854607,
              27.931512922752447
            ],
            [
              112.75947916379421,
              27.93061013597901
            ],
            [
              112.76009225356816,
              27.929165661455343
            ],
            [
              112.76077346442813,
              27.92754060454017
            ],
            [
              112.76206776506206,
              27.926397031324
            ],
            [
              112.76377079221197,
              27.925494201817727
            ],
            [
              112.76302146026602,
              27.92380889989765
            ],
            [
              112.76308958135202,
              27.920859558317304
            ],
            [
              112.76363455003997,
              27.91887322170966
            ],
            [
              112.763225823524,
              27.91736839695571
            ],
            [
              112.76370267112597,
              27.915923745489707
            ],
            [
              112.76431576089995,
              27.91333536334821
            ],
            [
              112.76615503022184,
              27.911469281979763
            ],
            [
              112.76751745194177,
              27.910987707367937
            ],
            [
              112.76908423691967,
              27.909904156651862
            ],
            [
              112.7705829008116,
              27.911047904311673
            ],
            [
              112.77289901773547,
              27.912011050855156
            ],
            [
              112.77364834968142,
              27.90942257507166
            ],
            [
              112.77310338099348,
              27.907797221409595
            ],
            [
              112.77494265031537,
              27.90599124425411
            ],
            [
              112.7777356148412,
              27.904727042306945
            ],
            [
              112.77882555221714,
              27.90310161809741
            ],
            [
              112.78127791131301,
              27.90231899773201
            ],
            [
              112.78413899692487,
              27.902379199499563
            ],
            [
              112.78468396561284,
              27.901054752876334
            ],
            [
              112.7868638403647,
              27.90081394265765
            ],
            [
              112.78836250425663,
              27.89979049324971
            ],
            [
              112.78986116814856,
              27.90051292913074
            ],
            [
              112.79163231638447,
              27.899429273500573
            ],
            [
              112.79422091765232,
              27.899369070091836
            ],
            [
              112.79544709720025,
              27.89979049324971
            ],
            [
              112.79503837068428,
              27.900994550371905
            ],
            [
              112.79558333937226,
              27.902860812434085
            ],
            [
              112.79803569846813,
              27.90466684184574
            ],
            [
              112.79967060453204,
              27.906352442097102
            ],
            [
              112.80001120996202,
              27.908158413222765
            ],
            [
              112.80178235819793,
              27.909904156651862
            ],
            [
              112.80232732688589,
              27.91122849494188
            ],
            [
              112.8038259907778,
              27.911589675297705
            ],
            [
              112.80368974860579,
              27.912552817016817
            ],
            [
              112.80464344380975,
              27.913997513513806
            ],
            [
              112.8040303540358,
              27.9156227740051
            ],
            [
              112.80566526009969,
              27.916706267429504
            ],
            [
              112.8039622329498,
              27.917488783706702
            ],
            [
              112.80355350643381,
              27.91845187288955
            ],
            [
              112.8039622329498,
              27.919715914424145
            ],
            [
              112.8053246546697,
              27.92055860057087
            ],
            [
              112.80559713901371,
              27.922123571703963
            ],
            [
              112.80477968598176,
              27.923929279477548
            ],
            [
              112.80566526009969,
              27.92471174347949
            ],
            [
              112.8053246546697,
              27.926878537310742
            ],
            [
              112.80477968598176,
              27.92820266771426
            ],
            [
              112.80457532272375,
              27.92946659523983
            ],
            [
              112.80116926842395,
              27.92946659523983
            ],
            [
              112.79939812018803,
              27.928623978531732
            ],
            [
              112.79742260869415,
              27.929647155108313
            ],
            [
              112.79728636652214,
              27.930790693937013
            ],
            [
              112.79755885086615,
              27.931813850001006
            ],
            [
              112.79803569846813,
              27.932776811565276
            ],
            [
              112.79660515566219,
              27.934281421830676
            ],
            [
              112.7947658863403,
              27.935304544844385
            ],
            [
              112.79367594896434,
              27.936026743491936
            ],
            [
              112.79149607421247,
              27.93753130850368
            ],
            [
              112.78945244163258,
              27.937952582952406
            ],
            [
              112.78822626208465,
              27.938072946778902
            ],
            [
              112.78774941448266,
              27.937230397177444
            ],
            [
              112.78631887167676,
              27.937832218991815
            ],
            [
              112.78468396561284,
              27.938915489809716
            ],
            [
              112.78250409086095,
              27.938734945427697
            ],
            [
              112.78148227457102,
              27.937651672799504
            ],
            [
              112.78011985285107,
              27.938434037453845
            ],
            [
              112.77889367330314,
              27.938373855758485
            ]
          ]
        ]
      },
      "properties": {
        "name": "龙安村",
        "type": "assistPolygon",
        "fill": "#9b59b6",
        "fill-opacity": 0.2,
        "stroke": "#9b59b6",
        "stroke-width": 2,
        "stroke-opacity": 0.8,
        "isAssistFeature": true,
        "sourceFileName": "辅助要素_鹤岭镇_龙安村.geojson",
        "assistFileId": "assist_file_1773974656692_17"
      },
      "id": "assist_imported_1773974656693_0"
    },
    {
      "type": "Feature",
      "geometry": {
        "type": "Point",
        "coordinates": [
          112.7834577860649,
          27.9219429992678
        ]
      },
      "properties": {
        "iconType": "default",
        "iconColor": "#e74c3c",
        "iconSize": 1,
        "text": "龙安村",
        "textColor": "#333333",
        "type": "assistPoint",
        "name": "辅助点_1",
        "isAssistFeature": true,
        "sourceFileName": "辅助要素_鹤岭镇_龙安村.geojson",
        "assistFileId": "assist_file_1773974656692_17"
      },
      "id": "assist_imported_1773974656694_1"
    }
  ],
  "properties": {
    "fileName": "辅助要素_鹤岭镇_龙安村.geojson",
    "exportTime": "2026/3/20 10:51:05",
    "source": "GIS-APP 辅助元素导出"
  }
}