{
  "type": "FeatureCollection",
  "features": [
    {
      "type": "Feature",
      "geometry": {
        "type": "Polygon",
        "coordinates": [
          [
            [
              112.77248602665556,
              27.861452698613732
            ],
            [
              112.77242165363919,
              27.860674913360242
            ],
            [
              112.77368765629424,
              27.860561090659886
            ],
            [
              112.77441721714628,
              27.86076976551925
            ],
            [
              112.77433138645779,
              27.861262995407984
            ],
            [
              112.77248602665556,
              27.861452698613732
            ]
          ]
        ]
      },
      "properties": {
        "name": "姜畲社区",
        "type": "assistPolygon",
        "fill": "#9b59b6",
        "fill-opacity": 0.2,
        "stroke": "#9b59b6",
        "stroke-width": 2,
        "stroke-opacity": 0.8,
        "isAssistFeature": true,
        "sourceFileName": "辅助要素_姜畲镇_姜畲社区_导出.geojson",
        "assistFileId": "assist_file_1774027383798_43"
      },
      "id": "assist_imported_1774027383798_0"
    },
    {
      "type": "Feature",
      "geometry": {
        "type": "Polygon",
        "coordinates": [
          [
            [
              112.77806502140652,
              27.8586450572638
            ],
            [
              112.77830105579984,
              27.85811387369273
            ],
            [
              112.77943831242214,
              27.858360494960138
            ],
            [
              112.7793953970779,
              27.85902447250669
            ],
            [
              112.77806502140652,
              27.8586450572638
            ]
          ]
        ]
      },
      "properties": {
        "name": "姜畲社区",
        "type": "assistPolygon",
        "fill": "#9b59b6",
        "fill-opacity": 0.2,
        "stroke": "#9b59b6",
        "stroke-width": 2,
        "stroke-opacity": 0.8,
        "isAssistFeature": true,
        "sourceFileName": "辅助要素_姜畲镇_姜畲社区_导出.geojson",
        "assistFileId": "assist_file_1774027383798_43"
      },
      "id": "assist_imported_1774027383798_1"
    },
    {
      "type": "Feature",
      "geometry": {
        "type": "Polygon",
        "coordinates": [
          [
            [
              112.77888041294707,
              27.857146354071745
            ],
            [
              112.7785800055374,
              27.855438945440966
            ],
            [
              112.77804356373441,
              27.85439551581807
            ],
            [
              112.77797919071804,
              27.853921226306213
            ],
            [
              112.7785800055374,
              27.85375048157404
            ],
            [
              112.77888041294707,
              27.85399711276753
            ],
            [
              112.78048973835598,
              27.853276189240546
            ],
            [
              112.78145533360137,
              27.853238245764203
            ],
            [
              112.78162699497831,
              27.854148885530833
            ],
            [
              112.78006058491361,
              27.854604202546028
            ],
            [
              112.77918082035671,
              27.855078489070237
            ],
            [
              112.78162699497831,
              27.855894257038443
            ],
            [
              112.78169136799467,
              27.856728990000747
            ],
            [
              112.78044682301174,
              27.8565013361939
            ],
            [
              112.7793953970779,
              27.856254710696973
            ],
            [
              112.77950268543852,
              27.857184296180336
            ],
            [
              112.77888041294707,
              27.857146354071745
            ]
          ]
        ]
      },
      "properties": {
        "name": "姜畲社区",
        "type": "assistPolygon",
        "fill": "#9b59b6",
        "fill-opacity": 0.2,
        "stroke": "#9b59b6",
        "stroke-width": 2,
        "stroke-opacity": 0.8,
        "isAssistFeature": true,
        "sourceFileName": "辅助要素_姜畲镇_姜畲社区_导出.geojson",
        "assistFileId": "assist_file_1774027383798_43"
      },
      "id": "assist_imported_1774027383798_2"
    },
    {
      "type": "Feature",
      "geometry": {
        "type": "Polygon",
        "coordinates": [
          [
            [
              112.76806574619901,
              27.85103750141974
            ],
            [
              112.76759367741239,
              27.850525252793503
            ],
            [
              112.76840906895292,
              27.849690472069696
            ],
            [
              112.76956778324735,
              27.84754657394943
            ],
            [
              112.77134877003324,
              27.848001918687984
            ],
            [
              112.76937466419828,
              27.85143591534495
            ],
            [
              112.76806574619901,
              27.85103750141974
            ]
          ]
        ]
      },
      "properties": {
        "name": "姜畲社区",
        "type": "assistPolygon",
        "fill": "#9b59b6",
        "fill-opacity": 0.2,
        "stroke": "#9b59b6",
        "stroke-width": 2,
        "stroke-opacity": 0.8,
        "isAssistFeature": true,
        "sourceFileName": "辅助要素_姜畲镇_姜畲社区_导出.geojson",
        "assistFileId": "assist_file_1774027383798_43"
      },
      "id": "assist_imported_1774027383798_3"
    },
    {
      "type": "Feature",
      "geometry": {
        "type": "Polygon",
        "coordinates": [
          [
            [
              112.76660662449491,
              27.849576637836734
            ],
            [
              112.76619892872465,
              27.849273079297987
            ],
            [
              112.76561957157745,
              27.84915924462689
            ],
            [
              112.76540499485625,
              27.848191645098098
            ],
            [
              112.76647787846218,
              27.84859006947903
            ],
            [
              112.76705723560941,
              27.848931574926226
            ],
            [
              112.76699286259306,
              27.84948177588464
            ],
            [
              112.76660662449491,
              27.849576637836734
            ]
          ]
        ]
      },
      "properties": {
        "name": "姜畲社区",
        "type": "assistPolygon",
        "fill": "#9b59b6",
        "fill-opacity": 0.2,
        "stroke": "#9b59b6",
        "stroke-width": 2,
        "stroke-opacity": 0.8,
        "isAssistFeature": true,
        "sourceFileName": "辅助要素_姜畲镇_姜畲社区_导出.geojson",
        "assistFileId": "assist_file_1774027383798_43"
      },
      "id": "assist_imported_1774027383798_4"
    },
    {
      "type": "Feature",
      "geometry": {
        "type": "Polygon",
        "coordinates": [
          [
            [
              112.76690703190458,
              27.84803986399656
            ],
            [
              112.76649933613432,
              27.847413764707255
            ],
            [
              112.7665851668228,
              27.847091227299103
            ],
            [
              112.76759367741239,
              27.847717328450415
            ],
            [
              112.76748638905181,
              27.84811575457391
            ],
            [
              112.76690703190458,
              27.84803986399656
            ]
          ]
        ]
      },
      "properties": {
        "name": "姜畲社区",
        "type": "assistPolygon",
        "fill": "#9b59b6",
        "fill-opacity": 0.2,
        "stroke": "#9b59b6",
        "stroke-width": 2,
        "stroke-opacity": 0.8,
        "isAssistFeature": true,
        "sourceFileName": "辅助要素_姜畲镇_姜畲社区_导出.geojson",
        "assistFileId": "assist_file_1774027383798_43"
      },
      "id": "assist_imported_1774027383798_5"
    },
    {
      "type": "Feature",
      "geometry": {
        "type": "Point",
        "coordinates": [
          112.77893277855793,
          27.8554113829705
        ]
      },
      "properties": {
        "iconType": "default",
        "iconColor": "#e74c3c",
        "iconSize": 1,
        "text": "姜畲社区",
        "textColor": "#333333",
        "assistFileId": "assist_file_1774027383798_43",
        "sourceFileName": "辅助要素_姜畲镇_姜畲社区_导出.geojson",
        "type": "assistPoint"
      },
      "id": "assist_point_1774027507405"
    }
  ],
  "properties": {
    "fileName": "辅助要素_姜畲镇_姜畲社区_导出.geojson",
    "exportTime": "2026/3/21 01:25:20",
    "source": "GIS-APP 辅助元素导出"
  }
}