{
  "type": "FeatureCollection",
  "features": [
    {
      "type": "Feature",
      "geometry": {
        "type": "Polygon",
        "coordinates": [
          [
            [
              112.79545846332928,
              27.88398108823928
            ],
            [
              112.79480003211923,
              27.883289978858485
            ],
            [
              112.79397699310661,
              27.88303535850106
            ],
            [
              112.79368892945223,
              27.88216236987344
            ],
            [
              112.79381238530411,
              27.880998374089472
            ],
            [
              112.79253667483462,
              27.88074374834406
            ],
            [
              112.79228976313082,
              27.88001624291556
            ],
            [
              112.79121981241448,
              27.88001624291556
            ],
            [
              112.79035562145127,
              27.879325108232067
            ],
            [
              112.79046081370659,
              27.878943148464344
            ],
            [
              112.79043792535253,
              27.878815848274726
            ],
            [
              112.79101405266134,
              27.878706720829484
            ],
            [
              112.79121981241448,
              27.878051953849067
            ],
            [
              112.79093174876009,
              27.877360806631117
            ],
            [
              112.7909975059768,
              27.877150053194214
            ],
            [
              112.79093174876009,
              27.87619675924296
            ],
            [
              112.79006755779686,
              27.87561473085789
            ],
            [
              112.78969719024121,
              27.87514183049231
            ],
            [
              112.78817456806793,
              27.87488719097884
            ],
            [
              112.78784535246291,
              27.874159646213542
            ],
            [
              112.78883299927799,
              27.873577606883202
            ],
            [
              112.78973834219184,
              27.872886431116896
            ],
            [
              112.79142557216763,
              27.873795871998553
            ],
            [
              112.79278358653838,
              27.873686739495852
            ],
            [
              112.79344201774845,
              27.873104697624754
            ],
            [
              112.79368892945223,
              27.872158872914795
            ],
            [
              112.79344201774845,
              27.870776498870057
            ],
            [
              112.79426505676102,
              27.869648759612247
            ],
            [
              112.79496463992173,
              27.869430486142093
            ],
            [
              112.79796873231766,
              27.869576001837743
            ],
            [
              112.79763951671262,
              27.8686301463228
            ],
            [
              112.79763951671262,
              27.867575143892537
            ],
            [
              112.79772182061386,
              27.867102208434304
            ],
            [
              112.79957365839218,
              27.867247727256682
            ],
            [
              112.79953250644155,
              27.866338231410865
            ],
            [
              112.80068476105917,
              27.865683389675354
            ],
            [
              112.80006748179973,
              27.864446455600927
            ],
            [
              112.79932674668841,
              27.863718840727003
            ],
            [
              112.79821564402141,
              27.86433731368126
            ],
            [
              112.79862716352771,
              27.863718840727003
            ],
            [
              112.79953250644155,
              27.86280931526514
            ],
            [
              112.80023208960223,
              27.862845696430156
            ],
            [
              112.80097282471358,
              27.86390074490346
            ],
            [
              112.80245429493621,
              27.862772934087914
            ],
            [
              112.80368885345507,
              27.862845696430156
            ],
            [
              112.80578760293717,
              27.863718840727003
            ],
            [
              112.80726907315979,
              27.86390074490346
            ],
            [
              112.8085447836293,
              27.863827983269516
            ],
            [
              112.81014970970384,
              27.862845696430156
            ],
            [
              112.8110962045683,
              27.86259102801857
            ],
            [
              112.81290689039596,
              27.862409121643893
            ],
            [
              112.81234815909704,
              27.863462606264022
            ],
            [
              112.81240108431878,
              27.86397728706902
            ],
            [
              112.8127876389187,
              27.86434680075321
            ],
            [
              112.81315380209976,
              27.86477388070044
            ],
            [
              112.8133595618529,
              27.865283206666803
            ],
            [
              112.81504679182869,
              27.865101304810736
            ],
            [
              112.81496448792745,
              27.866592891017135
            ],
            [
              112.8160344386438,
              27.86779342110016
            ],
            [
              112.81591098279189,
              27.86859376709964
            ],
            [
              112.8161990464463,
              27.869175833204466
            ],
            [
              112.8174747569158,
              27.86903031697139
            ],
            [
              112.81809203617523,
              27.868120836087186
            ],
            [
              112.81928544274346,
              27.868229974196353
            ],
            [
              112.82054107083304,
              27.86897347518503
            ],
            [
              112.82089427185417,
              27.869312862017836
            ],
            [
              112.82106319408167,
              27.869584370718712
            ],
            [
              112.82097267271928,
              27.87041271329521
            ],
            [
              112.81982041810167,
              27.871540444601422
            ],
            [
              112.81953235444726,
              27.872413518841313
            ],
            [
              112.81887392323719,
              27.873213830713766
            ],
            [
              112.81735130106391,
              27.873359341328154
            ],
            [
              112.81726899716267,
              27.874232400909932
            ],
            [
              112.81805088422462,
              27.874559796439115
            ],
            [
              112.81924429079285,
              27.874232400909932
            ],
            [
              112.82014963370669,
              27.873577606883202
            ],
            [
              112.82064345711424,
              27.874596173659057
            ],
            [
              112.82002617785481,
              27.875796615064147
            ],
            [
              112.81870931543467,
              27.877542687905517
            ],
            [
              112.81776282057021,
              27.878233833962867
            ],
            [
              112.81755706081707,
              27.879034102835362
            ],
            [
              112.8184624037309,
              27.880780123487213
            ],
            [
              112.81943745212372,
              27.882063325734734
            ],
            [
              112.81986148638397,
              27.883575937216335
            ],
            [
              112.81904370602494,
              27.884392470916282
            ],
            [
              112.81677209391654,
              27.884660185543183
            ],
            [
              112.81534855032858,
              27.88486097107898
            ],
            [
              112.81356154880329,
              27.885208998459063
            ],
            [
              112.81221372561897,
              27.88399089773492
            ],
            [
              112.81083561427322,
              27.883776724762612
            ],
            [
              112.80986639310696,
              27.882973572343772
            ],
            [
              112.80838227319613,
              27.882585379872665
            ],
            [
              112.80742573580797,
              27.882363469845075
            ],
            [
              112.8064438308636,
              27.881983009490142
            ],
            [
              112.80456596485399,
              27.881822376822242
            ],
            [
              112.80582875488778,
              27.879979867515857
            ],
            [
              112.80517032367771,
              27.879325108232067
            ],
            [
              112.80582875488778,
              27.877979201718006
            ],
            [
              112.80512917172709,
              27.877469935432416
            ],
            [
              112.80405922101075,
              27.876887913888396
            ],
            [
              112.80282466249187,
              27.876924290326528
            ],
            [
              112.80150780007175,
              27.877651816523567
            ],
            [
              112.80076706496041,
              27.878379337834048
            ],
            [
              112.80027324155287,
              27.87921598129992
            ],
            [
              112.80006748179973,
              27.87987074124345
            ],
            [
              112.79899753108336,
              27.88027087037142
            ],
            [
              112.79870946742898,
              27.88125299923624
            ],
            [
              112.79751606086072,
              27.881689498095085
            ],
            [
              112.79685762965066,
              27.88198049635689
            ],
            [
              112.79673417379877,
              27.882853486450642
            ],
            [
              112.79755721281136,
              27.882926235307494
            ],
            [
              112.79743375695948,
              27.88336272742208
            ],
            [
              112.79644611014437,
              27.883326353146387
            ],
            [
              112.79545846332928,
              27.88398108823928
            ]
          ]
        ]
      },
      "properties": {
        "name": "白鹭湖村",
        "type": "assistPolygon",
        "fill": "#9b59b6",
        "fill-opacity": 0.2,
        "stroke": "#9b59b6",
        "stroke-width": 2,
        "stroke-opacity": 0.8,
        "isAssistFeature": true,
        "sourceFileName": "辅助要素_姜畲镇_白鹭湖村.geojson",
        "assistFileId": "assist_file_1773973268249_1"
      },
      "id": "assist_polygon_1773795666702_reimported_1773973268250"
    },
    {
      "type": "Feature",
      "geometry": {
        "type": "Point",
        "coordinates": [
          112.80644603414723,
          27.87252265262657
        ]
      },
      "properties": {
        "iconType": "default",
        "iconColor": "#e74c3c",
        "iconSize": 1,
        "text": "白鹭湖村",
        "textColor": "#333333",
        "type": "assistPoint",
        "name": "辅助点_1",
        "isAssistFeature": true,
        "sourceFileName": "辅助要素_姜畲镇_白鹭湖村.geojson",
        "assistFileId": "assist_file_1773973268249_1"
      },
      "id": "assist_point_1773795682509_reimported_1773973268252"
    }
  ],
  "properties": {
    "fileName": "辅助要素_姜畲镇_白鹭湖村.geojson",
    "exportTime": "2026/3/20 10:34:36",
    "source": "GIS-APP 辅助元素导出"
  }
}