{
  "type": "FeatureCollection",
  "features": [
    {
      "type": "Feature",
      "geometry": {
        "type": "Polygon",
        "coordinates": [
          [
            [
              112.73845378068309,
              27.952732103722155
            ],
            [
              112.73748052166283,
              27.950535036104426
            ],
            [
              112.73618284296917,
              27.94833792378313
            ],
            [
              112.73650726264258,
              27.945472057924874
            ],
            [
              112.73553400362235,
              27.94317931048481
            ],
            [
              112.73520958394894,
              27.940313307747203
            ],
            [
              112.73456074460209,
              27.938020450810328
            ],
            [
              112.73564214351349,
              27.935058771913987
            ],
            [
              112.73358748558186,
              27.934389994476206
            ],
            [
              112.73434446481983,
              27.931428216069207
            ],
            [
              112.72980258939201,
              27.930090612116473
            ],
            [
              112.72450373472621,
              27.929039625968173
            ],
            [
              112.7213676778832,
              27.931428216069207
            ],
            [
              112.72180023744775,
              27.928275265986628
            ],
            [
              112.71974557951611,
              27.926459889366242
            ],
            [
              112.7174746418022,
              27.924548933669456
            ],
            [
              112.71985371940724,
              27.92340234403612
            ],
            [
              112.72212465712117,
              27.921491334289584
            ],
            [
              112.72385489537939,
              27.92187353894127
            ],
            [
              112.72298977625026,
              27.918624756334395
            ],
            [
              112.72017813908066,
              27.917382548951963
            ],
            [
              112.71704208223764,
              27.91661810654672
            ],
            [
              112.71704208223764,
              27.91461141952189
            ],
            [
              112.71888046038701,
              27.91212689828309
            ],
            [
              112.7202862789718,
              27.909642319970246
            ],
            [
              112.72266535657684,
              27.90878226033422
            ],
            [
              112.72320605603254,
              27.91069349468316
            ],
            [
              112.72709909211352,
              27.910980176922834
            ],
            [
              112.72893747026289,
              27.90973788172991
            ],
            [
              112.73142468775907,
              27.910789055514158
            ],
            [
              112.73326306590843,
              27.90916450990558
            ],
            [
              112.7359665631869,
              27.910024566502344
            ],
            [
              112.73921075992106,
              27.90868669773033
            ],
            [
              112.74332007578433,
              27.9101201279243
            ],
            [
              112.74396891513115,
              27.912795813462054
            ],
            [
              112.74396891513115,
              27.914898091376628
            ],
            [
              112.74591543317165,
              27.91585365873746
            ],
            [
              112.74732125175646,
              27.918146985953044
            ],
            [
              112.74505031404253,
              27.918720310157326
            ],
            [
              112.74515845393367,
              27.921395782915525
            ],
            [
              112.7474293916476,
              27.92235129285578
            ],
            [
              112.74602357306279,
              27.92340234403612
            ],
            [
              112.74663666484716,
              27.923907940930263
            ],
            [
              112.74764567142986,
              27.924740030759338
            ],
            [
              112.74937590968808,
              27.92665098307789
            ],
            [
              112.75364393611484,
              27.928087235194425
            ],
            [
              112.75602316659945,
              27.928407124999154
            ],
            [
              112.7582472298785,
              27.928658466324435
            ],
            [
              112.75928167791531,
              27.92863561713719
            ],
            [
              112.75990234673739,
              27.92868131550682
            ],
            [
              112.7592558167144,
              27.931011906737226
            ],
            [
              112.76122126798428,
              27.931491728104703
            ],
            [
              112.76220399361924,
              27.932040092773207
            ],
            [
              112.76297982964681,
              27.93254275794159
            ],
            [
              112.7644021956974,
              27.933228206675835
            ],
            [
              112.76554008853785,
              27.93400504331855
            ],
            [
              112.76616075735991,
              27.935010353036645
            ],
            [
              112.76719520539669,
              27.935124592185517
            ],
            [
              112.76505619390318,
              27.936969541784862
            ],
            [
              112.76570503325001,
              27.938784741862847
            ],
            [
              112.7639747949918,
              27.93974009807509
            ],
            [
              112.76192013706016,
              27.939835633231638
            ],
            [
              112.76256897640701,
              27.941746318620957
            ],
            [
              112.76516433379432,
              27.942701648642426
            ],
            [
              112.76192013706016,
              27.944421221389476
            ],
            [
              112.76018989880194,
              27.94489887562753
            ],
            [
              112.75802710097918,
              27.94680947145588
            ],
            [
              112.7575945414146,
              27.948528978803026
            ],
            [
              112.75975733923738,
              27.949770828193337
            ],
            [
              112.75575616326526,
              27.949102141834643
            ],
            [
              112.75380964522476,
              27.947382643613608
            ],
            [
              112.7525119665311,
              27.946713942467213
            ],
            [
              112.75013288892606,
              27.946427354994128
            ],
            [
              112.74667241240964,
              27.94757370032349
            ],
            [
              112.74353635556659,
              27.94795581272932
            ],
            [
              112.74094099817925,
              27.94786028475464
            ],
            [
              112.7412654178527,
              27.949197668710838
            ],
            [
              112.74072471839699,
              27.950821612676748
            ],
            [
              112.73845378068309,
              27.952732103722155
            ]
          ]
        ]
      },
      "properties": {
        "name": "仙女村",
        "type": "assistPolygon",
        "fill": "#9b59b6",
        "fill-opacity": 0.2,
        "stroke": "#9b59b6",
        "stroke-width": 2,
        "stroke-opacity": 0.8,
        "isAssistFeature": true,
        "sourceFileName": "辅助要素_鹤岭镇_仙女村.geojson",
        "assistFileId": "assist_file_1773974655089_1"
      },
      "id": "assist_imported_1773974655089_0"
    },
    {
      "type": "Feature",
      "geometry": {
        "type": "Point",
        "coordinates": [
          112.74829451077669,
          27.93735169170411
        ]
      },
      "properties": {
        "iconType": "default",
        "iconColor": "#e74c3c",
        "iconSize": 1,
        "text": "仙女村",
        "textColor": "#333333",
        "type": "assistPoint",
        "name": "辅助点_1",
        "isAssistFeature": true,
        "sourceFileName": "辅助要素_鹤岭镇_仙女村.geojson",
        "assistFileId": "assist_file_1773974655089_1"
      },
      "id": "assist_imported_1773974655090_1"
    }
  ],
  "properties": {
    "fileName": "辅助要素_鹤岭镇_仙女村.geojson",
    "exportTime": "2026/3/20 10:50:45",
    "source": "GIS-APP 辅助元素导出"
  }
}