{
  "type": "FeatureCollection",
  "features": [
    {
      "type": "Feature",
      "geometry": {
        "type": "Polygon",
        "coordinates": [
          [
            [
              112.84958658821324,
              27.9135957947843
            ],
            [
              112.84813829129241,
              27.91336657767117
            ],
            [
              112.84742495101798,
              27.913290171858833
            ],
            [
              112.8461279687008,
              27.913041852595953
            ],
            [
              112.84580372312152,
              27.911895756302272
            ],
            [
              112.84573887400566,
              27.9113800090079
            ],
            [
              112.84582514876008,
              27.910319084665247
            ],
            [
              112.84565348738315,
              27.90937099328694
            ],
            [
              112.84483809584262,
              27.908991754408845
            ],
            [
              112.84406561964632,
              27.909864001840745
            ],
            [
              112.84277815931918,
              27.909977772726364
            ],
            [
              112.84226317518832,
              27.90944684090303
            ],
            [
              112.84204859846714,
              27.90857459010725
            ],
            [
              112.84222025984408,
              27.907323087549955
            ],
            [
              112.84243483656527,
              27.90637496991293
            ],
            [
              112.83925910109164,
              27.905540619518874
            ],
            [
              112.83892971684051,
              27.905458289792207
            ],
            [
              112.83866852971425,
              27.90505911732511
            ],
            [
              112.83882994764927,
              27.90463041175032
            ],
            [
              112.84063239210725,
              27.905199292503042
            ],
            [
              112.84209970429164,
              27.905658222145263
            ],
            [
              112.84288832102919,
              27.905609315753694
            ],
            [
              112.84272229645285,
              27.904276608073786
            ],
            [
              112.8425977780206,
              27.903322917271737
            ],
            [
              112.84114737623814,
              27.90227900623917
            ],
            [
              112.83973385407901,
              27.90191681934573
            ],
            [
              112.83872387123967,
              27.9019045923271
            ],
            [
              112.83821196212934,
              27.9011709686813
            ],
            [
              112.83738587808988,
              27.901065399378382
            ],
            [
              112.83426961779608,
              27.90088548859491
            ],
            [
              112.83138825149426,
              27.90088548859491
            ],
            [
              112.83115335750229,
              27.899833696490077
            ],
            [
              112.83118467670121,
              27.898781894162198
            ],
            [
              112.83022944113377,
              27.89846358354795
            ],
            [
              112.82991624914445,
              27.897093453259316
            ],
            [
              112.8292428863674,
              27.896636739308434
            ],
            [
              112.82838160839674,
              27.89595858473497
            ],
            [
              112.8273793940309,
              27.896346102154396
            ],
            [
              112.82628322206821,
              27.895681785728726
            ],
            [
              112.82520270970504,
              27.895709465661227
            ],
            [
              112.82449622267366,
              27.894769336797395
            ],
            [
              112.82316584700229,
              27.893783179881652
            ],
            [
              112.82236832220165,
              27.89547418600951
            ],
            [
              112.82011885756138,
              27.89408661373578
            ],
            [
              112.81904597395543,
              27.89393489691504
            ],
            [
              112.81805892103793,
              27.89389696767664
            ],
            [
              112.8167714607108,
              27.893100450599846
            ],
            [
              112.81665218864858,
              27.89387032013431
            ],
            [
              112.81641985680763,
              27.89523067931576
            ],
            [
              112.81598423460586,
              27.898297841526684
            ],
            [
              112.81202007256975,
              27.894601836158756
            ],
            [
              112.81106928588574,
              27.894317900265676
            ],
            [
              112.81004864478676,
              27.894157534834434
            ],
            [
              112.80884655638134,
              27.89397712344028
            ],
            [
              112.80771632307652,
              27.893024591524963
            ],
            [
              112.8069640405766,
              27.892132900830234
            ],
            [
              112.80564854760463,
              27.89237345338735
            ],
            [
              112.8053763766449,
              27.891511470916782
            ],
            [
              112.80306292348729,
              27.891290962670624
            ],
            [
              112.80294951892074,
              27.890809852210808
            ],
            [
              112.80347117992687,
              27.889386554581534
            ],
            [
              112.80505884385859,
              27.889065808870242
            ],
            [
              112.80501348203194,
              27.88730169047237
            ],
            [
              112.80478667289886,
              27.884936122962173
            ],
            [
              112.80426501189274,
              27.883512748116416
            ],
            [
              112.80454058760289,
              27.881872729258816
            ],
            [
              112.80634303206087,
              27.881986529572103
            ],
            [
              112.80771632307652,
              27.88244172962945
            ],
            [
              112.80981917494417,
              27.883010727010443
            ],
            [
              112.81080622786166,
              27.883807318321118
            ],
            [
              112.81222243422155,
              27.88403491476214
            ],
            [
              112.81350989454869,
              27.885248754368533
            ],
            [
              112.8154410850394,
              27.884945295742583
            ],
            [
              112.81741519087436,
              27.884641836266226
            ],
            [
              112.81900305861119,
              27.8844521736616
            ],
            [
              112.81994719618442,
              27.883579721401745
            ],
            [
              112.8194751273978,
              27.881986529572103
            ],
            [
              112.82136340254428,
              27.88179686231682
            ],
            [
              112.82269377821568,
              27.88179686231682
            ],
            [
              112.82372374647741,
              27.882593462556727
            ],
            [
              112.82471079939488,
              27.882138263137136
            ],
            [
              112.82518286818149,
              27.881493394017454
            ],
            [
              112.82707114332798,
              27.881683061804225
            ],
            [
              112.82827277296666,
              27.881683061804225
            ],
            [
              112.82981772535922,
              27.882176196495195
            ],
            [
              112.83247847670201,
              27.883086593102007
            ],
            [
              112.83350844496374,
              27.88460390377186
            ],
            [
              112.83380885237338,
              27.88585566906906
            ],
            [
              112.83453841322545,
              27.886803966478254
            ],
            [
              112.8344954978812,
              27.88797984373103
            ],
            [
              112.83655543440464,
              27.88805570634105
            ],
            [
              112.83677001112582,
              27.888966053515162
            ],
            [
              112.83891577833772,
              27.889459155038352
            ],
            [
              112.84003157728795,
              27.890862585542195
            ],
            [
              112.84007449263218,
              27.891962558894235
            ],
            [
              112.84050364607455,
              27.892872873215666
            ],
            [
              112.84170527571324,
              27.893972826140157
            ],
            [
              112.8421344291556,
              27.89484519464952
            ],
            [
              112.84346480482701,
              27.896020984559
            ],
            [
              112.84522433394078,
              27.897196761695227
            ],
            [
              112.84642596357945,
              27.895869270449708
            ],
            [
              112.84651179426791,
              27.894769336797395
            ],
            [
              112.84578223341585,
              27.8937452505901
            ],
            [
              112.84818549269322,
              27.893100450599846
            ],
            [
              112.84857173079135,
              27.89412454290772
            ],
            [
              112.85024542921667,
              27.89412454290772
            ],
            [
              112.85140414351108,
              27.893328027505618
            ],
            [
              112.85157580488804,
              27.89249357651208
            ],
            [
              112.85324950331334,
              27.891924628964716
            ],
            [
              112.8572835456717,
              27.894541762921975
            ],
            [
              112.8570260536063,
              27.895869270449708
            ],
            [
              112.85685439222937,
              27.898182887508455
            ],
            [
              112.85651106947545,
              27.90076194330635
            ],
            [
              112.85651106947545,
              27.902620342467856
            ],
            [
              112.85539527052524,
              27.903303011694803
            ],
            [
              112.85535235518101,
              27.90557854467636
            ],
            [
              112.85290618055942,
              27.905616469820586
            ],
            [
              112.85191912764195,
              27.90542684396658
            ],
            [
              112.85174746626498,
              27.904516635240824
            ],
            [
              112.85037417524937,
              27.903909825169464
            ],
            [
              112.84852881544714,
              27.903758122119854
            ],
            [
              112.84822840803744,
              27.90485796441037
            ],
            [
              112.84732718580844,
              27.905616469820586
            ],
            [
              112.84625430220248,
              27.90523721778021
            ],
            [
              112.84526724928502,
              27.905730245173444
            ],
            [
              112.84612555616975,
              27.906943841492264
            ],
            [
              112.84711260908725,
              27.90758855899925
            ],
            [
              112.8474988471854,
              27.908802134471188
            ],
            [
              112.84801383131625,
              27.910319084665247
            ],
            [
              112.84900088423372,
              27.910774165575106
            ],
            [
              112.84874339216832,
              27.911646398633863
            ],
            [
              112.84973044508578,
              27.91289785117121
            ],
            [
              112.85020251387242,
              27.913428766054764
            ],
            [
              112.84958658821324,
              27.9135957947843
            ]
          ]
        ]
      },
      "properties": {
        "name": "新城村",
        "type": "assistPolygon",
        "fill": "#9b59b6",
        "fill-opacity": 0.2,
        "stroke": "#9b59b6",
        "stroke-width": 2,
        "stroke-opacity": 0.8,
        "isAssistFeature": true,
        "sourceFileName": "辅助要素_姜畲镇_新城村.geojson",
        "assistFileId": "assist_file_1773973340408_13"
      },
      "id": "assist_polygon_1773802671049_reimported_1773973340408"
    },
    {
      "type": "Feature",
      "geometry": {
        "type": "Point",
        "coordinates": [
          112.83286471480012,
          27.892569435959118
        ]
      },
      "properties": {
        "iconType": "default",
        "iconColor": "#e74c3c",
        "iconSize": 1,
        "text": "新城村",
        "textColor": "#333333",
        "type": "assistPoint",
        "name": "辅助点_1",
        "isAssistFeature": true,
        "sourceFileName": "辅助要素_姜畲镇_新城村.geojson",
        "assistFileId": "assist_file_1773973340408_13"
      },
      "id": "assist_point_1773802676750_reimported_1773973340408"
    }
  ],
  "properties": {
    "fileName": "辅助要素_姜畲镇_新城村.geojson",
    "exportTime": "2026/3/20 10:34:49",
    "source": "GIS-APP 辅助元素导出"
  }
}