{
  "type": "FeatureCollection",
  "features": [
    {
      "type": "Feature",
      "geometry": {
        "type": "Polygon",
        "coordinates": [
          [
            [
              112.79545846332928,
              27.88398108823928
            ],
            [
              112.79480003211923,
              27.883289978858485
            ],
            [
              112.79397699310661,
              27.88303535850106
            ],
            [
              112.79368892945223,
              27.88216236987344
            ],
            [
              112.79381238530411,
              27.880998374089472
            ],
            [
              112.79253667483462,
              27.88074374834406
            ],
            [
              112.79228976313082,
              27.88001624291556
            ],
            [
              112.79121981241448,
              27.88001624291556
            ],
            [
              112.79035562145127,
              27.879325108232067
            ],
            [
              112.79046081370659,
              27.878943148464344
            ],
            [
              112.79043792535253,
              27.878815848274726
            ],
            [
              112.79101405266134,
              27.878706720829484
            ],
            [
              112.79121981241448,
              27.878051953849067
            ],
            [
              112.79093174876009,
              27.877360806631117
            ],
            [
              112.7909975059768,
              27.877150053194214
            ],
            [
              112.79093174876009,
              27.87619675924296
            ],
            [
              112.79006755779686,
              27.87561473085789
            ],
            [
              112.78969719024121,
              27.87514183049231
            ],
            [
              112.78817456806793,
              27.87488719097884
            ],
            [
              112.78784535246291,
              27.874159646213542
            ],
            [
              112.78883299927799,
              27.873577606883202
            ],
            [
              112.78973834219184,
              27.872886431116896
            ],
            [
              112.79142557216763,
              27.873795871998553
            ],
            [
              112.79278358653838,
              27.873686739495852
            ],
            [
              112.79344201774845,
              27.873104697624754
            ],
            [
              112.79368892945223,
              27.872158872914795
            ],
            [
              112.79344201774845,
              27.870776498870057
            ],
            [
              112.79426505676102,
              27.869648759612247
            ],
            [
              112.79496463992173,
              27.869430486142093
            ],
            [
              112.79796873231766,
              27.869576001837743
            ],
            [
              112.79763951671262,
              27.8686301463228
            ],
            [
              112.79763951671262,
              27.867575143892537
            ],
            [
              112.79772182061386,
              27.867102208434304
            ],
            [
              112.79957365839218,
              27.867247727256682
            ],
            [
              112.79953250644155,
              27.866338231410865
            ],
            [
              112.80068476105917,
              27.865683389675354
            ],
            [
              112.80006748179973,
              27.864446455600927
            ],
            [
              112.79932674668841,
              27.863718840727003
            ],
            [
              112.79821564402141,
              27.86433731368126
            ],
            [
              112.79862716352771,
              27.863718840727003
            ],
            [
              112.79953250644155,
              27.86280931526514
            ],
            [
              112.80023208960223,
              27.862845696430156
            ],
            [
              112.80097282471358,
              27.86390074490346
            ],
            [
              112.80245429493621,
              27.862772934087914
            ],
            [
              112.80368885345507,
              27.862845696430156
            ],
            [
              112.80578760293717,
              27.863718840727003
            ],
            [
              112.80726907315979,
              27.86390074490346
            ],
            [
              112.8085447836293,
              27.863827983269516
            ],
            [
              112.81014970970384,
              27.862845696430156
            ],
            [
              112.8110962045683,
              27.86259102801857
            ],
            [
              112.81290689039596,
              27.862409121643893
            ],
            [
              112.81234815909704,
              27.863462606264022
            ],
            [
              112.81240108431878,
              27.86397728706902
            ],
            [
              112.81315380209976,
              27.86477388070044
            ],
            [
              112.8133595618529,
              27.865283206666803
            ],
            [
              112.81504679182869,
              27.865101304810736
            ],
            [
              112.81496448792745,
              27.866592891017135
            ],
            [
              112.8160344386438,
              27.86779342110016
            ],
            [
              112.81591098279189,
              27.86859376709964
            ],
            [
              112.8161990464463,
              27.869175833204466
            ],
            [
              112.8174747569158,
              27.86903031697139
            ],
            [
              112.81809203617523,
              27.868120836087186
            ],
            [
              112.81928544274346,
              27.868229974196353
            ],
            [
              112.82054107083304,
              27.86897347518503
            ],
            [
              112.82089427185417,
              27.869312862017836
            ],
            [
              112.82106319408167,
              27.869584370718712
            ],
            [
              112.82097267271928,
              27.87041271329521
            ],
            [
              112.81982041810167,
              27.871540444601422
            ],
            [
              112.81953235444726,
              27.872413518841313
            ],
            [
              112.81887392323719,
              27.873213830713766
            ],
            [
              112.81735130106391,
              27.873359341328154
            ],
            [
              112.81726899716267,
              27.874232400909932
            ],
            [
              112.81805088422462,
              27.874559796439115
            ],
            [
              112.81924429079285,
              27.874232400909932
            ],
            [
              112.82014963370669,
              27.873577606883202
            ],
            [
              112.82064345711424,
              27.874596173659057
            ],
            [
              112.82002617785481,
              27.875796615064147
            ],
            [
              112.81870931543467,
              27.877542687905517
            ],
            [
              112.81776282057021,
              27.878233833962867
            ],
            [
              112.81755706081707,
              27.879034102835362
            ],
            [
              112.8184624037309,
              27.880780123487213
            ],
            [
              112.81943745212372,
              27.882063325734734
            ],
            [
              112.81986148638397,
              27.883575937216335
            ],
            [
              112.81904370602494,
              27.884392470916282
            ],
            [
              112.81677209391654,
              27.884660185543183
            ],
            [
              112.81534855032858,
              27.88486097107898
            ],
            [
              112.81356154880329,
              27.885208998459063
            ],
            [
              112.81221372561897,
              27.88399089773492
            ],
            [
              112.81083561427322,
              27.883776724762612
            ],
            [
              112.80986639310696,
              27.882973572343772
            ],
            [
              112.80838227319613,
              27.882585379872665
            ],
            [
              112.80742573580797,
              27.882363469845075
            ],
            [
              112.8064438308636,
              27.881983009490142
            ],
            [
              112.80456596485399,
              27.881822376822242
            ],
            [
              112.80582875488778,
              27.879979867515857
            ],
            [
              112.80517032367771,
              27.879325108232067
            ],
            [
              112.80582875488778,
              27.877979201718006
            ],
            [
              112.80512917172709,
              27.877469935432416
            ],
            [
              112.80405922101075,
              27.876887913888396
            ],
            [
              112.80282466249187,
              27.876924290326528
            ],
            [
              112.80150780007175,
              27.877651816523567
            ],
            [
              112.80076706496041,
              27.878379337834048
            ],
            [
              112.80027324155287,
              27.87921598129992
            ],
            [
              112.80006748179973,
              27.87987074124345
            ],
            [
              112.79899753108336,
              27.88027087037142
            ],
            [
              112.79870946742898,
              27.88125299923624
            ],
            [
              112.79751606086072,
              27.881689498095085
            ],
            [
              112.79685762965066,
              27.88198049635689
            ],
            [
              112.79673417379877,
              27.882853486450642
            ],
            [
              112.79755721281136,
              27.882926235307494
            ],
            [
              112.79743375695948,
              27.88336272742208
            ],
            [
              112.79644611014437,
              27.883326353146387
            ],
            [
              112.79545846332928,
              27.88398108823928
            ]
          ]
        ]
      },
      "properties": {
        "name": "白鹭湖村",
        "type": "assistPolygon",
        "fill": "#9b59b6",
        "fill-opacity": 0.2,
        "stroke": "#9b59b6",
        "stroke-width": 2,
        "stroke-opacity": 0.8,
        "isAssistFeature": true,
        "sourceFileName": "辅助要素_姜畲镇_大进村.geojson",
        "assistFileId": "assist_file_1773973273531_2"
      },
      "id": "assist_polygon_1773795666702_reimported_1773973273531"
    },
    {
      "type": "Feature",
      "geometry": {
        "type": "Polygon",
        "coordinates": [
          [
            [
              112.7272143693384,
              27.87132541396369
            ],
            [
              112.7272143693384,
              27.87083249563851
            ],
            [
              112.72837805386301,
              27.871025376989365
            ],
            [
              112.72927506068406,
              27.871496863290247
            ],
            [
              112.73019631093268,
              27.870789633069478
            ],
            [
              112.73184486400922,
              27.870682476572696
            ],
            [
              112.73184486400922,
              27.870318143690923
            ],
            [
              112.7329843051062,
              27.870275280918392
            ],
            [
              112.73286308796823,
              27.8699323781278
            ],
            [
              112.73429345019639,
              27.869846652260605
            ],
            [
              112.73390555535485,
              27.870532457299177
            ],
            [
              112.73405101592043,
              27.871925485419695
            ],
            [
              112.73521470044504,
              27.87224695090397
            ],
            [
              112.73579654270733,
              27.87203264068711
            ],
            [
              112.73560259528657,
              27.872589846369138
            ],
            [
              112.7359662467005,
              27.872975602470248
            ],
            [
              112.73800269461856,
              27.87318991082178
            ],
            [
              112.73841483288767,
              27.873361357197766
            ],
            [
              112.73882697115683,
              27.873704249135784
            ],
            [
              112.73940881341912,
              27.87415429315739
            ],
            [
              112.73974822140546,
              27.874325738007173
            ],
            [
              112.74020884652977,
              27.87441146033032
            ],
            [
              112.7400391425366,
              27.8751829581861
            ],
            [
              112.73979670826066,
              27.875675856717365
            ],
            [
              112.73965124769508,
              27.876125892548075
            ],
            [
              112.73894818829477,
              27.876211613446685
            ],
            [
              112.73856029345326,
              27.876254473870546
            ],
            [
              112.73841483288767,
              27.876490205898733
            ],
            [
              112.73858453688086,
              27.87674736752618
            ],
            [
              112.73785723405298,
              27.877111678786648
            ],
            [
              112.73725114836309,
              27.876940238346123
            ],
            [
              112.73698447065954,
              27.87664021692227
            ],
            [
              112.73679052323877,
              27.877325978955724
            ],
            [
              112.73645111525242,
              27.877304548957895
            ],
            [
              112.73645111525242,
              27.87646877573556
            ],
            [
              112.73577229927974,
              27.87646877573556
            ],
            [
              112.73582078613492,
              27.877090248746413
            ],
            [
              112.73594200327291,
              27.877475988821786
            ],
            [
              112.73574805585216,
              27.87766885834435
            ],
            [
              112.73601473355568,
              27.87805459635912
            ],
            [
              112.73569956899695,
              27.87835461386534
            ],
            [
              112.73589351641773,
              27.8788903573452
            ],
            [
              112.73620868097646,
              27.879104653995142
            ],
            [
              112.73584502956253,
              27.879468957326935
            ],
            [
              112.73582078613492,
              27.88015470145085
            ],
            [
              112.73468134503794,
              27.880497571884604
            ],
            [
              112.7342449633412,
              27.880883299825058
            ],
            [
              112.73402677249284,
              27.88139760160864
            ],
            [
              112.7336388776513,
              27.88178332634351
            ],
            [
              112.73405101592043,
              27.882019046338485
            ],
            [
              112.73402677249284,
              27.882426197848588
            ],
            [
              112.73431769362398,
              27.882919063418015
            ],
            [
              112.73376009478929,
              27.883326211544315
            ],
            [
              112.73332371309255,
              27.88375478686558
            ],
            [
              112.7326206536923,
              27.884054788581224
            ],
            [
              112.73203881142999,
              27.884247646388104
            ],
            [
              112.73186910743681,
              27.8847190751367
            ],
            [
              112.73106907432616,
              27.884740503667416
            ],
            [
              112.73029328464305,
              27.884933360253015
            ],
            [
              112.73019631093261,
              27.88671191035158
            ],
            [
              112.72983265951868,
              27.887033331951258
            ],
            [
              112.72891140927003,
              27.88696904770765
            ],
            [
              112.72813561958695,
              27.88692619152404
            ],
            [
              112.7274083167591,
              27.886369059593548
            ],
            [
              112.72745680361436,
              27.88416193184969
            ],
            [
              112.72801440244906,
              27.88375478686558
            ],
            [
              112.72808713273184,
              27.883219067448948
            ],
            [
              112.72806288930425,
              27.882661916444277
            ],
            [
              112.72842654071819,
              27.882319052862755
            ],
            [
              112.7277719681731,
              27.88206190446425
            ],
            [
              112.72799015902147,
              27.88176189722762
            ],
            [
              112.72842654071819,
              27.881676180721612
            ],
            [
              112.72859624471137,
              27.880283277990713
            ],
            [
              112.72922657382885,
              27.88015470145085
            ],
            [
              112.72927506068406,
              27.87949038689652
            ],
            [
              112.72992963322913,
              27.879533246023
            ],
            [
              112.72988114637396,
              27.879233231781555
            ],
            [
              112.72917808697365,
              27.878333184071025
            ],
            [
              112.72857200128378,
              27.877197398905153
            ],
            [
              112.72811137615943,
              27.876511636057657
            ],
            [
              112.72801440244906,
              27.875504414004354
            ],
            [
              112.72818410644223,
              27.874432890900508
            ],
            [
              112.72820834986982,
              27.873747110551733
            ],
            [
              112.72820834986982,
              27.873275634043708
            ],
            [
              112.72803864587667,
              27.87237553683059
            ],
            [
              112.72825683672502,
              27.872075502764375
            ],
            [
              112.7279416721663,
              27.87143256982459
            ],
            [
              112.7272143693384,
              27.87132541396369
            ]
          ]
        ]
      },
      "properties": {
        "name": "大进村",
        "type": "assistPolygon",
        "fill": "#9b59b6",
        "fill-opacity": 0.2,
        "stroke": "#9b59b6",
        "stroke-width": 2,
        "stroke-opacity": 0.8,
        "isAssistFeature": true,
        "sourceFileName": "辅助要素_姜畲镇_大进村.geojson",
        "assistFileId": "assist_file_1773973273531_2"
      },
      "id": "assist_polygon_1773796342085_reimported_1773973273531"
    },
    {
      "type": "Feature",
      "geometry": {
        "type": "Point",
        "coordinates": [
          112.80644603414723,
          27.87252265262657
        ]
      },
      "properties": {
        "iconType": "default",
        "iconColor": "#e74c3c",
        "iconSize": 1,
        "text": "白鹭湖村",
        "textColor": "#333333",
        "type": "assistPoint",
        "name": "辅助点_1",
        "isAssistFeature": true,
        "sourceFileName": "辅助要素_姜畲镇_大进村.geojson",
        "assistFileId": "assist_file_1773973273531_2"
      },
      "id": "assist_point_1773795682509_reimported_1773973273532"
    },
    {
      "type": "Feature",
      "geometry": {
        "type": "Point",
        "coordinates": [
          112.73754633688057,
          27.871077632181127
        ]
      },
      "properties": {
        "iconType": "default",
        "iconColor": "#e74c3c",
        "iconSize": 1,
        "type": "assistPoint",
        "name": "辅助点_2",
        "isAssistFeature": true,
        "sourceFileName": "辅助要素_姜畲镇_大进村.geojson",
        "assistFileId": "assist_file_1773973273531_2"
      },
      "id": "assist_point_1773796040020_reimported_1773973273532"
    },
    {
      "type": "Feature",
      "geometry": {
        "type": "Point",
        "coordinates": [
          112.73301653228512,
          27.877670047152876
        ]
      },
      "properties": {
        "iconType": "default",
        "iconColor": "#e74c3c",
        "iconSize": 1,
        "text": "大进村",
        "textColor": "#333333",
        "type": "assistPoint",
        "name": "辅助点_3",
        "isAssistFeature": true,
        "sourceFileName": "辅助要素_姜畲镇_大进村.geojson",
        "assistFileId": "assist_file_1773973273531_2"
      },
      "id": "assist_point_1773796382949_reimported_1773973273532"
    }
  ],
  "properties": {
    "fileName": "辅助要素_姜畲镇_大进村.geojson",
    "exportTime": "2026/3/20 10:34:37",
    "source": "GIS-APP 辅助元素导出"
  }
}