{
  "type": "FeatureCollection",
  "features": [
    {
      "type": "Feature",
      "geometry": {
        "type": "Polygon",
        "coordinates": [
          [
            [
              112.90853752359267,
              27.836948696141434
            ],
            [
              112.91078355331011,
              27.83742899842032
            ],
            [
              112.9112679910923,
              27.836494354191004
            ],
            [
              112.91167902921053,
              27.835793365735498
            ],
            [
              112.91242770578302,
              27.834443301135607
            ],
            [
              112.91257450511095,
              27.83317110950661
            ],
            [
              112.9131617024227,
              27.83167821255512
            ],
            [
              112.90953575902265,
              27.83022424100126
            ],
            [
              112.9089192018453,
              27.83028915086102
            ],
            [
              112.90909536103881,
              27.831353667022015
            ],
            [
              112.90918344063559,
              27.83231431898463
            ],
            [
              112.90900728144206,
              27.833404778474986
            ],
            [
              112.90853752359267,
              27.836948696141434
            ]
          ]
        ]
      },
      "properties": {
        "name": "菊花塘社区",
        "type": "assistPolygon",
        "fill": "#9b59b6",
        "fill-opacity": 0.2,
        "stroke": "#9b59b6",
        "stroke-width": 2,
        "stroke-opacity": 0.8
      },
      "id": "assist_polygon_1773883480351"
    },
    {
      "type": "Feature",
      "geometry": {
        "type": "Polygon",
        "coordinates": [
          [
            [
              112.90398247739469,
              27.837052494219733
            ],
            [
              112.90378827405314,
              27.835245225650425
            ],
            [
              112.90565632524329,
              27.83533518090644
            ],
            [
              112.90604473192637,
              27.835310647662197
            ],
            [
              112.90572105969046,
              27.836488237129217
            ],
            [
              112.90557309523976,
              27.8369788956352
            ],
            [
              112.90409345073273,
              27.83710973752875
            ],
            [
              112.90398247739469,
              27.837052494219733
            ]
          ]
        ]
      },
      "properties": {
        "name": "菊花塘社区",
        "type": "assistPolygon",
        "fill": "#9b59b6",
        "fill-opacity": 0.2,
        "stroke": "#9b59b6",
        "stroke-width": 2,
        "stroke-opacity": 0.8
      },
      "id": "assist_polygon_1773883494222"
    },
    {
      "type": "Feature",
      "geometry": {
        "type": "Polygon",
        "coordinates": [
          [
            [
              112.9047592907609,
              27.833936777131683
            ],
            [
              112.90484252076442,
              27.833339792253696
            ],
            [
              112.90597074970103,
              27.83353606161704
            ],
            [
              112.90610946637356,
              27.833192589998248
            ],
            [
              112.90672906751088,
              27.833331614355856
            ],
            [
              112.90652561639119,
              27.833822287135632
            ],
            [
              112.90629442193693,
              27.834247535083463
            ],
            [
              112.9047592907609,
              27.833936777131683
            ]
          ]
        ]
      },
      "properties": {
        "name": "菊花塘社区",
        "type": "assistPolygon",
        "fill": "#9b59b6",
        "fill-opacity": 0.2,
        "stroke": "#9b59b6",
        "stroke-width": 2,
        "stroke-opacity": 0.8
      },
      "id": "assist_polygon_1773883500758"
    },
    {
      "type": "Feature",
      "geometry": {
        "type": "Point",
        "coordinates": [
          112.91055764767275,
          27.83412486757723
        ]
      },
      "properties": {
        "iconType": "default",
        "iconColor": "#e74c3c",
        "iconSize": 1,
        "text": "菊花塘社区",
        "textColor": "#333333",
        "type": "assistPoint",
        "name": "辅助点_1"
      },
      "id": "assist_point_1773883506047"
    }
  ],
  "properties": {
    "description": "GIS-APP 辅助要素导出",
    "exportTime": "2026/3/19 09:25:28",
    "assistElements": {
      "lines": 0,
      "polygons": 3,
      "texts": 0,
      "points": 1
    }
  }
}