{
  "type": "FeatureCollection",
  "features": [
    {
      "type": "Feature",
      "geometry": {
        "type": "Polygon",
        "coordinates": [
          [
            [
              112.80663202884924,
              28.058173186245313
            ],
            [
              112.80547392318522,
              28.057151187329367
            ],
            [
              112.80574641863558,
              28.05552799261011
            ],
            [
              112.80629140953629,
              28.05372441417768
            ],
            [
              112.80567829477296,
              28.050057044727126
            ],
            [
              112.80520142773486,
              28.04578830965154
            ],
            [
              112.80465643683414,
              28.04194029057858
            ],
            [
              112.80424769365858,
              28.040076356850918
            ],
            [
              112.80308958799456,
              28.037550975765186
            ],
            [
              112.80206773005574,
              28.035025535400322
            ],
            [
              112.80179523460538,
              28.03328174436342
            ],
            [
              112.80084150052913,
              28.032199377092468
            ],
            [
              112.79852528920108,
              28.031537925067553
            ],
            [
              112.79879778465144,
              28.030275141730385
            ],
            [
              112.79968339486511,
              28.027749530604652
            ],
            [
              112.80029650962841,
              28.025825215681962
            ],
            [
              112.79879778465144,
              28.024502229216637
            ],
            [
              112.79661782104857,
              28.024081275567767
            ],
            [
              112.79525534379678,
              28.02329950013838
            ],
            [
              112.79477847675868,
              28.021555519106712
            ],
            [
              112.79654969718598,
              28.021675794567628
            ],
            [
              112.79763967898742,
              28.02149538132585
            ],
            [
              112.7970946880867,
              28.01963109345806
            ],
            [
              112.7990702801018,
              28.01764649348175
            ],
            [
              112.80131836756726,
              28.016744390491183
            ],
            [
              112.80220397778089,
              28.015661856926727
            ],
            [
              112.80179523460538,
              28.013256187822165
            ],
            [
              112.80356645503271,
              28.012173619193163
            ],
            [
              112.80370270275789,
              28.011091039682626
            ],
            [
              112.80445206524635,
              28.01024902587382
            ],
            [
              112.80670015271181,
              28.01229390513376
            ],
            [
              112.80860762086431,
              28.01253447661189
            ],
            [
              112.8100382219787,
              28.014639454123525
            ],
            [
              112.81085570832977,
              28.015240868712738
            ],
            [
              112.81180944240602,
              28.015240868712738
            ],
            [
              112.81303567193264,
              28.016142984298895
            ],
            [
              112.81378503442112,
              28.017706633412402
            ],
            [
              112.81412565373407,
              28.01872900709438
            ],
            [
              112.81371691055853,
              28.01981150982384
            ],
            [
              112.81637374119953,
              28.020112203094996
            ],
            [
              112.81623749347432,
              28.021375105663367
            ],
            [
              112.81616936961176,
              28.022878541786383
            ],
            [
              112.81691873210023,
              28.02360018366774
            ],
            [
              112.81943931501603,
              28.02311908961768
            ],
            [
              112.82012055364194,
              28.024442093081873
            ],
            [
              112.81950743887865,
              28.02570494485701
            ],
            [
              112.8184174570772,
              28.026546837809548
            ],
            [
              112.81943931501603,
              28.0272083205099
            ],
            [
              112.82012055364194,
              28.026667107693797
            ],
            [
              112.82175552634408,
              28.026606972768462
            ],
            [
              112.82264113655776,
              28.025885351044025
            ],
            [
              112.82407173767211,
              28.026125892156386
            ],
            [
              112.8235267467714,
              28.027990067551045
            ],
            [
              112.8235267467714,
              28.02931301114714
            ],
            [
              112.82427610925988,
              28.0299744768471
            ],
            [
              112.82563858651167,
              28.030215008820917
            ],
            [
              112.82836354101524,
              28.032439904093522
            ],
            [
              112.82822729329008,
              28.0341235780474
            ],
            [
              112.82802292170231,
              28.035626836101898
            ],
            [
              112.8291810273663,
              28.03791174812116
            ],
            [
              112.82809104556488,
              28.038873801822447
            ],
            [
              112.82700106376346,
              28.039535208751644
            ],
            [
              112.827409806939,
              28.04073775638662
            ],
            [
              112.82843166487785,
              28.041820037764325
            ],
            [
              112.82822729329008,
              28.043443439413778
            ],
            [
              112.82761417852677,
              28.044645943357622
            ],
            [
              112.82672856831311,
              28.04584843385723
            ],
            [
              112.82475297629802,
              28.045668061139367
            ],
            [
              112.82270926042032,
              28.044826317789642
            ],
            [
              112.8222323933822,
              28.04578830965154
            ],
            [
              112.82134678316854,
              28.046329426292615
            ],
            [
              112.82005242977934,
              28.046750292908953
            ],
            [
              112.81882620025272,
              28.046810416576832
            ],
            [
              112.81821308548942,
              28.048914723776733
            ],
            [
              112.81903057184049,
              28.049636191051945
            ],
            [
              112.819779934329,
              28.051860684678616
            ],
            [
              112.81991618205416,
              28.052942854127423
            ],
            [
              112.81868995252756,
              28.054626207175957
            ],
            [
              112.8178043423139,
              28.055828586073858
            ],
            [
              112.81691873210023,
              28.05685059756378
            ],
            [
              112.81732747527577,
              28.05775236433901
            ],
            [
              112.8156925025736,
              28.059074941925545
            ],
            [
              112.80663202884924,
              28.058173186245313
            ]
          ]
        ]
      },
      "properties": {
        "name": "龙头岭村",
        "type": "assistPolygon",
        "fill": "#9b59b6",
        "fill-opacity": 0.2,
        "stroke": "#9b59b6",
        "stroke-width": 2,
        "stroke-opacity": 0.8,
        "isAssistFeature": true,
        "sourceFileName": "辅助要素_鹤岭镇_龙头岭村.geojson",
        "assistFileId": "assist_file_1773974656606_16"
      },
      "id": "assist_imported_1773974656606_0"
    },
    {
      "type": "Feature",
      "geometry": {
        "type": "Point",
        "coordinates": [
          112.81419377759666,
          28.03700981496293
        ]
      },
      "properties": {
        "iconType": "default",
        "iconColor": "#e74c3c",
        "iconSize": 1,
        "text": "龙头岭村",
        "textColor": "#333333",
        "type": "assistPoint",
        "name": "辅助点_1",
        "isAssistFeature": true,
        "sourceFileName": "辅助要素_鹤岭镇_龙头岭村.geojson",
        "assistFileId": "assist_file_1773974656606_16"
      },
      "id": "assist_imported_1773974656607_1"
    }
  ],
  "properties": {
    "fileName": "辅助要素_鹤岭镇_龙头岭村.geojson",
    "exportTime": "2026/3/20 10:51:04",
    "source": "GIS-APP 辅助元素导出"
  }
}