{
  "type": "FeatureCollection",
  "features": [
    {
      "type": "Feature",
      "geometry": {
        "type": "Polygon",
        "coordinates": [
          [
            [
              112.8373266343015,
              27.868415299962322
            ],
            [
              112.8373266343015,
              27.86627735911577
            ],
            [
              112.83640696215654,
              27.86528365394132
            ],
            [
              112.8348060513857,
              27.864169488819442
            ],
            [
              112.83313701675225,
              27.86347689391644
            ],
            [
              112.83177453950046,
              27.863657571274373
            ],
            [
              112.83065049576773,
              27.863326329221422
            ],
            [
              112.83048018611126,
              27.862151917421656
            ],
            [
              112.82939020430983,
              27.86176044399383
            ],
            [
              112.82966269976018,
              27.86106783369634
            ],
            [
              112.83054830997385,
              27.86109794727956
            ],
            [
              112.83051424804258,
              27.859953625235562
            ],
            [
              112.82973082362277,
              27.859772941703227
            ],
            [
              112.82945832817242,
              27.858959862080695
            ],
            [
              112.82894739920299,
              27.858086547544914
            ],
            [
              112.82830022250839,
              27.85754448670818
            ],
            [
              112.82744867422605,
              27.856641045957033
            ],
            [
              112.8271080549131,
              27.8560989778925
            ],
            [
              112.82690368332533,
              27.854292064769467
            ],
            [
              112.82526871062318,
              27.854171602823882
            ],
            [
              112.82431497654693,
              27.853418712631665
            ],
            [
              112.8245193481347,
              27.85070826465278
            ],
            [
              112.82499621517283,
              27.85049744919249
            ],
            [
              112.8251665248293,
              27.84953371615481
            ],
            [
              112.82615432083685,
              27.84944336574344
            ],
            [
              112.82618838276814,
              27.84826880354531
            ],
            [
              112.82574557766131,
              27.84769657632755
            ],
            [
              112.82639275435591,
              27.845257047474362
            ],
            [
              112.83017362872963,
              27.845016103375727
            ],
            [
              112.83174047756917,
              27.84456433174816
            ],
            [
              112.83286452130191,
              27.84507633945057
            ],
            [
              112.83313701675227,
              27.847214698433902
            ],
            [
              112.83497636104217,
              27.84772669362478
            ],
            [
              112.8362707144314,
              27.848238686398574
            ],
            [
              112.83828036837777,
              27.84853985748937
            ],
            [
              112.83964284562956,
              27.848871144723205
            ],
            [
              112.8412437564004,
              27.84878079375983
            ],
            [
              112.84115184865098,
              27.850207453232656
            ],
            [
              112.84174407074977,
              27.850195552637317
            ],
            [
              112.84346689867353,
              27.850338359695314
            ],
            [
              112.84431063099491,
              27.850301436282308
            ],
            [
              112.84529242891266,
              27.850285360773213
            ],
            [
              112.84546743588096,
              27.85128047597901
            ],
            [
              112.84430933021693,
              27.851671987251933
            ],
            [
              112.84509275463671,
              27.854141487316582
            ],
            [
              112.84413902056043,
              27.854081256276856
            ],
            [
              112.84393464897269,
              27.85706265257781
            ],
            [
              112.84499056884283,
              27.857725173954933
            ],
            [
              112.8463189841633,
              27.85823711951855
            ],
            [
              112.8470342847205,
              27.858538262838394
            ],
            [
              112.84870331935394,
              27.857966089815434
            ],
            [
              112.85013392046832,
              27.859200775197266
            ],
            [
              112.84945268184242,
              27.85983316958078
            ],
            [
              112.85122390226975,
              27.860616128944002
            ],
            [
              112.85234794600248,
              27.860616128944002
            ],
            [
              112.85330168007873,
              27.861489423100167
            ],
            [
              112.8535401135978,
              27.86224225724267
            ],
            [
              112.85425541415499,
              27.862513276253907
            ],
            [
              112.8541872902924,
              27.86314565131127
            ],
            [
              112.85367636132298,
              27.864169488819442
            ],
            [
              112.85187107896435,
              27.86438027769401
            ],
            [
              112.8482945761784,
              27.86441039035691
            ],
            [
              112.84812426652167,
              27.86341666806355
            ],
            [
              112.84734084210189,
              27.86428993965511
            ],
            [
              112.8465914796134,
              27.86465129135891
            ],
            [
              112.8459443029188,
              27.864350165022742
            ],
            [
              112.84478619725478,
              27.865885900589333
            ],
            [
              112.84379840124723,
              27.868324965287087
            ],
            [
              112.8433215342091,
              27.870101533409667
            ],
            [
              112.84240186206415,
              27.870161755547443
            ],
            [
              112.84189093309472,
              27.869710088698227
            ],
            [
              112.84202718081993,
              27.86913797465303
            ],
            [
              112.84080095129329,
              27.8679335141575
            ],
            [
              112.83974503142315,
              27.8679335141575
            ],
            [
              112.83974503142315,
              27.868927195032796
            ],
            [
              112.8389616070034,
              27.86925841996623
            ],
            [
              112.83817818258362,
              27.869107863303825
            ],
            [
              112.8373266343015,
              27.868415299962322
            ]
          ]
        ]
      },
      "properties": {
        "name": "清亭村",
        "type": "assistPolygon",
        "fill": "#9b59b6",
        "fill-opacity": 0.2,
        "stroke": "#9b59b6",
        "stroke-width": 2,
        "stroke-opacity": 0.8,
        "isAssistFeature": true,
        "sourceFileName": "辅助要素_姜畲镇_青亭村.geojson",
        "assistFileId": "assist_file_1773973298071_7"
      },
      "id": "assist_polygon_1773798514788_reimported_1773973298071"
    },
    {
      "type": "Feature",
      "geometry": {
        "type": "Point",
        "coordinates": [
          112.83684976726312,
          27.858387691283056
        ]
      },
      "properties": {
        "iconType": "default",
        "iconColor": "#e74c3c",
        "iconSize": 1,
        "text": "清亭村",
        "textColor": "#333333",
        "type": "assistPoint",
        "name": "辅助点_1",
        "isAssistFeature": true,
        "sourceFileName": "辅助要素_姜畲镇_青亭村.geojson",
        "assistFileId": "assist_file_1773973298071_7"
      },
      "id": "assist_point_1773798521428_reimported_1773973298071"
    }
  ],
  "properties": {
    "fileName": "辅助要素_姜畲镇_青亭村.geojson",
    "exportTime": "2026/3/20 10:34:42",
    "source": "GIS-APP 辅助元素导出"
  }
}