{
  "type": "FeatureCollection",
  "features": [
    {
      "type": "Feature",
      "geometry": {
        "type": "Polygon",
        "coordinates": [
          [
            [
              112.74721708841479,
              27.892381267920058
            ],
            [
              112.74562138966745,
              27.89247128849857
            ],
            [
              112.7450442220354,
              27.891931163904488
            ],
            [
              112.74419544610596,
              27.891901156903586
            ],
            [
              112.74402569092008,
              27.89010072162705
            ],
            [
              112.74266764943295,
              27.890520825869928
            ],
            [
              112.74158121624325,
              27.8907608847053
            ],
            [
              112.73964600712411,
              27.89064085535412
            ],
            [
              112.73872932912029,
              27.890280766502173
            ],
            [
              112.73774474904215,
              27.890520825869928
            ],
            [
              112.737337336596,
              27.891631093521056
            ],
            [
              112.73628485444348,
              27.891931163904488
            ],
            [
              112.73594534407171,
              27.890490818478057
            ],
            [
              112.73526632332813,
              27.890010699077195
            ],
            [
              112.73506261710507,
              27.891391036615403
            ],
            [
              112.73438359636152,
              27.890520825869928
            ],
            [
              112.73448544947304,
              27.889800646169775
            ],
            [
              112.73397618391537,
              27.889260508250615
            ],
            [
              112.73434964532434,
              27.888240240384093
            ],
            [
              112.73479100880765,
              27.886829854266125
            ],
            [
              112.73601324614607,
              27.886769837428062
            ],
            [
              112.73614905029478,
              27.886109650013424
            ],
            [
              112.73791450422803,
              27.885539484915896
            ],
            [
              112.73801635733957,
              27.884009026914228
            ],
            [
              112.73893303534336,
              27.883288803899205
            ],
            [
              112.73815216148827,
              27.88232849909447
            ],
            [
              112.73805030837674,
              27.881158116100053
            ],
            [
              112.73862747600877,
              27.880948046018645
            ],
            [
              112.7382540145998,
              27.879897689499316
            ],
            [
              112.73838981874852,
              27.878817312166404
            ],
            [
              112.73811821045109,
              27.877736924056734
            ],
            [
              112.73815216148827,
              27.877106692682773
            ],
            [
              112.73883118223185,
              27.87728675916378
            ],
            [
              112.73889908430617,
              27.878817312166404
            ],
            [
              112.73995156645871,
              27.87920744966867
            ],
            [
              112.74035897890484,
              27.87845718399393
            ],
            [
              112.74154726520608,
              27.878487194720677
            ],
            [
              112.74192072661502,
              27.878817312166404
            ],
            [
              112.74375408262266,
              27.877796945901096
            ],
            [
              112.74355037639958,
              27.876836592399968
            ],
            [
              112.74599485107639,
              27.87659650269427
            ],
            [
              112.74626645937381,
              27.875456069324983
            ],
            [
              112.74721708841479,
              27.87596626468492
            ],
            [
              112.74697943115454,
              27.877166714876367
            ],
            [
              112.74660596974559,
              27.87803703294597
            ],
            [
              112.74670782285712,
              27.87920744966867
            ],
            [
              112.74759054982376,
              27.88028782310994
            ],
            [
              112.74942390583136,
              27.88028782310994
            ],
            [
              112.74955970998008,
              27.879027386380713
            ],
            [
              112.75010292657491,
              27.87926747069814
            ],
            [
              112.75061219213259,
              27.880167782148646
            ],
            [
              112.75115540872744,
              27.880677955315164
            ],
            [
              112.75210603776843,
              27.880797995710978
            ],
            [
              112.75169862532228,
              27.88001773075996
            ],
            [
              112.7513591149505,
              27.87905739694949
            ],
            [
              112.75241159710303,
              27.87812706545057
            ],
            [
              112.75349803029272,
              27.877826956810807
            ],
            [
              112.75343012821837,
              27.87674655882266
            ],
            [
              112.75281900954917,
              27.875846218934072
            ],
            [
              112.7526153033261,
              27.87518596492633
            ],
            [
              112.75329432406961,
              27.873445275979705
            ],
            [
              112.75404124688755,
              27.872995093251703
            ],
            [
              112.75359988340423,
              27.872124734673122
            ],
            [
              112.75461841451958,
              27.871494470647875
            ],
            [
              112.75509372904008,
              27.87053406127346
            ],
            [
              112.75662152571307,
              27.869963814179357
            ],
            [
              112.75716474230794,
              27.868823310987565
            ],
            [
              112.75865858794376,
              27.868433136087063
            ],
            [
              112.75913390246424,
              27.86780285058768
            ],
            [
              112.76123886676929,
              27.866992478130058
            ],
            [
              112.76222344684746,
              27.867382658218006
            ],
            [
              112.76504138293323,
              27.867382658218006
            ],
            [
              112.7661278161229,
              27.866932450299515
            ],
            [
              112.7681309273164,
              27.86732263060361
            ],
            [
              112.769387115692,
              27.866902436371788
            ],
            [
              112.77037169577015,
              27.867292616783928
            ],
            [
              112.77152603103421,
              27.867262602955947
            ],
            [
              112.77210319866624,
              27.868373109054616
            ],
            [
              112.77309773828061,
              27.869255217321978
            ],
            [
              112.77379787164556,
              27.870694578719323
            ],
            [
              112.77425377244133,
              27.871126383409916
            ],
            [
              112.77560015549557,
              27.871734571661264
            ],
            [
              112.77641058284648,
              27.87304622718065
            ],
            [
              112.77723766559255,
              27.87372023489668
            ],
            [
              112.77768997646929,
              27.87402867770713
            ],
            [
              112.7778967471558,
              27.87420003444457
            ],
            [
              112.77761243746176,
              27.87507966142978
            ],
            [
              112.77708258757757,
              27.87536525307084
            ],
            [
              112.77624522520196,
              27.87551609243326
            ],
            [
              112.77577734761894,
              27.875582302214482
            ],
            [
              112.77536249823531,
              27.875936253259695
            ],
            [
              112.77505693890072,
              27.87659650269427
            ],
            [
              112.77441186919434,
              27.877166714876367
            ],
            [
              112.7745137223059,
              27.878187087078743
            ],
            [
              112.77349519119055,
              27.87863724822985
            ],
            [
              112.77305382770723,
              27.879657606578917
            ],
            [
              112.77132232481114,
              27.880437874124425
            ],
            [
              112.77067725510477,
              27.88136818577405
            ],
            [
              112.76972662606377,
              27.88136818577405
            ],
            [
              112.76948896880353,
              27.882748633494387
            ],
            [
              112.76901616379072,
              27.882927758605902
            ],
            [
              112.76840253561384,
              27.88310874739699
            ],
            [
              112.767859319019,
              27.883738943844975
            ],
            [
              112.76745190657284,
              27.88298870956251
            ],
            [
              112.76565250160243,
              27.88394900851263
            ],
            [
              112.76493952982169,
              27.88481927208028
            ],
            [
              112.7636833414461,
              27.884549191031923
            ],
            [
              112.7624611041077,
              27.884639218122885
            ],
            [
              112.7613407198808,
              27.88448917292969
            ],
            [
              112.75913390246424,
              27.886409735700894
            ],
            [
              112.75760610579124,
              27.887400012568733
            ],
            [
              112.75733449749382,
              27.886709820556717
            ],
            [
              112.75665547675027,
              27.886049632776135
            ],
            [
              112.7558067008208,
              27.88493930788556
            ],
            [
              112.75461841451958,
              27.884999325738306
            ],
            [
              112.75329432406961,
              27.884789263108175
            ],
            [
              112.75288691162352,
              27.885179379096925
            ],
            [
              112.75271715643761,
              27.886109650013424
            ],
            [
              112.75237764606582,
              27.8877000946799
            ],
            [
              112.75034058383515,
              27.888570328098936
            ],
            [
              112.74918624857109,
              27.88920049275994
            ],
            [
              112.74908439545958,
              27.890310773952294
            ],
            [
              112.74813376641858,
              27.89094092848248
            ],
            [
              112.74714918634041,
              27.891060957500926
            ],
            [
              112.74721708841479,
              27.892381267920058
            ]
          ]
        ]
      },
      "properties": {
        "name": "新和村",
        "type": "assistPolygon",
        "fill": "#9b59b6",
        "fill-opacity": 0.2,
        "stroke": "#9b59b6",
        "stroke-width": 2,
        "stroke-opacity": 0.8,
        "isAssistFeature": true,
        "sourceFileName": "辅助要素_姜畲镇_新和村.geojson",
        "assistFileId": "assist_file_1773973345422_14"
      },
      "id": "assist_polygon_1773802905622_reimported_1773973345422"
    },
    {
      "type": "Feature",
      "geometry": {
        "type": "Point",
        "coordinates": [
          112.75689313401051,
          27.879687616973058
        ]
      },
      "properties": {
        "iconType": "default",
        "iconColor": "#e74c3c",
        "iconSize": 1,
        "text": "新和村",
        "textColor": "#333333",
        "type": "assistPoint",
        "name": "辅助点_1",
        "isAssistFeature": true,
        "sourceFileName": "辅助要素_姜畲镇_新和村.geojson",
        "assistFileId": "assist_file_1773973345422_14"
      },
      "id": "assist_point_1773802910934_reimported_1773973345422"
    }
  ],
  "properties": {
    "fileName": "辅助要素_姜畲镇_新和村.geojson",
    "exportTime": "2026/3/20 10:34:51",
    "source": "GIS-APP 辅助元素导出"
  }
}