{
  "type": "FeatureCollection",
  "features": [
    {
      "type": "Feature",
      "geometry": {
        "type": "Polygon",
        "coordinates": [
          [
            [
              112.85312152422662,
              27.970323386710888
            ],
            [
              112.85285343443815,
              27.96936148645689
            ],
            [
              112.85353203671522,
              27.9681701981019
            ],
            [
              112.85421063899226,
              27.967622645005065
            ],
            [
              112.85464628489855,
              27.966875304537396
            ],
            [
              112.85610402312334,
              27.966919701145443
            ],
            [
              112.85630509046469,
              27.967511654173762
            ],
            [
              112.85620755894453,
              27.96858184772917
            ],
            [
              112.85712213461022,
              27.969098811421773
            ],
            [
              112.85893299442832,
              27.96911496649726
            ],
            [
              112.85843912356883,
              27.97028620302507
            ],
            [
              112.85518323419896,
              27.970859700412035
            ],
            [
              112.85333579135424,
              27.970552758527745
            ],
            [
              112.85298825260129,
              27.97067391990217
            ],
            [
              112.85312152422662,
              27.970323386710888
            ]
          ]
        ]
      },
      "properties": {
        "assistFileId": "assist_layer_default",
        "sourceFileName": "辅助元素图层",
        "name": "红旗社区",
        "type": "assistPolygon",
        "fill": "#9b59b6",
        "fill-opacity": 0.2,
        "stroke": "#9b59b6",
        "stroke-width": 2,
        "stroke-opacity": 0.8
      },
      "id": "assist_polygon_1774169948687"
    },
    {
      "type": "Feature",
      "geometry": {
        "type": "Polygon",
        "coordinates": [
          [
            [
              112.85455605722025,
              27.965484109154076
            ],
            [
              112.85457012295073,
              27.963247895828317
            ],
            [
              112.8546123201422,
              27.961048907540956
            ],
            [
              112.85655339094932,
              27.961148297808833
            ],
            [
              112.85686283702003,
              27.9626267172368
            ],
            [
              112.85675031117613,
              27.963769683082205
            ],
            [
              112.85677844263712,
              27.964664169648202
            ],
            [
              112.85641273364448,
              27.96540956945647
            ],
            [
              112.85523121228358,
              27.96554622552948
            ],
            [
              112.85455605722025,
              27.965484109154076
            ]
          ]
        ]
      },
      "properties": {
        "assistFileId": "assist_layer_default",
        "sourceFileName": "辅助元素图层",
        "name": "跃进社区",
        "type": "assistPolygon",
        "fill": "#c0392b",
        "fill-opacity": 0.4,
        "stroke": "#c0392b",
        "stroke-opacity": 1,
        "stroke-width": 3
      },
      "id": "assist_polygon_1774169965647"
    },
    {
      "type": "Feature",
      "geometry": {
        "type": "Point",
        "coordinates": [
          112.85506515227753,
          27.96909945262476
        ]
      },
      "properties": {
        "iconType": "default",
        "iconColor": "#e74c3c",
        "iconSize": 1,
        "text": "红旗社区",
        "textColor": "#333333",
        "assistFileId": "assist_layer_default",
        "sourceFileName": "辅助元素图层",
        "type": "assistPoint"
      },
      "id": "assist_point_1774169990520"
    },
    {
      "type": "Feature",
      "geometry": {
        "type": "Point",
        "coordinates": [
          112.85553207310835,
          27.963542967198592
        ]
      },
      "properties": {
        "iconType": "default",
        "iconColor": "#e74c3c",
        "iconSize": 1,
        "text": "跃进社区",
        "textColor": "#333333",
        "assistFileId": "assist_layer_default",
        "sourceFileName": "辅助元素图层",
        "type": "assistPoint"
      },
      "id": "assist_point_1774169995823"
    }
  ],
  "properties": {
    "fileName": "辅助元素图层",
    "exportTime": "2026/3/22 17:00:05",
    "source": "GIS-APP 辅助元素导出"
  }
}