{
  "type": "FeatureCollection",
  "features": [
    {
      "type": "Feature",
      "geometry": {
        "type": "Polygon",
        "coordinates": [
          [
            [
              113.01262598772671,
              27.966687520673872
            ],
            [
              113.01249447757061,
              27.959209947484396
            ],
            [
              113.01252735510963,
              27.95826613929161
            ],
            [
              113.01295065342457,
              27.95823709890867
            ],
            [
              113.0132260028139,
              27.958483941914693
            ],
            [
              113.0135260103575,
              27.958465791712882
            ],
            [
              113.01373560466878,
              27.95831332989725
            ],
            [
              113.01418356113798,
              27.9582988097131
            ],
            [
              113.01461096914531,
              27.958451271549237
            ],
            [
              113.01510824192309,
              27.958451271549237
            ],
            [
              113.0157945605502,
              27.958389560832003
            ],
            [
              113.01623429763468,
              27.9583351101698
            ],
            [
              113.01658096876874,
              27.959476735470062
            ],
            [
              113.01845143121393,
              27.959846292685924
            ],
            [
              113.01892725060787,
              27.959983970540918
            ],
            [
              113.01806585342918,
              27.96141146216101
            ],
            [
              113.0172700865117,
              27.962237514677966
            ],
            [
              113.01685169359632,
              27.962476633963476
            ],
            [
              113.01631024394112,
              27.96225925281675
            ],
            [
              113.01627742881051,
              27.963114282801428
            ],
            [
              113.01529297489199,
              27.965708315371472
            ],
            [
              113.01486637819397,
              27.966809673471374
            ],
            [
              113.01262598772671,
              27.966687520673872
            ]
          ]
        ]
      },
      "properties": {
        "assistFileId": "assist_file_default_1773890505028",
        "sourceFileName": "辅助元素_1.geojson",
        "name": "大塘社区",
        "type": "assistPolygon",
        "fill": "#9b59b6",
        "fill-opacity": 0.2,
        "stroke": "#9b59b6",
        "stroke-width": 2,
        "stroke-opacity": 0.8
      },
      "id": "assist_polygon_1773890619307"
    },
    {
      "type": "Feature",
      "geometry": {
        "type": "Point",
        "coordinates": [
          113.01399054232786,
          27.96184109811152
        ]
      },
      "properties": {
        "iconType": "default",
        "iconColor": "#e74c3c",
        "iconSize": 1,
        "text": "大塘社区",
        "textColor": "#333333",
        "assistFileId": "assist_file_default_1773890505028",
        "sourceFileName": "辅助元素_1.geojson",
        "type": "assistPoint",
        "name": "辅助点_1"
      },
      "id": "assist_point_1773890506564"
    },
    {
      "type": "Feature",
      "geometry": {
        "type": "Point",
        "coordinates": [
          113.01440696636534,
          27.962665030603176
        ]
      },
      "properties": {
        "iconType": "default",
        "iconColor": "#e74c3c",
        "iconSize": 1,
        "text": "大塘社区",
        "textColor": "#333333",
        "assistFileId": "assist_file_default_1773890505028",
        "sourceFileName": "辅助元素_1.geojson",
        "type": "assistPoint",
        "name": "辅助点_2"
      },
      "id": "assist_point_1773890623461"
    }
  ],
  "properties": {
    "description": "GIS-APP 辅助要素导出",
    "exportTime": "2026/3/19 11:23:46",
    "assistElements": {
      "lines": 3,
      "polygons": 1,
      "texts": 0,
      "points": 2
    },
    "fileCount": 1
  }
}