{
  "type": "FeatureCollection",
  "features": [
    {
      "type": "Feature",
      "geometry": {
        "type": "Polygon",
        "coordinates": [
          [
            [
              113.06809518458924,
              27.953216294188394
            ],
            [
              113.06521985652527,
              27.952382305324463
            ],
            [
              113.06423280360778,
              27.95135876473276
            ],
            [
              113.06225869777282,
              27.950638489611407
            ],
            [
              113.06067083003602,
              27.9504489427283
            ],
            [
              113.05989835383971,
              27.948856735774584
            ],
            [
              113.05770967128356,
              27.94923583479769
            ],
            [
              113.05564973476012,
              27.948136443964245
            ],
            [
              113.0548343432196,
              27.946620024449587
            ],
            [
              113.05346105220399,
              27.94589971772119
            ],
            [
              113.05204484584412,
              27.946089272589163
            ],
            [
              113.05062863948426,
              27.94627882712446
            ],
            [
              113.0494699251898,
              27.94597553970827
            ],
            [
              113.04805371882995,
              27.946695845931018
            ],
            [
              113.04565045955262,
              27.946240916243994
            ],
            [
              113.04401967647156,
              27.946051361642176
            ],
            [
              113.04075811030945,
              27.946809578053376
            ],
            [
              113.0383548510321,
              27.946127183522833
            ],
            [
              113.03766820552427,
              27.945103583642776
            ],
            [
              113.03599450709899,
              27.94658211368892
            ],
            [
              113.03543660762392,
              27.948174354179287
            ],
            [
              113.0339774859198,
              27.94855345559789
            ],
            [
              113.0323037874945,
              27.94825017456948
            ],
            [
              113.03105924251159,
              27.94874300580814
            ],
            [
              113.03024385097106,
              27.947833161764734
            ],
            [
              113.0290422213324,
              27.947871072086258
            ],
            [
              113.02899930598817,
              27.946961220696807
            ],
            [
              113.02839849116883,
              27.94627882712446
            ],
            [
              113.0279264223822,
              27.945558518120464
            ],
            [
              113.0278405916937,
              27.944648647248854
            ],
            [
              113.02693936946473,
              27.94559642924041
            ],
            [
              113.02655313136657,
              27.944724470114238
            ],
            [
              113.0252227556952,
              27.944155797326417
            ],
            [
              113.02509400966247,
              27.943245914638297
            ],
            [
              113.02599523189147,
              27.942790970420006
            ],
            [
              113.02616689326842,
              27.940933261642527
            ],
            [
              113.02505109431823,
              27.940326655938932
            ],
            [
              113.02509400966247,
              27.93884804026625
            ],
            [
              113.0266818773993,
              27.93873429976088
            ],
            [
              113.02779767634946,
              27.938203509152572
            ],
            [
              113.02788350703796,
              27.936649035941244
            ],
            [
              113.02985761287293,
              27.937255662294405
            ],
            [
              113.03127381923277,
              27.9350945403651
            ],
            [
              113.02990052821715,
              27.93429832665298
            ],
            [
              113.02998635890563,
              27.933198783786295
            ],
            [
              113.03058717372497,
              27.93297129076184
            ],
            [
              113.0317458880194,
              27.931947566225205
            ],
            [
              113.03204629542907,
              27.931265077813038
            ],
            [
              113.03097341182313,
              27.930734250512657
            ],
            [
              113.0290422213324,
              27.92849716395712
            ],
            [
              113.03045842769227,
              27.928231743835383
            ],
            [
              113.03135964992126,
              27.928914251402986
            ],
            [
              113.03359124782166,
              27.928914251402986
            ],
            [
              113.03436372401794,
              27.9292555035706
            ],
            [
              113.03500745418152,
              27.927321727041118
            ],
            [
              113.03629491450866,
              27.926449620423824
            ],
            [
              113.03809735896667,
              27.926373784733272
            ],
            [
              113.03788278224549,
              27.92572917921538
            ],
            [
              113.0391273272284,
              27.926297948989514
            ],
            [
              113.03904149653992,
              27.925425834112133
            ],
            [
              113.03968522670347,
              27.925046651536007
            ],
            [
              113.0405864489325,
              27.925160406448512
            ],
            [
              113.04101560237488,
              27.926601291645326
            ],
            [
              113.0402431261786,
              27.927511314505097
            ],
            [
              113.0407151949652,
              27.927928405755253
            ],
            [
              113.04363343837342,
              27.92709422164542
            ],
            [
              113.04483506801209,
              27.927662984236832
            ],
            [
              113.04663751247008,
              27.92709422164542
            ],
            [
              113.04874036433776,
              27.926449620423824
            ],
            [
              113.05028531673035,
              27.92656337385992
            ],
            [
              113.05041406276308,
              27.927397562066616
            ],
            [
              113.05170152309022,
              27.927776736395955
            ],
            [
              113.0528173220404,
              27.928686749359315
            ],
            [
              113.05234525325379,
              27.927170056830533
            ],
            [
              113.05234525325379,
              27.926487538249162
            ],
            [
              113.05187318446715,
              27.925767097293416
            ],
            [
              113.05431935908872,
              27.924857059749172
            ],
            [
              113.05419061305602,
              27.92572917921538
            ],
            [
              113.05492017390809,
              27.92709422164542
            ],
            [
              113.05659387233338,
              27.927511314505097
            ],
            [
              113.05766675593932,
              27.927700901636527
            ],
            [
              113.05680844905456,
              27.92883841744161
            ],
            [
              113.05925462367613,
              27.929331337239304
            ],
            [
              113.06105706813415,
              27.928990085311113
            ],
            [
              113.06195829036318,
              27.929369254053682
            ],
            [
              113.06384656550965,
              27.928572998157904
            ],
            [
              113.06380365016541,
              27.92997592127493
            ],
            [
              113.06298825862488,
              27.930810083143783
            ],
            [
              113.06427571895202,
              27.931530490485486
            ],
            [
              113.06401822688659,
              27.93206131387484
            ],
            [
              113.06135747554382,
              27.932933375211192
            ],
            [
              113.06320283534608,
              27.933957090408924
            ],
            [
              113.06526277186951,
              27.934942881062753
            ],
            [
              113.06534860255805,
              27.935928662723143
            ],
            [
              113.06470487239442,
              27.93710400602542
            ],
            [
              113.06449029567321,
              27.938279336541967
            ],
            [
              113.06530568721375,
              27.939303001090224
            ],
            [
              113.06637857081975,
              27.93934091440579
            ],
            [
              113.06813809993352,
              27.94282888251142
            ],
            [
              113.06620690944274,
              27.940933261642527
            ],
            [
              113.06736562373717,
              27.942298112021263
            ],
            [
              113.06908223750678,
              27.943321738488393
            ],
            [
              113.07157132747258,
              27.947491968272203
            ],
            [
              113.07079885127631,
              27.948743005808154
            ],
            [
              113.07187173488225,
              27.95014566702328
            ],
            [
              113.06809518458924,
              27.953216294188394
            ]
          ]
        ]
      },
      "properties": {
        "assistFileId": "assist_file_default_1773899943515",
        "sourceFileName": "辅助元素_1.geojson",
        "name": "红旗村",
        "type": "assistPolygon",
        "fill": "#9b59b6",
        "fill-opacity": 0.2,
        "stroke": "#9b59b6",
        "stroke-width": 2,
        "stroke-opacity": 0.8
      },
      "id": "assist_polygon_1773899943515"
    },
    {
      "type": "Feature",
      "geometry": {
        "type": "Point",
        "coordinates": [
          113.0477103960761,
          27.93680069284885
        ]
      },
      "properties": {
        "iconType": "default",
        "iconColor": "#e74c3c",
        "iconSize": 1,
        "text": "红旗村",
        "textColor": "#333333",
        "assistFileId": "assist_file_default_1773899943515",
        "sourceFileName": "辅助元素_1.geojson",
        "type": "assistPoint",
        "name": "辅助点_1"
      },
      "id": "assist_point_1773900004547"
    }
  ],
  "properties": {
    "description": "GIS-APP 辅助要素导出",
    "exportTime": "2026/3/19 14:00:13",
    "assistElements": {
      "lines": 0,
      "polygons": 1,
      "texts": 0,
      "points": 1
    },
    "fileCount": 1
  }
}