{
  "type": "FeatureCollection",
  "features": [
    {
      "type": "Feature",
      "geometry": {
        "type": "Polygon",
        "coordinates": [
          [
            [
              112.98254128221315,
              27.921043532826587
            ],
            [
              112.98493279642733,
              27.920897799837576
            ],
            [
              112.98773664067843,
              27.920752066652156
            ],
            [
              112.9883963687375,
              27.919804796158743
            ],
            [
              112.992354737092,
              27.920606333270285
            ],
            [
              112.99441638727662,
              27.92228225530191
            ],
            [
              112.99573584339478,
              27.92395815135407
            ],
            [
              112.99722023152773,
              27.92461392969365
            ],
            [
              112.99870461966067,
              27.926362652483533
            ],
            [
              113.00117859988222,
              27.927747037961993
            ],
            [
              113.00315778405945,
              27.929058544690932
            ],
            [
              113.0046421721924,
              27.929422849291342
            ],
            [
              113.00703368640657,
              27.929422849291342
            ],
            [
              113.00917780259857,
              27.92927712759854
            ],
            [
              113.01090958875368,
              27.92876710012645
            ],
            [
              113.01107452076846,
              27.92730986551591
            ],
            [
              113.01107452076846,
              27.925779748030223
            ],
            [
              113.01082712274628,
              27.92475965767332
            ],
            [
              113.01222904487183,
              27.92359382833537
            ],
            [
              113.01429069505647,
              27.922063658249343
            ],
            [
              113.01684714128542,
              27.921845060754762
            ],
            [
              113.0169296072928,
              27.923083774046475
            ],
            [
              113.01890879147005,
              27.92395815135407
            ],
            [
              113.0208879756473,
              27.92381242229392
            ],
            [
              113.02261976180239,
              27.92352096358431
            ],
            [
              113.02393921792056,
              27.923010908951625
            ],
            [
              113.02451647997226,
              27.92475965767332
            ],
            [
              113.02690799418643,
              27.92475965767332
            ],
            [
              113.02781512026765,
              27.926435515319184
            ],
            [
              113.02929950840058,
              27.927382727713052
            ],
            [
              113.03028910048923,
              27.928548516187377
            ],
            [
              113.03144362459261,
              27.92927712759854
            ],
            [
              113.03235075067384,
              27.930005734097847
            ],
            [
              113.03325787675509,
              27.93088005541324
            ],
            [
              113.03556692496187,
              27.9307343356852
            ],
            [
              113.0343299348511,
              27.93160865110613
            ],
            [
              113.03408253682893,
              27.933357260727433
            ],
            [
              113.03383513880678,
              27.934522984755517
            ],
            [
              113.03325787675509,
              27.935397269523676
            ],
            [
              113.032598148696,
              27.936125834759977
            ],
            [
              113.03144362459261,
              27.936781539272303
            ],
            [
              113.03020663448184,
              27.93802008138286
            ],
            [
              113.02913457638581,
              27.938311500992526
            ],
            [
              113.0281449842972,
              27.938602919816148
            ],
            [
              113.02806251828981,
              27.939622879508434
            ],
            [
              113.02888717836368,
              27.941298506669114
            ],
            [
              113.02872224634888,
              27.942172736609066
            ],
            [
              113.02806251828981,
              27.94297410783865
            ],
            [
              113.02905211037843,
              27.943702621979114
            ],
            [
              113.02995923645967,
              27.943192662596715
            ],
            [
              113.03111376056307,
              27.944722533521016
            ],
            [
              113.03160855660738,
              27.945960984588652
            ],
            [
              113.03358774078464,
              27.94676232771225
            ],
            [
              113.03581432298402,
              27.946835176792305
            ],
            [
              113.03573185697664,
              27.948000755389984
            ],
            [
              113.03507212891755,
              27.949093473900163
            ],
            [
              113.03548445895449,
              27.950186181353473
            ],
            [
              113.03268061470338,
              27.950186181353473
            ],
            [
              113.03160855660738,
              27.9505504147141
            ],
            [
              113.02929950840058,
              27.95098749312514
            ],
            [
              113.02863978034152,
              27.950113334533924
            ],
            [
              113.02723785821597,
              27.950113334533924
            ],
            [
              113.02525867403871,
              27.94931201627537
            ],
            [
              113.02402168392791,
              27.94887493108267
            ],
            [
              113.02311455784671,
              27.94756366489004
            ],
            [
              113.021465237699,
              27.94676232771225
            ],
            [
              113.0187438594553,
              27.946616629404772
            ],
            [
              113.01569261718201,
              27.945960984588652
            ],
            [
              113.01495042311554,
              27.944576832461806
            ],
            [
              113.01330110296786,
              27.94530533579237
            ],
            [
              113.01140438479798,
              27.94435828050446
            ],
            [
              113.01082712274628,
              27.943411216912537
            ],
            [
              113.00959013263551,
              27.942828404420936
            ],
            [
              113.00785834648042,
              27.94362977078616
            ],
            [
              113.00513696823671,
              27.94435828050446
            ],
            [
              113.00398244413331,
              27.943192662596715
            ],
            [
              113.0017558619339,
              27.941079948078624
            ],
            [
              113.0006838038379,
              27.939987148493387
            ],
            [
              112.9996117457419,
              27.93838435577213
            ],
            [
              112.99755009555726,
              27.936854395083586
            ],
            [
              112.99565337738741,
              27.9359072657049
            ],
            [
              112.9935092611954,
              27.935178698994832
            ],
            [
              112.99243720309937,
              27.93459584208972
            ],
            [
              112.9917774750403,
              27.93394012431345
            ],
            [
              112.99161254302552,
              27.93284725251067
            ],
            [
              112.99309693115846,
              27.932191524123724
            ],
            [
              112.99317939716585,
              27.93029717532221
            ],
            [
              112.99210733906985,
              27.92876710012645
            ],
            [
              112.99103528097382,
              27.927819899864446
            ],
            [
              112.9896333588483,
              27.92679982876068
            ],
            [
              112.98889116478182,
              27.925925474438245
            ],
            [
              112.98781910668582,
              27.925852611258804
            ],
            [
              112.98707691261933,
              27.92446820151754
            ],
            [
              112.98641718456027,
              27.92366669303732
            ],
            [
              112.9850152624347,
              27.922719448081082
            ],
            [
              112.98386073833133,
              27.922063658249343
            ],
            [
              112.98254128221315,
              27.921043532826587
            ]
          ]
        ]
      },
      "properties": {
        "assistFileId": "assist_file_default_1773890275045",
        "sourceFileName": "辅助元素_1.geojson",
        "name": "蒿塘村",
        "type": "assistPolygon",
        "fill": "#9b59b6",
        "fill-opacity": 0.2,
        "stroke": "#9b59b6",
        "stroke-width": 2,
        "stroke-opacity": 0.8
      },
      "id": "assist_polygon_1773890275045"
    },
    {
      "type": "Feature",
      "geometry": {
        "type": "Point",
        "coordinates": [
          113.01379589901218,
          27.935251555886907
        ]
      },
      "properties": {
        "iconType": "default",
        "iconColor": "#e74c3c",
        "iconSize": 1,
        "text": "蒿塘村",
        "textColor": "#333333",
        "assistFileId": "assist_file_default_1773890275045",
        "sourceFileName": "辅助元素_1.geojson",
        "type": "assistPoint",
        "name": "辅助点_1"
      },
      "id": "assist_point_1773890282605"
    }
  ],
  "properties": {
    "description": "GIS-APP 辅助要素导出",
    "exportTime": "2026/3/19 11:18:35",
    "assistElements": {
      "lines": 0,
      "polygons": 1,
      "texts": 0,
      "points": 1
    },
    "fileCount": 1
  }
}