{
  "type": "FeatureCollection",
  "features": [
    {
      "type": "Feature",
      "geometry": {
        "type": "Polygon",
        "coordinates": [
          [
            [
              112.78938227336192,
              27.999807355158737
            ],
            [
              112.78720102279442,
              27.99861780150478
            ],
            [
              112.78623870636757,
              27.997598173635836
            ],
            [
              112.78495561779845,
              27.996635182901585
            ],
            [
              112.78604624308221,
              27.995445594232308
            ],
            [
              112.78540469879765,
              27.99419934440077
            ],
            [
              112.78482730894153,
              27.99306637750395
            ],
            [
              112.78315929380169,
              27.99312302613164
            ],
            [
              112.78187620523258,
              27.992499889589794
            ],
            [
              112.78238944066021,
              27.991423554350874
            ],
            [
              112.78341591151552,
              27.990630458350466
            ],
            [
              112.78450653679927,
              27.99114030644914
            ],
            [
              112.78373668365779,
              27.989667405362695
            ],
            [
              112.78354422037242,
              27.988081181687107
            ],
            [
              112.78367252922934,
              27.98711810592623
            ],
            [
              112.78251774951713,
              27.986891498614625
            ],
            [
              112.78149127866185,
              27.985758454912386
            ],
            [
              112.78014403566428,
              27.984852011377768
            ],
            [
              112.77847602052444,
              27.98439878675292
            ],
            [
              112.77886094709515,
              27.983039101448455
            ],
            [
              112.77892510152361,
              27.981792708191804
            ],
            [
              112.77860432938135,
              27.98077292117587
            ],
            [
              112.77725708638374,
              27.97952650172735
            ],
            [
              112.77662228415399,
              27.98037576586485
            ],
            [
              112.7766155420992,
              27.98043299002761
            ],
            [
              112.77501168138781,
              27.97975312451672
            ],
            [
              112.77533245353007,
              27.9787899743732
            ],
            [
              112.7755890712439,
              27.977656845545482
            ],
            [
              112.77404936496096,
              27.976523704813403
            ],
            [
              112.77481921810244,
              27.974767313153393
            ],
            [
              112.77546076238698,
              27.972670937283922
            ],
            [
              112.77533245353007,
              27.97085782259863
            ],
            [
              112.77481921810244,
              27.96972461044706
            ],
            [
              112.77353612953331,
              27.970291218010644
            ],
            [
              112.77372859281869,
              27.96904467744305
            ],
            [
              112.7748833725309,
              27.968534724878197
            ],
            [
              112.7755890712439,
              27.96745815043778
            ],
            [
              112.77437013710325,
              27.96609825158116
            ],
            [
              112.77250965867803,
              27.964794999095545
            ],
            [
              112.77257381310649,
              27.963378402455703
            ],
            [
              112.77347197510488,
              27.96252843554649
            ],
            [
              112.7736002839618,
              27.961225139951523
            ],
            [
              112.77289458524875,
              27.960261824396966
            ],
            [
              112.77353612953331,
              27.958958501432875
            ],
            [
              112.77366443839023,
              27.957145156348403
            ],
            [
              112.77539660795856,
              27.956238472383447
            ],
            [
              112.77700046866994,
              27.95754182818851
            ],
            [
              112.77700046866994,
              27.958675168271384
            ],
            [
              112.77744954966913,
              27.959751830328628
            ],
            [
              112.77873263823824,
              27.960091826641943
            ],
            [
              112.78065727109191,
              27.960318490255816
            ],
            [
              112.78174789637566,
              27.961281805304637
            ],
            [
              112.78315929380169,
              27.961451801185504
            ],
            [
              112.78463484565619,
              27.962981752064422
            ],
            [
              112.7859179342253,
              27.96332173820332
            ],
            [
              112.78508392665536,
              27.964625008480567
            ],
            [
              112.78662363293832,
              27.96411503502904
            ],
            [
              112.78771425822205,
              27.964568344882736
            ],
            [
              112.78938227336192,
              27.965588285091627
            ],
            [
              112.79066536193103,
              27.964681672048627
            ],
            [
              112.79162767835787,
              27.964681672048627
            ],
            [
              112.79182014164324,
              27.963265073921235
            ],
            [
              112.79252584035623,
              27.96230177657351
            ],
            [
              112.79425800992455,
              27.96235844136139
            ],
            [
              112.79412970106763,
              27.96411503502904
            ],
            [
              112.79522032635138,
              27.964738335586972
            ],
            [
              112.79464293649528,
              27.965814937162293
            ],
            [
              112.79605433392132,
              27.966494890518007
            ],
            [
              112.79579771620747,
              27.968251416856333
            ],
            [
              112.79599017949286,
              27.969611288577283
            ],
            [
              112.79631095163515,
              27.97102780339482
            ],
            [
              112.79676003263431,
              27.97199102284776
            ],
            [
              112.79791481234653,
              27.972387640122946
            ],
            [
              112.79894128320181,
              27.971367764183697
            ],
            [
              112.79964698191483,
              27.971651064022822
            ],
            [
              112.79945451862946,
              27.972897574477102
            ],
            [
              112.8005451439132,
              27.973350847435043
            ],
            [
              112.8005451439132,
              27.974540679888335
            ],
            [
              112.80169992362539,
              27.975673841452277
            ],
            [
              112.80285470333762,
              27.975900472336605
            ],
            [
              112.80195654133922,
              27.976863648282944
            ],
            [
              112.80195654133922,
              27.978393380637627
            ],
            [
              112.80413779190671,
              27.97884663050209
            ],
            [
              112.80510010833356,
              27.980319679406776
            ],
            [
              112.80516426276202,
              27.981622744358802
            ],
            [
              112.80535672604739,
              27.98252921503922
            ],
            [
              112.80394532862137,
              27.98326571685648
            ],
            [
              112.80304716662299,
              27.984455439935203
            ],
            [
              112.80150746034005,
              27.98530523409758
            ],
            [
              112.79977529077172,
              27.9867781947802
            ],
            [
              112.80041683505628,
              27.988024530409916
            ],
            [
              112.80112253376932,
              27.989157550297932
            ],
            [
              112.8027263944807,
              27.989610754919028
            ],
            [
              112.80433025519211,
              27.990970357350847
            ],
            [
              112.80535672604739,
              27.99210334627847
            ],
            [
              112.80574165261812,
              27.99323632329768
            ],
            [
              112.80535672604739,
              27.994086048246984
            ],
            [
              112.8059341159035,
              27.99510570934372
            ],
            [
              112.80471518176284,
              27.995558888956992
            ],
            [
              112.80362455647908,
              27.995445594232308
            ],
            [
              112.80221315905307,
              27.99516235689957
            ],
            [
              112.80073760719857,
              27.994595880001143
            ],
            [
              112.79868466548798,
              27.99442593635105
            ],
            [
              112.7965034149205,
              27.994312640435467
            ],
            [
              112.79541278963676,
              27.994992414142672
            ],
            [
              112.78938227336192,
              27.999807355158737
            ]
          ]
        ]
      },
      "properties": {
        "name": "向阳村",
        "type": "assistPolygon",
        "fill": "#9b59b6",
        "fill-opacity": 0.2,
        "stroke": "#9b59b6",
        "stroke-width": 2,
        "stroke-opacity": 0.8,
        "isAssistFeature": true,
        "sourceFileName": "辅助要素_鹤岭镇_向阳村.geojson",
        "assistFileId": "assist_file_1773974655700_7"
      },
      "id": "assist_imported_1773974655700_0"
    },
    {
      "type": "Feature",
      "geometry": {
        "type": "Point",
        "coordinates": [
          112.78912565564809,
          27.97884663050209
        ]
      },
      "properties": {
        "iconType": "default",
        "iconColor": "#e74c3c",
        "iconSize": 1,
        "text": "向阳村",
        "textColor": "#333333",
        "type": "assistPoint",
        "name": "辅助点_1",
        "isAssistFeature": true,
        "sourceFileName": "辅助要素_鹤岭镇_向阳村.geojson",
        "assistFileId": "assist_file_1773974655700_7"
      },
      "id": "assist_imported_1773974655701_1"
    }
  ],
  "properties": {
    "fileName": "辅助要素_鹤岭镇_向阳村.geojson",
    "exportTime": "2026/3/20 10:50:54",
    "source": "GIS-APP 辅助元素导出"
  }
}