{
  "type": "FeatureCollection",
  "features": [
    {
      "type": "Feature",
      "geometry": {
        "type": "Polygon",
        "coordinates": [
          [
            [
              112.75274844246269,
              27.96370354886922
            ],
            [
              112.74983409265191,
              27.96247245801331
            ],
            [
              112.7497073817906,
              27.960569835433148
            ],
            [
              112.74882040576122,
              27.959618511566035
            ],
            [
              112.74742658628651,
              27.957547954166827
            ],
            [
              112.74356190501572,
              27.953182865215652
            ],
            [
              112.74229479640233,
              27.951056219485366
            ],
            [
              112.74343519415436,
              27.949209361581097
            ],
            [
              112.74482901362907,
              27.948593735260445
            ],
            [
              112.7446534608685,
              27.94809104059877
            ],
            [
              112.74566423984002,
              27.94792492058059
            ],
            [
              112.7477328107585,
              27.94740579387674
            ],
            [
              112.75021422523595,
              27.94641103184479
            ],
            [
              112.75241060181277,
              27.946886664677535
            ],
            [
              112.75365644566139,
              27.94757191469347
            ],
            [
              112.7556074841413,
              27.94927463833187
            ],
            [
              112.7577465745229,
              27.94977299139117
            ],
            [
              112.75988566490449,
              27.949835285361857
            ],
            [
              112.75913345729776,
              27.94927463833187
            ],
            [
              112.75805215886312,
              27.947696505138325
            ],
            [
              112.75819319778938,
              27.946865899457677
            ],
            [
              112.75875735349442,
              27.946326002339603
            ],
            [
              112.76014423626931,
              27.94508007561265
            ],
            [
              112.76106098928996,
              27.9448724197608
            ],
            [
              112.76310605372075,
              27.94402102659423
            ],
            [
              112.76548020897943,
              27.94262971112184
            ],
            [
              112.76329410562242,
              27.941778300277633
            ],
            [
              112.76270644342966,
              27.941529105590334
            ],
            [
              112.76258891099111,
              27.9407607516857
            ],
            [
              112.7635188656764,
              27.940254451206854
            ],
            [
              112.76403455998532,
              27.93990932611085
            ],
            [
              112.76486904029902,
              27.939379777551608
            ],
            [
              112.7658092998074,
              27.938912526667252
            ],
            [
              112.76522946230443,
              27.93728797345507
            ],
            [
              112.76610313090377,
              27.936378953353426
            ],
            [
              112.76766631233649,
              27.935278284140338
            ],
            [
              112.76966434245126,
              27.937903664215156
            ],
            [
              112.7708047402033,
              27.939023092971652
            ],
            [
              112.7728321139847,
              27.939862656927147
            ],
            [
              112.77498619862745,
              27.93930294834844
            ],
            [
              112.77631666267149,
              27.93863129422627
            ],
            [
              112.7773303495622,
              27.94014251012908
            ],
            [
              112.77872416903692,
              27.94243727903877
            ],
            [
              112.77859745817555,
              27.944396189537997
            ],
            [
              112.77701357240883,
              27.944731999199306
            ],
            [
              112.77587317465681,
              27.94613119488318
            ],
            [
              112.77580981922614,
              27.947698272529166
            ],
            [
              112.77859745817555,
              27.948257937606343
            ],
            [
              112.77942107877426,
              27.949601121957855
            ],
            [
              112.77910430162093,
              27.950832359603524
            ],
            [
              112.77739370499287,
              27.951280078903125
            ],
            [
              112.77561975293415,
              27.951000254558437
            ],
            [
              112.77536633121144,
              27.952287440539692
            ],
            [
              112.7744793551821,
              27.95290304580213
            ],
            [
              112.7728321139847,
              27.953686538332576
            ],
            [
              112.77169171623268,
              27.9545819514055
            ],
            [
              112.77156500537133,
              27.95581313225523
            ],
            [
              112.77099480649531,
              27.957100260858525
            ],
            [
              112.77181842709399,
              27.958387374115517
            ],
            [
              112.77143829450999,
              27.959562551077454
            ],
            [
              112.77067802934198,
              27.960569835433148
            ],
            [
              112.772008493386,
              27.961968825888434
            ],
            [
              112.77333895743006,
              27.96319992248914
            ],
            [
              112.77321224656872,
              27.964654836730446
            ],
            [
              112.77156500537133,
              27.964654836730446
            ],
            [
              112.77181842709399,
              27.965773988184438
            ],
            [
              112.77289546941537,
              27.96594185990149
            ],
            [
              112.77352902372208,
              27.96795630013645
            ],
            [
              112.77308553570741,
              27.969355194840475
            ],
            [
              112.7728321139847,
              27.97081002609336
            ],
            [
              112.77181842709399,
              27.971761251305963
            ],
            [
              112.7696009870206,
              27.967564606369322
            ],
            [
              112.76751025780852,
              27.966277602552168
            ],
            [
              112.76605308290314,
              27.964878667949762
            ],
            [
              112.76427913084441,
              27.965046541059564
            ],
            [
              112.76237846792435,
              27.965214413908228
            ],
            [
              112.76054116043497,
              27.964710794578792
            ],
            [
              112.76066787129629,
              27.963479715212657
            ],
            [
              112.75971753983627,
              27.962360539966426
            ],
            [
              112.7578168769162,
              27.961577110388774
            ],
            [
              112.75680319002548,
              27.96247245801331
            ],
            [
              112.75692990088685,
              27.96375950721081
            ],
            [
              112.75521930425876,
              27.962360539966426
            ],
            [
              112.75483917167476,
              27.963591632098968
            ],
            [
              112.75382548478407,
              27.96431908903105
            ],
            [
              112.75274844246269,
              27.96370354886922
            ]
          ]
        ]
      },
      "properties": {
        "name": "关峰村",
        "type": "assistPolygon",
        "fill": "#9b59b6",
        "fill-opacity": 0.2,
        "stroke": "#9b59b6",
        "stroke-width": 2,
        "stroke-opacity": 0.8,
        "isAssistFeature": true,
        "sourceFileName": "辅助要素_鹤岭镇_关峰村.geojson",
        "assistFileId": "assist_file_1773974655190_2"
      },
      "id": "assist_imported_1773974655190_0"
    },
    {
      "type": "Feature",
      "geometry": {
        "type": "Point",
        "coordinates": [
          112.76237846792435,
          27.954861766467843
        ]
      },
      "properties": {
        "iconType": "default",
        "iconColor": "#e74c3c",
        "iconSize": 1,
        "text": "关峰村",
        "textColor": "#333333",
        "type": "assistPoint",
        "name": "辅助点_1",
        "isAssistFeature": true,
        "sourceFileName": "辅助要素_鹤岭镇_关峰村.geojson",
        "assistFileId": "assist_file_1773974655190_2"
      },
      "id": "assist_imported_1773974655191_1"
    }
  ],
  "properties": {
    "fileName": "辅助要素_鹤岭镇_关峰村.geojson",
    "exportTime": "2026/3/20 10:50:47",
    "source": "GIS-APP 辅助元素导出"
  }
}