{
  "type": "FeatureCollection",
  "features": [
    {
      "type": "Feature",
      "geometry": {
        "type": "Polygon",
        "coordinates": [
          [
            [
              113.03381254074903,
              27.95099541162911
            ],
            [
              113.03381254074903,
              27.949810226387555
            ],
            [
              113.03548965109731,
              27.949573187778284
            ],
            [
              113.03622757965057,
              27.948387986927187
            ],
            [
              113.0375692679292,
              27.94749907775261
            ],
            [
              113.03884387179389,
              27.947024989867828
            ],
            [
              113.04125891069543,
              27.948032424135363
            ],
            [
              113.04360686518302,
              27.948032424135363
            ],
            [
              113.04434479373626,
              27.947558338591875
            ],
            [
              113.04743067677711,
              27.947558338591875
            ],
            [
              113.04836985857214,
              27.948150945196048
            ],
            [
              113.04937612478112,
              27.94749907775261
            ],
            [
              113.05158991044085,
              27.947558338591875
            ],
            [
              113.05299868313342,
              27.947262034070363
            ],
            [
              113.05474287789565,
              27.948032424135363
            ],
            [
              113.05561497527674,
              27.949454668278534
            ],
            [
              113.05729208562504,
              27.95034356135602
            ],
            [
              113.05937170245691,
              27.950047264476538
            ],
            [
              113.05970712452657,
              27.95111392943781
            ],
            [
              113.06111589721912,
              27.951647257967167
            ],
            [
              113.06306134522315,
              27.952358358575253
            ],
            [
              113.06453720232963,
              27.953247227749685
            ],
            [
              113.0666168191615,
              27.95389906049354
            ],
            [
              113.06755600095654,
              27.952358358575253
            ],
            [
              113.07010520868594,
              27.951291705906954
            ],
            [
              113.07198357227603,
              27.950580598274243
            ],
            [
              113.07265441641535,
              27.951587999371768
            ],
            [
              113.07359359821038,
              27.951291705906954
            ],
            [
              113.07379485145218,
              27.949632447479374
            ],
            [
              113.07466694883328,
              27.94975096678401
            ],
            [
              113.07587446828406,
              27.949513928044666
            ],
            [
              113.07654531242335,
              27.951469482083425
            ],
            [
              113.07815533835772,
              27.952180583862273
            ],
            [
              113.07741740980448,
              27.953484258293685
            ],
            [
              113.08083871491498,
              27.953306485434467
            ],
            [
              113.08124122139857,
              27.952595391070588
            ],
            [
              113.08144247464035,
              27.953839803133988
            ],
            [
              113.08291833174685,
              27.955439740426144
            ],
            [
              113.08291833174685,
              27.956802631269866
            ],
            [
              113.0821804031936,
              27.95739518713961
            ],
            [
              113.08224748760752,
              27.95887656258381
            ],
            [
              113.08191206553789,
              27.959528361338997
            ],
            [
              113.08264999409114,
              27.960891200563267
            ],
            [
              113.08291833174685,
              27.96195775838794
            ],
            [
              113.08466252650909,
              27.962135517000718
            ],
            [
              113.08513211740657,
              27.963439071215447
            ],
            [
              113.08426002002548,
              27.964150094150924
            ],
            [
              113.08432710443941,
              27.9649203637114
            ],
            [
              113.08593713037378,
              27.966105383068964
            ],
            [
              113.08365626030012,
              27.967231139405342
            ],
            [
              113.0821804031936,
              27.96734963938914
            ],
            [
              113.08103996815677,
              27.966875638673173
            ],
            [
              113.07989953311993,
              27.96734963938914
            ],
            [
              113.07896035132491,
              27.966638637534402
            ],
            [
              113.07808825394378,
              27.964979614988323
            ],
            [
              113.07701490332089,
              27.96574987862803
            ],
            [
              113.07661239683732,
              27.966934888876537
            ],
            [
              113.07634405918158,
              27.968297634574625
            ],
            [
              113.07480111766115,
              27.969482616844147
            ],
            [
              113.07406318910792,
              27.971023074338476
            ],
            [
              113.06930019571877,
              27.970371345005873
            ],
            [
              113.06809267626801,
              27.970371345005873
            ],
            [
              113.0657447217804,
              27.96894937643333
            ],
            [
              113.066147228264,
              27.967882887705798
            ],
            [
              113.06467137115749,
              27.966342385378937
            ],
            [
              113.063195514051,
              27.967112639291443
            ],
            [
              113.06091464397731,
              27.9665201367698
            ],
            [
              113.06171965694452,
              27.965453624032634
            ],
            [
              113.0608475595634,
              27.96503886623273
            ],
            [
              113.05930461804297,
              27.96551287501677
            ],
            [
              113.05628581941609,
              27.963498323305657
            ],
            [
              113.05729208562504,
              27.96290580093971
            ],
            [
              113.05782876093649,
              27.962017011291408
            ],
            [
              113.0572250012111,
              27.959883886273786
            ],
            [
              113.05876794273152,
              27.95935059843245
            ],
            [
              113.058298351834,
              27.9585802891213
            ],
            [
              113.05668832589966,
              27.95786922949354
            ],
            [
              113.05507829996529,
              27.957098909611304
            ],
            [
              113.05353535844486,
              27.95727667622586
            ],
            [
              113.05179116368265,
              27.95632858423224
            ],
            [
              113.05044947540402,
              27.95662486387471
            ],
            [
              113.0491077871254,
              27.956032303776666
            ],
            [
              113.04608898849848,
              27.955973047587975
            ],
            [
              113.04407645608055,
              27.956861887003214
            ],
            [
              113.04387520283875,
              27.958046994839606
            ],
            [
              113.04260059897403,
              27.958698798603876
            ],
            [
              113.04199683924865,
              27.957750719100204
            ],
            [
              113.04146016393723,
              27.958817307956352
            ],
            [
              113.03978305358892,
              27.95834326976582
            ],
            [
              113.04052098214217,
              27.95727667622586
            ],
            [
              113.04072223538397,
              27.95585453511302
            ],
            [
              113.03938054710534,
              27.954373118199115
            ],
            [
              113.04031972890037,
              27.952950938837944
            ],
            [
              113.03850844972423,
              27.952773165100623
            ],
            [
              113.03770343675703,
              27.953425000706474
            ],
            [
              113.03589215758089,
              27.953247227749685
            ],
            [
              113.034818806958,
              27.952891680958018
            ],
            [
              113.03488589137194,
              27.951884292023536
            ],
            [
              113.03381254074903,
              27.95099541162911
            ]
          ]
        ]
      },
      "properties": {
        "assistFileId": "assist_file_default_1773889802702",
        "sourceFileName": "辅助元素_1.geojson",
        "name": "七星村",
        "type": "assistPolygon",
        "fill": "#9b59b6",
        "fill-opacity": 0.2,
        "stroke": "#9b59b6",
        "stroke-width": 2,
        "stroke-opacity": 0.8
      },
      "id": "assist_polygon_1773889802702"
    },
    {
      "type": "Feature",
      "geometry": {
        "type": "Point",
        "coordinates": [
          113.06460428674357,
          27.95828401484563
        ]
      },
      "properties": {
        "iconType": "default",
        "iconColor": "#e74c3c",
        "iconSize": 1,
        "text": "七星村",
        "textColor": "#333333",
        "assistFileId": "assist_file_default_1773889802702",
        "sourceFileName": "辅助元素_1.geojson",
        "type": "assistPoint",
        "name": "辅助点_1"
      },
      "id": "assist_point_1773889816774"
    }
  ],
  "properties": {
    "description": "GIS-APP 辅助要素导出",
    "exportTime": "2026/3/19 11:10:19",
    "assistElements": {
      "lines": 0,
      "polygons": 1,
      "texts": 0,
      "points": 1
    },
    "fileCount": 1
  }
}