{
  "type": "FeatureCollection",
  "features": [
    {
      "type": "Feature",
      "geometry": {
        "type": "Polygon",
        "coordinates": [
          [
            [
              112.8311899717838,
              27.970519890881747
            ],
            [
              112.8296046480689,
              27.972270052330288
            ],
            [
              112.82841565528275,
              27.971628329762368
            ],
            [
              112.82616978002001,
              27.970986603377384
            ],
            [
              112.82379179444771,
              27.970461551677843
            ],
            [
              112.82101747794667,
              27.96987815790378
            ],
            [
              112.81956426454137,
              27.969411440613314
            ],
            [
              112.81883765783871,
              27.968011276628943
            ],
            [
              112.81949820938658,
              27.96696114171725
            ],
            [
              112.81949820938658,
              27.965094209973685
            ],
            [
              112.81910187845787,
              27.964277417179574
            ],
            [
              112.81857343721957,
              27.965852654889915
            ],
            [
              112.81738444443342,
              27.965560945937582
            ],
            [
              112.817516554743,
              27.962993873155924
            ],
            [
              112.81870554752915,
              27.962760499875174
            ],
            [
              112.82022481608922,
              27.962877186578638
            ],
            [
              112.82187619495889,
              27.96229375179979
            ],
            [
              112.82273491197112,
              27.961243561250143
            ],
            [
              112.82451840115034,
              27.960601773106077
            ],
            [
              112.82570739393651,
              27.959843291288635
            ],
            [
              112.82570739393651,
              27.95908480414144
            ],
            [
              112.8272266624966,
              27.958909767889025
            ],
            [
              112.82848171043754,
              27.959376530598007
            ],
            [
              112.82887804136627,
              27.960776806614717
            ],
            [
              112.82940648260455,
              27.9617103138671
            ],
            [
              112.83105786147422,
              27.962818843242673
            ],
            [
              112.83429456405874,
              27.96404404667433
            ],
            [
              112.83436061921353,
              27.962760499875174
            ],
            [
              112.83277529549865,
              27.96241043900787
            ],
            [
              112.83251107487952,
              27.961185217031087
            ],
            [
              112.83323768158216,
              27.96031004996088
            ],
            [
              112.83330373673695,
              27.95908480414144
            ],
            [
              112.83290740580823,
              27.95774285228636
            ],
            [
              112.83290740580823,
              27.955934108173437
            ],
            [
              112.83363401251087,
              27.95465046493449
            ],
            [
              112.83482300529704,
              27.95214148180908
            ],
            [
              112.83634227385713,
              27.951791386505207
            ],
            [
              112.8379936527268,
              27.952900017739978
            ],
            [
              112.83997530737038,
              27.952900017739978
            ],
            [
              112.84129641046613,
              27.95184973580136
            ],
            [
              112.84288173418098,
              27.953950289462213
            ],
            [
              112.84426889243151,
              27.953716896629075
            ],
            [
              112.84453311305067,
              27.95219983091603
            ],
            [
              112.84532577490809,
              27.9514412900662
            ],
            [
              112.8457881609916,
              27.94922398625971
            ],
            [
              112.84697715377776,
              27.94782356039761
            ],
            [
              112.84684504346818,
              27.946306411886994
            ],
            [
              112.84843036718306,
              27.94566453494744
            ],
            [
              112.85014780120751,
              27.944264062929122
            ],
            [
              112.8521955110059,
              27.942455093029935
            ],
            [
              112.85424322080425,
              27.940879513918063
            ],
            [
              112.8555643239,
              27.940004182259386
            ],
            [
              112.85576248936437,
              27.941579774138233
            ],
            [
              112.85477166204255,
              27.943038635017203
            ],
            [
              112.85470560688778,
              27.945547829639494
            ],
            [
              112.85444138626862,
              27.94677322908332
            ],
            [
              112.85450744142341,
              27.94782356039761
            ],
            [
              112.85503588266171,
              27.948698828689615
            ],
            [
              112.8555643239,
              27.950274293738204
            ],
            [
              112.85576248936437,
              27.951674687818326
            ],
            [
              112.85470560688778,
              27.952549924895578
            ],
            [
              112.8545734965782,
              27.954125333755968
            ],
            [
              112.85404505533991,
              27.955642372413863
            ],
            [
              112.85292211770853,
              27.956284190044286
            ],
            [
              112.85272395224419,
              27.95820962004116
            ],
            [
              112.85047807698145,
              27.9591431494958
            ],
            [
              112.84849642233785,
              27.959551566093552
            ],
            [
              112.8472413743969,
              27.95908480414144
            ],
            [
              112.84558999552723,
              27.95995998114593
            ],
            [
              112.84473127851501,
              27.96071846214339
            ],
            [
              112.84539183006288,
              27.961885345578068
            ],
            [
              112.84367439603842,
              27.962993873155924
            ],
            [
              112.84420283727673,
              27.96404404667433
            ],
            [
              112.84592027130118,
              27.96305221639726
            ],
            [
              112.84710926408734,
              27.962527126089796
            ],
            [
              112.84803403625435,
              27.964569129601415
            ],
            [
              112.84750559501606,
              27.96573597140363
            ],
            [
              112.84697715377776,
              27.966786118238375
            ],
            [
              112.84790192594477,
              27.96754455126323
            ],
            [
              112.84684504346818,
              27.96876970104252
            ],
            [
              112.84519366459851,
              27.96882804116123
            ],
            [
              112.84367439603842,
              27.969411440613314
            ],
            [
              112.84400467181237,
              27.971103281185847
            ],
            [
              112.84274962387143,
              27.9717450068768
            ],
            [
              112.8409661346922,
              27.970928264425837
            ],
            [
              112.83911659035816,
              27.971803345386732
            ],
            [
              112.837927597572,
              27.971161620042736
            ],
            [
              112.83772943210765,
              27.969819818352875
            ],
            [
              112.83706888055978,
              27.96847799997586
            ],
            [
              112.83634227385713,
              27.967427869606368
            ],
            [
              112.83508722591617,
              27.96696114171725
            ],
            [
              112.83336979189174,
              27.966786118238375
            ],
            [
              112.83185052333165,
              27.967486210450588
            ],
            [
              112.83066153054548,
              27.966786118238375
            ],
            [
              112.82934042744976,
              27.966494411809393
            ],
            [
              112.82782115888968,
              27.965560945937582
            ],
            [
              112.8267642764131,
              27.966494411809393
            ],
            [
              112.82821748981839,
              27.96777791419845
            ],
            [
              112.82973675837847,
              27.968944721304
            ],
            [
              112.8311899717838,
              27.970519890881747
            ]
          ]
        ]
      },
      "properties": {
        "name": "长安村",
        "type": "assistPolygon",
        "fill": "#9b59b6",
        "fill-opacity": 0.2,
        "stroke": "#9b59b6",
        "stroke-width": 2,
        "stroke-opacity": 0.8,
        "isAssistFeature": true,
        "sourceFileName": "辅助要素_鹤岭镇_长安村.geojson",
        "assistFileId": "assist_file_1773974656496_15"
      },
      "id": "assist_imported_1773974656496_0"
    },
    {
      "type": "Feature",
      "geometry": {
        "type": "Point",
        "coordinates": [
          112.84023952798954,
          27.960660117640472
        ]
      },
      "properties": {
        "iconType": "default",
        "iconColor": "#e74c3c",
        "iconSize": 1,
        "text": "长安村",
        "textColor": "#333333",
        "type": "assistPoint",
        "name": "辅助点_1",
        "isAssistFeature": true,
        "sourceFileName": "辅助要素_鹤岭镇_长安村.geojson",
        "assistFileId": "assist_file_1773974656496_15"
      },
      "id": "assist_imported_1773974656496_1"
    }
  ],
  "properties": {
    "fileName": "辅助要素_鹤岭镇_长安村.geojson",
    "exportTime": "2026/3/20 10:51:03",
    "source": "GIS-APP 辅助元素导出"
  }
}