{
  "type": "FeatureCollection",
  "features": [
    {
      "type": "Feature",
      "geometry": {
        "type": "Polygon",
        "coordinates": [
          [
            [
              112.75793732988768,
              28.00718065528335
            ],
            [
              112.757599880999,
              28.005571822203464
            ],
            [
              112.75746490144353,
              28.003069145212933
            ],
            [
              112.7596245743311,
              28.001043126022807
            ],
            [
              112.76232416544056,
              27.99889788771125
            ],
            [
              112.76104185966356,
              27.996931381742655
            ],
            [
              112.76097436988583,
              27.99538198813042
            ],
            [
              112.7594221049979,
              27.99365379205487
            ],
            [
              112.7587472072205,
              27.991448812004677
            ],
            [
              112.75692498322162,
              27.989839744042627
            ],
            [
              112.75746490144353,
              27.98763468597643
            ],
            [
              112.75496777966728,
              27.986621536068
            ],
            [
              112.75429288188991,
              27.984714404531033
            ],
            [
              112.75247065789104,
              27.983701227181854
            ],
            [
              112.75253814766874,
              27.98268804031288
            ],
            [
              112.75375296366803,
              27.98113844198234
            ],
            [
              112.75301057611293,
              27.97833718849469
            ],
            [
              112.75118835211403,
              27.97738355368594
            ],
            [
              112.75010851567026,
              27.97672792486398
            ],
            [
              112.75118835211403,
              27.974224578160218
            ],
            [
              112.75139082144723,
              27.971721173362326
            ],
            [
              112.75166078055817,
              27.970409842903408
            ],
            [
              112.75098588278082,
              27.967548702943688
            ],
            [
              112.75267312722424,
              27.966773797815094
            ],
            [
              112.75469782055632,
              27.965641234155726
            ],
            [
              112.75631757522201,
              27.966296930354673
            ],
            [
              112.75618259566652,
              27.96492592466757
            ],
            [
              112.75813979922088,
              27.96432982980555
            ],
            [
              112.75996202321977,
              27.96528358000431
            ],
            [
              112.76097436988583,
              27.966893014350944
            ],
            [
              112.76158177788547,
              27.967906349587707
            ],
            [
              112.76313404277337,
              27.968263995046257
            ],
            [
              112.7642813689949,
              27.96784674189601
            ],
            [
              112.76623857254926,
              27.968085172465166
            ],
            [
              112.76792581699269,
              27.96862163931945
            ],
            [
              112.7709628569908,
              27.970469449179134
            ],
            [
              112.77169767497881,
              27.97176053005306
            ],
            [
              112.77399989698897,
              27.97398616115852
            ],
            [
              112.77467479476631,
              27.97476101448744
            ],
            [
              112.77389553157968,
              27.97649380502108
            ],
            [
              112.7744831937724,
              27.977064690378384
            ],
            [
              112.77538819354923,
              27.977988480283173
            ],
            [
              112.77503559623358,
              27.979285924654604
            ],
            [
              112.77491806379504,
              27.979908692409012
            ],
            [
              112.77655176469086,
              27.980604112151482
            ],
            [
              112.77690436200652,
              27.980220074937648
            ],
            [
              112.77772708907635,
              27.98032386891407
            ],
            [
              112.77837351748836,
              27.980790940571836
            ],
            [
              112.7786791018286,
              27.981756215587637
            ],
            [
              112.77871436156018,
              27.982980960698413
            ],
            [
              112.77845422231955,
              27.984058820274498
            ],
            [
              112.77843979176394,
              27.98454389222016
            ],
            [
              112.7800716119541,
              27.9849095231137
            ],
            [
              112.7810458329631,
              27.985726811216125
            ],
            [
              112.78226360922442,
              27.986931224496487
            ],
            [
              112.78333525233437,
              27.987339861659848
            ],
            [
              112.78345702996047,
              27.988974394825078
            ],
            [
              112.78343267443526,
              27.99020027843605
            ],
            [
              112.78292120840551,
              27.99078095528101
            ],
            [
              112.78214183159828,
              27.99138313537202
            ],
            [
              112.78203118053959,
              27.99246191654771
            ],
            [
              112.77980401787428,
              27.992759886660068
            ],
            [
              112.77892665076372,
              27.994249724866236
            ],
            [
              112.77764434498671,
              27.995024432595187
            ],
            [
              112.77582212098784,
              27.994488097068242
            ],
            [
              112.77413487654444,
              27.994905247153156
            ],
            [
              112.77420236632217,
              27.99675260669342
            ],
            [
              112.77339248898933,
              27.998004025810346
            ],
            [
              112.77130030587949,
              27.99919584003058
            ],
            [
              112.7707603876576,
              27.999732152129383
            ],
            [
              112.77103034676855,
              28.001162304676797
            ],
            [
              112.76846573521456,
              28.00175819596933
            ],
            [
              112.76765585788172,
              28.002532849722996
            ],
            [
              112.76637355210472,
              28.00241367258495
            ],
            [
              112.76563116454965,
              28.004856777566943
            ],
            [
              112.7644838383281,
              28.00604851599121
            ],
            [
              112.76293157344017,
              28.00718065528335
            ],
            [
              112.76171675744094,
              28.007478584698532
            ],
            [
              112.7590846561092,
              28.0072998271483
            ],
            [
              112.75793732988768,
              28.00718065528335
            ]
          ]
        ]
      },
      "properties": {
        "type": "assistPolygon",
        "name": "云龙村",
        "fill": "#9b59b6",
        "fill-opacity": 0.2,
        "stroke": "#9b59b6",
        "stroke-width": 2,
        "stroke-opacity": 0.8,
        "isAssistFeature": true,
        "sourceFileName": "辅助要素_鹤岭镇_云龙村.geojson",
        "assistFileId": "assist_file_1773974654989_0"
      },
      "id": "assist_imported_1773974654989_0"
    },
    {
      "type": "Feature",
      "geometry": {
        "type": "Point",
        "coordinates": [
          112.76698096010435,
          27.984952797817897
        ]
      },
      "properties": {
        "iconType": "default",
        "iconColor": "#e74c3c",
        "iconSize": 1,
        "text": "云龙村",
        "textColor": "#333333",
        "type": "assistPoint",
        "name": "辅助点_1",
        "isAssistFeature": true,
        "sourceFileName": "辅助要素_鹤岭镇_云龙村.geojson",
        "assistFileId": "assist_file_1773974654989_0"
      },
      "id": "assist_imported_1773974654991_1"
    }
  ],
  "properties": {
    "fileName": "辅助要素_鹤岭镇_云龙村.geojson",
    "exportTime": "2026/3/20 10:50:43",
    "source": "GIS-APP 辅助元素导出"
  }
}