{
  "type": "FeatureCollection",
  "features": [
    {
      "type": "Feature",
      "geometry": {
        "type": "Polygon",
        "coordinates": [
          [
            [
              112.77241220587621,
              28.04183251264834
            ],
            [
              112.77050473772371,
              28.041411626788587
            ],
            [
              112.7681204025331,
              28.039848322034743
            ],
            [
              112.76641730596836,
              28.040088831937155
            ],
            [
              112.76457796167844,
              28.03864576445723
            ],
            [
              112.76594043893023,
              28.037683708716727
            ],
            [
              112.76703042073166,
              28.03684190288672
            ],
            [
              112.76805227867048,
              28.03587983101592
            ],
            [
              112.76723479231941,
              28.035038011072203
            ],
            [
              112.76764353549497,
              28.03383539972765
            ],
            [
              112.7687335172964,
              28.032933432398664
            ],
            [
              112.77030036613594,
              28.032271984885725
            ],
            [
              112.77173096725032,
              28.03088894512996
            ],
            [
              112.77261657746398,
              28.028844419019975
            ],
            [
              112.7744559217539,
              28.02860388398298
            ],
            [
              112.77500091265462,
              28.026739719219435
            ],
            [
              112.77377468312801,
              28.02577755703173
            ],
            [
              112.77282094905175,
              28.023913343318767
            ],
            [
              112.7692103843345,
              28.023372113935707
            ],
            [
              112.76703042073166,
              28.022470058917094
            ],
            [
              112.7641692185029,
              28.021988959816596
            ],
            [
              112.76321548442662,
              28.01928273731771
            ],
            [
              112.76389672305254,
              28.01753869121994
            ],
            [
              112.76226175035039,
              28.017057570083807
            ],
            [
              112.76280674125111,
              28.015614193777353
            ],
            [
              112.7615805117245,
              28.01483235686682
            ],
            [
              112.76137614013673,
              28.013388950734807
            ],
            [
              112.76158051172452,
              28.010802799701608
            ],
            [
              112.76130801627414,
              28.007675278291032
            ],
            [
              112.76304113400941,
              28.007319318041013
            ],
            [
              112.76455617886992,
              28.006363874989987
            ],
            [
              112.76571049876362,
              28.005026240482508
            ],
            [
              112.76648004535944,
              28.002584483871118
            ],
            [
              112.76758626859092,
              28.002733114116097
            ],
            [
              112.76854820183566,
              28.001989960840916
            ],
            [
              112.76982276338497,
              28.001544066415477
            ],
            [
              112.77076064829859,
              28.00145913393476
            ],
            [
              112.77133780824546,
              28.001076936943093
            ],
            [
              112.77097708327868,
              27.999802937180036
            ],
            [
              112.77249212813918,
              27.998762492866902
            ],
            [
              112.77302532063952,
              28.000638023125106
            ],
            [
              112.77404717857836,
              28.00129966498156
            ],
            [
              112.77391093085318,
              28.002863529582797
            ],
            [
              112.77479654106685,
              28.003705601120288
            ],
            [
              112.77479654106685,
              28.006352068820163
            ],
            [
              112.77595464673087,
              28.007615132758588
            ],
            [
              112.77732552793134,
              28.00825048014785
            ],
            [
              112.77783836940108,
              28.009348116899517
            ],
            [
              112.77940797511152,
              28.009622524339775
            ],
            [
              112.78086094736872,
              28.0102917533401
            ],
            [
              112.7818709772757,
              28.010397910226587
            ],
            [
              112.78317577616534,
              28.012486812078393
            ],
            [
              112.78360245711627,
              28.01419825784258
            ],
            [
              112.7833801477531,
              28.016215602922912
            ],
            [
              112.7841976341042,
              28.017117710343385
            ],
            [
              112.78644572156963,
              28.01795967045065
            ],
            [
              112.7886256851725,
              28.01874148465531
            ],
            [
              112.78808069427178,
              28.02114703121748
            ],
            [
              112.78835318972214,
              28.022349784343533
            ],
            [
              112.79060127718759,
              28.022349784343533
            ],
            [
              112.79257686920269,
              28.021988959816596
            ],
            [
              112.79328014021237,
              28.020874682993977
            ],
            [
              112.79388691235043,
              28.020294925380753
            ],
            [
              112.79438660705236,
              28.02010587331013
            ],
            [
              112.79506476414784,
              28.019935726162785
            ],
            [
              112.79532888849029,
              28.021221275728223
            ],
            [
              112.79472211635223,
              28.021542660721153
            ],
            [
              112.79517898007971,
              28.02330711025604
            ],
            [
              112.79647818630472,
              28.024075897079484
            ],
            [
              112.79816302593501,
              28.024755250283718
            ],
            [
              112.80003941030584,
              28.026364573584587
            ],
            [
              112.79870801683573,
              28.026799854070603
            ],
            [
              112.79686867254584,
              28.02794240985935
            ],
            [
              112.79509745211848,
              28.028423482352437
            ],
            [
              112.79339435555377,
              28.02902481994495
            ],
            [
              112.79087377263798,
              28.028122812296218
            ],
            [
              112.79012441014947,
              28.02728093167046
            ],
            [
              112.78896630448546,
              28.027641738459252
            ],
            [
              112.78712696019554,
              28.026018098384966
            ],
            [
              112.78590073066891,
              28.02577755703173
            ],
            [
              112.7854238636308,
              28.026799854070603
            ],
            [
              112.78576448294373,
              28.028182946374656
            ],
            [
              112.78487887273008,
              28.029806553792312
            ],
            [
              112.78440200569194,
              28.030949077662825
            ],
            [
              112.78617322611927,
              28.031730797532887
            ],
            [
              112.78624134998186,
              28.032993563789134
            ],
            [
              112.7859688545315,
              28.034617098630534
            ],
            [
              112.78556011135599,
              28.03539879185456
            ],
            [
              112.78426575796676,
              28.035819701238367
            ],
            [
              112.78440200569197,
              28.038164737662356
            ],
            [
              112.78358451934089,
              28.03840525132864
            ],
            [
              112.7816089273258,
              28.038465379661204
            ],
            [
              112.77997395462366,
              28.038104609161778
            ],
            [
              112.78017832621144,
              28.030167352114432
            ],
            [
              112.77888397282221,
              28.032692906500728
            ],
            [
              112.77677213308196,
              28.034737359496162
            ],
            [
              112.77649963763162,
              28.03696216126569
            ],
            [
              112.77602277059346,
              28.04099073928211
            ],
            [
              112.7745921694791,
              28.040930612361024
            ],
            [
              112.77241220587621,
              28.04183251264834
            ]
          ]
        ]
      },
      "properties": {
        "type": "assistPolygon",
        "name": "金侨村",
        "fill": "#9b59b6",
        "fill-opacity": 0.2,
        "stroke": "#9b59b6",
        "stroke-width": 2,
        "stroke-opacity": 0.8,
        "isAssistFeature": true,
        "sourceFileName": "辅助要素_鹤岭镇_金侨村.geojson",
        "assistFileId": "assist_file_1773974656402_14"
      },
      "id": "assist_imported_1773974656402_0"
    },
    {
      "type": "Feature",
      "geometry": {
        "type": "Point",
        "coordinates": [
          112.77827085805892,
          28.021447720758687
        ]
      },
      "properties": {
        "iconType": "default",
        "iconColor": "#e74c3c",
        "iconSize": 1,
        "text": "金侨村",
        "textColor": "#333333",
        "type": "assistPoint",
        "name": "辅助点_1",
        "isAssistFeature": true,
        "sourceFileName": "辅助要素_鹤岭镇_金侨村.geojson",
        "assistFileId": "assist_file_1773974656402_14"
      },
      "id": "assist_imported_1773974656403_1"
    }
  ],
  "properties": {
    "fileName": "辅助要素_鹤岭镇_金侨村.geojson",
    "exportTime": "2026/3/20 10:51:01",
    "source": "GIS-APP 辅助元素导出"
  }
}