{
  "type": "FeatureCollection",
  "features": [
    {
      "type": "Feature",
      "geometry": {
        "type": "Polygon",
        "coordinates": [
          [
            [
              112.9095392825827,
              27.86412876545066
            ],
            [
              112.90957783371536,
              27.864030781228408
            ],
            [
              112.90973685713763,
              27.86351529755659
            ],
            [
              112.91020428962122,
              27.863536598583323
            ],
            [
              112.91130299690224,
              27.863787950382672
            ],
            [
              112.91187162610909,
              27.863894455206562
            ],
            [
              112.91219931073677,
              27.86395409786222
            ],
            [
              112.91252699536444,
              27.863966878427007
            ],
            [
              112.91294142004061,
              27.863898715397355
            ],
            [
              112.91348595478956,
              27.863719787240456
            ],
            [
              112.91425215855129,
              27.863493996525648
            ],
            [
              112.91442081975671,
              27.86344713424289
            ],
            [
              112.91470031546855,
              27.863310807486926
            ],
            [
              112.91546170033874,
              27.862407638397272
            ],
            [
              112.91817473630016,
              27.863672925055297
            ],
            [
              112.91791056969096,
              27.863975002995915
            ],
            [
              112.91750911067594,
              27.86385003330284
            ],
            [
              112.91727728223066,
              27.86430492229327
            ],
            [
              112.91766177818869,
              27.86442489269784
            ],
            [
              112.91736209751552,
              27.86500974651831
            ],
            [
              112.91648001855297,
              27.86478480311473
            ],
            [
              112.9160389790717,
              27.865829536304332
            ],
            [
              112.91686451451099,
              27.86607947098112
            ],
            [
              112.91614641176577,
              27.86744910277524
            ],
            [
              112.91593720072979,
              27.867804004540176
            ],
            [
              112.91585238544492,
              27.86794396548001
            ],
            [
              112.91577322451239,
              27.86815890514275
            ],
            [
              112.91331923560371,
              27.86650435860878
            ],
            [
              112.91152680591695,
              27.86533966266566
            ],
            [
              112.91010190913128,
              27.864469881565313
            ],
            [
              112.9095392825827,
              27.86412876545066
            ]
          ]
        ]
      },
      "properties": {
        "name": "瞻岳门社区",
        "type": "assistPolygon",
        "fill": "#9b59b6",
        "fill-opacity": 0.2,
        "stroke": "#9b59b6",
        "stroke-width": 2,
        "stroke-opacity": 0.8
      },
      "id": "assist_polygon_1773648424401"
    },
    {
      "type": "Feature",
      "geometry": {
        "type": "Polygon",
        "coordinates": [
          [
            [
              112.91985824881478,
              27.869812826733238
            ],
            [
              112.91586877004144,
              27.86817440419084
            ],
            [
              112.9159734807704,
              27.868091093908177
            ],
            [
              112.9172509516637,
              27.865656554030636
            ],
            [
              112.91779544745435,
              27.86454571918553
            ],
            [
              112.9182038192973,
              27.86377738508969
            ],
            [
              112.92028756280355,
              27.86460126119819
            ],
            [
              112.92086347181282,
              27.86479565801841
            ],
            [
              112.921952463394,
              27.865064110196855
            ],
            [
              112.92131372794736,
              27.867211703684603
            ],
            [
              112.9211903137463,
              27.86749501299616
            ],
            [
              112.92074971827968,
              27.86730378001276
            ],
            [
              112.92030469768163,
              27.8671788135607
            ],
            [
              112.91998009442186,
              27.867118644476818
            ],
            [
              112.91983873493774,
              27.86753057061327
            ],
            [
              112.92103243724789,
              27.86780827274295
            ],
            [
              112.92040494645106,
              27.86879535825848
            ],
            [
              112.92027929357631,
              27.869045287289936
            ],
            [
              112.9199180415614,
              27.86983672541976
            ],
            [
              112.91985824881478,
              27.869812826733238
            ]
          ]
        ]
      },
      "properties": {
        "name": "泗洲庵社区",
        "type": "assistPolygon",
        "fill": "#9b59b6",
        "fill-opacity": 0.2,
        "stroke": "#9b59b6",
        "stroke-width": 2,
        "stroke-opacity": 0.8
      },
      "id": "assist_polygon_1773648890255"
    },
    {
      "type": "Feature",
      "geometry": {
        "type": "Polygon",
        "coordinates": [
          [
            [
              112.92003166997955,
              27.86985944185676
            ],
            [
              112.92029090661015,
              27.869178300884357
            ],
            [
              112.92052854018819,
              27.868726326473947
            ],
            [
              112.92091019411654,
              27.868153398455462
            ],
            [
              112.92129184804493,
              27.86750407637244
            ],
            [
              112.92199754776152,
              27.865263248713674
            ],
            [
              112.92206235691917,
              27.865091365133267
            ],
            [
              112.92448189880471,
              27.86557518488553
            ],
            [
              112.92603011757079,
              27.866122662526436
            ],
            [
              112.92314250954665,
              27.86742768528336
            ],
            [
              112.92330813294953,
              27.867752347040096
            ],
            [
              112.92335133905463,
              27.868408033504366
            ],
            [
              112.92345215329986,
              27.86868813136698
            ],
            [
              112.92384820926327,
              27.869273788194633
            ],
            [
              112.92407144080627,
              27.870133170200276
            ],
            [
              112.92424426522668,
              27.870807939442386
            ],
            [
              112.9243450794719,
              27.870967082519144
            ],
            [
              112.92353856551007,
              27.87137448773042
            ],
            [
              112.92003166997955,
              27.86985944185676
            ]
          ]
        ]
      },
      "properties": {
        "name": "洗脚桥社区",
        "type": "assistPolygon",
        "fill": "#9b59b6",
        "fill-opacity": 0.2,
        "stroke": "#9b59b6",
        "stroke-width": 2,
        "stroke-opacity": 0.8
      },
      "id": "assist_polygon_1773649033063"
    },
    {
      "type": "Feature",
      "geometry": {
        "type": "Polygon",
        "coordinates": [
          [
            [
              112.92363217873759,
              27.871387219118574
            ],
            [
              112.92398502859592,
              27.871196248138958
            ],
            [
              112.9243666825243,
              27.870998911106412
            ],
            [
              112.9241506519988,
              27.870413263603353
            ],
            [
              112.92398502859592,
              27.869763955062595
            ],
            [
              112.92385541028062,
              27.86933744635469
            ],
            [
              112.92344495228218,
              27.86863720453671
            ],
            [
              112.92333693701944,
              27.86836983828516
            ],
            [
              112.92331533396691,
              27.867752347040096
            ],
            [
              112.92317851463409,
              27.867453148985703
            ],
            [
              112.92550444329193,
              27.866351838392106
            ],
            [
              112.92600131350058,
              27.866135394531682
            ],
            [
              112.9287593032094,
              27.867421319356822
            ],
            [
              112.92746312005642,
              27.869904002331907
            ],
            [
              112.92634696234136,
              27.87177552573901
            ],
            [
              112.9260949267283,
              27.872233853073993
            ],
            [
              112.92363217873759,
              27.871387219118574
            ]
          ]
        ]
      },
      "properties": {
        "name": "三义井社区",
        "type": "assistPolygon",
        "fill": "#9b59b6",
        "fill-opacity": 0.2,
        "stroke": "#9b59b6",
        "stroke-width": 2,
        "stroke-opacity": 0.8
      },
      "id": "assist_polygon_1773649158294"
    },
    {
      "type": "Feature",
      "geometry": {
        "type": "Polygon",
        "coordinates": [
          [
            [
              112.92763694390698,
              27.872455020950582
            ],
            [
              112.92858957882972,
              27.870770767443474
            ],
            [
              112.931102720483,
              27.871644978484312
            ],
            [
              112.92967830445568,
              27.87314475530613
            ],
            [
              112.92926095963239,
              27.872880090316812
            ],
            [
              112.92893434194461,
              27.87271968697833
            ],
            [
              112.92800892516253,
              27.87252720265866
            ],
            [
              112.92763694390698,
              27.872455020950582
            ]
          ]
        ]
      },
      "properties": {
        "name": "三义井社区",
        "type": "assistPolygon",
        "fill": "#9b59b6",
        "fill-opacity": 0.2,
        "stroke": "#9b59b6",
        "stroke-width": 2,
        "stroke-opacity": 0.8
      },
      "id": "assist_polygon_1773649178846"
    },
    {
      "type": "Feature",
      "geometry": {
        "type": "Polygon",
        "coordinates": [
          [
            [
              112.91115389332056,
              27.86998896674588
            ],
            [
              112.91121755707374,
              27.86975759549634
            ],
            [
              112.91105486081563,
              27.8695887567051
            ],
            [
              112.91100534456315,
              27.86934487798662
            ],
            [
              112.91089923830788,
              27.86918229186935
            ],
            [
              112.91082850080436,
              27.868913398909257
            ],
            [
              112.91118926207231,
              27.86881959888248
            ],
            [
              112.91123170457443,
              27.868700785398644
            ],
            [
              112.91084264830505,
              27.868519438251084
            ],
            [
              112.91104071331492,
              27.868081702506544
            ],
            [
              112.91097704956175,
              27.867850327184343
            ],
            [
              112.91096997581143,
              27.867706499032323
            ],
            [
              112.91105486081563,
              27.867675232017504
            ],
            [
              112.91132366332901,
              27.867800300022694
            ],
            [
              112.9117324815385,
              27.86700333860702
            ],
            [
              112.91153036172096,
              27.866755170287163
            ],
            [
              112.91105874881345,
              27.866521891548288
            ],
            [
              112.91041870272466,
              27.866402770296475
            ],
            [
              112.91026711286152,
              27.86638788013076
            ],
            [
              112.9102278117859,
              27.866114893397253
            ],
            [
              112.90973935556019,
              27.865866723042785
            ],
            [
              112.90961583789391,
              27.865752564488872
            ],
            [
              112.90964391009081,
              27.86546468586242
            ],
            [
              112.90913861054702,
              27.86469535129774
            ],
            [
              112.9095596935002,
              27.864179149560513
            ],
            [
              112.91576439437168,
              27.868155595402413
            ],
            [
              112.91532938682079,
              27.86912797289392
            ],
            [
              112.9149751663865,
              27.869798194107418
            ],
            [
              112.91483844972767,
              27.870078367320332
            ],
            [
              112.91416108082704,
              27.871232014093138
            ],
            [
              112.91115389332056,
              27.86998896674588
            ]
          ]
        ]
      },
      "properties": {
        "name": "熙春路社区",
        "type": "assistPolygon",
        "fill": "#9b59b6",
        "fill-opacity": 0.2,
        "stroke": "#9b59b6",
        "stroke-width": 2,
        "stroke-opacity": 0.8
      },
      "id": "assist_polygon_1773649714341"
    },
    {
      "type": "Feature",
      "geometry": {
        "type": "Point",
        "coordinates": [
          112.9145518844103,
          27.865074730081332
        ]
      },
      "properties": {
        "iconType": "default",
        "iconColor": "#e74c3c",
        "iconSize": 1,
        "text": "瞻岳门社区",
        "textColor": "#333333",
        "type": "assistPoint",
        "name": "辅助点_1"
      },
      "id": "assist_point_1773648454736"
    },
    {
      "type": "Feature",
      "geometry": {
        "type": "Point",
        "coordinates": [
          112.91906150624754,
          27.86666793283348
        ]
      },
      "properties": {
        "iconType": "default",
        "iconColor": "#e74c3c",
        "iconSize": 1,
        "text": "泗洲庵社区",
        "textColor": "#333333",
        "type": "assistPoint",
        "name": "辅助点_2"
      },
      "id": "assist_point_1773648908184"
    },
    {
      "type": "Feature",
      "geometry": {
        "type": "Point",
        "coordinates": [
          112.92216317116429,
          27.868229789032995
        ]
      },
      "properties": {
        "iconType": "default",
        "iconColor": "#e74c3c",
        "iconSize": 1,
        "text": "洗脚桥社区",
        "textColor": "#333333",
        "type": "assistPoint",
        "name": "辅助点_3"
      },
      "id": "assist_point_1773649045631"
    },
    {
      "type": "Feature",
      "geometry": {
        "type": "Point",
        "coordinates": [
          112.92568631049382,
          27.86874962867448
        ]
      },
      "properties": {
        "iconType": "default",
        "iconColor": "#e74c3c",
        "iconSize": 1,
        "text": "三义井社区",
        "textColor": "#333333",
        "type": "assistPoint",
        "name": "辅助点_4"
      },
      "id": "assist_point_1773649184752"
    },
    {
      "type": "Feature",
      "geometry": {
        "type": "Point",
        "coordinates": [
          112.92928817777305,
          27.87184548460931
        ]
      },
      "properties": {
        "iconType": "default",
        "iconColor": "#e74c3c",
        "iconSize": 1,
        "text": "三义井社区",
        "textColor": "#333333",
        "type": "assistPoint",
        "name": "辅助点_5"
      },
      "id": "assist_point_1773649188199"
    },
    {
      "type": "Feature",
      "geometry": {
        "type": "Point",
        "coordinates": [
          112.91330946090314,
          27.868613896382243
        ]
      },
      "properties": {
        "iconType": "default",
        "iconColor": "#e74c3c",
        "iconSize": 1,
        "text": "熙春路社区",
        "textColor": "#333333",
        "type": "assistPoint",
        "name": "辅助点_6"
      },
      "id": "assist_point_1773649733693"
    }
  ],
  "properties": {
    "description": "GIS-APP 辅助要素导出",
    "exportTime": "2026/3/16 16:29:36",
    "assistElements": {
      "lines": 11,
      "polygons": 6,
      "texts": 0,
      "points": 6
    }
  }
}