{
  "type": "FeatureCollection",
  "features": [
    {
      "type": "Feature",
      "geometry": {
        "type": "Polygon",
        "coordinates": [
          [
            [
              113.03044863115319,
              28.001625137614624
            ],
            [
              113.02868903115218,
              28.00089402400313
            ],
            [
              113.02646365468031,
              28.000391380517613
            ],
            [
              113.02548034879737,
              28.00002582014639
            ],
            [
              113.02382425467877,
              27.99842647894104
            ],
            [
              113.02434178409084,
              27.996918506921276
            ],
            [
              113.02382425467877,
              27.99595887737709
            ],
            [
              113.02496281938534,
              27.994542265766782
            ],
            [
              113.02408301938482,
              27.993308427580942
            ],
            [
              113.02449704291446,
              27.992074575271303
            ],
            [
              113.02413477232604,
              27.99065791261002
            ],
            [
              113.02548034879737,
              27.990338018464755
            ],
            [
              113.02667066644514,
              27.989332630685325
            ],
            [
              113.02687767820994,
              27.988327233529716
            ],
            [
              113.02760221938685,
              27.987641730093372
            ],
            [
              113.02703293703357,
              27.986544915529294
            ],
            [
              113.02703293703357,
              27.985676596086307
            ],
            [
              113.0288442899758,
              27.98485397121621
            ],
            [
              113.02931006644666,
              27.983757128293433
            ],
            [
              113.0312766782125,
              27.98330010711608
            ],
            [
              113.03096616056527,
              27.982705976689743
            ],
            [
              113.02962058409389,
              27.9822489510574
            ],
            [
              113.02910305468184,
              27.979049717398567
            ],
            [
              113.02739520762202,
              27.978729788812984
            ],
            [
              113.02620488997428,
              27.97827274633019
            ],
            [
              113.02527333703257,
              27.97877549295474
            ],
            [
              113.02397951350241,
              27.978501267813698
            ],
            [
              113.02361724291396,
              27.976993017075046
            ],
            [
              113.02460054879688,
              27.976078915453854
            ],
            [
              113.02382425467877,
              27.97484486597743
            ],
            [
              113.02397951350241,
              27.973153738210343
            ],
            [
              113.02470405467929,
              27.972468138319925
            ],
            [
              113.0263601487979,
              27.973290857665546
            ],
            [
              113.02672241938633,
              27.971691119843626
            ],
            [
              113.0273434546808,
              27.970914095771022
            ],
            [
              113.02868903115218,
              27.970502727819962
            ],
            [
              113.03050038409441,
              27.97082268080635
            ],
            [
              113.03257050174267,
              27.970365604821055
            ],
            [
              113.03396783115522,
              27.970868388298356
            ],
            [
              113.03583093703865,
              27.971371169432643
            ],
            [
              113.03753878409847,
              27.972513845114833
            ],
            [
              113.03872910174621,
              27.972513845114833
            ],
            [
              113.0402299370412,
              27.973976452327406
            ],
            [
              113.04121324292413,
              27.97452492491972
            ],
            [
              113.04219654880703,
              27.975210511738567
            ],
            [
              113.04437017233771,
              27.976901607261524
            ],
            [
              113.04685431351561,
              27.97909542140475
            ],
            [
              113.04700957233922,
              27.98032942225069
            ],
            [
              113.0475788546925,
              27.981289190924812
            ],
            [
              113.04928670175231,
              27.981106378502588
            ],
            [
              113.04980423116437,
              27.982568869203433
            ],
            [
              113.04913144292868,
              27.983848532296477
            ],
            [
              113.0491831958699,
              27.98485397121621
            ],
            [
              113.04985598410559,
              27.98540238849364
            ],
            [
              113.04861391351662,
              27.986042205125145
            ],
            [
              113.04763060763369,
              27.98686482092974
            ],
            [
              113.04633678410353,
              27.986590616358924
            ],
            [
              113.04535347822063,
              27.98709332420607
            ],
            [
              113.04493945469098,
              27.98805303267821
            ],
            [
              113.04483594880854,
              27.989058432390976
            ],
            [
              113.04364563116081,
              27.989378330333267
            ],
            [
              113.04349037233719,
              27.990200920683293
            ],
            [
              113.04426666645529,
              27.990749310762922
            ],
            [
              113.04400790174925,
              27.992074575271303
            ],
            [
              113.04323160763114,
              27.992394464263285
            ],
            [
              113.04338686645478,
              27.993491219314507
            ],
            [
              113.04276583116031,
              27.994542265766782
            ],
            [
              113.04400790174925,
              27.995638998963557
            ],
            [
              113.0427140782191,
              27.995638998963557
            ],
            [
              113.04276583116031,
              27.99669002447149
            ],
            [
              113.04240356057186,
              27.997146988886655
            ],
            [
              113.0419895370422,
              27.998746349081046
            ],
            [
              113.04074746645327,
              27.998929131591893
            ],
            [
              113.03966065468792,
              27.99851787050649
            ],
            [
              113.03909137233465,
              27.999294695683545
            ],
            [
              113.0385220899814,
              28.000117210355455
            ],
            [
              113.03671073703917,
              27.999568867938436
            ],
            [
              113.0361932076271,
              27.998243695577628
            ],
            [
              113.0346923723321,
              27.997832431876404
            ],
            [
              113.0337608193904,
              27.998472174733465
            ],
            [
              113.03334679586075,
              27.997832431876404
            ],
            [
              113.03220823115421,
              27.998883435993264
            ],
            [
              113.0312766782125,
              27.999523172611063
            ],
            [
              113.03225998409542,
              28.000071515260615
            ],
            [
              113.03350205468438,
              28.000574160238173
            ],
            [
              113.03401958409644,
              28.001076802871054
            ],
            [
              113.03495113703815,
              28.00080263445288
            ],
            [
              113.03479587821454,
              28.001488054190332
            ],
            [
              113.0330880311547,
              28.00217346956775
            ],
            [
              113.0317424546834,
              28.003087349955265
            ],
            [
              113.03081090174169,
              28.002858880585066
            ],
            [
              113.03044863115319,
              28.001625137614624
            ]
          ]
        ]
      },
      "properties": {
        "assistFileId": "assist_file_default_1773889215128",
        "sourceFileName": "辅助元素_1.geojson",
        "name": "幸福村",
        "type": "assistPolygon",
        "fill": "#9b59b6",
        "fill-opacity": 0.2,
        "stroke": "#9b59b6",
        "stroke-width": 2,
        "stroke-opacity": 0.8
      },
      "id": "assist_polygon_1773889215128"
    },
    {
      "type": "Feature",
      "geometry": {
        "type": "Point",
        "coordinates": [
          113.03764228998092,
          27.985173881633685
        ]
      },
      "properties": {
        "iconType": "default",
        "iconColor": "#e74c3c",
        "iconSize": 1,
        "text": "幸福村",
        "textColor": "#333333",
        "assistFileId": "assist_file_default_1773889215128",
        "sourceFileName": "辅助元素_1.geojson",
        "type": "assistPoint",
        "name": "辅助点_1"
      },
      "id": "assist_point_1773889231536"
    }
  ],
  "properties": {
    "description": "GIS-APP 辅助要素导出",
    "exportTime": "2026/3/19 11:00:33",
    "assistElements": {
      "lines": 0,
      "polygons": 1,
      "texts": 0,
      "points": 1
    },
    "fileCount": 1
  }
}