{
  "type": "FeatureCollection",
  "features": [
    {
      "type": "Feature",
      "geometry": {
        "type": "Polygon",
        "coordinates": [
          [
            [
              112.83862008353006,
              27.93207698349184
            ],
            [
              112.83679041077819,
              27.93153814137527
            ],
            [
              112.83506238651256,
              27.93099929657197
            ],
            [
              112.83582475015916,
              27.929427650549883
            ],
            [
              112.83729865320927,
              27.928439747066648
            ],
            [
              112.836688762292,
              27.927586550428074
            ],
            [
              112.83557062894364,
              27.92700278042645
            ],
            [
              112.83572310167297,
              27.926284289942444
            ],
            [
              112.83709535623684,
              27.923769535639465
            ],
            [
              112.8367395865351,
              27.923140837922915
            ],
            [
              112.83374095619179,
              27.923006116507977
            ],
            [
              112.83384260467801,
              27.922242691985474
            ],
            [
              112.83496073802637,
              27.920536194148
            ],
            [
              112.83409672589353,
              27.919458392162227
            ],
            [
              112.83267364708654,
              27.918515306611354
            ],
            [
              112.8331818895176,
              27.91770694102088
            ],
            [
              112.83196210768305,
              27.91680874994377
            ],
            [
              112.82967501674322,
              27.91712311766939
            ],
            [
              112.82982748947255,
              27.91568600060606
            ],
            [
              112.82840441066554,
              27.916180011750768
            ],
            [
              112.82769287126207,
              27.917033298412477
            ],
            [
              112.8256599015378,
              27.916449471423974
            ],
            [
              112.82438929546012,
              27.916988388756025
            ],
            [
              112.82311868938244,
              27.91680874994377
            ],
            [
              112.82210220452032,
              27.91582073114205
            ],
            [
              112.82154313784612,
              27.914742882153973
            ],
            [
              112.82037418025469,
              27.914518328929304
            ],
            [
              112.81986593782361,
              27.91258715195015
            ],
            [
              112.81864615598903,
              27.912407505826934
            ],
            [
              112.81757884688378,
              27.912991354636418
            ],
            [
              112.8162065923199,
              27.91290153194778
            ],
            [
              112.81305548924726,
              27.91263206343433
            ],
            [
              112.81264889530242,
              27.91375484447778
            ],
            [
              112.81198818014204,
              27.914787792742956
            ],
            [
              112.81132746498166,
              27.915641090390068
            ],
            [
              112.81041262860573,
              27.91568600060606
            ],
            [
              112.8081255376659,
              27.91609019171051
            ],
            [
              112.80776976796415,
              27.9149674349124
            ],
            [
              112.80822718615212,
              27.91357520029412
            ],
            [
              112.80751564674863,
              27.912362594249487
            ],
            [
              112.80649916188649,
              27.9108355895206
            ],
            [
              112.80553350126746,
              27.909443301714504
            ],
            [
              112.80619421642784,
              27.90881452070208
            ],
            [
              112.80573679823986,
              27.908095909355282
            ],
            [
              112.80568597399679,
              27.9069281557352
            ],
            [
              112.80644833764339,
              27.904637525482855
            ],
            [
              112.80970108920222,
              27.903559565053172
            ],
            [
              112.81330961046281,
              27.901044282285127
            ],
            [
              112.81407197410941,
              27.900595118495247
            ],
            [
              112.81503763472844,
              27.900864616992905
            ],
            [
              112.81666401050785,
              27.90041545245724
            ],
            [
              112.81635906504923,
              27.89906794766388
            ],
            [
              112.81600329534747,
              27.898394188974976
            ],
            [
              112.81679739604917,
              27.89315163290989
            ],
            [
              112.81807522117435,
              27.893972989348285
            ],
            [
              112.81897550705801,
              27.89398582299316
            ],
            [
              112.82012264552267,
              27.8941269929866
            ],
            [
              112.82086320326569,
              27.894576169013533
            ],
            [
              112.82240714997894,
              27.89551943810649
            ],
            [
              112.82316696177442,
              27.89385489453369
            ],
            [
              112.82441972973174,
              27.894740663812485
            ],
            [
              112.8251400713072,
              27.895737145586622
            ],
            [
              112.82621896821196,
              27.895654193759228
            ],
            [
              112.82738792580344,
              27.896372887740227
            ],
            [
              112.82835358642247,
              27.89596862296314
            ],
            [
              112.82997996220188,
              27.897091576948796
            ],
            [
              112.8301832591743,
              27.898394188974976
            ],
            [
              112.83119974403645,
              27.898753527464393
            ],
            [
              112.83114891979335,
              27.89969678532219
            ],
            [
              112.83135221676575,
              27.900909533343906
            ],
            [
              112.83577392591607,
              27.90095444967629
            ],
            [
              112.8381626653421,
              27.90117903105852
            ],
            [
              112.83868562484558,
              27.90186807461413
            ],
            [
              112.83983986536461,
              27.901942604271582
            ],
            [
              112.84116129568541,
              27.902212099413248
            ],
            [
              112.84258437449239,
              27.903379903937378
            ],
            [
              112.84284228016395,
              27.905611112427408
            ],
            [
              112.84223702174927,
              27.905649318052497
            ],
            [
              112.84049480005383,
              27.905169157234667
            ],
            [
              112.8403996301333,
              27.905171746769383
            ],
            [
              112.84085357394432,
              27.905878551519535
            ],
            [
              112.8413507504992,
              27.90612688722743
            ],
            [
              112.84243190176306,
              27.90638918827443
            ],
            [
              112.84227942903374,
              27.9077366018917
            ],
            [
              112.84208570714564,
              27.908533803780756
            ],
            [
              112.84228025449322,
              27.90943160814639
            ],
            [
              112.84273419830423,
              27.909909160624025
            ],
            [
              112.84403118062139,
              27.909851854438017
            ],
            [
              112.8448526027556,
              27.908992258004858
            ],
            [
              112.8456307921459,
              27.909221484388297
            ],
            [
              112.84593877453743,
              27.910341553963306
            ],
            [
              112.8456846533219,
              27.911374534827758
            ],
            [
              112.84614207150987,
              27.913081177250447
            ],
            [
              112.84954729579805,
              27.91357520029412
            ],
            [
              112.84929317458251,
              27.91456323961154
            ],
            [
              112.84695525939958,
              27.91541653903043
            ],
            [
              112.8463453684823,
              27.91658420100879
            ],
            [
              112.84837833820656,
              27.917078208050256
            ],
            [
              112.85071625338949,
              27.92026674465879
            ],
            [
              112.85071625338949,
              27.921075091111845
            ],
            [
              112.8464978412116,
              27.922736673174455
            ],
            [
              112.84588795029435,
              27.924892201039256
            ],
            [
              112.84471899270288,
              27.926284289942444
            ],
            [
              112.84415992602872,
              27.928933699937005
            ],
            [
              112.84756515031681,
              27.93234640354258
            ],
            [
              112.84665031394088,
              27.933424077028604
            ],
            [
              112.83862008353006,
              27.93207698349184
            ]
          ]
        ]
      },
      "properties": {
        "type": "assistPolygon",
        "name": "塔岭村",
        "fill": "#9b59b6",
        "fill-opacity": 0.2,
        "stroke": "#9b59b6",
        "stroke-width": 2,
        "stroke-opacity": 0.8,
        "isAssistFeature": true,
        "sourceFileName": "辅助要素_姜畲镇_塔岭村.geojson",
        "assistFileId": "assist_file_1773973333967_12"
      },
      "id": "assist_polygon_1773802276141_reimported_1773973333967"
    },
    {
      "type": "Feature",
      "geometry": {
        "type": "Point",
        "coordinates": [
          112.82847462242015,
          27.909067958253374
        ]
      },
      "properties": {
        "iconType": "default",
        "iconColor": "#e74c3c",
        "iconSize": 1,
        "text": "塔岭村",
        "textColor": "#333333",
        "type": "assistPoint",
        "name": "辅助点_1",
        "isAssistFeature": true,
        "sourceFileName": "辅助要素_姜畲镇_塔岭村.geojson",
        "assistFileId": "assist_file_1773973333967_12"
      },
      "id": "assist_point_1773802341176_reimported_1773973333967"
    }
  ],
  "properties": {
    "fileName": "辅助要素_姜畲镇_塔岭村.geojson",
    "exportTime": "2026/3/20 10:34:48",
    "source": "GIS-APP 辅助元素导出"
  }
}