{
  "type": "FeatureCollection",
  "features": [
    {
      "type": "Feature",
      "geometry": {
        "type": "Polygon",
        "coordinates": [
          [
            [
              112.65885127617754,
              27.85176578876883
            ],
            [
              112.66183389260212,
              27.85163298469375
            ],
            [
              112.66406549050251,
              27.85155709657785
            ],
            [
              112.66558898522297,
              27.851310459834252
            ],
            [
              112.66694081856647,
              27.850096239994713
            ],
            [
              112.66786349846758,
              27.849014814003525
            ],
            [
              112.66531003548543,
              27.847838513838752
            ],
            [
              112.66432298256794,
              27.847591868637736
            ],
            [
              112.66408694817461,
              27.846567336413926
            ],
            [
              112.66524000653366,
              27.845202381080327
            ],
            [
              112.66537518139761,
              27.84454500072583
            ],
            [
              112.66499669177861,
              27.843780044025124
            ],
            [
              112.66496671273151,
              27.8437403361946
            ],
            [
              112.66490233971517,
              27.843322920523505
            ],
            [
              112.66492910434674,
              27.84309874992165
            ],
            [
              112.66496965680588,
              27.842333783021687
            ],
            [
              112.66495613931953,
              27.8416763852821
            ],
            [
              112.66489885495828,
              27.840736334295798
            ],
            [
              112.66459844754861,
              27.839825581903995
            ],
            [
              112.6641478364341,
              27.839749685526243
            ],
            [
              112.66389034436868,
              27.83937020284094
            ],
            [
              112.66217373059915,
              27.839616866737373
            ],
            [
              112.65852592633888,
              27.846314525852392
            ],
            [
              112.6575174157493,
              27.84959679701818
            ],
            [
              112.65893362210916,
              27.84952090747727
            ],
            [
              112.65916965650248,
              27.850583356217214
            ],
            [
              112.65885127617754,
              27.85176578876883
            ]
          ]
        ]
      },
      "properties": {
        "name": "永丰社区",
        "type": "assistPolygon",
        "fill": "#9b59b6",
        "fill-opacity": 0.2,
        "stroke": "#9b59b6",
        "stroke-width": 2,
        "stroke-opacity": 0.8,
        "isAssistFeature": true,
        "sourceFileName": "辅助要素_楠竹山镇5社区.geojson",
        "assistFileId": "assist_file_1773972073866_4"
      },
      "id": "assist_polygon_1773828193818_reimported_1773972073866"
    },
    {
      "type": "Feature",
      "geometry": {
        "type": "Polygon",
        "coordinates": [
          [
            [
              112.65510063898559,
              27.838485245316832
            ],
            [
              112.65578728449341,
              27.83698626350666
            ],
            [
              112.65570145380495,
              27.836113429115116
            ],
            [
              112.66055088770388,
              27.838807808315067
            ],
            [
              112.66033631098266,
              27.839377034795973
            ],
            [
              112.65956383478638,
              27.839111396143224
            ],
            [
              112.65919905436036,
              27.839813439742088
            ],
            [
              112.65713911783692,
              27.83933908645683
            ],
            [
              112.65510063898559,
              27.838485245316832
            ]
          ]
        ]
      },
      "properties": {
        "name": "永丰社区",
        "type": "assistPolygon",
        "fill": "#9b59b6",
        "fill-opacity": 0.2,
        "stroke": "#9b59b6",
        "stroke-width": 2,
        "stroke-opacity": 0.8,
        "isAssistFeature": true,
        "sourceFileName": "辅助要素_楠竹山镇5社区.geojson",
        "assistFileId": "assist_file_1773972073866_4"
      },
      "id": "assist_polygon_1773828253328_reimported_1773972073866"
    },
    {
      "type": "Feature",
      "geometry": {
        "type": "Polygon",
        "coordinates": [
          [
            [
              112.65278283885166,
              27.840823633232176
            ],
            [
              112.65320861299287,
              27.83964897768857
            ],
            [
              112.65409422320651,
              27.838926106416963
            ],
            [
              112.65508201921406,
              27.838564668974996
            ],
            [
              112.65726198281693,
              27.839453200528098
            ],
            [
              112.65629121777503,
              27.841064586643355
            ],
            [
              112.65530342176748,
              27.84067303707839
            ],
            [
              112.65451999734772,
              27.842073573239972
            ],
            [
              112.65421343996604,
              27.841968157168907
            ],
            [
              112.65363438713406,
              27.841019407919546
            ],
            [
              112.65278283885166,
              27.840823633232176
            ]
          ]
        ]
      },
      "properties": {
        "name": "永丰社区",
        "type": "assistPolygon",
        "fill": "#9b59b6",
        "fill-opacity": 0.2,
        "stroke": "#9b59b6",
        "stroke-width": 2,
        "stroke-opacity": 0.8,
        "isAssistFeature": true,
        "sourceFileName": "辅助要素_楠竹山镇5社区.geojson",
        "assistFileId": "assist_file_1773972073866_4"
      },
      "id": "assist_polygon_1773828270080_reimported_1773972073866"
    },
    {
      "type": "Feature",
      "geometry": {
        "type": "Polygon",
        "coordinates": [
          [
            [
              112.65010033559217,
              27.85185232042322
            ],
            [
              112.64794521868633,
              27.851074750906648
            ],
            [
              112.64775905451307,
              27.850196256856236
            ],
            [
              112.6477097643851,
              27.849684179449838
            ],
            [
              112.64804247274898,
              27.8490086693851
            ],
            [
              112.64862163175276,
              27.848474795550658
            ],
            [
              112.64918846822454,
              27.848213305366713
            ],
            [
              112.64964440190835,
              27.847548681644795
            ],
            [
              112.64994014267623,
              27.84670972457367
            ],
            [
              112.64991549761224,
              27.84585986533949
            ],
            [
              112.64979227229229,
              27.845075373981913
            ],
            [
              112.65012498065617,
              27.84443252266746
            ],
            [
              112.65123400853567,
              27.84369160456197
            ],
            [
              112.65186245766743,
              27.842907097522243
            ],
            [
              112.6524785842672,
              27.84206810454853
            ],
            [
              112.65270038984312,
              27.841686741960814
            ],
            [
              112.65266342224713,
              27.84102207824624
            ],
            [
              112.65357528961476,
              27.841120143640538
            ],
            [
              112.65417909368253,
              27.841970040011176
            ],
            [
              112.65454876964239,
              27.84210079270798
            ],
            [
              112.65533741169007,
              27.840706089150416
            ],
            [
              112.65622562815483,
              27.841045215263435
            ],
            [
              112.65635940065484,
              27.841059131484172
            ],
            [
              112.65647143415285,
              27.84083402948447
            ],
            [
              112.65733210936394,
              27.839398401721624
            ],
            [
              112.65917082458762,
              27.839986492499975
            ],
            [
              112.65969896619441,
              27.839069761368762
            ],
            [
              112.66169416782013,
              27.840142163054722
            ],
            [
              112.6584928372298,
              27.84629718826922
            ],
            [
              112.65752367578357,
              27.84592752886006
            ],
            [
              112.65720062196813,
              27.84700289818811
            ],
            [
              112.65326696668629,
              27.845675487631468
            ],
            [
              112.65218378624634,
              27.847658196143968
            ],
            [
              112.65220717969791,
              27.847648678022352
            ],
            [
              112.65010033559217,
              27.85185232042322
            ]
          ]
        ]
      },
      "properties": {
        "name": "爱国社区",
        "type": "assistPolygon",
        "fill": "#9b59b6",
        "fill-opacity": 0.2,
        "stroke": "#9b59b6",
        "stroke-width": 2,
        "stroke-opacity": 0.8,
        "isAssistFeature": true,
        "sourceFileName": "辅助要素_楠竹山镇5社区.geojson",
        "assistFileId": "assist_file_1773972073866_4"
      },
      "id": "assist_polygon_1773828428927_reimported_1773972073866"
    },
    {
      "type": "Feature",
      "geometry": {
        "type": "Polygon",
        "coordinates": [
          [
            [
              112.65696738918716,
              27.854435164174234
            ],
            [
              112.65651622182395,
              27.854268957089204
            ],
            [
              112.65609932650389,
              27.853693432626443
            ],
            [
              112.65551098234533,
              27.853250220884433
            ],
            [
              112.65516314052198,
              27.853855097109914
            ],
            [
              112.65452482728273,
              27.85368983655235
            ],
            [
              112.65396959712145,
              27.854019547133547
            ],
            [
              112.65255614384358,
              27.85325630384881
            ],
            [
              112.65022126539462,
              27.85191492325552
            ],
            [
              112.65324276872705,
              27.845798895084613
            ],
            [
              112.65725243667136,
              27.847008686263806
            ],
            [
              112.65755648732117,
              27.84601733060137
            ],
            [
              112.65854465193303,
              27.84633658171913
            ],
            [
              112.6574614714931,
              27.849680260645002
            ],
            [
              112.65892471524529,
              27.849596249874267
            ],
            [
              112.65911474690142,
              27.85073879077993
            ],
            [
              112.6585854657758,
              27.852231771072738
            ],
            [
              112.65929814926642,
              27.852517524143636
            ],
            [
              112.65876891934289,
              27.854779813322594
            ],
            [
              112.6574424683275,
              27.854502369796847
            ],
            [
              112.65696738918716,
              27.854435164174234
            ]
          ]
        ]
      },
      "properties": {
        "name": "楠竹社区",
        "type": "assistPolygon",
        "fill": "#9b59b6",
        "fill-opacity": 0.2,
        "stroke": "#9b59b6",
        "stroke-width": 2,
        "stroke-opacity": 0.8,
        "isAssistFeature": true,
        "sourceFileName": "辅助要素_楠竹山镇5社区.geojson",
        "assistFileId": "assist_file_1773972073866_4"
      },
      "id": "assist_polygon_1773828554431_reimported_1773972073867"
    },
    {
      "type": "Feature",
      "geometry": {
        "type": "Polygon",
        "coordinates": [
          [
            [
              112.64555974340263,
              27.85426606064378
            ],
            [
              112.64578944512935,
              27.853232152041784
            ],
            [
              112.64553886142747,
              27.852456714120322
            ],
            [
              112.64597738290577,
              27.851995141296086
            ],
            [
              112.64710500956423,
              27.85217977066155
            ],
            [
              112.64768970486861,
              27.851736659656268
            ],
            [
              112.64794028857052,
              27.851090452861015
            ],
            [
              112.65029995176324,
              27.851995141296086
            ],
            [
              112.65401694334116,
              27.854062972232214
            ],
            [
              112.6531816643349,
              27.854819936196407
            ],
            [
              112.65215844755221,
              27.855336884159314
            ],
            [
              112.65111434879435,
              27.85613076373167
            ],
            [
              112.65019554188746,
              27.855761518142046
            ],
            [
              112.64768970486861,
              27.854838398666075
            ],
            [
              112.6463950224089,
              27.854709161312257
            ],
            [
              112.64555974340263,
              27.85426606064378
            ]
          ]
        ]
      },
      "properties": {
        "name": "罗金塘村",
        "type": "assistPolygon",
        "fill": "#9b59b6",
        "fill-opacity": 0.2,
        "stroke": "#9b59b6",
        "stroke-width": 2,
        "stroke-opacity": 0.8,
        "isAssistFeature": true,
        "sourceFileName": "辅助要素_楠竹山镇5社区.geojson",
        "assistFileId": "assist_file_1773972073866_4"
      },
      "id": "assist_polygon_1773828671399_reimported_1773972073867"
    },
    {
      "type": "Feature",
      "geometry": {
        "type": "Polygon",
        "coordinates": [
          [
            [
              112.66168062822364,
              27.862260056799144
            ],
            [
              112.66216091365223,
              27.860838534757974
            ],
            [
              112.66293354673304,
              27.859546225815492
            ],
            [
              112.6635808879629,
              27.858955450881737
            ],
            [
              112.66468763264623,
              27.859527764147558
            ],
            [
              112.66477116054686,
              27.859066221427057
            ],
            [
              112.66408205536668,
              27.85851236756848
            ],
            [
              112.66406117339152,
              27.858106206273703
            ],
            [
              112.66356000598776,
              27.85770004345713
            ],
            [
              112.66362265191322,
              27.856924637490707
            ],
            [
              112.6635808879629,
              27.856038452452154
            ],
            [
              112.66370617981387,
              27.855263034601222
            ],
            [
              112.6625159072299,
              27.85395219657464
            ],
            [
              112.66109593291924,
              27.85354601819526
            ],
            [
              112.65938361095637,
              27.85265980554051
            ],
            [
              112.65881979762715,
              27.85485686113263
            ],
            [
              112.6571910035649,
              27.854542998773752
            ],
            [
              112.65648101640959,
              27.85428452320778
            ],
            [
              112.65604249493126,
              27.853730644919963
            ],
            [
              112.6554995635772,
              27.853306002983146
            ],
            [
              112.65518633394987,
              27.85389680870341
            ],
            [
              112.65445546481936,
              27.853712182261646
            ],
            [
              112.65387076951497,
              27.85421067293288
            ],
            [
              112.65495663222313,
              27.85548458312455
            ],
            [
              112.65533250777594,
              27.85613076373164
            ],
            [
              112.65650189838472,
              27.85542919603617
            ],
            [
              112.65731629541585,
              27.855410733667057
            ],
            [
              112.65900773540353,
              27.855244572203844
            ],
            [
              112.65986389638499,
              27.856093839229274
            ],
            [
              112.66065741144097,
              27.85662924328274
            ],
            [
              112.6603441818136,
              27.85755234751015
            ],
            [
              112.65969684058373,
              27.858124668183734
            ],
            [
              112.65917479120482,
              27.858789294851476
            ],
            [
              112.65780841993583,
              27.859093609602894
            ],
            [
              112.65790786414385,
              27.85953320157637
            ],
            [
              112.65777527186651,
              27.860133974390422
            ],
            [
              112.65782499397051,
              27.860427033091412
            ],
            [
              112.65794101221316,
              27.861438079527787
            ],
            [
              112.66168062822364,
              27.862260056799144
            ]
          ]
        ]
      },
      "properties": {
        "name": "罗金塘村",
        "type": "assistPolygon",
        "fill": "#9b59b6",
        "fill-opacity": 0.2,
        "stroke": "#9b59b6",
        "stroke-width": 2,
        "stroke-opacity": 0.8,
        "isAssistFeature": true,
        "sourceFileName": "辅助要素_楠竹山镇5社区.geojson",
        "assistFileId": "assist_file_1773972073866_4"
      },
      "id": "assist_polygon_1773828726718_reimported_1773972073867"
    },
    {
      "type": "Feature",
      "geometry": {
        "type": "Polygon",
        "coordinates": [
          [
            [
              112.64731927367232,
              27.843778672844607
            ],
            [
              112.64823939945539,
              27.842345181832115
            ],
            [
              112.6494443260761,
              27.84255826953266
            ],
            [
              112.65049589839964,
              27.840427373691284
            ],
            [
              112.65124076212882,
              27.83918756048628
            ],
            [
              112.65268202915442,
              27.839887333930463
            ],
            [
              112.6524060087157,
              27.840851417012317
            ],
            [
              112.65237840667183,
              27.8412541327248
            ],
            [
              112.6522956005402,
              27.841754474406187
            ],
            [
              112.65196794006191,
              27.842333511815966
            ],
            [
              112.65103970754397,
              27.843536160189558
            ],
            [
              112.65019341176594,
              27.84427065754396
            ],
            [
              112.6495361790637,
              27.84465808253819
            ],
            [
              112.6481778981458,
              27.843960716552232
            ],
            [
              112.64731927367232,
              27.843778672844607
            ]
          ]
        ]
      },
      "properties": {
        "name": "新桥社区",
        "type": "assistPolygon",
        "fill": "#9b59b6",
        "fill-opacity": 0.2,
        "stroke": "#9b59b6",
        "stroke-width": 2,
        "stroke-opacity": 0.8,
        "isAssistFeature": true,
        "sourceFileName": "辅助要素_楠竹山镇5社区.geojson",
        "assistFileId": "assist_file_1773972073866_4"
      },
      "id": "assist_polygon_1773828776407_reimported_1773972073867"
    },
    {
      "type": "Feature",
      "geometry": {
        "type": "Point",
        "coordinates": [
          112.66221702767972,
          27.84538280301092
        ]
      },
      "properties": {
        "iconType": "default",
        "iconColor": "#e74c3c",
        "iconSize": 1,
        "text": "永丰社区",
        "textColor": "#333333",
        "type": "assistPoint",
        "name": "辅助点_1",
        "isAssistFeature": true,
        "sourceFileName": "辅助要素_楠竹山镇5社区.geojson",
        "assistFileId": "assist_file_1773972073866_4"
      },
      "id": "assist_point_1773828312600_reimported_1773972073867"
    },
    {
      "type": "Feature",
      "geometry": {
        "type": "Point",
        "coordinates": [
          112.65512209431945,
          27.844464174198265
        ]
      },
      "properties": {
        "iconType": "default",
        "iconColor": "#e74c3c",
        "iconSize": 1,
        "text": "爱国社区",
        "textColor": "#333333",
        "type": "assistPoint",
        "name": "辅助点_2",
        "isAssistFeature": true,
        "sourceFileName": "辅助要素_楠竹山镇5社区.geojson",
        "assistFileId": "assist_file_1773972073866_4"
      },
      "id": "assist_point_1773828519951_reimported_1773972073867"
    },
    {
      "type": "Feature",
      "geometry": {
        "type": "Point",
        "coordinates": [
          112.65487704096977,
          27.850150719758375
        ]
      },
      "properties": {
        "iconType": "default",
        "iconColor": "#e74c3c",
        "iconSize": 1,
        "text": "楠竹社区",
        "textColor": "#333333",
        "type": "assistPoint",
        "name": "辅助点_3",
        "isAssistFeature": true,
        "sourceFileName": "辅助要素_楠竹山镇5社区.geojson",
        "assistFileId": "assist_file_1773972073866_4"
      },
      "id": "assist_point_1773828564399_reimported_1773972073867"
    },
    {
      "type": "Feature",
      "geometry": {
        "type": "Point",
        "coordinates": [
          112.66082102950934,
          27.85545469004552
        ]
      },
      "properties": {
        "iconType": "default",
        "iconColor": "#e74c3c",
        "iconSize": 1,
        "text": "罗金塘村",
        "textColor": "#333333",
        "type": "assistPoint",
        "name": "辅助点_4",
        "isAssistFeature": true,
        "sourceFileName": "辅助要素_楠竹山镇5社区.geojson",
        "assistFileId": "assist_file_1773972073866_4"
      },
      "id": "assist_point_1773828743223_reimported_1773972073867"
    },
    {
      "type": "Feature",
      "geometry": {
        "type": "Point",
        "coordinates": [
          112.65057047279815,
          27.84230362725374
        ]
      },
      "properties": {
        "iconType": "default",
        "iconColor": "#e74c3c",
        "iconSize": 1,
        "text": "新桥社区",
        "textColor": "#333333",
        "type": "assistPoint",
        "name": "辅助点_5",
        "isAssistFeature": true,
        "sourceFileName": "辅助要素_楠竹山镇5社区.geojson",
        "assistFileId": "assist_file_1773972073866_4"
      },
      "id": "assist_point_1773828802137_reimported_1773972073867"
    }
  ],
  "properties": {
    "fileName": "辅助要素_楠竹山镇5社区.geojson",
    "exportTime": "2026/3/20 10:02:31",
    "source": "GIS-APP 辅助元素导出"
  }
}