{
  "type": "FeatureCollection",
  "features": [
    {
      "type": "Feature",
      "geometry": {
        "type": "Polygon",
        "coordinates": [
          [
            [
              112.92848563927245,
              28.019472513909065
            ],
            [
              112.92816285830021,
              28.01776281734581
            ],
            [
              112.92654895343892,
              28.017287896815986
            ],
            [
              112.92816285830021,
              28.016148078998313
            ],
            [
              112.9294539821892,
              28.0148182762957
            ],
            [
              112.9294539821892,
              28.013298481671015
            ],
            [
              112.93160585533758,
              28.011873654731943
            ],
            [
              112.93246660459691,
              28.007694053639185
            ],
            [
              112.93096029339307,
              28.007314081861637
            ],
            [
              112.93160585533758,
              28.00455924639266
            ],
            [
              112.92923879487438,
              28.00427425939253
            ],
            [
              112.93128307436531,
              28.002279329284136
            ],
            [
              112.92923879487438,
              28.00246932421919
            ],
            [
              112.9268717344112,
              28.001044354040076
            ],
            [
              112.92289076908673,
              27.998669361864913
            ],
            [
              112.92385911200348,
              27.99648432283405
            ],
            [
              112.92837804561503,
              27.99572429887357
            ],
            [
              112.92966916950405,
              27.996959335087595
            ],
            [
              112.933004572884,
              27.9953442848835
            ],
            [
              112.93365013482851,
              27.991924098679448
            ],
            [
              112.93666275723622,
              27.990118956652452
            ],
            [
              112.93633997626395,
              27.987838734044175
            ],
            [
              112.93515644603238,
              27.987173660032155
            ],
            [
              112.93644756992137,
              27.984133269447014
            ],
            [
              112.94150447182002,
              27.985273425963243
            ],
            [
              112.94354875131096,
              27.98403825585983
            ],
            [
              112.94440950057032,
              27.97586677418161
            ],
            [
              112.94301078302387,
              27.975581711319933
            ],
            [
              112.94354875131096,
              27.973586250195183
            ],
            [
              112.9418272527923,
              27.97339620435342
            ],
            [
              112.94150447182002,
              27.971590752158804
            ],
            [
              112.93913741135684,
              27.97168577671181
            ],
            [
              112.94397912594064,
              27.961137540408032
            ],
            [
              112.94215003376455,
              27.95914181215265
            ],
            [
              112.94096650353296,
              27.957716269378892
            ],
            [
              112.9388146303846,
              27.957431158565086
            ],
            [
              112.9388146303846,
              27.952584159523553
            ],
            [
              112.94688415469093,
              27.956385745805335
            ],
            [
              112.94688415469093,
              27.948972528574018
            ],
            [
              112.95021955807088,
              27.948592349868207
            ],
            [
              112.95204865024702,
              27.950778359148444
            ],
            [
              112.9562448028863,
              27.94868739467013
            ],
            [
              112.95796630140498,
              27.949257661724985
            ],
            [
              112.95861186334949,
              27.951063487531215
            ],
            [
              112.95635239654372,
              27.952489118151462
            ],
            [
              112.95861186334949,
              27.954199850049207
            ],
            [
              112.96076373649784,
              27.952013910036143
            ],
            [
              112.9681876988597,
              27.95153869982937
            ],
            [
              112.96840288617452,
              27.94916261742499
            ],
            [
              112.97195347686934,
              27.951728784163066
            ],
            [
              112.97475091196218,
              27.95058827314169
            ],
            [
              112.97539647390668,
              27.95381968974776
            ],
            [
              112.98641059576178,
              27.955526109281365
            ],
            [
              112.98594065233365,
              27.963608390931782
            ],
            [
              112.98744696353751,
              27.96493882547587
            ],
            [
              112.98701658890782,
              27.96702947519232
            ],
            [
              112.986801401593,
              27.96873997665132
            ],
            [
              112.98959883668587,
              27.970260399628927
            ],
            [
              112.98895327474136,
              27.97178080118107
            ],
            [
              112.99175070983426,
              27.975486690198636
            ],
            [
              112.97238385149903,
              27.986603593327914
            ],
            [
              112.9703395720081,
              27.985463450877162
            ],
            [
              112.94817527858,
              28.003989271638517
            ],
            [
              112.94247281473686,
              28.015103235400076
            ],
            [
              112.94193484644974,
              28.017667833407415
            ],
            [
              112.93989056695881,
              28.018807635138103
            ],
            [
              112.93687794455111,
              28.01918756636711
            ],
            [
              112.93677035089368,
              28.02070727787664
            ],
            [
              112.935048852375,
              28.020802259133745
            ],
            [
              112.93225141728213,
              28.020612296535717
            ],
            [
              112.92848563927245,
              28.019472513909065
            ]
          ]
        ]
      },
      "properties": {
        "sourceFileId": "file_1775119788706_g1",
        "sourceFileName": "九华和平湘江湾小学.geojson",
        "name": "九华和平湘江湾小学",
        "id": "polygon_1774236416101_imported_1775119788706_g1",
        "sourceFile": "九华和平湘江湾小学.geojson",
        "sourceGroupId": 1,
        "isAssistFeature": false
      },
      "id": "polygon_1774236416101_imported_1775119788706_g1"
    }
  ],
  "properties": {
    "fileName": "九华和平湘江湾小学.geojson",
    "exportTime": "2026/4/2 16:52:48",
    "isStarred": false
  }
}