{
  "type": "FeatureCollection",
  "features": [
    {
      "type": "Feature",
      "geometry": {
        "type": "Polygon",
        "coordinates": [
          [
            [
              112.90425502420656,
              27.919495872842703
            ],
            [
              112.89959261005536,
              27.918884461117443
            ],
            [
              112.90115986943272,
              27.91197847971945
            ],
            [
              112.90173678219047,
              27.909436256738076
            ],
            [
              112.90386185975728,
              27.909264374146204
            ],
            [
              112.90467904790118,
              27.907512951145165
            ],
            [
              112.90492500719732,
              27.90689193427984
            ],
            [
              112.90562774804346,
              27.906622825864403
            ],
            [
              112.90661158522803,
              27.907575052635607
            ],
            [
              112.90696295565111,
              27.907626803850434
            ],
            [
              112.90798751332647,
              27.907309057002195
            ],
            [
              112.90866526077137,
              27.906731141090063
            ],
            [
              112.90952665931194,
              27.904171792316063
            ],
            [
              112.91051758023944,
              27.90342118277451
            ],
            [
              112.91151482654729,
              27.895990571064644
            ],
            [
              112.91373199188601,
              27.89604353124406
            ],
            [
              112.91528999996187,
              27.89622889166796
            ],
            [
              112.91936045585079,
              27.896699722015768
            ],
            [
              112.92420507865742,
              27.896178301453062
            ],
            [
              112.92469656964197,
              27.898828663848064
            ],
            [
              112.92545501055233,
              27.89879429014141
            ],
            [
              112.92627174875308,
              27.906316553113044
            ],
            [
              112.92206989964644,
              27.906958982283783
            ],
            [
              112.92199748377989,
              27.908737515281203
            ],
            [
              112.91983423158479,
              27.908912999807256
            ],
            [
              112.91737537951178,
              27.91007703101262
            ],
            [
              112.91463421519953,
              27.914955785862787
            ],
            [
              112.91316020452952,
              27.91713855179988
            ],
            [
              112.91201859463848,
              27.92051395104636
            ],
            [
              112.90425502420656,
              27.919495872842703
            ]
          ]
        ]
      },
      "properties": {
        "sourceFileId": "file_1775789831739_4_g1",
        "sourceFileName": "九华和平科大小学.geojson",
        "sourceGroupId": 1,
        "name": "九华和平科大小学",
        "id": "imported_1775789831740_4_2_g1",
        "sourceFile": "九华和平科大小学.geojson",
        "isAssistFeature": false
      },
      "id": "imported_1775789831740_4_2_g1"
    }
  ],
  "properties": {
    "fileName": "九华和平科大小学.geojson",
    "exportTime": "2026/4/10 11:38:30",
    "isStarred": false
  }
}