{
  "type": "FeatureCollection",
  "features": [
    {
      "type": "Feature",
      "geometry": {
        "type": "Polygon",
        "coordinates": [
          [
            [
              112.94234793602564,
              27.898858559295945
            ],
            [
              112.943134977793,
              27.905008523741927
            ],
            [
              112.94264615826029,
              27.915626042340676
            ],
            [
              112.9432989092836,
              27.91740542730504
            ],
            [
              112.94600830310443,
              27.920523259897678
            ],
            [
              112.96113134875506,
              27.91640923905875
            ],
            [
              112.95709730639666,
              27.904406464696464
            ],
            [
              112.95481973811664,
              27.89623417835807
            ],
            [
              112.94987061030275,
              27.89725212761013
            ],
            [
              112.9495137869579,
              27.897262138918123
            ],
            [
              112.94760300992257,
              27.897315749120494
            ],
            [
              112.94674158271175,
              27.897745669383838
            ],
            [
              112.94607327950736,
              27.89807920432743
            ],
            [
              112.94577691638634,
              27.898126826169573
            ],
            [
              112.94460887910715,
              27.89832059049563
            ],
            [
              112.9431624341888,
              27.8986647579099
            ],
            [
              112.94234793602564,
              27.898858559295945
            ]
          ]
        ]
      },
      "properties": {
        "sourceFileId": "file_1775801863379_2_g1",
        "sourceFileName": "九华和平小学.geojson",
        "name": "九华和平小学",
        "id": "imported_1775801863379_2_0_g1",
        "sourceFile": "九华和平小学.geojson",
        "sourceGroupId": 1,
        "isAssistFeature": false
      },
      "id": "imported_1775801863379_2_0_g1"
    }
  ],
  "properties": {
    "fileName": "九华和平小学.geojson",
    "exportTime": "2026/4/10 14:23:17",
    "isStarred": false
  }
}