{
  "type": "FeatureCollection",
  "features": [
    {
      "type": "Feature",
      "geometry": {
        "type": "Polygon",
        "coordinates": [
          [
            [
              112.90020798459685,
              27.974670001206377
            ],
            [
              112.9011619846488,
              27.974575001267013
            ],
            [
              112.90179235494155,
              27.974989509637425
            ],
            [
              112.90266298504692,
              27.975562001692225
            ],
            [
              112.9036813745418,
              27.976487872733315
            ],
            [
              112.90615198501659,
              27.97873400114446
            ],
            [
              112.90914598451857,
              27.981220001033122
            ],
            [
              112.91111598454677,
              27.981426001131496
            ],
            [
              112.91284298490073,
              27.9810620010376
            ],
            [
              112.91537698499351,
              27.980439001214563
            ],
            [
              112.916895984935,
              27.978471001162447
            ],
            [
              112.91642038987413,
              27.978594861931825
            ],
            [
              112.9178568418275,
              27.97458879607737
            ],
            [
              112.9196525929451,
              27.97468208553859
            ],
            [
              112.9207921256459,
              27.974741284625097
            ],
            [
              112.92171258260515,
              27.974789102269014
            ],
            [
              112.92174873889701,
              27.9739588868064
            ],
            [
              112.92175235461605,
              27.973875858799857
            ],
            [
              112.92178818571777,
              27.97305309789354
            ],
            [
              112.91952010222045,
              27.97218508483293
            ],
            [
              112.9225442132508,
              27.967778142051742
            ],
            [
              112.92300207556794,
              27.96763541601237
            ],
            [
              112.92511470650368,
              27.966976859812263
            ],
            [
              112.92525696550872,
              27.966806757708284
            ],
            [
              112.9280939808216,
              27.96315693687663
            ],
            [
              112.92829002286098,
              27.962903586007698
            ],
            [
              112.92801959582445,
              27.96089718747507
            ],
            [
              112.92791200909448,
              27.96009894784089
            ],
            [
              112.92897044728134,
              27.954823358776423
            ],
            [
              112.92747187682606,
              27.954671457043474
            ],
            [
              112.92435867897068,
              27.954355888490767
            ],
            [
              112.9223174048112,
              27.957160676668977
            ],
            [
              112.91923436878982,
              27.957849716997686
            ],
            [
              112.91920484475969,
              27.957865515884365
            ],
            [
              112.91846166403357,
              27.95802881058478
            ],
            [
              112.9180774923158,
              27.958101525314774
            ],
            [
              112.91740322494836,
              27.958229148311375
            ],
            [
              112.9146059232559,
              27.95682677721109
            ],
            [
              112.91432723441372,
              27.956993301366197
            ],
            [
              112.91234116352514,
              27.95818002441358
            ],
            [
              112.9120354291047,
              27.95836270632472
            ],
            [
              112.9094649358518,
              27.957694913812105
            ],
            [
              112.9072724554671,
              27.961300944777292
            ],
            [
              112.90515557819498,
              27.961300944777292
            ],
            [
              112.90542390766534,
              27.960817348622328
            ],
            [
              112.90712125014016,
              27.95776169277316
            ],
            [
              112.90636522260715,
              27.955157264430653
            ],
            [
              112.90798763660415,
              27.951616786565083
            ],
            [
              112.90845580708917,
              27.95058248390484
            ],
            [
              112.90893571586004,
              27.947944671603608
            ],
            [
              112.90491323608754,
              27.946353296669017
            ],
            [
              112.90840649676657,
              27.94447177052274
            ],
            [
              112.91131480238039,
              27.942995994342894
            ],
            [
              112.91464060631071,
              27.941308323704874
            ],
            [
              112.91775099513421,
              27.93972997410306
            ],
            [
              112.92952369091876,
              27.94276461262713
            ],
            [
              112.92960608709153,
              27.942785837088238
            ],
            [
              112.9313270040544,
              27.937823262847516
            ],
            [
              112.93300663804001,
              27.927574791276342
            ],
            [
              112.93291868848213,
              27.927526559838938
            ],
            [
              112.93045996990509,
              27.92617817894137
            ],
            [
              112.92826456640243,
              27.92544107009435
            ],
            [
              112.92686402550085,
              27.923997956864326
            ],
            [
              112.92667248671597,
              27.92380059402589
            ],
            [
              112.92593243841523,
              27.92339932059616
            ],
            [
              112.9252029345393,
              27.922930540389046
            ],
            [
              112.92391766725162,
              27.922104621113462
            ],
            [
              112.92151319434132,
              27.926884766479247
            ],
            [
              112.92110755019331,
              27.927691175087602
            ],
            [
              112.92107822109762,
              27.927942906886003
            ],
            [
              112.9208102222073,
              27.930243101222487
            ],
            [
              112.92049283753599,
              27.93296709979265
            ],
            [
              112.90940365368145,
              27.930668382523365
            ],
            [
              112.90382960464854,
              27.93013308149642
            ],
            [
              112.90384498739945,
              27.933967470345024
            ],
            [
              112.90230740760298,
              27.93464668491019
            ],
            [
              112.90042333502495,
              27.935068087809427
            ],
            [
              112.8996667810792,
              27.935237302628266
            ],
            [
              112.89960452423675,
              27.9357653673802
            ],
            [
              112.89919882169826,
              27.93919435925301
            ],
            [
              112.89318372411535,
              27.9495650197003
            ],
            [
              112.89268082026983,
              27.950385548136396
            ],
            [
              112.89227028659175,
              27.950789137642744
            ],
            [
              112.89060843026556,
              27.95242287013012
            ],
            [
              112.89048263378642,
              27.9525420600213
            ],
            [
              112.89044206047834,
              27.95258050261144
            ],
            [
              112.88519347556442,
              27.957553344817157
            ],
            [
              112.88505977301246,
              27.959501958086875
            ],
            [
              112.88476513458247,
              27.959935703086202
            ],
            [
              112.88235229476359,
              27.96266099993838
            ],
            [
              112.88109496148799,
              27.963997757928993
            ],
            [
              112.88171206815555,
              27.96483601601841
            ],
            [
              112.88626842658284,
              27.971025024941483
            ],
            [
              112.88668013166411,
              27.971529089647532
            ],
            [
              112.89227028659175,
              27.978385403084815
            ],
            [
              112.89234781569233,
              27.978480489313853
            ],
            [
              112.89312713384572,
              27.979436286183187
            ],
            [
              112.89486998497283,
              27.981623001635356
            ],
            [
              112.8963109850965,
              27.980239001419974
            ],
            [
              112.89703998501754,
              27.9787880009588
            ],
            [
              112.89896498483992,
              27.976327001056433
            ],
            [
              112.89924398449915,
              27.97476300102427
            ],
            [
              112.90020798459685,
              27.974670001206377
            ]
          ]
        ]
      },
      "properties": {
        "name": "九华杉山学校",
        "isAssistFeature": false,
        "sourceFileId": "file_1776680404426_6_g1",
        "sourceFileName": "九华杉山学校.geojson",
        "sourceGroupId": 1,
        "id": "imported_1776680404426_6_0_g1",
        "sourceFile": "九华杉山学校.geojson"
      },
      "id": "imported_1776680404426_6_0_g1"
    }
  ],
  "properties": {
    "fileName": "九华杉山学校.geojson",
    "exportTime": "2026/4/20 18:35:58",
    "isStarred": false
  }
}