{
  "type": "FeatureCollection",
  "features": [
    {
      "type": "Feature",
      "geometry": {
        "type": "Polygon",
        "coordinates": [
          [
            [
              112.92627174875308,
              27.906316553113044
            ],
            [
              112.93109726228637,
              27.90594166243713
            ],
            [
              112.93321836713619,
              27.90580107809876
            ],
            [
              112.93361160342546,
              27.905789777813737
            ],
            [
              112.9430838177201,
              27.904895688483236
            ],
            [
              112.94234793602564,
              27.898858559295945
            ],
            [
              112.93753126250986,
              27.900204245496795
            ],
            [
              112.93569340467563,
              27.89621227726289
            ],
            [
              112.93059357721684,
              27.897775950475832
            ],
            [
              112.92976965063927,
              27.898753861223938
            ],
            [
              112.92543817327889,
              27.898751872624942
            ],
            [
              112.92558991692242,
              27.90050000698068
            ],
            [
              112.92627174875308,
              27.906316553113044
            ]
          ]
        ]
      },
      "properties": {
        "sourceFileId": "file_1775801863380_7_g1",
        "sourceFileName": "九华莲城小学.geojson",
        "name": "九华莲城小学",
        "id": "imported_1775801863380_7_0_g1",
        "sourceFile": "九华莲城小学.geojson",
        "sourceGroupId": 1,
        "isAssistFeature": false
      },
      "id": "imported_1775801863380_7_0_g1"
    }
  ],
  "properties": {
    "fileName": "九华莲城小学.geojson",
    "exportTime": "2026/4/10 14:26:48",
    "isStarred": false
  }
}