{
  "type": "FeatureCollection",
  "features": [
    {
      "type": "Feature",
      "geometry": {
        "type": "Polygon",
        "coordinates": [
          [
            [
              112.93372137941105,
              27.922237744928154
            ],
            [
              112.94569741618034,
              27.92065502589506
            ],
            [
              112.94377651455957,
              27.918114616567507
            ],
            [
              112.94273478951956,
              27.9161311685247
            ],
            [
              112.9430838177201,
              27.904895688483236
            ],
            [
              112.92206989964644,
              27.906958982283783
            ],
            [
              112.92184021061064,
              27.91260004211273
            ],
            [
              112.93397589443386,
              27.91290428947852
            ],
            [
              112.93382144469285,
              27.918308177346717
            ],
            [
              112.93372137941105,
              27.922237744928154
            ]
          ]
        ]
      },
      "properties": {
        "sourceFileId": "file_1773391905322_1",
        "sourceFileName": "新建文件_2026-03-13T08-51-45.geojson",
        "name": "九华吉利学校",
        "id": "polygon_1773392217644",
        "sourceFile": "新建文件_2026-03-13T08-51-45.geojson"
      },
      "id": "polygon_1773392217644"
    }
  ]
}