{
  "type": "FeatureCollection",
  "features": [
    {
      "type": "Feature",
      "geometry": {
        "type": "Polygon",
        "coordinates": [
          [
            [
              112.89607407420326,
              27.922119871199513
            ],
            [
              112.89266014644187,
              27.921252625796996
            ],
            [
              112.8902800187741,
              27.92130910544445
            ],
            [
              112.88475134993443,
              27.921440300100045
            ],
            [
              112.88538591356291,
              27.924644219335605
            ],
            [
              112.88566450089544,
              27.926050780789623
            ],
            [
              112.88889356435446,
              27.92708025690098
            ],
            [
              112.8896177187629,
              27.927311126933475
            ],
            [
              112.89418461802174,
              27.926947310245467
            ],
            [
              112.89452152038929,
              27.926500806489372
            ],
            [
              112.89636844942692,
              27.926379520258493
            ],
            [
              112.89729160762022,
              27.92631889693473
            ],
            [
              112.89701085534783,
              27.92325946396737
            ],
            [
              112.89610233789705,
              27.92215478851486
            ],
            [
              112.89607407420326,
              27.922119871199513
            ]
          ]
        ]
      },
      "properties": {
        "name": "九华风车坪雅爱小学",
        "isAssistFeature": false,
        "sourceFileId": "file_1776680404426_9_g1",
        "sourceFileName": "九华风车坪雅爱小学.geojson",
        "sourceGroupId": 1,
        "id": "imported_1776680404426_9_0_g1",
        "sourceFile": "九华风车坪雅爱小学.geojson"
      },
      "id": "imported_1776680404426_9_0_g1"
    },
    {
      "type": "Feature",
      "geometry": {
        "type": "Polygon",
        "coordinates": [
          [
            [
              112.92151319434132,
              27.926884766479247
            ],
            [
              112.92391766725162,
              27.922104621113462
            ],
            [
              112.9252029345393,
              27.922930540389046
            ],
            [
              112.92593243841523,
              27.92339932059616
            ],
            [
              112.92686402550085,
              27.923997956864326
            ],
            [
              112.92729858821451,
              27.924277204496562
            ],
            [
              112.92826456640243,
              27.92544107009435
            ],
            [
              112.93045996990509,
              27.92617817894137
            ],
            [
              112.93291868848213,
              27.927526559838938
            ],
            [
              112.93300663804001,
              27.927574791276342
            ],
            [
              112.93340295228549,
              27.92439363471928
            ],
            [
              112.93340181052677,
              27.921794248494606
            ],
            [
              112.93366514446578,
              27.912912694222584
            ],
            [
              112.92208200039269,
              27.912606105496124
            ],
            [
              112.92208200039269,
              27.912606105496124
            ],
            [
              112.92208538614302,
              27.91250038455142
            ],
            [
              112.92209099702029,
              27.91232521152466
            ],
            [
              112.92220525194463,
              27.908757796370722
            ],
            [
              112.92208638057802,
              27.90876557755007
            ],
            [
              112.92199608462063,
              27.90877148845172
            ],
            [
              112.92191712989366,
              27.9087766563227
            ],
            [
              112.91983421612585,
              27.90891300150021
            ],
            [
              112.91737536369985,
              27.910077032475712
            ],
            [
              112.91316018901071,
              27.917138553086048
            ],
            [
              112.91276501652395,
              27.918884462455807
            ],
            [
              112.91201857940493,
              27.920513952221825
            ],
            [
              112.90425500903783,
              27.919495873844326
            ],
            [
              112.89959259460976,
              27.918884462455807
            ],
            [
              112.8995040638419,
              27.921522653267658
            ],
            [
              112.89947512641164,
              27.922257868783518
            ],
            [
              112.89947596453982,
              27.92229768340877
            ],
            [
              112.8993730544392,
              27.924432387353207
            ],
            [
              112.89951123239786,
              27.926104996654658
            ],
            [
              112.8998121356787,
              27.92974726471884
            ],
            [
              112.90382960464854,
              27.93013308149642
            ],
            [
              112.90940365368145,
              27.930668382523365
            ],
            [
              112.92049283753599,
              27.93296709979265
            ],
            [
              112.9208102222073,
              27.930243101222487
            ],
            [
              112.92107822109762,
              27.927942906886003
            ],
            [
              112.92110755019331,
              27.927691175087602
            ],
            [
              112.92151319434132,
              27.926884766479247
            ]
          ]
        ]
      },
      "properties": {
        "name": "九华风车坪雅爱小学",
        "isAssistFeature": false,
        "sourceFileId": "file_1776680404426_9_g1",
        "sourceFileName": "九华风车坪雅爱小学.geojson",
        "sourceGroupId": 1,
        "id": "imported_1776680404427_9_1_g1",
        "sourceFile": "九华风车坪雅爱小学.geojson"
      },
      "id": "imported_1776680404427_9_1_g1"
    }
  ],
  "properties": {
    "fileName": "九华风车坪雅爱小学.geojson",
    "exportTime": "2026/4/20 18:36:09",
    "isStarred": false
  }
}