{
  "type": "FeatureCollection",
  "features": [
    {
      "type": "Feature",
      "geometry": {
        "type": "Polygon",
        "coordinates": [
          [
            [
              112.95984360495183,
              27.9463822860708
            ],
            [
              112.97261653064582,
              27.946230149814994
            ],
            [
              112.97486973397383,
              27.94571034913055
            ],
            [
              112.97461140513072,
              27.941361676479744
            ],
            [
              112.95978619810427,
              27.941551855337792
            ],
            [
              112.95984360495183,
              27.9463822860708
            ]
          ]
        ]
      },
      "properties": {
        "sourceFileId": "file_1775802671680_1_g1",
        "sourceFileName": "九华和平将军渡小学.geojson",
        "name": "九华和平将军渡小学",
        "id": "imported_1775802671680_1_0_g1",
        "sourceFile": "九华和平将军渡小学.geojson",
        "sourceGroupId": 1,
        "isAssistFeature": false
      },
      "id": "imported_1775802671680_1_0_g1"
    },
    {
      "type": "Feature",
      "geometry": {
        "type": "Polygon",
        "coordinates": [
          [
            [
              112.930287,
              27.988946999999996
            ],
            [
              112.929236,
              27.98821499999997
            ],
            [
              112.927154,
              27.988157
            ],
            [
              112.92585300228103,
              27.987823657108876
            ],
            [
              112.922935,
              27.987076000000002
            ],
            [
              112.92133,
              27.985826000000003
            ],
            [
              112.92102700000001,
              27.98534699999999
            ],
            [
              112.921105,
              27.984466999999995
            ],
            [
              112.92149499999998,
              27.984111999999996
            ],
            [
              112.924706,
              27.98375999999999
            ],
            [
              112.925097,
              27.983357000000012
            ],
            [
              112.924654,
              27.98117099999999
            ],
            [
              112.92380300000002,
              27.980437999999992
            ],
            [
              112.9213805116713,
              27.979429620270466
            ],
            [
              112.91872800000002,
              27.978401000000005
            ],
            [
              112.917442,
              27.978244999999987
            ],
            [
              112.91642040484699,
              27.97859486065923
            ],
            [
              112.91785685729296,
              27.97458879443306
            ],
            [
              112.92171259806902,
              27.974789101277963
            ],
            [
              112.92178820082934,
              27.97305309626536
            ],
            [
              112.9195201180199,
              27.972185083282895
            ],
            [
              112.9225442284325,
              27.967778140410132
            ],
            [
              112.9251147222832,
              27.966976858731
            ],
            [
              112.92738280509265,
              27.964372652181865
            ],
            [
              112.92829003821643,
              27.9629035848659
            ],
            [
              112.92791202441485,
              27.960098946280112
            ],
            [
              112.92897046305927,
              27.95482335720223
            ],
            [
              112.92747189207816,
              27.95467145549405
            ],
            [
              112.92435869468005,
              27.95435588750796
            ],
            [
              112.92231742015156,
              27.95716067531164
            ],
            [
              112.91846167937548,
              27.958028809149326
            ],
            [
              112.91740324073109,
              27.95822914673579
            ],
            [
              112.91460593859941,
              27.95682677582279
            ],
            [
              112.91203544474871,
              27.958362704920233
            ],
            [
              112.90946495089803,
              27.957694912345644
            ],
            [
              112.90727247084888,
              27.96130094316939
            ],
            [
              112.90515559356004,
              27.96130094316939
            ],
            [
              112.90712126532824,
              27.957761691789003
            ],
            [
              112.90636523772511,
              27.955157262887454
            ],
            [
              112.90799535159297,
              27.951619530797515
            ],
            [
              112.9084558222763,
              27.950582482552306
            ],
            [
              112.90893573157575,
              27.94794467034336
            ],
            [
              112.9049132516159,
              27.946353295243995
            ],
            [
              112.90840651225355,
              27.944471768781497
            ],
            [
              112.91131481803518,
              27.942995992855302
            ],
            [
              112.9177510101149,
              27.939729972525683
            ],
            [
              112.9377033212196,
              27.944873013360663
            ],
            [
              112.94656965792907,
              27.946492012078934
            ],
            [
              112.94667925724275,
              27.949939992862696
            ],
            [
              112.94688415469093,
              27.956385745805335
            ],
            [
              112.9388146303846,
              27.952584159523553
            ],
            [
              112.9388146303846,
              27.957431158565086
            ],
            [
              112.94096650353296,
              27.957716269378892
            ],
            [
              112.94397912594064,
              27.961137540408032
            ],
            [
              112.9401802217347,
              27.969413980582274
            ],
            [
              112.93913741135684,
              27.97168577671181
            ],
            [
              112.94150447182002,
              27.971590752158804
            ],
            [
              112.9418272527923,
              27.97339620435342
            ],
            [
              112.94354875131096,
              27.973586250195183
            ],
            [
              112.94301078302387,
              27.975581711319933
            ],
            [
              112.94437413077705,
              27.97620256780968
            ],
            [
              112.94377079197008,
              27.98193038280378
            ],
            [
              112.94354875131096,
              27.98403825585983
            ],
            [
              112.94150447182002,
              27.985273425963243
            ],
            [
              112.93644756992137,
              27.984133269447014
            ],
            [
              112.93610849974189,
              27.984931733876195
            ],
            [
              112.934929,
              27.986069999999984
            ],
            [
              112.93417399999998,
              27.98550999999999
            ],
            [
              112.93302799999998,
              27.985088000000005
            ],
            [
              112.932439,
              27.985096
            ],
            [
              112.932152,
              27.985671999999994
            ],
            [
              112.932152,
              27.98839300000003
            ],
            [
              112.930287,
              27.988946999999996
            ]
          ]
        ]
      },
      "properties": {
        "sourceFileId": "file_1775802671680_1_g1",
        "sourceFileName": "九华和平将军渡小学.geojson",
        "sourceGroupId": 1,
        "name": "九华和平将军渡小学",
        "id": "imported_1775802671680_1_1_g1",
        "sourceFile": "九华和平将军渡小学.geojson",
        "isAssistFeature": false
      },
      "id": "imported_1775802671680_1_1_g1"
    }
  ],
  "properties": {
    "fileName": "九华和平将军渡小学.geojson",
    "exportTime": "2026/4/10 14:34:06",
    "isStarred": false
  }
}