{
  "type": "FeatureCollection",
  "features": [
    {
      "type": "Feature",
      "properties": {
        "name": "九华砂子塘潭州小学",
        "isAssistFeature": false
      },
      "geometry": {
        "type": "Polygon",
        "coordinates": [
          [
            [
              112.95920602216597,
              27.917022928669866
            ],
            [
              112.95920334608475,
              27.91693536490526
            ],
            [
              112.95892726145861,
              27.917008835189385
            ],
            [
              112.94601979943411,
              27.92036283091934
            ],
            [
              112.94589643020288,
              27.920389892259653
            ],
            [
              112.9455474356133,
              27.9204567228589
            ],
            [
              112.94247485238857,
              27.920869499874268
            ],
            [
              112.93340190305325,
              27.922039794928672
            ],
            [
              112.93340293701415,
              27.924393636306718
            ],
            [
              112.93291867321078,
              27.927526561426312
            ],
            [
              112.93132698878304,
              27.93782326443474
            ],
            [
              112.9296060718202,
              27.94278583867545
            ],
            [
              112.93770328906021,
              27.94487301649563
            ],
            [
              112.94656962588017,
              27.946492014808424
            ],
            [
              112.95127458811334,
              27.946465541682795
            ],
            [
              112.95345591591382,
              27.946453267704744
            ],
            [
              112.9585975366302,
              27.94642433770999
            ],
            [
              112.96001796982542,
              27.946406955585193
            ],
            [
              112.96001723141028,
              27.946380220564034
            ],
            [
              112.95988388908276,
              27.94155060460172
            ],
            [
              112.95920865243315,
              27.917118105455557
            ],
            [
              112.95920602216597,
              27.917022928669866
            ]
          ]
        ]
      }
    }
  ]
}