{
  "type": "FeatureCollection",
  "features": [
    {
      "type": "Feature",
      "geometry": {
        "type": "Polygon",
        "coordinates": [
          [
            [
              112.89575252394265,
              27.870868755487464
            ],
            [
              112.89537376886854,
              27.869646652733593
            ],
            [
              112.89516545357777,
              27.868809588098912
            ],
            [
              112.8948056362574,
              27.86788880953192
            ],
            [
              112.89463519647404,
              27.867553979022176
            ],
            [
              112.89641534532232,
              27.86572913455973
            ],
            [
              112.90092253070418,
              27.866733639900815
            ],
            [
              112.90520246304153,
              27.867754877452185
            ],
            [
              112.90650916804722,
              27.873764916558827
            ],
            [
              112.90457751716926,
              27.873379882266008
            ],
            [
              112.90321555588254,
              27.87294989907663
            ],
            [
              112.90306873118108,
              27.874558411875867
            ],
            [
              112.90270019882625,
              27.875228889946698
            ],
            [
              112.90167023056455,
              27.875238373892444
            ],
            [
              112.90064514678173,
              27.87408232550679
            ],
            [
              112.90114565679293,
              27.87226211326289
            ],
            [
              112.9008719507668,
              27.872174594825836
            ],
            [
              112.90037333584672,
              27.872007140172414
            ],
            [
              112.89745692177611,
              27.871304021632326
            ],
            [
              112.89575252394265,
              27.870868755487464
            ]
          ]
        ]
      },
      "properties": {
        "sourceFileId": "file_1776048123135_9_g1",
        "sourceFileName": "云塘学校.geojson",
        "name": "云塘学校",
        "id": "imported_1776048123135_9_0_g1",
        "sourceFile": "云塘学校.geojson",
        "sourceGroupId": 1,
        "isAssistFeature": false
      },
      "id": "imported_1776048123135_9_0_g1"
    },
    {
      "type": "Feature",
      "geometry": {
        "type": "Polygon",
        "coordinates": [
          [
            [
              112.8950245537497,
              27.876185400595872
            ],
            [
              112.89542681090202,
              27.877280934463244
            ],
            [
              112.89541406651416,
              27.878373674277213
            ],
            [
              112.89484056906062,
              27.87900452935655
            ],
            [
              112.89545229967773,
              27.87919603820714
            ],
            [
              112.8953503445749,
              27.87980435819233
            ],
            [
              112.89691053931791,
              27.880065839532833
            ],
            [
              112.89731298030485,
              27.88041267476075
            ],
            [
              112.89607677468273,
              27.881730682270828
            ],
            [
              112.8928882068143,
              27.883035447607256
            ],
            [
              112.89392225134368,
              27.883085517986174
            ],
            [
              112.90018158536854,
              27.88149318299604
            ],
            [
              112.89969693795715,
              27.880167410915064
            ],
            [
              112.89804425179908,
              27.878443391296997
            ],
            [
              112.8975171208168,
              27.877879311246673
            ],
            [
              112.89731145171812,
              27.87744476827197
            ],
            [
              112.89737251839155,
              27.87620322410494
            ],
            [
              112.89743358506495,
              27.875150599425197
            ],
            [
              112.89687913997986,
              27.874812188240554
            ],
            [
              112.89615118492327,
              27.87436787187869
            ],
            [
              112.89560158486255,
              27.87345018410467
            ],
            [
              112.89550998485241,
              27.87304531938011
            ],
            [
              112.89490412683071,
              27.874595696998426
            ],
            [
              112.89439833377111,
              27.874680860282595
            ],
            [
              112.89433410608098,
              27.875142160241438
            ],
            [
              112.89465524453155,
              27.875120869517346
            ],
            [
              112.89474355760545,
              27.87541184238441
            ],
            [
              112.89514498066869,
              27.87551119879417
            ],
            [
              112.8950245537497,
              27.876185400595872
            ]
          ]
        ]
      },
      "properties": {
        "sourceFileId": "file_1776048123135_9_g1",
        "sourceFileName": "云塘学校.geojson",
        "name": "云塘学校",
        "id": "imported_1776048123135_9_1_g1",
        "sourceFile": "云塘学校.geojson",
        "sourceGroupId": 1,
        "isAssistFeature": false
      },
      "id": "imported_1776048123135_9_1_g1"
    }
  ],
  "properties": {
    "fileName": "云塘学校.geojson",
    "exportTime": "2026/4/13 11:31:48",
    "isStarred": false
  }
}