{
  "type": "FeatureCollection",
  "features": [
    {
      "type": "Feature",
      "geometry": {
        "type": "Polygon",
        "coordinates": [
          [
            [
              112.77178319568029,
              27.971641297467954
            ],
            [
              112.76956919195405,
              27.96750772839671
            ],
            [
              112.76755136577322,
              27.966369112691893
            ],
            [
              112.76612207222844,
              27.964834437732705
            ],
            [
              112.76247877495744,
              27.96515622622603
            ],
            [
              112.76048897414017,
              27.96473542569555
            ],
            [
              112.76062910095828,
              27.963522520868338
            ],
            [
              112.75976031468596,
              27.962433370223806
            ],
            [
              112.75782656459599,
              27.961641253760575
            ],
            [
              112.75692975296003,
              27.962383863115193
            ],
            [
              112.75684567686918,
              27.963720547077358
            ],
            [
              112.7551921804154,
              27.962433370223806
            ],
            [
              112.75496797750644,
              27.96357202745466
            ],
            [
              112.75387498832514,
              27.964314623524288
            ],
            [
              112.74989538669065,
              27.962581891413464
            ],
            [
              112.74967118378167,
              27.96052733014851
            ],
            [
              112.74364573060271,
              27.95324941299407
            ],
            [
              112.74085291322288,
              27.952435266522855
            ],
            [
              112.73974163708576,
              27.95121565703913
            ],
            [
              112.73866403598306,
              27.94972830975732
            ],
            [
              112.73825993556954,
              27.948092204085725
            ],
            [
              112.73856301087969,
              27.945593376677223
            ],
            [
              112.73883241115534,
              27.942826750322567
            ],
            [
              112.73788951019051,
              27.939256805156916
            ],
            [
              112.73755275984587,
              27.935270226969536
            ],
            [
              112.7366435339155,
              27.934288435141625
            ],
            [
              112.7363067835709,
              27.932949613727573
            ],
            [
              112.73354543074527,
              27.931640527862
            ],
            [
              112.72839315047308,
              27.93143226273945
            ],
            [
              112.72636286295602,
              27.932370917709193
            ],
            [
              112.72593444810913,
              27.932393628006622
            ],
            [
              112.72547176007447,
              27.93192428089047
            ],
            [
              112.72528325754183,
              27.930591929583542
            ],
            [
              112.72487197928882,
              27.92960779591192
            ],
            [
              112.72433625506645,
              27.929159474667557
            ],
            [
              112.7235926417013,
              27.92826963107072
            ],
            [
              112.72299573427993,
              27.92708300068452
            ],
            [
              112.72329418799062,
              27.925929319764023
            ],
            [
              112.7257191243901,
              27.92434710876455
            ],
            [
              112.72695024594675,
              27.923687847346557
            ],
            [
              112.72695024594675,
              27.921050761470795
            ],
            [
              112.72244372949417,
              27.919564804449422
            ],
            [
              112.71608511331928,
              27.918679693071695
            ],
            [
              112.71915314275466,
              27.914457765377392
            ],
            [
              112.72127962544342,
              27.910732544871024
            ],
            [
              112.72198845300633,
              27.908292950414804
            ],
            [
              112.72288381413848,
              27.905820332325987
            ],
            [
              112.72348072155987,
              27.901468387231887
            ],
            [
              112.72430146926432,
              27.895665521495005
            ],
            [
              112.72973876520685,
              27.897255906521806
            ],
            [
              112.73489543211348,
              27.89289656604268
            ],
            [
              112.74229412810995,
              27.89210393981945
            ],
            [
              112.74655398338066,
              27.8940854944951
            ],
            [
              112.7487960124705,
              27.890518669961523
            ],
            [
              112.75193485319627,
              27.885564552034552
            ],
            [
              112.75686731719394,
              27.887149894434998
            ],
            [
              112.7600061579197,
              27.892698410031002
            ],
            [
              112.75776412882986,
              27.89487810620824
            ],
            [
              112.75574630264903,
              27.89804849501735
            ],
            [
              112.7588851433748,
              27.899435510917
            ],
            [
              112.75798833173886,
              27.904587128611098
            ],
            [
              112.76538702773533,
              27.912115974778473
            ],
            [
              112.76449021609939,
              27.917465099657335
            ],
            [
              112.7642660131904,
              27.923408261413584
            ],
            [
              112.7588851433748,
              27.930539624261144
            ],
            [
              112.76650804228026,
              27.93469936862911
            ],
            [
              112.76942268009705,
              27.93767051656826
            ],
            [
              112.77682137609352,
              27.93965123646977
            ],
            [
              112.78130543427322,
              27.938462808886555
            ],
            [
              112.78735891281579,
              27.93727436823029
            ],
            [
              112.79677543499312,
              27.933114722988705
            ],
            [
              112.79677543499312,
              27.92974727384653
            ],
            [
              112.80484673971657,
              27.928954917622875
            ],
            [
              112.80619195717047,
              27.933114722988705
            ],
            [
              112.80798558044233,
              27.936878218439816
            ],
            [
              112.8102276095322,
              27.9404435142623
            ],
            [
              112.80798558044233,
              27.94539511881706
            ],
            [
              112.8057435513525,
              27.95094064642349
            ],
            [
              112.80798558044233,
              27.96084266593705
            ],
            [
              112.8028289135357,
              27.96005053779966
            ],
            [
              112.79722384081111,
              27.965793335083802
            ],
            [
              112.79453340590328,
              27.965001243281336
            ],
            [
              112.79498181172124,
              27.96143675822512
            ],
            [
              112.79119087870686,
              27.96371745358445
            ],
            [
              112.78929051367264,
              27.96537594620925
            ],
            [
              112.78713470990681,
              27.963615068637452
            ],
            [
              112.78571601753686,
              27.964336893570916
            ],
            [
              112.78601012164928,
              27.963277848856535
            ],
            [
              112.7848110818063,
              27.96281826018091
            ],
            [
              112.78171167692906,
              27.961079798357687
            ],
            [
              112.77963032474877,
              27.95984087744175
            ],
            [
              112.77772995971452,
              27.959720981114586
            ],
            [
              112.77730011524251,
              27.957502875040404
            ],
            [
              112.77644042629845,
              27.956823446043302
            ],
            [
              112.77725486845597,
              27.951387860130993
            ],
            [
              112.77567123092747,
              27.95112806424646
            ],
            [
              112.77554232998695,
              27.952192366570202
            ],
            [
              112.7743551440947,
              27.952723076961078
            ],
            [
              112.77182525407251,
              27.954465394586265
            ],
            [
              112.77121630336893,
              27.95628784976239
            ],
            [
              112.77110130548805,
              27.957163161076352
            ],
            [
              112.7719383710388,
              27.95858195936421
            ],
            [
              112.77096560258578,
              27.96056035941247
            ],
            [
              112.7715763967466,
              27.96135955272544
            ],
            [
              112.77368253536775,
              27.963813094676667
            ],
            [
              112.77368253536775,
              27.96876362756133
            ],
            [
              112.77178319568029,
              27.971641297467954
            ]
          ]
        ]
      },
      "properties": {
        "sourceFileId": "file_1775315374908_10_g1",
        "sourceFileName": "仁兴学校.geojson",
        "name": "仁兴学校",
        "id": "imported_1775315374908_10_0_g1",
        "sourceFile": "仁兴学校.geojson",
        "sourceGroupId": 1,
        "isAssistFeature": false
      },
      "id": "imported_1775315374908_10_0_g1"
    }
  ],
  "properties": {
    "fileName": "仁兴学校.geojson",
    "exportTime": "2026/4/4 23:22:37",
    "isStarred": false
  }
}