{
  "type": "FeatureCollection",
  "features": [
    {
      "type": "Feature",
      "geometry": {
        "type": "Polygon",
        "coordinates": [
          [
            [
              112.76912659552056,
              28.039927545823616
            ],
            [
              112.76670627033491,
              28.039927545823616
            ],
            [
              112.76466810175755,
              28.038915643616505
            ],
            [
              112.76747058355143,
              28.036554501452713
            ],
            [
              112.76734319801535,
              28.034643062701022
            ],
            [
              112.76912659552056,
              28.032281826774906
            ],
            [
              112.77090999302575,
              28.03183206167644
            ],
            [
              112.77231123392271,
              28.0292458758813
            ],
            [
              112.77434940250006,
              28.028571208496516
            ],
            [
              112.77460417357224,
              28.02688452153204
            ],
            [
              112.7732029326753,
              28.024298216851406
            ],
            [
              112.76747058355143,
              28.022499011728456
            ],
            [
              112.76403117407712,
              28.0219367539608
            ],
            [
              112.76313947532452,
              28.019237875801053
            ],
            [
              112.7642859451493,
              28.01743858610979
            ],
            [
              112.76199300549976,
              28.017326129505776
            ],
            [
              112.76288470425236,
              28.015751724717944
            ],
            [
              112.7613560778193,
              28.015189431715186
            ],
            [
              112.76145035317312,
              28.007746582778225
            ],
            [
              112.75807994308742,
              28.007038084850493
            ],
            [
              112.75743796021396,
              28.002574440758366
            ],
            [
              112.76217258390577,
              27.998394034954046
            ],
            [
              112.76080837029966,
              27.996764341300533
            ],
            [
              112.76088861815886,
              27.995347196352455
            ],
            [
              112.75936390883435,
              27.993575738963656
            ],
            [
              112.75880217382009,
              27.991308231022927
            ],
            [
              112.75695647305888,
              27.989749291644998
            ],
            [
              112.75783919950986,
              27.987623428889634
            ],
            [
              112.75519102015683,
              27.986560481792438
            ],
            [
              112.75454903728335,
              27.98493060922361
            ],
            [
              112.75230209722622,
              27.983584174171057
            ],
            [
              112.75230209722622,
              27.982450321086745
            ],
            [
              112.75358606297316,
              27.9812455891217
            ],
            [
              112.75302432795887,
              27.978269134804066
            ],
            [
              112.75013540502826,
              27.97671000690265
            ],
            [
              112.75101813147928,
              27.97394604296288
            ],
            [
              112.75149961863438,
              27.97075676580168
            ],
            [
              112.75093788362013,
              27.96742564233179
            ],
            [
              112.75446878942418,
              27.96572460344879
            ],
            [
              112.75647498590374,
              27.966291619389168
            ],
            [
              112.75639473804456,
              27.96480319619134
            ],
            [
              112.75816019094661,
              27.964236172430333
            ],
            [
              112.75992564384863,
              27.965299339538305
            ],
            [
              112.76128985745476,
              27.96756739436165
            ],
            [
              112.76305531035679,
              27.968276151717745
            ],
            [
              112.7643392761037,
              27.967921773621626
            ],
            [
              112.76795042976696,
              27.96841790263032
            ],
            [
              112.7706788569792,
              27.97018977332486
            ],
            [
              112.77461100207918,
              27.974583887081053
            ],
            [
              112.77517273709346,
              27.97224510687647
            ],
            [
              112.7750924892343,
              27.969835401513762
            ],
            [
              112.77348753205061,
              27.970473269935724
            ],
            [
              112.77348753205061,
              27.96905577943234
            ],
            [
              112.77485174565673,
              27.968559653356635
            ],
            [
              112.77541348067102,
              27.96756739436165
            ],
            [
              112.77429001064246,
              27.965866357713196
            ],
            [
              112.77244430988124,
              27.965015829333623
            ],
            [
              112.77244430988124,
              27.963243873679843
            ],
            [
              112.77340728419142,
              27.96232244524215
            ],
            [
              112.77316654061389,
              27.960479564766985
            ],
            [
              112.77332703633225,
              27.959203706005667
            ],
            [
              112.77364802776899,
              27.957219006846756
            ],
            [
              112.77557397638938,
              27.95608487665855
            ],
            [
              112.7769381899955,
              27.95764430259551
            ],
            [
              112.7773394292914,
              27.959558112729866
            ],
            [
              112.78062959151791,
              27.960196041901057
            ],
            [
              112.7817530615465,
              27.961471888932806
            ],
            [
              112.78303702729342,
              27.961471888932806
            ],
            [
              112.78480248019547,
              27.963031237046295
            ],
            [
              112.78592595022404,
              27.963314752464598
            ],
            [
              112.78544446306893,
              27.964732318384137
            ],
            [
              112.7870494202526,
              27.96416529425072
            ],
            [
              112.7892963603097,
              27.965511971703037
            ],
            [
              112.79098156535258,
              27.964519684683253
            ],
            [
              112.7917840439444,
              27.963740024195545
            ],
            [
              112.79226553109949,
              27.9622515658057
            ],
            [
              112.7941914797199,
              27.962393324632032
            ],
            [
              112.79403098400154,
              27.96402353775187
            ],
            [
              112.79531494974849,
              27.96430705056339
            ],
            [
              112.79467296687501,
              27.96593723477558
            ],
            [
              112.79635817191786,
              27.96636249617221
            ],
            [
              112.79571618904438,
              27.968134400618936
            ],
            [
              112.79643841977705,
              27.97189074181624
            ],
            [
              112.79780263338316,
              27.972315979748828
            ],
            [
              112.79876560769335,
              27.971323755298826
            ],
            [
              112.79977913498708,
              27.97142865922011
            ],
            [
              112.79947581708609,
              27.972812721739203
            ],
            [
              112.80084074764052,
              27.97361636279541
            ],
            [
              112.80084074764052,
              27.97459858262286
            ],
            [
              112.80164959537647,
              27.975536147751697
            ],
            [
              112.80276176101341,
              27.97562543924373
            ],
            [
              112.80215512521144,
              27.97683086715176
            ],
            [
              112.80190236029395,
              27.97803628158863
            ],
            [
              112.80367171471634,
              27.97866130599303
            ],
            [
              112.80498609228727,
              27.980223851157533
            ],
            [
              112.80564328107272,
              27.98245601926419
            ],
            [
              112.80397503261733,
              27.983081018054506
            ],
            [
              112.80336839681536,
              27.9843756468824
            ],
            [
              112.79998134692106,
              27.98674165250901
            ],
            [
              112.8009418536075,
              27.989286166652818
            ],
            [
              112.80560607255276,
              27.9939635127283
            ],
            [
              112.80555291742476,
              27.995324642948844
            ],
            [
              112.80215098923286,
              27.996685755980025
            ],
            [
              112.80337355717685,
              27.9986569926526
            ],
            [
              112.80268254051283,
              28.000534327389317
            ],
            [
              112.79971741579773,
              28.005276436970405
            ],
            [
              112.79959954308896,
              28.007165080072554
            ],
            [
              112.79913270938972,
              28.008608478913672
            ],
            [
              112.80237517219763,
              28.00959399269611
            ],
            [
              112.80326724692084,
              28.011013277176474
            ],
            [
              112.80168415553368,
              28.013582884941783
            ],
            [
              112.80099313886969,
              28.016070001799918
            ],
            [
              112.79869590591305,
              28.017817679447447
            ],
            [
              112.79748490042186,
              28.02085636692965
            ],
            [
              112.7952523850459,
              28.021419454721254
            ],
            [
              112.79502820208117,
              28.02232242645826
            ],
            [
              112.79578393632589,
              28.023671776436785
            ],
            [
              112.79975900847303,
              28.026310847212855
            ],
            [
              112.79630392515314,
              28.02804693714188
            ],
            [
              112.79258306619325,
              28.02907919355424
            ],
            [
              112.79035055081734,
              28.02724927767879
            ],
            [
              112.78896851748937,
              28.027577726408907
            ],
            [
              112.78647022647345,
              28.02607623831797
            ],
            [
              112.78588552006546,
              28.02640469062763
            ],
            [
              112.78461627690999,
              28.03100271235779
            ],
            [
              112.78615777562193,
              28.03198802117764
            ],
            [
              112.78625760596144,
              28.033677306382444
            ],
            [
              112.78578568972593,
              28.035272318754238
            ],
            [
              112.7843440213535,
              28.036117041569014
            ],
            [
              112.78445033160949,
              28.038275222735308
            ],
            [
              112.78359984956153,
              28.038462888616863
            ],
            [
              112.78030423162564,
              28.037993723299195
            ],
            [
              112.78019792136962,
              28.030580639753197
            ],
            [
              112.77700861368973,
              28.034850262896
            ],
            [
              112.77605182138576,
              28.04085559991107
            ],
            [
              112.77249042780987,
              28.041700073544007
            ],
            [
              112.76912659552056,
              28.039927545823616
            ]
          ]
        ]
      },
      "properties": {
        "sourceFileId": "file_1774234149036_1",
        "sourceFileName": "新建学区_2026-03-23T02-49-09.geojson",
        "name": "南谷小学",
        "id": "polygon_1774234238820",
        "sourceFile": "新建学区_2026-03-23T02-49-09.geojson"
      },
      "id": "polygon_1774234238820"
    }
  ],
  "properties": {
    "fileName": "新建学区_2026-03-23T02-49-09.geojson",
    "exportTime": "2026/3/23 10:51:53",
    "isStarred": false
  }
}