{
  "type": "FeatureCollection",
  "features": [
    {
      "type": "Feature",
      "properties": {
        "name": "厂区",
        "isAssistFeature": false
      },
      "geometry": {
        "type": "Polygon",
        "coordinates": [
          [
            [
              112.9309569906838,
              27.814594826717492
            ],
            [
              112.93098612215014,
              27.81447929623934
            ],
            [
              112.93540129505921,
              27.814965867278076
            ],
            [
              112.93543094754844,
              27.814913164955794
            ],
            [
              112.93569428687732,
              27.812532817075216
            ],
            [
              112.93566687209147,
              27.804870110705757
            ],
            [
              112.93565535658784,
              27.7998031876123
            ],
            [
              112.93565521555237,
              27.799729411378205
            ],
            [
              112.93380765230414,
              27.79934870048528
            ],
            [
              112.9326152636303,
              27.799098415647762
            ],
            [
              112.93242516574311,
              27.799066128657532
            ],
            [
              112.93228997468276,
              27.799975425200603
            ],
            [
              112.92811899261403,
              27.805040283054275
            ],
            [
              112.9276801566146,
              27.805625021315585
            ],
            [
              112.92761137530823,
              27.805716670252195
            ],
            [
              112.92750497704934,
              27.809298241977515
            ],
            [
              112.92759949688521,
              27.810619163441213
            ],
            [
              112.92759949688521,
              27.812562589315014
            ],
            [
              112.92753489364326,
              27.815215499013743
            ],
            [
              112.93081390702537,
              27.81523826840341
            ],
            [
              112.9309569906838,
              27.814594826717492
            ]
          ],
          [
            [
              112.93299890713871,
              27.804861289089555
            ],
            [
              112.93315477921354,
              27.804755163448966
            ],
            [
              112.93338183379149,
              27.804781942187336
            ],
            [
              112.93347935130546,
              27.804792463454206
            ],
            [
              112.93352892483443,
              27.804797811890264
            ],
            [
              112.93365824899767,
              27.804761420112143
            ],
            [
              112.93399467795304,
              27.804783342268383
            ],
            [
              112.93454848483412,
              27.80482144242348
            ],
            [
              112.9345518274653,
              27.804871119843934
            ],
            [
              112.9345734615923,
              27.805192604569193
            ],
            [
              112.93448692508433,
              27.805379639272243
            ],
            [
              112.93441611897532,
              27.805656020708348
            ],
            [
              112.93436760096681,
              27.805812731470425
            ],
            [
              112.93308345118334,
              27.80571355307244
            ],
            [
              112.9330648632435,
              27.805294232381165
            ],
            [
              112.93299890713871,
              27.804861289089555
            ]
          ]
        ]
      }
    },
    {
      "type": "Feature",
      "properties": {
        "name": "厂区",
        "isAssistFeature": false
      },
      "geometry": {
        "type": "Polygon",
        "coordinates": [
          [
            [
              112.89403420051732,
              27.831865112985486
            ],
            [
              112.89581222068783,
              27.82949580576513
            ],
            [
              112.89788251851579,
              27.830077367370098
            ],
            [
              112.89905162734904,
              27.82999121011537
            ],
            [
              112.89931109314246,
              27.82957188624325
            ],
            [
              112.89962986121932,
              27.829050591420444
            ],
            [
              112.89980667751502,
              27.82714798631363
            ],
            [
              112.9001476672171,
              27.82676026766489
            ],
            [
              112.90153598474261,
              27.82645870855286
            ],
            [
              112.90251024270252,
              27.82645870855286
            ],
            [
              112.90299737123331,
              27.82678180802336
            ],
            [
              112.90426390595242,
              27.826803347583134
            ],
            [
              112.90423267422493,
              27.825818355421642
            ],
            [
              112.90436508320288,
              27.824296065022686
            ],
            [
              112.9047225866348,
              27.82393305414779
            ],
            [
              112.90545083556427,
              27.823874504200546
            ],
            [
              112.90590102537058,
              27.82326557985817
            ],
            [
              112.90589491772499,
              27.82148592575498
            ],
            [
              112.90713200836399,
              27.821224506473534
            ],
            [
              112.90760407753739,
              27.82069313964998
            ],
            [
              112.90811906102853,
              27.819820174449937
            ],
            [
              112.90811906102853,
              27.81890924606744
            ],
            [
              112.90730367012657,
              27.816176416657843
            ],
            [
              112.90756116142299,
              27.815075674294313
            ],
            [
              112.90850529976976,
              27.814468363551306
            ],
            [
              112.90957818286643,
              27.813063943358454
            ],
            [
              112.91022191290406,
              27.812760282786794
            ],
            [
              112.9107368972935,
              27.812190916827355
            ],
            [
              112.9107368972935,
              27.811128092172236
            ],
            [
              112.90973839470239,
              27.810802639530763
            ],
            [
              112.91082243936644,
              27.807712149926182
            ],
            [
              112.91148540952085,
              27.807561585575886
            ],
            [
              112.91194011066654,
              27.806671991451733
            ],
            [
              112.91139401312722,
              27.806407591775645
            ],
            [
              112.91045111535387,
              27.805631694294586
            ],
            [
              112.90995301749513,
              27.80419453747217
            ],
            [
              112.9074032304095,
              27.80592541700183
            ],
            [
              112.906240007338,
              27.80715615174653
            ],
            [
              112.90515198313724,
              27.80798345922329
            ],
            [
              112.90360584419271,
              27.808489971300897
            ],
            [
              112.90242229134799,
              27.808527976396824
            ],
            [
              112.90114142670353,
              27.808285663190873
            ],
            [
              112.8963376857217,
              27.803985207336403
            ],
            [
              112.89558283228675,
              27.803746523290144
            ],
            [
              112.89536249261555,
              27.803607745401102
            ],
            [
              112.89519861744984,
              27.803507363544597
            ],
            [
              112.89346151554054,
              27.8048467439894
            ],
            [
              112.89340353198388,
              27.804886088460965
            ],
            [
              112.89198259483378,
              27.80598704294498
            ],
            [
              112.8889390442607,
              27.809250553788374
            ],
            [
              112.88805677288754,
              27.811025261304213
            ],
            [
              112.88798923125626,
              27.811190741723586
            ],
            [
              112.88760321529722,
              27.812136491382027
            ],
            [
              112.88663375344261,
              27.814511659690925
            ],
            [
              112.88521073489596,
              27.818249658871036
            ],
            [
              112.88467132890722,
              27.821235141346893
            ],
            [
              112.88458545355931,
              27.821710433954944
            ],
            [
              112.88455448863147,
              27.821881813735548
            ],
            [
              112.88445890878356,
              27.822410811197326
            ],
            [
              112.88432846262451,
              27.823132777438744
            ],
            [
              112.88410078012419,
              27.82522187986286
            ],
            [
              112.88431423241208,
              27.828078599003778
            ],
            [
              112.88505414776218,
              27.830967782631753
            ],
            [
              112.88533189516991,
              27.830939508922384
            ],
            [
              112.88600688568116,
              27.830854318350852
            ],
            [
              112.89403420051732,
              27.831865112985486
            ]
          ]
        ]
      }
    }
  ]
}