{
  "type": "FeatureCollection",
  "features": [
    {
      "type": "Feature",
      "geometry": {
        "type": "Polygon",
        "coordinates": [
          [
            [
              112.92526109636825,
              27.827048015044355
            ],
            [
              112.9230188478115,
              27.824747240031087
            ],
            [
              112.92379692084086,
              27.82367206002199
            ],
            [
              112.91937447148577,
              27.821637883324442
            ],
            [
              112.91992214751866,
              27.82122825479773
            ],
            [
              112.9207083254754,
              27.821357279865325
            ],
            [
              112.92078937474932,
              27.821034716908855
            ],
            [
              112.92172954632645,
              27.820912859542588
            ],
            [
              112.92196458922072,
              27.82108489343169
            ],
            [
              112.92412860483363,
              27.82108489343169
            ],
            [
              112.9241610245432,
              27.820927195710425
            ],
            [
              112.92541728828853,
              27.82096303612174
            ],
            [
              112.92593600364143,
              27.82092002762674
            ],
            [
              112.92751148707492,
              27.818866707244283
            ],
            [
              112.92755574131279,
              27.815266941164694
            ],
            [
              112.93081392212322,
              27.815238267332518
            ],
            [
              112.930976020671,
              27.81447840802113
            ],
            [
              112.93277531455139,
              27.814636115107902
            ],
            [
              112.9354013110255,
              27.814965865549198
            ],
            [
              112.93515816320381,
              27.81615582620718
            ],
            [
              112.93459081828657,
              27.816284857302165
            ],
            [
              112.93460702814134,
              27.817202407334022
            ],
            [
              112.93532026175158,
              27.81740312037003
            ],
            [
              112.93554790351281,
              27.818225358193132
            ],
            [
              112.92878916031664,
              27.825852575080432
            ],
            [
              112.92731575429988,
              27.829367131029045
            ],
            [
              112.92526109636825,
              27.827048015044355
            ]
          ]
        ]
      },
      "properties": {
        "sourceFileId": "file_1775627444255_13_g1",
        "sourceFileName": "友谊学校.geojson",
        "name": "友谊学校",
        "id": "imported_1775627444255_13_2_g1",
        "sourceFile": "友谊学校.geojson",
        "sourceGroupId": 1,
        "isAssistFeature": false
      },
      "id": "imported_1775627444255_13_2_g1"
    }
  ],
  "properties": {
    "fileName": "友谊学校.geojson",
    "exportTime": "2026/4/8 15:13:42",
    "isStarred": false
  }
}