{
  "type": "FeatureCollection",
  "features": [
    {
      "type": "Feature",
      "geometry": {
        "type": "Polygon",
        "coordinates": [
          [
            [
              112.76944293131473,
              27.93570826807897
            ],
            [
              112.7706422234311,
              27.936884478284895
            ],
            [
              112.77261628170939,
              27.93925489738062
            ],
            [
              112.77411726800285,
              27.93978395703857
            ],
            [
              112.77582786524134,
              27.940200645531405
            ],
            [
              112.7772122354562,
              27.93984673863261
            ],
            [
              112.77888651622413,
              27.938410472392604
            ],
            [
              112.78010997661725,
              27.93847802663454
            ],
            [
              112.7815246026968,
              27.93766737294358
            ],
            [
              112.78255689740351,
              27.93874824317986
            ],
            [
              112.78462148681687,
              27.938917128177437
            ],
            [
              112.78645667740656,
              27.937734927650126
            ],
            [
              112.78780629494926,
              27.937224420823696
            ],
            [
              112.78821654326677,
              27.93809853383216
            ],
            [
              112.78955525718634,
              27.937947898528208
            ],
            [
              112.79150345152819,
              27.937532263403696
            ],
            [
              112.79452386937369,
              27.93550560003105
            ],
            [
              112.79673522891835,
              27.93423959139517
            ],
            [
              112.79799010612483,
              27.93276846655823
            ],
            [
              112.79746782094463,
              27.931688614134245
            ],
            [
              112.79727665525822,
              27.930675232398187
            ],
            [
              112.7974350642835,
              27.929548978566615
            ],
            [
              112.79946217361702,
              27.928589509953028
            ],
            [
              112.80127209266479,
              27.929485014257367
            ],
            [
              112.8045540792048,
              27.929485014257367
            ],
            [
              112.80477126949056,
              27.92814175501843
            ],
            [
              112.80535044358584,
              27.926841123022456
            ],
            [
              112.80564282291135,
              27.924686148470116
            ],
            [
              112.80477406176841,
              27.92393986226648
            ],
            [
              112.80561869065738,
              27.922042139856245
            ],
            [
              112.80528083910178,
              27.92054952579278
            ],
            [
              112.80395356513341,
              27.919675270843413
            ],
            [
              112.80356744906989,
              27.91845983148565
            ],
            [
              112.80392943287946,
              27.91752158825156
            ],
            [
              112.80561869065738,
              27.91673260468528
            ],
            [
              112.80407422640327,
              27.915645077360665
            ],
            [
              112.80464444481827,
              27.91391870852334
            ],
            [
              112.8036838766016,
              27.91248408732993
            ],
            [
              112.8038722126912,
              27.9115516616975
            ],
            [
              112.80237731285618,
              27.911185196277557
            ],
            [
              112.80172403098351,
              27.909790073698915
            ],
            [
              112.80003638614569,
              27.90815438982949
            ],
            [
              112.7996748119771,
              27.90628332586651
            ],
            [
              112.798106215469,
              27.904705189013086
            ],
            [
              112.79552406429417,
              27.902828455763512
            ],
            [
              112.79497345163227,
              27.90093784222256
            ],
            [
              112.7954634130368,
              27.899831262362156
            ],
            [
              112.79426572960352,
              27.899350137154173
            ],
            [
              112.7915437218006,
              27.899398249771224
            ],
            [
              112.78986101643571,
              27.900486905432658
            ],
            [
              112.78836481668952,
              27.899868416005646
            ],
            [
              112.78691688145129,
              27.900806812369865
            ],
            [
              112.78473870229331,
              27.901034066023456
            ],
            [
              112.7841175399907,
              27.902342352503354
            ],
            [
              112.7813423307841,
              27.902342352503354
            ],
            [
              112.77880472528295,
              27.90310285704608
            ],
            [
              112.777708720208,
              27.904736377299074
            ],
            [
              112.7749335110014,
              27.906015949117503
            ],
            [
              112.77314294905288,
              27.907721410547566
            ],
            [
              112.7736107096704,
              27.909457361875525
            ],
            [
              112.77300740332115,
              27.911995053805995
            ],
            [
              112.77059417792407,
              27.911035429404038
            ],
            [
              112.76914624268585,
              27.909905194189534
            ],
            [
              112.7675535139238,
              27.910992779232984
            ],
            [
              112.76608144643158,
              27.911525905162094
            ],
            [
              112.76431879683852,
              27.91339314414742
            ],
            [
              112.76325007979561,
              27.917398575905978
            ],
            [
              112.76366722598131,
              27.918937402301538
            ],
            [
              112.76359482921941,
              27.919001372852122
            ],
            [
              112.76314119948348,
              27.920958257789223
            ],
            [
              112.7629806735539,
              27.923690785641625
            ],
            [
              112.76377703793496,
              27.92542918953228
            ],
            [
              112.76210683651837,
              27.92634566149924
            ],
            [
              112.76069139246088,
              27.927500070220418
            ],
            [
              112.75943926887153,
              27.930674630629525
            ],
            [
              112.76450100555407,
              27.93269982978201
            ],
            [
              112.76651648915912,
              27.93476294226282
            ],
            [
              112.76812084364963,
              27.935045093264776
            ],
            [
              112.76944293131473,
              27.93570826807897
            ]
          ]
        ]
      },
      "properties": {
        "sourceFileId": "file_1774238562037",
        "sourceFileName": "司马学校.geojson",
        "name": "湘潭市雨湖区鹤岭镇司马学校",
        "id": "polygon_1774238696992",
        "sourceFile": "司马学校.geojson"
      },
      "id": "polygon_1774238696992"
    }
  ],
  "properties": {
    "fileName": "司马学校.geojson",
    "exportTime": "2026/3/23 12:07:13",
    "isStarred": false
  }
}