{
  "type": "FeatureCollection",
  "features": [
    {
      "type": "Feature",
      "geometry": {
        "type": "Polygon",
        "coordinates": [
          [
            [
              112.87567765233788,
              27.97031660108027
            ],
            [
              112.87530624302204,
              27.973221928476534
            ],
            [
              112.86899228465282,
              27.97312820945919
            ],
            [
              112.86755970586314,
              27.970832068101657
            ],
            [
              112.86039681191488,
              27.96820784671199
            ],
            [
              112.85938870091475,
              27.966708262976397
            ],
            [
              112.86034375344119,
              27.96202192948806
            ],
            [
              112.85928258396738,
              27.957101060320042
            ],
            [
              112.85339309338768,
              27.95686672762129
            ],
            [
              112.85365838575612,
              27.954992047719628
            ],
            [
              112.85466649675625,
              27.952179966830812
            ],
            [
              112.8545766349052,
              27.94483570170371
            ],
            [
              112.85484192727365,
              27.943007685540024
            ],
            [
              112.85595615522118,
              27.939820301310377
            ],
            [
              112.85611533064224,
              27.938273448598864
            ],
            [
              112.85261347137863,
              27.938695319716686
            ],
            [
              112.84486693421975,
              27.933117112943606
            ],
            [
              112.84661786385156,
              27.933351497175224
            ],
            [
              112.8476259748517,
              27.93241395719855
            ],
            [
              112.84433634948287,
              27.92889810984515
            ],
            [
              112.844495524904,
              27.926460388539866
            ],
            [
              112.84598116216733,
              27.924772703122656
            ],
            [
              112.84635257148318,
              27.922850584860583
            ],
            [
              112.8504380739574,
              27.92130348924114
            ],
            [
              112.85054419090477,
              27.919756371483004
            ],
            [
              112.84847491043081,
              27.917084025031016
            ],
            [
              112.84651174690424,
              27.916662069553894
            ],
            [
              112.84693621469378,
              27.915583731409797
            ],
            [
              112.84937690448355,
              27.914599152409096
            ],
            [
              112.85006666464155,
              27.913239480957373
            ],
            [
              112.8486340858519,
              27.911692247822856
            ],
            [
              112.84916467058879,
              27.910613860124755
            ],
            [
              112.84789126722022,
              27.910098105685876
            ],
            [
              112.8467239807991,
              27.907284856366374
            ],
            [
              112.84518528506203,
              27.905643760476707
            ],
            [
              112.84640562995695,
              27.905081093297994
            ],
            [
              112.84725456553599,
              27.90569064927614
            ],
            [
              112.84815655958876,
              27.904987315150365
            ],
            [
              112.84847491043088,
              27.903580633181818
            ],
            [
              112.85155230190495,
              27.90437775520951
            ],
            [
              112.85197676969449,
              27.905549982816794
            ],
            [
              112.85542557048441,
              27.905596871656897
            ],
            [
              112.85537251201072,
              27.903252404757623
            ],
            [
              112.85592278916084,
              27.90384289566623
            ],
            [
              112.85786897143798,
              27.907031238648017
            ],
            [
              112.85817026965493,
              27.908131850281848
            ],
            [
              112.85791284736678,
              27.909345697045097
            ],
            [
              112.85834235781971,
              27.90980037679924
            ],
            [
              112.85847244708839,
              27.911840131345727
            ],
            [
              112.86033097438006,
              27.912796796411953
            ],
            [
              112.86038376142426,
              27.914224150230254
            ],
            [
              112.86127058376687,
              27.914718588663163
            ],
            [
              112.86130752770433,
              27.91549437076229
            ],
            [
              112.86182308304538,
              27.9160641418419
            ],
            [
              112.86220944146476,
              27.91598874247518
            ],
            [
              112.86257093571214,
              27.916499827628144
            ],
            [
              112.8658605333635,
              27.917713645185458
            ],
            [
              112.86643892415934,
              27.918576086222586
            ],
            [
              112.86763185517576,
              27.918384433253237
            ],
            [
              112.86900553331589,
              27.919725996904916
            ],
            [
              112.86965622296118,
              27.919885705754695
            ],
            [
              112.87000297970286,
              27.9207862721143
            ],
            [
              112.87160829189718,
              27.921418898709476
            ],
            [
              112.87225333078968,
              27.920873325732018
            ],
            [
              112.87526943964484,
              27.922241125592777
            ],
            [
              112.87404909474994,
              27.922709940719145
            ],
            [
              112.87447356253946,
              27.923975731405363
            ],
            [
              112.87664895996079,
              27.924350777651284
            ],
            [
              112.87728566164509,
              27.92599158967819
            ],
            [
              112.87638366759235,
              27.92763237679884
            ],
            [
              112.87452662101316,
              27.927913652090083
            ],
            [
              112.8724573405392,
              27.92706982402042
            ],
            [
              112.87049417701263,
              27.92842932155628
            ],
            [
              112.87102476174957,
              27.929507531580867
            ],
            [
              112.87075946938111,
              27.93058573084916
            ],
            [
              112.87325321764457,
              27.93100763198261
            ],
            [
              112.87479191338161,
              27.93269522004563
            ],
            [
              112.87452662101319,
              27.93433590539641
            ],
            [
              112.87606531675024,
              27.934570286984396
            ],
            [
              112.8763306091187,
              27.93836719787855
            ],
            [
              112.8792488251717,
              27.938789068630257
            ],
            [
              112.88020387769814,
              27.940007797103746
            ],
            [
              112.87977940990861,
              27.94169524460007
            ],
            [
              112.87829377264526,
              27.94169524460007
            ],
            [
              112.87839988959266,
              27.942960812923886
            ],
            [
              112.8803099946455,
              27.943851389152186
            ],
            [
              112.88020387769814,
              27.946054361958417
            ],
            [
              112.87399603627631,
              27.94727300846239
            ],
            [
              112.87298792527615,
              27.949147822386294
            ],
            [
              112.8721389896971,
              27.94872599209117
            ],
            [
              112.87065335243376,
              27.949147822386294
            ],
            [
              112.87017582617054,
              27.951678769553396
            ],
            [
              112.87054723548638,
              27.95303795743709
            ],
            [
              112.86529444659098,
              27.95463146627027
            ],
            [
              112.86476386185402,
              27.95613121780498
            ],
            [
              112.8624292890116,
              27.957865279545103
            ],
            [
              112.86333128306437,
              27.959974236013124
            ],
            [
              112.86513527116985,
              27.960302292204872
            ],
            [
              112.86715149317011,
              27.960396022362232
            ],
            [
              112.86757596095966,
              27.96241120105843
            ],
            [
              112.86985747532835,
              27.963957708028488
            ],
            [
              112.87139617106538,
              27.964192025333134
            ],
            [
              112.8719267558023,
              27.965597918477314
            ],
            [
              112.87075946938108,
              27.96714437978133
            ],
            [
              112.8724042820655,
              27.967238103996536
            ],
            [
              112.87288180832874,
              27.96817534167144
            ],
            [
              112.87468579643422,
              27.968503372934407
            ],
            [
              112.87567765233788,
              27.97031660108027
            ]
          ]
        ]
      },
      "properties": {
        "sourceFileId": "file_1776047216848_18_g2",
        "sourceFileName": "响水乡黄龙学校.geojson",
        "sourceGroupId": 2,
        "name": "响水乡黄龙学校",
        "id": "imported_1776047216848_18_0_g2",
        "sourceFile": "响水乡黄龙学校.geojson",
        "isAssistFeature": false
      },
      "id": "imported_1776047216848_18_0_g2"
    }
  ],
  "properties": {
    "fileName": "响水乡黄龙学校.geojson",
    "exportTime": "2026/4/13 10:41:20",
    "isStarred": false
  }
}