{
  "type": "FeatureCollection",
  "features": [
    {
      "type": "Feature",
      "geometry": {
        "type": "Polygon",
        "coordinates": [
          [
            [
              112.88104450940666,
              27.964051396968216
            ],
            [
              112.88109496148799,
              27.963997757928993
            ],
            [
              112.88235229476359,
              27.96266099993838
            ],
            [
              112.88476513458247,
              27.959935703086202
            ],
            [
              112.88505977301246,
              27.959501958086875
            ],
            [
              112.88519347556442,
              27.957553344817157
            ],
            [
              112.89044206047834,
              27.95258050261144
            ],
            [
              112.89048263378642,
              27.9525420600213
            ],
            [
              112.89060843026556,
              27.95242287013012
            ],
            [
              112.89227028659175,
              27.950789137642744
            ],
            [
              112.89268082026983,
              27.950385548136396
            ],
            [
              112.89318372411535,
              27.9495650197003
            ],
            [
              112.89919882169826,
              27.93919435925301
            ],
            [
              112.89960452423675,
              27.9357653673802
            ],
            [
              112.8996667810792,
              27.935237302628266
            ],
            [
              112.90042333502495,
              27.935068087809427
            ],
            [
              112.90230740760298,
              27.93464668491019
            ],
            [
              112.90384498739945,
              27.933967470345024
            ],
            [
              112.90382960464854,
              27.93013308149642
            ],
            [
              112.8998121356787,
              27.92974726471884
            ],
            [
              112.89951123239786,
              27.926104996654658
            ],
            [
              112.89947596453982,
              27.92229768340877
            ],
            [
              112.89861365732554,
              27.922273345062905
            ],
            [
              112.89610233789705,
              27.92215478851486
            ],
            [
              112.89701085534783,
              27.92325946396737
            ],
            [
              112.89729160762022,
              27.92631889693473
            ],
            [
              112.89636844942692,
              27.926379520258493
            ],
            [
              112.89452152038929,
              27.926500806489372
            ],
            [
              112.89418461802174,
              27.926947310245467
            ],
            [
              112.89208833642418,
              27.927096144420943
            ],
            [
              112.8896177187629,
              27.927311126933475
            ],
            [
              112.88889356435446,
              27.92708025690098
            ],
            [
              112.88566450089544,
              27.926050780789623
            ],
            [
              112.88538591356291,
              27.924644219335605
            ],
            [
              112.88475134993443,
              27.921440300100045
            ],
            [
              112.8902800187741,
              27.92130910544445
            ],
            [
              112.89266014644187,
              27.921252625796996
            ],
            [
              112.89607407420326,
              27.922119871199513
            ],
            [
              112.89947512641164,
              27.922257868783518
            ],
            [
              112.8995040638419,
              27.921522653267658
            ],
            [
              112.89959259460976,
              27.918884462455807
            ],
            [
              112.8997781299536,
              27.91806694287763
            ],
            [
              112.9011598538449,
              27.911978481228743
            ],
            [
              112.90118822892978,
              27.911853446197227
            ],
            [
              112.90156872833472,
              27.910176744942675
            ],
            [
              112.90173676719176,
              27.90943625801323
            ],
            [
              112.89536413024433,
              27.909004492506796
            ],
            [
              112.89370200172863,
              27.907519878390232
            ],
            [
              112.89189727823799,
              27.905907875997073
            ],
            [
              112.8903356253885,
              27.904512967680134
            ],
            [
              112.88803583944647,
              27.903575132731845
            ],
            [
              112.88803583944647,
              27.903575132731845
            ],
            [
              112.88745829548233,
              27.904118054614244
            ],
            [
              112.88738997231677,
              27.904191121586692
            ],
            [
              112.88718369127974,
              27.904433684941523
            ],
            [
              112.87781072235414,
              27.91483080019904
            ],
            [
              112.87762195731788,
              27.9150401805595
            ],
            [
              112.87708182422594,
              27.915639300189895
            ],
            [
              112.87674767563968,
              27.915992137064336
            ],
            [
              112.87372205945478,
              27.919186917740802
            ],
            [
              112.87277738661045,
              27.918881986713387
            ],
            [
              112.87178952276722,
              27.920133249388954
            ],
            [
              112.8723408179588,
              27.920528378620247
            ],
            [
              112.87247702231882,
              27.92062600024167
            ],
            [
              112.87222252690383,
              27.92085827708469
            ],
            [
              112.87225331576188,
              27.920873326528564
            ],
            [
              112.87521447465376,
              27.92232072399017
            ],
            [
              112.87414485423821,
              27.922793272310486
            ],
            [
              112.87436837933542,
              27.923484527310436
            ],
            [
              112.8744450909691,
              27.923719838776705
            ],
            [
              112.87454596189406,
              27.924033702220697
            ],
            [
              112.87595546349061,
              27.924194397830476
            ],
            [
              112.87607010199558,
              27.92420746726603
            ],
            [
              112.87661835189833,
              27.924269972895246
            ],
            [
              112.8766775912997,
              27.92439126784282
            ],
            [
              112.87686264065502,
              27.924766417114853
            ],
            [
              112.877286864658,
              27.925628519649237
            ],
            [
              112.87721874990162,
              27.92578900890456
            ],
            [
              112.87648464934635,
              27.92751864349343
            ],
            [
              112.87619332569975,
              27.92759490913211
            ],
            [
              112.8756315462705,
              27.927741977234746
            ],
            [
              112.87467966444598,
              27.92799116909174
            ],
            [
              112.87267412526855,
              27.92698704932927
            ],
            [
              112.87225297530041,
              27.927299136511195
            ],
            [
              112.8707860596791,
              27.92838668073462
            ],
            [
              112.87060173526427,
              27.928522758317428
            ],
            [
              112.87080572020741,
              27.928857828663524
            ],
            [
              112.87113654547204,
              27.9294087342856
            ],
            [
              112.87086223232363,
              27.930253384116526
            ],
            [
              112.8707575947627,
              27.930585263283177
            ],
            [
              112.8707354378162,
              27.930649088280887
            ],
            [
              112.8708760205649,
              27.930664982419344
            ],
            [
              112.87334263892657,
              27.930944408071213
            ],
            [
              112.87454596189406,
              27.932361934529794
            ],
            [
              112.87463863479374,
              27.933098820779463
            ],
            [
              112.87474651617111,
              27.93395662907409
            ],
            [
              112.87515555145934,
              27.934101180586296
            ],
            [
              112.87608354169056,
              27.93442912652425
            ],
            [
              112.87625045675514,
              27.937771658325033
            ],
            [
              112.87628409596759,
              27.938445273017095
            ],
            [
              112.87929240383548,
              27.938976810817678
            ],
            [
              112.88009461914716,
              27.94033517269827
            ],
            [
              112.8796230808781,
              27.94166820105123
            ],
            [
              112.87942610638743,
              27.94222503931738
            ],
            [
              112.87855703935062,
              27.94145728491651
            ],
            [
              112.8784233367987,
              27.942756557726796
            ],
            [
              112.88036202425104,
              27.943996758500404
            ],
            [
              112.88022832169908,
              27.946181839992988
            ],
            [
              112.87521447465376,
              27.946949560812172
            ],
            [
              112.87387744913434,
              27.94771727538034
            ],
            [
              112.87294153037243,
              27.94931174405967
            ],
            [
              112.8722061667859,
              27.948780257115658
            ],
            [
              112.8707354378162,
              27.94942985182604
            ],
            [
              112.87020062760843,
              27.95179198081955
            ],
            [
              112.87054875173051,
              27.953042223664156
            ],
            [
              112.86525363138995,
              27.95474456919696
            ],
            [
              112.86498622628606,
              27.956338933315465
            ],
            [
              112.86284698455667,
              27.957933273887733
            ],
            [
              112.86351549731636,
              27.959704736148055
            ],
            [
              112.8644514160783,
              27.96017712096271
            ],
            [
              112.8671923188423,
              27.960295216843363
            ],
            [
              112.86752657567128,
              27.96224378061578
            ],
            [
              112.86865255818437,
              27.962867286997195
            ],
            [
              112.87026747843528,
              27.964074218386187
            ],
            [
              112.87167135567984,
              27.96401517213276
            ],
            [
              112.87213931506078,
              27.96572748925844
            ],
            [
              112.8706685869894,
              27.967026470825758
            ],
            [
              112.87233986933785,
              27.96708551543159
            ],
            [
              112.87300838209758,
              27.968030218383362
            ],
            [
              112.87468741061868,
              27.96849879732821
            ],
            [
              112.87534817720571,
              27.968679697261592
            ],
            [
              112.87608354169056,
              27.97015577057732
            ],
            [
              112.87708023327808,
              27.969872588132915
            ],
            [
              112.87794010965119,
              27.9696282770346
            ],
            [
              112.8786420478243,
              27.96708940630168
            ],
            [
              112.88108212007097,
              27.965672335624177
            ],
            [
              112.88054730986322,
              27.96457999841968
            ],
            [
              112.88104450940666,
              27.964051396968216
            ]
          ]
        ]
      },
      "properties": {
        "name": "响水中心小学",
        "isAssistFeature": false,
        "sourceFileId": "file_1776680404443_18_g1",
        "sourceFileName": "响水中心小学.geojson",
        "sourceGroupId": 1,
        "id": "imported_1776680404443_18_0_g1",
        "sourceFile": "响水中心小学.geojson"
      },
      "id": "imported_1776680404443_18_0_g1"
    }
  ],
  "properties": {
    "fileName": "响水中心小学.geojson",
    "exportTime": "2026/4/20 18:36:45",
    "isStarred": false
  }
}