{
  "type": "FeatureCollection",
  "features": [
    {
      "type": "Feature",
      "geometry": {
        "type": "Polygon",
        "coordinates": [
          [
            [
              112.92052347868457,
              27.827883596006956
            ],
            [
              112.92667020397384,
              27.83117606274422
            ],
            [
              112.92332673582355,
              27.84031697613328
            ],
            [
              112.93131661383639,
              27.842463803149542
            ],
            [
              112.94174605133199,
              27.848160846209012
            ],
            [
              112.93901122105537,
              27.852423186309494
            ],
            [
              112.92860496008753,
              27.848160846209012
            ],
            [
              112.92153611911829,
              27.84596813484245
            ],
            [
              112.91080538676171,
              27.843611433013265
            ],
            [
              112.91337798134381,
              27.83811909439619
            ],
            [
              112.91360974662152,
              27.837217340587188
            ],
            [
              112.92052347868457,
              27.827883596006956
            ]
          ]
        ]
      },
      "properties": {
        "sourceFileId": "file_1773193986020_1",
        "sourceFileName": "新建文件_2026-03-11T01-53-06.geojson",
        "name": "大桥学校",
        "id": "polygon_1773194560128",
        "sourceFile": "新建文件_2026-03-11T01-53-06.geojson"
      },
      "id": "polygon_1773194560128"
    },
    {
      "type": "Feature",
      "geometry": {
        "type": "Polygon",
        "coordinates": [
          [
            [
              112.91734033558487,
              27.850876894611673
            ],
            [
              112.91758657499159,
              27.849570586952638
            ],
            [
              112.91742241538711,
              27.848641647488094
            ],
            [
              112.91752091114981,
              27.847117588942893
            ],
            [
              112.91921175507593,
              27.847045014192247
            ],
            [
              112.92082051919984,
              27.847727214931083
            ],
            [
              112.92091901496251,
              27.84801751181628
            ],
            [
              112.92137866185504,
              27.848148145161076
            ],
            [
              112.9213294139737,
              27.852371871844568
            ],
            [
              112.91734033558487,
              27.850876894611673
            ]
          ]
        ]
      },
      "properties": {
        "sourceFileId": "file_1773193986020_1",
        "sourceFileName": "新建文件_2026-03-11T01-53-06.geojson",
        "name": "大桥学校",
        "id": "polygon_1773194591305",
        "sourceFile": "新建文件_2026-03-11T01-53-06.geojson"
      },
      "id": "polygon_1773194591305"
    },
    {
      "type": "Feature",
      "geometry": {
        "type": "Polygon",
        "coordinates": [
          [
            [
              112.92521999659986,
              27.851646157315443
            ],
            [
              112.9252035806394,
              27.850368887947482
            ],
            [
              112.92489167739089,
              27.849904422629066
            ],
            [
              112.92512150083716,
              27.849062574168897
            ],
            [
              112.92582738713642,
              27.848525529495546
            ],
            [
              112.92722274377448,
              27.84845295568708
            ],
            [
              112.92807637371777,
              27.848757765356325
            ],
            [
              112.92868376425436,
              27.849454469954736
            ],
            [
              112.92943889843494,
              27.85177678628915
            ],
            [
              112.92960305803942,
              27.85317015221669
            ],
            [
              112.92922549094914,
              27.85338786402548
            ],
            [
              112.92764955874613,
              27.853257236992675
            ],
            [
              112.9259915467409,
              27.852604099468095
            ],
            [
              112.92536774024389,
              27.85202352947674
            ],
            [
              112.92521999659986,
              27.851646157315443
            ]
          ]
        ]
      },
      "properties": {
        "sourceFileId": "file_1773193986020_1",
        "sourceFileName": "新建文件_2026-03-11T01-53-06.geojson",
        "name": "大桥学校",
        "id": "polygon_1773194606256",
        "sourceFile": "新建文件_2026-03-11T01-53-06.geojson"
      },
      "id": "polygon_1773194606256"
    }
  ]
}