{
  "type": "FeatureCollection",
  "features": [
    {
      "type": "Feature",
      "geometry": {
        "type": "Polygon",
        "coordinates": [
          [
            [
              112.80636080048903,
              27.904641057629618
            ],
            [
              112.80789063252271,
              27.904138783407888
            ],
            [
              112.80898482738948,
              27.903746443147384
            ],
            [
              112.8096997724321,
              27.903548144330912
            ],
            [
              112.81058108170265,
              27.90295802596232
            ],
            [
              112.81258120943569,
              27.901474559968335
            ],
            [
              112.81400778359875,
              27.900573733993184
            ],
            [
              112.8150720370011,
              27.900862438208136
            ],
            [
              112.81661285577088,
              27.900381569255885
            ],
            [
              112.81633613502177,
              27.899138743355422
            ],
            [
              112.81600466206976,
              27.898358796336055
            ],
            [
              112.81415444292746,
              27.896556447804628
            ],
            [
              112.81324318274032,
              27.895749208813868
            ],
            [
              112.81207473159431,
              27.894559756671114
            ],
            [
              112.81083742994724,
              27.894296687853583
            ],
            [
              112.80890088441781,
              27.894030459543444
            ],
            [
              112.808061728607,
              27.89341829567759
            ],
            [
              112.80688116871228,
              27.89207393029919
            ],
            [
              112.80559754090864,
              27.892429408273244
            ],
            [
              112.80539974978137,
              27.891467760366297
            ],
            [
              112.80298934610096,
              27.891323326380743
            ],
            [
              112.80296502036587,
              27.89071621551311
            ],
            [
              112.80324612042261,
              27.890117798548246
            ],
            [
              112.80353321055593,
              27.889383673059527
            ],
            [
              112.80515939533025,
              27.889107946045357
            ],
            [
              112.80525381743486,
              27.88813694810203
            ],
            [
              112.80499953844733,
              27.886932268173055
            ],
            [
              112.80473690789233,
              27.88469797576957
            ],
            [
              112.80420762448387,
              27.88350786438538
            ],
            [
              112.80452167948204,
              27.882287738115053
            ],
            [
              112.80357148480444,
              27.881752701706674
            ],
            [
              112.80290027925888,
              27.881435578280815
            ],
            [
              112.80220643682107,
              27.881803557213644
            ],
            [
              112.80137195390611,
              27.882333057612783
            ],
            [
              112.80081386397669,
              27.88266676085047
            ],
            [
              112.80027098159972,
              27.882959132049493
            ],
            [
              112.79973051293723,
              27.884306244429183
            ],
            [
              112.79853226102993,
              27.88458190737198
            ],
            [
              112.79825932153175,
              27.88567842435667
            ],
            [
              112.79676606360779,
              27.886192782151014
            ],
            [
              112.79623537145345,
              27.886600384705503
            ],
            [
              112.79726381624911,
              27.88670066763848
            ],
            [
              112.79755661192044,
              27.887257074482434
            ],
            [
              112.7963157323971,
              27.887582815144484
            ],
            [
              112.79573014105438,
              27.88820715009946
            ],
            [
              112.79455895836892,
              27.888210384986238
            ],
            [
              112.7937730830061,
              27.889318648423284
            ],
            [
              112.79227250519035,
              27.88984269343844
            ],
            [
              112.79170386659932,
              27.89092196135927
            ],
            [
              112.79131162278702,
              27.89185431199239
            ],
            [
              112.79073335133607,
              27.891889894542686
            ],
            [
              112.79016091208858,
              27.890312635912792
            ],
            [
              112.78980225477325,
              27.889688943607737
            ],
            [
              112.78903732608183,
              27.888624675181845
            ],
            [
              112.78704241636484,
              27.887807136479026
            ],
            [
              112.78500524691032,
              27.88825034879507
            ],
            [
              112.78429655441639,
              27.888019358030846
            ],
            [
              112.78403691295179,
              27.886799768157772
            ],
            [
              112.78460786451093,
              27.886094551369098
            ],
            [
              112.78356478219848,
              27.88574161279874
            ],
            [
              112.7837537198483,
              27.884788165413767
            ],
            [
              112.78291427694677,
              27.88512919688536
            ],
            [
              112.7820491273301,
              27.88480689070299
            ],
            [
              112.78102623822595,
              27.882866613258713
            ],
            [
              112.78002449743738,
              27.88286427023729
            ],
            [
              112.77910873007438,
              27.882949027929868
            ],
            [
              112.77902059200495,
              27.88237122602787
            ],
            [
              112.77766179676775,
              27.88229981209558
            ],
            [
              112.77715500286847,
              27.880774139565077
            ],
            [
              112.77513896862874,
              27.880353449449572
            ],
            [
              112.77330275884873,
              27.87967175638346
            ],
            [
              112.77304702176434,
              27.879634815561502
            ],
            [
              112.77349754818229,
              27.87863871518823
            ],
            [
              112.77453223709328,
              27.87817715279293
            ],
            [
              112.77439903775826,
              27.877188126185587
            ],
            [
              112.77506587720958,
              27.876591430838985
            ],
            [
              112.77538178038681,
              27.87590765412216
            ],
            [
              112.77578431084278,
              27.875589140481722
            ],
            [
              112.7770943482023,
              27.87536300658529
            ],
            [
              112.7776142881688,
              27.875074478157075
            ],
            [
              112.7778943003076,
              27.87419958802512
            ],
            [
              112.77723922924083,
              27.87371278862595
            ],
            [
              112.77642578934476,
              27.873063719357702
            ],
            [
              112.7755836126995,
              27.871722338211313
            ],
            [
              112.77426005124143,
              27.871133420363563
            ],
            [
              112.77379574262818,
              27.870694334065718
            ],
            [
              112.77310246967438,
              27.86925217657881
            ],
            [
              112.77209658795863,
              27.868361917608325
            ],
            [
              112.77152689740883,
              27.86725266641389
            ],
            [
              112.77037512410467,
              27.86728766722331
            ],
            [
              112.76939251750456,
              27.866902657697935
            ],
            [
              112.76814300283093,
              27.867325079596313
            ],
            [
              112.76613459813179,
              27.866930524499054
            ],
            [
              112.76503406180177,
              27.86737598982681
            ],
            [
              112.76221911003455,
              27.867386421015155
            ],
            [
              112.76123819721876,
              27.866985502341223
            ],
            [
              112.75914357979848,
              27.86779732377539
            ],
            [
              112.75866487401895,
              27.868430515306287
            ],
            [
              112.75716396943197,
              27.868818701249495
            ],
            [
              112.7566367570811,
              27.8699511354921
            ],
            [
              112.75509820387359,
              27.870525639591705
            ],
            [
              112.75461589880241,
              27.871498516193384
            ],
            [
              112.7536044978697,
              27.8721189590984
            ],
            [
              112.75404477650355,
              27.872997047587717
            ],
            [
              112.75329252456424,
              27.87344566968484
            ],
            [
              112.7526129663674,
              27.875173150358023
            ],
            [
              112.75282532034555,
              27.87585219428331
            ],
            [
              112.7534336006218,
              27.876746231358524
            ],
            [
              112.75349134410862,
              27.877827554430027
            ],
            [
              112.75242499015548,
              27.878121887949618
            ],
            [
              112.75137039772383,
              27.87904772175449
            ],
            [
              112.75169048870066,
              27.87999799448778
            ],
            [
              112.75210080794028,
              27.880793371055773
            ],
            [
              112.75117219071379,
              27.880685200185695
            ],
            [
              112.75061733167075,
              27.880185201689528
            ],
            [
              112.75009183510066,
              27.87925638601098
            ],
            [
              112.74956273923905,
              27.87902095181434
            ],
            [
              112.74942782549269,
              27.88028961482867
            ],
            [
              112.74758858749757,
              27.880283251809715
            ],
            [
              112.74670158040128,
              27.87919252522525
            ],
            [
              112.74660374792475,
              27.878053432844723
            ],
            [
              112.7469841184617,
              27.877157703276993
            ],
            [
              112.74721584768004,
              27.87596294432214
            ],
            [
              112.74627391888556,
              27.875456217367812
            ],
            [
              112.74599401764137,
              27.87659713210479
            ],
            [
              112.74354465135687,
              27.876837760927103
            ],
            [
              112.7437559565154,
              27.8777941016277
            ],
            [
              112.74192421647678,
              27.87882015135375
            ],
            [
              112.7415534894445,
              27.878482906258014
            ],
            [
              112.74036120904307,
              27.878449436359944
            ],
            [
              112.73995411876513,
              27.879209332705457
            ],
            [
              112.73890349595497,
              27.87880895243235
            ],
            [
              112.73883739290885,
              27.877285911219445
            ],
            [
              112.73815352750954,
              27.877101956873574
            ],
            [
              112.7381178194993,
              27.877758307499164
            ],
            [
              112.73838748146196,
              27.878813645775367
            ],
            [
              112.738255189359,
              27.87990958826711
            ],
            [
              112.7386248611051,
              27.88094843302008
            ],
            [
              112.738048974453,
              27.88116477412632
            ],
            [
              112.73814564221546,
              27.882332659987355
            ],
            [
              112.73893538440129,
              27.88328525193478
            ],
            [
              112.73800652863471,
              27.88400495567805
            ],
            [
              112.7379119618657,
              27.8855385027135
            ],
            [
              112.73614941167963,
              27.886113351829593
            ],
            [
              112.73601675963582,
              27.886773239139274
            ],
            [
              112.73480134776266,
              27.886824275686422
            ],
            [
              112.73398450707339,
              27.88925696238914
            ],
            [
              112.73449200718554,
              27.889797772845412
            ],
            [
              112.73438042914678,
              27.890529453280266
            ],
            [
              112.7350629666715,
              27.891387027616076
            ],
            [
              112.73526860492855,
              27.89000655876093
            ],
            [
              112.73594527174477,
              27.89049169431823
            ],
            [
              112.73628580162907,
              27.89193209868084
            ],
            [
              112.73734219370651,
              27.891626706188063
            ],
            [
              112.73774797640729,
              27.89051746471236
            ],
            [
              112.7387388404731,
              27.89027807101961
            ],
            [
              112.73964586195017,
              27.890642319629478
            ],
            [
              112.74159376827642,
              27.890761614759285
            ],
            [
              112.7426663571659,
              27.890521433763823
            ],
            [
              112.74402937583136,
              27.890099645298477
            ],
            [
              112.7441974471353,
              27.89189737118815
            ],
            [
              112.7450473090566,
              27.891929258718875
            ],
            [
              112.74562679500025,
              27.89247164640105
            ],
            [
              112.74721854246646,
              27.892378832799977
            ],
            [
              112.74715313334458,
              27.891060392196863
            ],
            [
              112.74814101647391,
              27.890941599486496
            ],
            [
              112.7490858305125,
              27.890306948940378
            ],
            [
              112.74918457104148,
              27.88920060457842
            ],
            [
              112.7497838167039,
              27.88887250944734
            ],
            [
              112.75034372381165,
              27.888566897560366
            ],
            [
              112.75044825255846,
              27.888524838181368
            ],
            [
              112.75046679252893,
              27.888516644818182
            ],
            [
              112.75105450959232,
              27.888266746941696
            ],
            [
              112.75177275327984,
              27.88795818468475
            ],
            [
              112.75237796502056,
              27.887700936471106
            ],
            [
              112.75288723092895,
              27.88517913429301
            ],
            [
              112.75329758385487,
              27.884789342973306
            ],
            [
              112.75463226816895,
              27.884999830293168
            ],
            [
              112.75463093585427,
              27.884998652676046
            ],
            [
              112.75580389508099,
              27.884936518059817
            ],
            [
              112.75633015533285,
              27.885619845625527
            ],
            [
              112.75639144180879,
              27.88570345592933
            ],
            [
              112.75640806833428,
              27.885723612224197
            ],
            [
              112.75644137620166,
              27.885768361366033
            ],
            [
              112.75646269323677,
              27.8858001567977
            ],
            [
              112.75666142678193,
              27.886054231793324
            ],
            [
              112.75733921561283,
              27.886715753420717
            ],
            [
              112.75760423481007,
              27.887394107669593
            ],
            [
              112.75862955123554,
              27.88901205570953
            ],
            [
              112.75987682919835,
              27.889448753834387
            ],
            [
              112.76147401582412,
              27.892505361362424
            ],
            [
              112.7593369969565,
              27.89322585712614
            ],
            [
              112.75983725318737,
              27.893825503684752
            ],
            [
              112.75952146644161,
              27.894275927255933
            ],
            [
              112.75859911901593,
              27.893924983898543
            ],
            [
              112.75801308319929,
              27.89508738438647
            ],
            [
              112.75770042305497,
              27.89606006454666
            ],
            [
              112.75605756357955,
              27.897971528223934
            ],
            [
              112.75911552695096,
              27.899095064218486
            ],
            [
              112.75916452819534,
              27.89906728005961
            ],
            [
              112.75884065383892,
              27.901524291356836
            ],
            [
              112.75811911191981,
              27.90468220510641
            ],
            [
              112.76148630754227,
              27.907657847176253
            ],
            [
              112.76255144085141,
              27.908933097293726
            ],
            [
              112.76564376336184,
              27.911817536145563
            ],
            [
              112.76763659342409,
              27.910542320033898
            ],
            [
              112.76914839554028,
              27.909661804896714
            ],
            [
              112.77093507076853,
              27.910937031389338
            ],
            [
              112.77296225996979,
              27.911756811909754
            ],
            [
              112.77337456963784,
              27.90950999121756
            ],
            [
              112.77313405566481,
              27.907475667360828
            ],
            [
              112.77488637175405,
              27.90589676277557
            ],
            [
              112.7775663845964,
              27.90468220510641
            ],
            [
              112.77870023618355,
              27.903194353380087
            ],
            [
              112.77894075015661,
              27.903012166048356
            ],
            [
              112.78162076299895,
              27.902192319259356
            ],
            [
              112.78402590272925,
              27.902161954444168
            ],
            [
              112.78464436723135,
              27.901008085152867
            ],
            [
              112.78536590915044,
              27.900916989684774
            ],
            [
              112.78564762315773,
              27.90079446806405
            ],
            [
              112.78709710959662,
              27.900451036703686
            ],
            [
              112.78808091192595,
              27.90070865034123
            ],
            [
              112.78945251879483,
              27.899863585520777
            ],
            [
              112.78945622442657,
              27.899863585520777
            ],
            [
              112.79061117587564,
              27.900196541138698
            ],
            [
              112.79181921182078,
              27.89983302618235
            ],
            [
              112.79182178991896,
              27.899216629514072
            ],
            [
              112.79232653017186,
              27.899318239718326
            ],
            [
              112.7929030098092,
              27.899170939335306
            ],
            [
              112.79547631527576,
              27.899800262775415
            ],
            [
              112.7953263255089,
              27.900342536148187
            ],
            [
              112.79502634597519,
              27.901041462264686
            ],
            [
              112.79531269007555,
              27.90186088713503
            ],
            [
              112.7955990341759,
              27.902776707587847
            ],
            [
              112.79640352474358,
              27.903355116511563
            ],
            [
              112.79900789251347,
              27.90546387285893
            ],
            [
              112.79954876068376,
              27.905921146667353
            ],
            [
              112.79975784134771,
              27.90654836011872
            ],
            [
              112.8001259980482,
              27.90812687214624
            ],
            [
              112.80090321774917,
              27.90888599568258
            ],
            [
              112.80187133351701,
              27.909934300379476
            ],
            [
              112.80236220911763,
              27.91109103859945
            ],
            [
              112.80383483591947,
              27.91154891072739
            ],
            [
              112.80376665875268,
              27.912512845713664
            ],
            [
              112.80465296192045,
              27.913729801364198
            ],
            [
              112.80594832808873,
              27.914368396375863
            ],
            [
              112.80683463125649,
              27.915922696777784
            ],
            [
              112.80787092419109,
              27.915525087173478
            ],
            [
              112.80768002812417,
              27.91494674332114
            ],
            [
              112.80815726829144,
              27.91357316427603
            ],
            [
              112.8074456238652,
              27.912609283859368
            ],
            [
              112.8071073186419,
              27.91182454334387
            ],
            [
              112.80622388025213,
              27.910544210902117
            ],
            [
              112.80541903600889,
              27.909461204750954
            ],
            [
              112.80611354704838,
              27.908816318623053
            ],
            [
              112.805991864667,
              27.9086184434328
            ],
            [
              112.80589199707116,
              27.908462304248985
            ],
            [
              112.80568804265302,
              27.908094378977083
            ],
            [
              112.80568322897355,
              27.906882850758663
            ],
            [
              112.80608917473614,
              27.905744354947643
            ],
            [
              112.8061122211044,
              27.90566967772996
            ],
            [
              112.80636080048903,
              27.904641057629618
            ]
          ]
        ]
      },
      "properties": {
        "sourceFileId": "file_1775315374911_19_g1",
        "sourceFileName": "奇头学校.geojson",
        "name": "湘潭市雨湖区姜畲镇奇头学校",
        "id": "imported_1775315374911_19_0_g1",
        "sourceFile": "奇头学校.geojson",
        "sourceGroupId": 1,
        "isAssistFeature": false
      },
      "id": "imported_1775315374911_19_0_g1"
    }
  ],
  "properties": {
    "fileName": "奇头学校.geojson",
    "exportTime": "2026/4/4 23:18:48",
    "isStarred": false
  }
}