{
  "type": "FeatureCollection",
  "features": [
    {
      "type": "Feature",
      "geometry": {
        "type": "Polygon",
        "coordinates": [
          [
            [
              112.92924571533891,
              27.83961468062698
            ],
            [
              112.92954967558664,
              27.83877664182053
            ],
            [
              112.92971310698462,
              27.838326046481058
            ],
            [
              112.92997819263843,
              27.837595178846925
            ],
            [
              112.93015779101657,
              27.837100004622172
            ],
            [
              112.93022268621098,
              27.83687267013596
            ],
            [
              112.93077857448858,
              27.834925312714148
            ],
            [
              112.93158532359752,
              27.83174497826866
            ],
            [
              112.93160281649101,
              27.831669988437568
            ],
            [
              112.92674471665471,
              27.8311710637997
            ],
            [
              112.92659129877723,
              27.831126448441623
            ],
            [
              112.92053161331522,
              27.827900215791246
            ],
            [
              112.92049611099685,
              27.827881313952247
            ],
            [
              112.92042856667064,
              27.82784535254504
            ],
            [
              112.91852913379961,
              27.830568632578377
            ],
            [
              112.91325144526712,
              27.83813523100389
            ],
            [
              112.92312208420171,
              27.840557019633152
            ],
            [
              112.9233163161358,
              27.840300898446287
            ],
            [
              112.92370246594383,
              27.839793662581414
            ],
            [
              112.92409355109604,
              27.839867248758424
            ],
            [
              112.92432210136892,
              27.839576688795418
            ],
            [
              112.92466886993323,
              27.839120189224957
            ],
            [
              112.92483492261518,
              27.83880841577121
            ],
            [
              112.92576613779829,
              27.838978012252838
            ],
            [
              112.92579384723155,
              27.838982985661886
            ],
            [
              112.92699481481633,
              27.839202787711812
            ],
            [
              112.92924571533891,
              27.83961468062698
            ]
          ]
        ]
      },
      "properties": {
        "name": "建设路学校",
        "isAssistFeature": false,
        "sourceFileId": "file_1776680404443_22_g1",
        "sourceFileName": "建设路学校.geojson",
        "sourceGroupId": 1,
        "id": "imported_1776680404443_22_0_g1",
        "sourceFile": "建设路学校.geojson"
      },
      "id": "imported_1776680404443_22_0_g1"
    }
  ],
  "properties": {
    "fileName": "建设路学校.geojson",
    "exportTime": "2026/4/20 18:36:55",
    "isStarred": false
  }
}