{
  "type": "FeatureCollection",
  "features": [
    {
      "type": "Feature",
      "geometry": {
        "type": "Polygon",
        "coordinates": [
          [
            [
              112.90015106652807,
              27.881411795704267
            ],
            [
              112.89969693795715,
              27.880167410915064
            ],
            [
              112.89810748795897,
              27.878521589717664
            ],
            [
              112.8975171208168,
              27.877879311246673
            ],
            [
              112.89733546938842,
              27.877036314973623
            ],
            [
              112.89738088224551,
              27.875952452982304
            ],
            [
              112.89783501081644,
              27.87382484049813
            ],
            [
              112.89810748795897,
              27.87237964592292
            ],
            [
              112.89883409367242,
              27.871456317073495
            ],
            [
              112.90065060795608,
              27.872098633627843
            ],
            [
              112.90346620509573,
              27.873021957003104
            ],
            [
              112.90573684795028,
              27.873503687814164
            ],
            [
              112.90655427937793,
              27.873664264275163
            ],
            [
              112.9056914350932,
              27.87041254455096
            ],
            [
              112.91018730794522,
              27.871857765366215
            ],
            [
              112.91223088651432,
              27.872740946374094
            ],
            [
              112.91409281365506,
              27.873583976074414
            ],
            [
              112.91618180508125,
              27.874025560442192
            ],
            [
              112.91827079650744,
              27.874467143009923
            ],
            [
              112.92031437507654,
              27.87635388461399
            ],
            [
              112.91427446508341,
              27.877758883609346
            ],
            [
              112.90687216937756,
              27.879605426001035
            ],
            [
              112.90323914081027,
              27.88076953437266
            ],
            [
              112.90015106652807,
              27.881411795704267
            ]
          ]
        ]
      },
      "properties": {
        "sourceFileId": "file_1775987214829_22_g1",
        "sourceFileName": "护潭学校.geojson",
        "name": "护潭学校",
        "id": "imported_1775987214829_22_0_g1",
        "sourceFile": "护潭学校.geojson",
        "sourceGroupId": 1,
        "isAssistFeature": false
      },
      "id": "imported_1775987214829_22_0_g1"
    },
    {
      "type": "Feature",
      "geometry": {
        "type": "Polygon",
        "coordinates": [
          [
            [
              112.90742984326715,
              27.879466312352804
            ],
            [
              112.9035905323209,
              27.880656940759394
            ],
            [
              112.90632471964274,
              27.88117216754918
            ],
            [
              112.90587410852824,
              27.884093023296586
            ],
            [
              112.90526315808621,
              27.885585999385526
            ],
            [
              112.90338030549118,
              27.889111005562626
            ],
            [
              112.90497138532875,
              27.890586896623475
            ],
            [
              112.9090321750809,
              27.889523634358056
            ],
            [
              112.91571318889962,
              27.88782421064387
            ],
            [
              112.91751939321688,
              27.88760105201314
            ],
            [
              112.91923221776842,
              27.88720304142676
            ],
            [
              112.92613771272221,
              27.885446943830587
            ],
            [
              112.92487770550837,
              27.88144475988635
            ],
            [
              112.92467700086834,
              27.880807244412935
            ],
            [
              112.92391928075325,
              27.878690442150898
            ],
            [
              112.92362194109212,
              27.8774559052561
            ],
            [
              112.92303097718035,
              27.875579741452
            ],
            [
              112.91826557492749,
              27.876830476896117
            ],
            [
              112.91573119921357,
              27.877420020957558
            ],
            [
              112.91172776116096,
              27.878394176123138
            ],
            [
              112.90742984326715,
              27.879466312352804
            ]
          ]
        ]
      },
      "properties": {
        "sourceFileId": "file_1775987214829_22_g1",
        "sourceFileName": "护潭学校.geojson",
        "name": "护潭学校",
        "id": "imported_1775987214829_22_1_g1",
        "sourceFile": "护潭学校.geojson",
        "sourceGroupId": 1,
        "isAssistFeature": false
      },
      "id": "imported_1775987214829_22_1_g1"
    }
  ],
  "properties": {
    "fileName": "护潭学校.geojson",
    "exportTime": "2026/4/12 22:11:49",
    "isStarred": false
  }
}