{
  "type": "FeatureCollection",
  "features": [
    {
      "type": "Feature",
      "geometry": {
        "type": "Polygon",
        "coordinates": [
          [
            [
              113.07117298240968,
              27.978776001972022
            ],
            [
              113.06941898229158,
              27.977164001919988
            ],
            [
              113.06788198190844,
              27.975163001510623
            ],
            [
              113.06764798245501,
              27.974592001220586
            ],
            [
              113.06772598227283,
              27.97357900145917
            ],
            [
              113.06897598260078,
              27.97207700160908
            ],
            [
              113.07120798256977,
              27.971837001928648
            ],
            [
              113.07285798203252,
              27.972035001346526
            ],
            [
              113.07361133258598,
              27.971826200954624
            ],
            [
              113.07373537465536,
              27.971791820940936
            ],
            [
              113.07439498241564,
              27.971609001499658
            ],
            [
              113.07484598250235,
              27.971113001853013
            ],
            [
              113.07495998230519,
              27.96914000147767
            ],
            [
              113.07548898220968,
              27.968190001987566
            ],
            [
              113.0764699820258,
              27.967417001351976
            ],
            [
              113.07767698179778,
              27.967042001784165
            ],
            [
              113.07952698217535,
              27.966964001837297
            ],
            [
              113.08187203242792,
              27.967693633559094
            ],
            [
              113.08222626419558,
              27.96779325557233
            ],
            [
              113.0842069820234,
              27.968292001358193
            ],
            [
              113.0851019816258,
              27.968251001684976
            ],
            [
              113.08542298201621,
              27.967750001652945
            ],
            [
              113.08537898163527,
              27.967072001321498
            ],
            [
              113.08503998170156,
              27.965542001588815
            ],
            [
              113.08387906909695,
              27.96214876973525
            ],
            [
              113.08369773068212,
              27.961614229321867
            ],
            [
              113.08257706889042,
              27.958267893569854
            ],
            [
              113.08213198241324,
              27.95656800150485
            ],
            [
              113.08187599310001,
              27.9558241474314
            ],
            [
              113.0814099821649,
              27.9544700018144
            ],
            [
              113.08082898238185,
              27.953248001421386
            ],
            [
              113.08008242938013,
              27.95273849591102
            ],
            [
              113.07924798251608,
              27.952169001293683
            ],
            [
              113.07689498217326,
              27.949360001481665
            ],
            [
              113.07657140271972,
              27.949227062401135
            ],
            [
              113.07632298261106,
              27.949125001369424
            ],
            [
              113.07530698173652,
              27.949051001407213
            ],
            [
              113.07455073770953,
              27.94931458651314
            ],
            [
              113.07403598239048,
              27.949494001357266
            ],
            [
              113.06337598213764,
              27.941737001684203
            ],
            [
              113.06174817106243,
              27.938377725792108
            ],
            [
              113.06097440719245,
              27.936780890998094
            ],
            [
              113.05938998205052,
              27.93351100189828
            ],
            [
              113.05865268169624,
              27.930924261473052
            ],
            [
              113.05851592217739,
              27.93040925286074
            ],
            [
              113.05682693133977,
              27.924048638513767
            ],
            [
              113.05673473724215,
              27.923701432267237
            ],
            [
              113.05583898215657,
              27.91885500119679
            ],
            [
              113.0557201871468,
              27.91702168958669
            ],
            [
              113.05552698288534,
              27.91404000158812
            ],
            [
              113.05201579362989,
              27.90912827260601
            ],
            [
              113.05177700076611,
              27.908820973783406
            ],
            [
              113.05159088690723,
              27.90857363898367
            ],
            [
              113.04969243499647,
              27.906095542794077
            ],
            [
              113.04763498307707,
              27.903553001905692
            ],
            [
              113.04625553012679,
              27.900949340577043
            ],
            [
              113.04255442444382,
              27.893963342312787
            ],
            [
              113.04213854938305,
              27.89317833085464
            ],
            [
              113.04181816883019,
              27.892573574111168
            ],
            [
              113.03987474186646,
              27.891392682396926
            ],
            [
              113.03835643991593,
              27.891500036504894
            ],
            [
              113.03774911859675,
              27.893271367488666
            ],
            [
              113.0348339794986,
              27.896169847079378
            ],
            [
              113.03015760884425,
              27.89665291959716
            ],
            [
              113.02627075581508,
              27.89552574703505
            ],
            [
              113.01971169059836,
              27.89697496674445
            ],
            [
              113.010116022379,
              27.90642125325587
            ],
            [
              113.00511965744747,
              27.90929402008689
            ],
            [
              113.00481217760041,
              27.908638896356265
            ],
            [
              113.00240281695669,
              27.903519207473664
            ],
            [
              112.99831347288263,
              27.90085183218764
            ],
            [
              112.9906565145735,
              27.896834580537273
            ],
            [
              112.98560852436087,
              27.892927130272994
            ],
            [
              112.98027071248474,
              27.889903803574057
            ],
            [
              112.97542468690418,
              27.886982536854163
            ],
            [
              112.97411384008875,
              27.886185602070583
            ],
            [
              112.97395055870943,
              27.886082825673796
            ],
            [
              112.97307697763834,
              27.88549567609016
            ],
            [
              112.96755791628064,
              27.88745101868477
            ],
            [
              112.96474185956166,
              27.888300471104188
            ],
            [
              112.96452818718647,
              27.888358106531825
            ],
            [
              112.9604085114969,
              27.8894693320632
            ],
            [
              112.96034970508346,
              27.88948519414285
            ],
            [
              112.96043018604809,
              27.89007237528773
            ],
            [
              112.96180690452664,
              27.89767062072083
            ],
            [
              112.96521460696304,
              27.909340234593245
            ],
            [
              112.96633926895272,
              27.911124056422977
            ],
            [
              112.96913792799957,
              27.915562870844184
            ],
            [
              112.96936774489703,
              27.915927363251726
            ],
            [
              112.96976120968641,
              27.916402305771996
            ],
            [
              112.97136350591259,
              27.918336382980186
            ],
            [
              112.97275889587434,
              27.92002068174382
            ],
            [
              112.97944819973921,
              27.928094611275412
            ],
            [
              112.99158779982515,
              27.933580044234716
            ],
            [
              112.99399446462475,
              27.934710627349617
            ],
            [
              112.99559097749716,
              27.935460618038036
            ],
            [
              112.9975172250794,
              27.936365500201646
            ],
            [
              112.99836994547296,
              27.937390547243027
            ],
            [
              112.9992855416482,
              27.93849116713932
            ],
            [
              113.00176408424693,
              27.94182044009993
            ],
            [
              113.0027919994771,
              27.942149982326143
            ],
            [
              113.00375818876911,
              27.94338095674169
            ],
            [
              113.00472629776095,
              27.943413069813275
            ],
            [
              113.00955253525242,
              27.9435731588799
            ],
            [
              113.01190339670659,
              27.943651137636266
            ],
            [
              113.01196301609535,
              27.94371237975136
            ],
            [
              113.01324059470254,
              27.945024733620116
            ],
            [
              113.01485098474944,
              27.94614653683442
            ],
            [
              113.02137130652622,
              27.946866423148506
            ],
            [
              113.02248319896408,
              27.94815558776712
            ],
            [
              113.02324762484668,
              27.94950612421775
            ],
            [
              113.02713924793007,
              27.95011999927192
            ],
            [
              113.02807633270521,
              27.95035100734772
            ],
            [
              113.03012745868836,
              27.950856643778195
            ],
            [
              113.03242073633616,
              27.95067248351947
            ],
            [
              113.03351903995873,
              27.94961830167827
            ],
            [
              113.0331804667248,
              27.95570485800961
            ],
            [
              113.03049706961373,
              27.958865175797456
            ],
            [
              113.03273323417238,
              27.962683769283316
            ],
            [
              113.0312424575005,
              27.965317203590914
            ],
            [
              113.02766459348801,
              27.967555572623553
            ],
            [
              113.02915537015986,
              27.970057223402662
            ],
            [
              113.02617381681611,
              27.972295494106916
            ],
            [
              113.02349041880673,
              27.974007080848125
            ],
            [
              113.0237885741411,
              27.97861506468881
            ],
            [
              113.02498198330112,
              27.978170001819862
            ],
            [
              113.02834198250103,
              27.978363001189237
            ],
            [
              113.02960898254742,
              27.979354001764463
            ],
            [
              113.02974869213367,
              27.97966930999806
            ],
            [
              113.03017398243696,
              27.980645001218164
            ],
            [
              113.03015598289359,
              27.982762001467734
            ],
            [
              113.03002352181338,
              27.983136369669595
            ],
            [
              113.02959198282898,
              27.984356001609925
            ],
            [
              113.02947175231135,
              27.98448875145654
            ],
            [
              113.02888882833697,
              27.985327234274465
            ],
            [
              113.02763898251922,
              27.987125001857535
            ],
            [
              113.02572658426371,
              27.99177964911034
            ],
            [
              113.02432298280196,
              27.99518000145899
            ],
            [
              113.02445298339659,
              27.996572001164978
            ],
            [
              113.0247649826678,
              27.997463001116074
            ],
            [
              113.02513798293674,
              27.99797300135181
            ],
            [
              113.0273726455122,
              27.99980343956689
            ],
            [
              113.02743301679088,
              27.9998554276699
            ],
            [
              113.02760398325744,
              27.999990001746397
            ],
            [
              113.02794638061958,
              28.00040163634864
            ],
            [
              113.02987898288417,
              28.00272500118325
            ],
            [
              113.03152134037876,
              28.004168653890275
            ],
            [
              113.03177998241706,
              28.004396001726946
            ],
            [
              113.03204149277602,
              28.00482595427991
            ],
            [
              113.03315975606591,
              28.006664923426683
            ],
            [
              113.0340369825004,
              28.00811300121329
            ],
            [
              113.0359219830381,
              28.009394001887983
            ],
            [
              113.04192098281109,
              28.01075400173731
            ],
            [
              113.04268143095362,
              28.0108707043007
            ],
            [
              113.05132762573176,
              28.012198151965663
            ],
            [
              113.06239498232152,
              28.01389600143351
            ],
            [
              113.0658939823369,
              28.01405200157319
            ],
            [
              113.06851598229325,
              28.013048001195344
            ],
            [
              113.0699839821811,
              28.011758001293913
            ],
            [
              113.07054765885219,
              28.01031509586585
            ],
            [
              113.07089498257537,
              28.00942600172715
            ],
            [
              113.07438598219483,
              28.005458001523408
            ],
            [
              113.07826004590935,
              28.002210485038887
            ],
            [
              113.07847639526405,
              28.002034243210872
            ],
            [
              113.08111598243701,
              28.0000020015449
            ],
            [
              113.08190598245746,
              27.99844800184232
            ],
            [
              113.08220098201024,
              27.996875001908165
            ],
            [
              113.08306098235084,
              27.99530800178141
            ],
            [
              113.0850929823033,
              27.99303000133358
            ],
            [
              113.0851709821211,
              27.992129001851595
            ],
            [
              113.08444998169767,
              27.990534001338702
            ],
            [
              113.08097598179664,
              27.98640700153618
            ],
            [
              113.07909638642201,
              27.98453932697673
            ],
            [
              113.0784939824807,
              27.983878001489728
            ],
            [
              113.07618942468787,
              27.982162148756004
            ],
            [
              113.07359365733444,
              27.98048086175578
            ],
            [
              113.07314338039157,
              27.98016373762539
            ],
            [
              113.07117298240968,
              27.978776001972022
            ]
          ]
        ]
      },
      "properties": {
        "name": "昭山和平小学",
        "isAssistFeature": false,
        "sourceFileId": "file_1776680404444_24_g1",
        "sourceFileName": "昭山和平小学.geojson",
        "sourceGroupId": 1,
        "id": "imported_1776680404444_24_0_g1",
        "sourceFile": "昭山和平小学.geojson"
      },
      "id": "imported_1776680404444_24_0_g1"
    }
  ],
  "properties": {
    "fileName": "昭山和平小学.geojson",
    "exportTime": "2026/4/20 18:37:03",
    "isStarred": false
  }
}