{
  "type": "FeatureCollection",
  "features": [
    {
      "type": "Feature",
      "geometry": {
        "type": "Polygon",
        "coordinates": [
          [
            [
              112.91082559694456,
              27.85933347780798
            ],
            [
              112.91004999152835,
              27.86215551276149
            ],
            [
              112.90972261848938,
              27.86354059578575
            ],
            [
              112.90957549690371,
              27.86416508362582
            ],
            [
              112.9095912183195,
              27.864198498025516
            ],
            [
              112.9142174009972,
              27.867121259182355
            ],
            [
              112.91562934690963,
              27.86796894050879
            ],
            [
              112.919562164037,
              27.86956178501876
            ],
            [
              112.92680027116684,
              27.872431088674148
            ],
            [
              112.92661968823518,
              27.87252354994058
            ],
            [
              112.92246582086918,
              27.87465036678006
            ],
            [
              112.9230309465229,
              27.875579744456275
            ],
            [
              112.92318824242746,
              27.87607884276703
            ],
            [
              112.92559164364758,
              27.875623580798816
            ],
            [
              112.92868154818764,
              27.87528215966877
            ],
            [
              112.9308273161776,
              27.87448550565108
            ],
            [
              112.93353098287476,
              27.872323129613136
            ],
            [
              112.93527653703256,
              27.870492978022156
            ],
            [
              112.93537634255557,
              27.870388334852137
            ],
            [
              112.93149332847806,
              27.86789248586193
            ],
            [
              112.92333089738312,
              27.864176193949362
            ],
            [
              112.92165316905182,
              27.86364290393651
            ],
            [
              112.91082559694456,
              27.85933347780798
            ]
          ]
        ]
      },
      "properties": {
        "name": "曙光学校",
        "isAssistFeature": false,
        "sourceFileId": "file_1777361714379_25_g1",
        "sourceFileName": "曙光学校.geojson",
        "sourceGroupId": 1,
        "id": "imported_1777361714379_25_0_g1",
        "sourceFile": "曙光学校.geojson"
      },
      "id": "imported_1777361714379_25_0_g1"
    }
  ],
  "properties": {
    "fileName": "曙光学校.geojson",
    "exportTime": "2026/4/28 15:38:07",
    "isStarred": false
  }
}