{
  "type": "FeatureCollection",
  "features": [
    {
      "type": "Feature",
      "geometry": {
        "type": "Polygon",
        "coordinates": [
          [
            [
              112.86062503390922,
              27.832611178462415
            ],
            [
              112.8605196430234,
              27.83238373423744
            ],
            [
              112.86046222763392,
              27.831448016621195
            ],
            [
              112.8606159683306,
              27.830916548143975
            ],
            [
              112.85811418790269,
              27.82860150252276
            ],
            [
              112.8607277797464,
              27.826327233926136
            ],
            [
              112.85983119633234,
              27.825501272260055
            ],
            [
              112.86030643358154,
              27.824936057051232
            ],
            [
              112.86500150173217,
              27.82229100920523
            ],
            [
              112.86677042116096,
              27.8207495732196
            ],
            [
              112.86810919313112,
              27.818748791963444
            ],
            [
              112.86948237159828,
              27.816576195165354
            ],
            [
              112.87101318456173,
              27.81471609161423
            ],
            [
              112.87131234005336,
              27.81213917076643
            ],
            [
              112.87156874105173,
              27.81128461709976
            ],
            [
              112.87246620752666,
              27.80962797980733
            ],
            [
              112.87371485653522,
              27.80816689678346
            ],
            [
              112.87481796335778,
              27.80710443038157
            ],
            [
              112.87388147660137,
              27.805792877473635
            ],
            [
              112.87407166474438,
              27.80515595894846
            ],
            [
              112.8746098551897,
              27.804711409656846
            ],
            [
              112.8757374760993,
              27.80437893289637
            ],
            [
              112.87835183496101,
              27.803826688169394
            ],
            [
              112.87940538256198,
              27.803826688169394
            ],
            [
              112.88034186931843,
              27.80389571891375
            ],
            [
              112.88097920058323,
              27.804068295582795
            ],
            [
              112.8811222749488,
              27.804321407534943
            ],
            [
              112.88144744396143,
              27.804758599517953
            ],
            [
              112.88174659945307,
              27.80563297820636
            ],
            [
              112.88155149804548,
              27.806633903066484
            ],
            [
              112.88017278143185,
              27.808934844789746
            ],
            [
              112.87886865369191,
              27.811337064311218
            ],
            [
              112.87714499178009,
              27.814831073814148
            ],
            [
              112.87601340361603,
              27.817879581027427
            ],
            [
              112.8753240453092,
              27.820525385840213
            ],
            [
              112.87489482221251,
              27.822009309014845
            ],
            [
              112.8742500166941,
              27.823600173777734
            ],
            [
              112.87309241500908,
              27.82539463213425
            ],
            [
              112.87225998233669,
              27.82667144021059
            ],
            [
              112.87216893501315,
              27.827074034237427
            ],
            [
              112.87212440281021,
              27.82803653826629
            ],
            [
              112.8719231865035,
              27.83178768324862
            ],
            [
              112.87192107579688,
              27.833242848891132
            ],
            [
              112.87203813664141,
              27.834573014524935
            ],
            [
              112.87218121100695,
              27.835562170869792
            ],
            [
              112.87231966979135,
              27.836751876599322
            ],
            [
              112.87243165391236,
              27.83729600110506
            ],
            [
              112.87325741779527,
              27.83829741935004
            ],
            [
              112.87391802890158,
              27.839090202238793
            ],
            [
              112.87424231174072,
              27.840048999022898
            ],
            [
              112.86926413518951,
              27.84132160082551
            ],
            [
              112.86934784493313,
              27.843941007959003
            ],
            [
              112.87028446965448,
              27.844980919636043
            ],
            [
              112.86998963050667,
              27.845285070454437
            ],
            [
              112.8699159207197,
              27.845632670345395
            ],
            [
              112.86962108157185,
              27.845860782168387
            ],
            [
              112.86927710256606,
              27.846371316414846
            ],
            [
              112.86906825816968,
              27.84653425237059
            ],
            [
              112.8682820204421,
              27.847348928477643
            ],
            [
              112.86798904415609,
              27.847481902723118
            ],
            [
              112.86672369281332,
              27.847938118110676
            ],
            [
              112.86625686416258,
              27.848003291580795
            ],
            [
              112.86580435008914,
              27.8479459879961
            ],
            [
              112.86507748074824,
              27.84807895844213
            ],
            [
              112.86460961082767,
              27.84824147765474
            ],
            [
              112.86373235472658,
              27.848145443603983
            ],
            [
              112.86329790408604,
              27.848005085992213
            ],
            [
              112.86302219502572,
              27.848019860486218
            ],
            [
              112.86265458294524,
              27.84811589464819
            ],
            [
              112.86246242208502,
              27.847975536998206
            ],
            [
              112.86218671302467,
              27.84787211545563
            ],
            [
              112.86201126180444,
              27.847894277223034
            ],
            [
              112.8618775846843,
              27.848005085992213
            ],
            [
              112.86170213346406,
              27.848056796712427
            ],
            [
              112.86126768282352,
              27.848248864885875
            ],
            [
              112.86082487736293,
              27.848248864885875
            ],
            [
              112.85662240289774,
              27.848263639346683
            ],
            [
              112.85731916237182,
              27.847216961456397
            ],
            [
              112.85363947779703,
              27.845203336630092
            ],
            [
              112.85106037920502,
              27.845843583612037
            ],
            [
              112.85625029262805,
              27.83778875802986
            ],
            [
              112.85643130891013,
              27.8376646581074
            ],
            [
              112.85654404047199,
              27.837552511737
            ],
            [
              112.85675598103077,
              27.836477828711168
            ],
            [
              112.85701146474467,
              27.835512767550867
            ],
            [
              112.85718740629711,
              27.83501409533355
            ],
            [
              112.85896593494606,
              27.83499852359573
            ],
            [
              112.8591068085024,
              27.8349362366221
            ],
            [
              112.8590451763215,
              27.834383438164338
            ],
            [
              112.8589283225962,
              27.833744704375377
            ],
            [
              112.85935974786253,
              27.833659058787802
            ],
            [
              112.85979997772613,
              27.833300903780227
            ],
            [
              112.85991443749066,
              27.83309068181221
            ],
            [
              112.86004650644972,
              27.832981677668442
            ],
            [
              112.86023763162926,
              27.832751327105612
            ],
            [
              112.86062503390922,
              27.832611178462415
            ]
          ]
        ]
      },
      "properties": {
        "sourceFileId": "file_1773300462754_1",
        "sourceFileName": "新建文件_2026-03-12T07-27-42.geojson",
        "name": "月塘实验学校",
        "id": "polygon_1773301364321",
        "sourceFile": "新建文件_2026-03-12T07-27-42.geojson"
      },
      "id": "polygon_1773301364321"
    }
  ]
}