{
  "type": "FeatureCollection",
  "features": [
    {
      "type": "Feature",
      "properties": {
        "name": "柴山学校",
        "isAssistFeature": false
      },
      "geometry": {
        "type": "Polygon",
        "coordinates": [
          [
            [
              112.7954286578421,
              27.994978593311817
            ],
            [
              112.79634017656426,
              27.99427067223377
            ],
            [
              112.79783084992987,
              27.994381427738038
            ],
            [
              112.800557361683,
              27.994584004599176
            ],
            [
              112.80132484093927,
              27.994818293358342
            ],
            [
              112.80185326412536,
              27.99497960543791
            ],
            [
              112.80219895381299,
              27.99515525041862
            ],
            [
              112.80376267278763,
              27.995466270417904
            ],
            [
              112.80473726581916,
              27.99556083631701
            ],
            [
              112.80593140980105,
              27.9950927342656
            ],
            [
              112.8059719372951,
              27.995030604365652
            ],
            [
              112.80651526712501,
              27.994204820921414
            ],
            [
              112.80751261538101,
              27.994069335362557
            ],
            [
              112.80796988391177,
              27.992983446647138
            ],
            [
              112.8080804045395,
              27.99274600640784
            ],
            [
              112.80897028015151,
              27.991698313290883
            ],
            [
              112.81488907923428,
              27.989653634623963
            ],
            [
              112.81638603451867,
              27.98913649785789
            ],
            [
              112.81579444359842,
              27.98850962047885
            ],
            [
              112.81785727462974,
              27.9880318553308
            ],
            [
              112.81888995721914,
              27.988624592468433
            ],
            [
              112.81967704579972,
              27.98907636191751
            ],
            [
              112.81999827975204,
              27.989260742205776
            ],
            [
              112.82094795711087,
              27.98888604861893
            ],
            [
              112.82231420392816,
              27.988125054631716
            ],
            [
              112.82337161264573,
              27.98753607954567
            ],
            [
              112.82384853631491,
              27.98712896974431
            ],
            [
              112.8243357816267,
              27.985838170079106
            ],
            [
              112.82484578306126,
              27.98333774203195
            ],
            [
              112.82466830650385,
              27.981874944074026
            ],
            [
              112.82579232889299,
              27.979628465378617
            ],
            [
              112.82774457821117,
              27.979680709139444
            ],
            [
              112.82857280514018,
              27.977904391207186
            ],
            [
              112.8279504612945,
              27.976955682696495
            ],
            [
              112.83123003522533,
              27.97478342743052
            ],
            [
              112.83085735655331,
              27.97353271525713
            ],
            [
              112.82891942638075,
              27.972874440201824
            ],
            [
              112.8291860930695,
              27.972516051297916
            ],
            [
              112.82907311375283,
              27.97241933816642
            ],
            [
              112.82845524890716,
              27.97153506455286
            ],
            [
              112.82005319376537,
              27.96941780110495
            ],
            [
              112.81882072675513,
              27.967516839426633
            ],
            [
              112.81994475453416,
              27.966287705579504
            ],
            [
              112.8189813024088,
              27.964585804710133
            ],
            [
              112.81796108304566,
              27.965883310777876
            ],
            [
              112.81538303945281,
              27.96531556359083
            ],
            [
              112.8152264469291,
              27.965279482788812
            ],
            [
              112.8131228808929,
              27.966580031182232
            ],
            [
              112.81180815155884,
              27.965372379622426
            ],
            [
              112.81238663246585,
              27.9647221001078
            ],
            [
              112.8121762757724,
              27.963049935585353
            ],
            [
              112.80891574792219,
              27.963514428549747
            ],
            [
              112.80546031170651,
              27.960688212394295
            ],
            [
              112.80282888662622,
              27.960050540494187
            ],
            [
              112.801394714597,
              27.961181461458054
            ],
            [
              112.79722381337663,
              27.96579333812564
            ],
            [
              112.7963109157405,
              27.966346038898184
            ],
            [
              112.79604888974858,
              27.966504678516404
            ],
            [
              112.79513781389582,
              27.96605454892106
            ],
            [
              112.7947099831569,
              27.965843172633335
            ],
            [
              112.79465125849015,
              27.965814158971455
            ],
            [
              112.79488521033286,
              27.965381748326035
            ],
            [
              112.79523666540801,
              27.964730214463284
            ],
            [
              112.795314922144,
              27.964307053224406
            ],
            [
              112.79429596221888,
              27.963978918721605
            ],
            [
              112.79426354830849,
              27.962353278875646
            ],
            [
              112.79316099295968,
              27.96231709631609
            ],
            [
              112.79226550377543,
              27.962251568259084
            ],
            [
              112.7905099199275,
              27.964797031123233
            ],
            [
              112.78935935501663,
              27.96547407857022
            ],
            [
              112.78929633280956,
              27.965511973856483
            ],
            [
              112.7876609543264,
              27.964654574872636
            ],
            [
              112.7868583769937,
              27.96423353337795
            ],
            [
              112.78662402540068,
              27.96411092798717
            ],
            [
              112.78576082975259,
              27.96440046503594
            ],
            [
              112.78553096524445,
              27.964477567089972
            ],
            [
              112.78509051946399,
              27.964625303027933
            ],
            [
              112.78516618995027,
              27.964476530081356
            ],
            [
              112.78575926488737,
              27.96327363939792
            ],
            [
              112.78577651793073,
              27.963235732217584
            ],
            [
              112.78480313403156,
              27.96302723931389
            ],
            [
              112.78474467796109,
              27.96297244848754
            ],
            [
              112.78316118796536,
              27.961454677983067
            ],
            [
              112.78175286226355,
              27.961277520544265
            ],
            [
              112.78062956481482,
              27.96019604414681
            ],
            [
              112.77740832298694,
              27.959661417096736
            ],
            [
              112.77737548417342,
              27.959564797181013
            ],
            [
              112.77728602005595,
              27.959303494505686
            ],
            [
              112.7770610989768,
              27.95822358289464
            ],
            [
              112.77711855612068,
              27.95797574620187
            ],
            [
              112.7772044853675,
              27.957615219384074
            ],
            [
              112.77697560092132,
              27.957431917294773
            ],
            [
              112.77650994392243,
              27.95705901194217
            ],
            [
              112.77624337515007,
              27.956845601797177
            ],
            [
              112.77568018356924,
              27.956394198839824
            ],
            [
              112.77547254338118,
              27.956284230345013
            ],
            [
              112.77540277213139,
              27.956246809498065
            ],
            [
              112.77451802410299,
              27.956704464930546
            ],
            [
              112.7736810116505,
              27.957057797915972
            ],
            [
              112.77366580047781,
              27.957150182096406
            ],
            [
              112.77365907748622,
              27.957191529563758
            ],
            [
              112.77365422209209,
              27.95722394401829
            ],
            [
              112.7733658754623,
              27.95900881084664
            ],
            [
              112.77333478746529,
              27.95920468430511
            ],
            [
              112.77329614553501,
              27.959449054707775
            ],
            [
              112.77294763423909,
              27.960070323810086
            ],
            [
              112.7728395848767,
              27.960262935818477
            ],
            [
              112.77320662751866,
              27.960786639585553
            ],
            [
              112.77326490482439,
              27.96123275407702
            ],
            [
              112.77335580265306,
              27.961928568239443
            ],
            [
              112.77340725725419,
              27.962322447292276
            ],
            [
              112.77321973393863,
              27.962504569164146
            ],
            [
              112.7731955045788,
              27.962529331665774
            ],
            [
              112.77290695942133,
              27.96280116102127
            ],
            [
              112.77244428303257,
              27.963243875248498
            ],
            [
              112.77244428303257,
              27.965015831136025
            ],
            [
              112.77292087432508,
              27.965235452689452
            ],
            [
              112.77428998407318,
              27.96586635943733
            ],
            [
              112.77522932272139,
              27.96728860612783
            ],
            [
              112.77533097428231,
              27.96749925679279
            ],
            [
              112.77539307751283,
              27.96760338948535
            ],
            [
              112.77526458518955,
              27.967830362196015
            ],
            [
              112.77485171858666,
              27.968559655626468
            ],
            [
              112.77499574008628,
              27.970063564140244
            ],
            [
              112.77511068581508,
              27.97038262367173
            ],
            [
              112.77573198851336,
              27.97210718460186
            ],
            [
              112.77477854002697,
              27.974683075641373
            ],
            [
              112.77408203486469,
              27.976564771782083
            ],
            [
              112.77552984152328,
              27.977683554674535
            ],
            [
              112.7748964259417,
              27.979641396415843
            ],
            [
              112.77661569629264,
              27.98036059446604
            ],
            [
              112.77738484372038,
              27.979601441092427
            ],
            [
              112.77878740672966,
              27.98084005716835
            ],
            [
              112.7789683822251,
              27.981998750163015
            ],
            [
              112.7789683822251,
              27.98299761374293
            ],
            [
              112.77847069848971,
              27.98447591460755
            ],
            [
              112.77996374879758,
              27.98479554471225
            ],
            [
              112.78127582361,
              27.98563456853512
            ],
            [
              112.78267838661927,
              27.986953021351567
            ],
            [
              112.78362850954247,
              27.98723269161728
            ],
            [
              112.78435241332093,
              27.991028138799493
            ],
            [
              112.78317607035468,
              27.99074847837965
            ],
            [
              112.78245216657622,
              27.99122789489154
            ],
            [
              112.78184514709099,
              27.9924913416552
            ],
            [
              112.78181875189298,
              27.992546280098527
            ],
            [
              112.7831308267054,
              27.993145540410666
            ],
            [
              112.7831747201868,
              27.99313410303194
            ],
            [
              112.78480875658694,
              27.993065704800742
            ],
            [
              112.78603566661883,
              27.99547212898322
            ],
            [
              112.78542610130808,
              27.996123964965953
            ],
            [
              112.7849536449608,
              27.996629181463273
            ],
            [
              112.78498985964315,
              27.996654603203858
            ],
            [
              112.78503746226836,
              27.996694034254975
            ],
            [
              112.78550956018783,
              27.99705213975063
            ],
            [
              112.78611511811411,
              27.99750193692481
            ],
            [
              112.78621669152163,
              27.997627305088642
            ],
            [
              112.78693131929646,
              27.998538734877883
            ],
            [
              112.78726453138478,
              27.99869128949678
            ],
            [
              112.78770824972781,
              27.998894437273613
            ],
            [
              112.78938022557563,
              27.999814851649663
            ],
            [
              112.78947376984111,
              27.999739837091596
            ],
            [
              112.79160628588396,
              27.998031462685333
            ],
            [
              112.79486332018604,
              27.995419953950243
            ],
            [
              112.7954286578421,
              27.994978593311817
            ]
          ]
        ]
      }
    }
  ]
}