{
  "type": "FeatureCollection",
  "features": [
    {
      "type": "Feature",
      "geometry": {
        "type": "Polygon",
        "coordinates": [
          [
            [
              112.8163385812419,
              27.869134644759328
            ],
            [
              112.81752392990272,
              27.868996246871802
            ],
            [
              112.81812778676769,
              27.868106541945494
            ],
            [
              112.819156579945,
              27.86816585583452
            ],
            [
              112.82005118270791,
              27.868600823361973
            ],
            [
              112.82103524574713,
              27.869371897869527
            ],
            [
              112.82101288067807,
              27.870459301310845
            ],
            [
              112.82249799744434,
              27.869863493825946
            ],
            [
              112.8228281741905,
              27.869240814525
            ],
            [
              112.82280208620385,
              27.86773088656099
            ],
            [
              112.82383087938118,
              27.865911905227108
            ],
            [
              112.82573191025234,
              27.866623684167934
            ],
            [
              112.82597792601211,
              27.867236601176245
            ],
            [
              112.82705144932761,
              27.867533172677668
            ],
            [
              112.82767767126161,
              27.8679286000836
            ],
            [
              112.82767767126161,
              27.868778764119995
            ],
            [
              112.82910903568222,
              27.868640365777892
            ],
            [
              112.82991417816886,
              27.8679286000836
            ],
            [
              112.83722755575549,
              27.86949052422979
            ],
            [
              112.83736174616993,
              27.86674231353686
            ],
            [
              112.83678025437405,
              27.86583281838955
            ],
            [
              112.83474503308847,
              27.864231297510855
            ],
            [
              112.83398462074,
              27.863875400768237
            ],
            [
              112.83181520904,
              27.863578819256617
            ],
            [
              112.83074168572453,
              27.863262464749653
            ],
            [
              112.83047330489569,
              27.86217498908917
            ],
            [
              112.83058513024105,
              27.85992091388347
            ],
            [
              112.83114425696786,
              27.859406819991364
            ],
            [
              112.83065222544828,
              27.858022708932523
            ],
            [
              112.82922086102766,
              27.856658353593147
            ],
            [
              112.82872882950805,
              27.854878733867636
            ],
            [
              112.82761911782042,
              27.85491839262724
            ],
            [
              112.82737698820657,
              27.855580076697322
            ],
            [
              112.82634243440191,
              27.855618999163937
            ],
            [
              112.82651852866653,
              27.85098712753404
            ],
            [
              112.82731095285732,
              27.850928741334783
            ],
            [
              112.82732205894293,
              27.849847964590694
            ],
            [
              112.82810337704812,
              27.849780473026954
            ],
            [
              112.82839700515596,
              27.84562381387869
            ],
            [
              112.82956308996694,
              27.845568655754846
            ],
            [
              112.82983188285947,
              27.8440907515934
            ],
            [
              112.82702191402346,
              27.843985022361238
            ],
            [
              112.82543756989254,
              27.841606087391483
            ],
            [
              112.82418205190196,
              27.841050995058367
            ],
            [
              112.82286674734046,
              27.83943856788737
            ],
            [
              112.82097849456663,
              27.83980744481545
            ],
            [
              112.82086389721263,
              27.84068093192495
            ],
            [
              112.82020624493188,
              27.84110386111722
            ],
            [
              112.81936923293819,
              27.84076023127409
            ],
            [
              112.81862323377733,
              27.839515483412768
            ],
            [
              112.80824893073611,
              27.838724862963645
            ],
            [
              112.80842829044904,
              27.840495899884857
            ],
            [
              112.80908594272981,
              27.840839530565276
            ],
            [
              112.8102517808639,
              27.84250480228964
            ],
            [
              112.81234431084815,
              27.84406431929503
            ],
            [
              112.81330089598382,
              27.84557095002269
            ],
            [
              112.81354004226775,
              27.847051128251707
            ],
            [
              112.81197408731121,
              27.8478327640145
            ],
            [
              112.81162687199642,
              27.849482805772993
            ],
            [
              112.8088484141142,
              27.848260940969766
            ],
            [
              112.8083386105926,
              27.849350650787102
            ],
            [
              112.80825409597111,
              27.85063534613151
            ],
            [
              112.80915657907728,
              27.852386923173867
            ],
            [
              112.8100425278655,
              27.853526670475233
            ],
            [
              112.8120453779933,
              27.854425286595117
            ],
            [
              112.81461620054539,
              27.85513888820826
            ],
            [
              112.81763111556221,
              27.855072619684563
            ],
            [
              112.81857762223453,
              27.85555915178996
            ],
            [
              112.81829307466059,
              27.857861103078193
            ],
            [
              112.81527385282615,
              27.858019676594765
            ],
            [
              112.81464609383087,
              27.85870682581951
            ],
            [
              112.81348025569685,
              27.858727036024888
            ],
            [
              112.81324940587403,
              27.860159221316422
            ],
            [
              112.81476566697287,
              27.860577031173435
            ],
            [
              112.81467598711642,
              27.86163415708225
            ],
            [
              112.81234431084822,
              27.863404819881325
            ],
            [
              112.81237420413372,
              27.863906942872987
            ],
            [
              112.81467598711642,
              27.863906942872987
            ],
            [
              112.81506459982774,
              27.865175453752684
            ],
            [
              112.81500481325676,
              27.8666025107444
            ],
            [
              112.81614075810536,
              27.867738857501266
            ],
            [
              112.81593150510693,
              27.868584503167995
            ],
            [
              112.8163385812419,
              27.869134644759328
            ]
          ]
        ]
      },
      "properties": {
        "sourceFileId": "file_1774230359570",
        "sourceFileName": "梅花学校.geojson",
        "name": "湘潭市雨湖区姜畲镇梅花学校",
        "id": "polygon_1774230602883",
        "sourceFile": "梅花学校.geojson"
      },
      "id": "polygon_1774230602883"
    }
  ],
  "properties": {
    "fileName": "梅花学校.geojson",
    "exportTime": "2026/3/23 09:51:54",
    "isStarred": false
  }
}