{
  "type": "FeatureCollection",
  "features": [
    {
      "type": "Feature",
      "geometry": {
        "type": "Polygon",
        "coordinates": [
          [
            [
              112.77589255163184,
              27.872158353009695
            ],
            [
              112.7763880065406,
              27.87302242523775
            ],
            [
              112.77783526973239,
              27.87422109842491
            ],
            [
              112.77757450158975,
              27.87506246687454
            ],
            [
              112.77660080765388,
              27.875503428421652
            ],
            [
              112.7758664702553,
              27.875638742863757
            ],
            [
              112.77522476738254,
              27.87614738830227
            ],
            [
              112.77445580370149,
              27.877149096062837
            ],
            [
              112.77453674724687,
              27.878222344098006
            ],
            [
              112.77352495292969,
              27.878687414943983
            ],
            [
              112.77309999931646,
              27.879617550645065
            ],
            [
              112.77524500326888,
              27.880350921238872
            ],
            [
              112.77722812013053,
              27.880690774220426
            ],
            [
              112.77767330963007,
              27.88215749590732
            ],
            [
              112.77908982167412,
              27.882461569868596
            ],
            [
              112.77911005756046,
              27.88290873590762
            ],
            [
              112.78105270264943,
              27.882926622510794
            ],
            [
              112.78208473285292,
              27.884733154211403
            ],
            [
              112.7829548759657,
              27.885090879686132
            ],
            [
              112.78368336787406,
              27.88478681310795
            ],
            [
              112.78362266021503,
              27.885681124135715
            ],
            [
              112.78451303921412,
              27.886020960389573
            ],
            [
              112.78455584301916,
              27.886153970435302
            ],
            [
              112.78407314003697,
              27.886811721872036
            ],
            [
              112.78423404103103,
              27.887931667826976
            ],
            [
              112.7848776450073,
              27.88819831991829
            ],
            [
              112.78706992105144,
              27.887771676256946
            ],
            [
              112.78928230971987,
              27.888838282257865
            ],
            [
              112.78986557582336,
              27.889727112565026
            ],
            [
              112.79077064391498,
              27.89178917077369
            ],
            [
              112.79125334689718,
              27.89178917077369
            ],
            [
              112.79218811416447,
              27.889666568996745
            ],
            [
              112.79376986989566,
              27.88936556419918
            ],
            [
              112.79455256689481,
              27.88819483857756
            ],
            [
              112.79462782622164,
              27.888168231029937
            ],
            [
              112.79571156052818,
              27.88826135741803
            ],
            [
              112.79629858327755,
              27.88760947101939
            ],
            [
              112.7975177843724,
              27.887236962743657
            ],
            [
              112.79718664333427,
              27.88675802164876
            ],
            [
              112.79610290902775,
              27.88661167811388
            ],
            [
              112.79676519110396,
              27.88617264632242
            ],
            [
              112.79830048137154,
              27.885573963737897
            ],
            [
              112.79852625935206,
              27.88461606471749
            ],
            [
              112.79973040858152,
              27.88427015465541
            ],
            [
              112.80022712013869,
              27.882979634287935
            ],
            [
              112.80293645590501,
              27.881423006783763
            ],
            [
              112.80292140403965,
              27.881449615988913
            ],
            [
              112.80441153871111,
              27.882114843992397
            ],
            [
              112.80457710923017,
              27.88178223050143
            ],
            [
              112.80649370014879,
              27.881987002379915
            ],
            [
              112.80748199366347,
              27.882386345728648
            ],
            [
              112.80991037201386,
              27.88297287860229
            ],
            [
              112.81082807313464,
              27.88374659795913
            ],
            [
              112.81228227644912,
              27.88400866293958
            ],
            [
              112.81356705801824,
              27.885194187069644
            ],
            [
              112.81562835592024,
              27.884807333253846
            ],
            [
              112.81904502778532,
              27.884407998833055
            ],
            [
              112.819906254991,
              27.883584366939147
            ],
            [
              112.81939798975486,
              27.881987002379873
            ],
            [
              112.81845205167652,
              27.880739044923743
            ],
            [
              112.8175484690345,
              27.879029319862994
            ],
            [
              112.81778848317377,
              27.87818068718225
            ],
            [
              112.81883325060359,
              27.87749428823834
            ],
            [
              112.82004743977878,
              27.87578451195745
            ],
            [
              112.82064041588758,
              27.874601821376118
            ],
            [
              112.8201745060878,
              27.87359090801833
            ],
            [
              112.81924268648824,
              27.874227410121335
            ],
            [
              112.81807085274937,
              27.874539419590178
            ],
            [
              112.8173084548952,
              27.874239890517316
            ],
            [
              112.8173790472891,
              27.873328817830128
            ],
            [
              112.81883325060356,
              27.873191532240398
            ],
            [
              112.81953917454264,
              27.87243021808544
            ],
            [
              112.81982154411826,
              27.87151913017938
            ],
            [
              112.82100749633588,
              27.87037089889229
            ],
            [
              112.8210664831299,
              27.869566421896238
            ],
            [
              112.82057233637258,
              27.868967335424287
            ],
            [
              112.8193440287186,
              27.868243434851337
            ],
            [
              112.81807336562828,
              27.86809366171522
            ],
            [
              112.81749450799825,
              27.86902974041965
            ],
            [
              112.8162520818655,
              27.869154550302582
            ],
            [
              112.81594147533231,
              27.868630347828173
            ],
            [
              112.81604030468377,
              27.86775667140202
            ],
            [
              112.8149531818176,
              27.86659591896813
            ],
            [
              112.81505201116909,
              27.86508567407111
            ],
            [
              112.81338403921346,
              27.865283616535507
            ],
            [
              112.81315814355295,
              27.86475939533537
            ],
            [
              112.81242398265636,
              27.863985540357874
            ],
            [
              112.81232515330487,
              27.863448831241243
            ],
            [
              112.81465448331492,
              27.861518775443045
            ],
            [
              112.81470219234173,
              27.860506484741478
            ],
            [
              112.8146513870326,
              27.86040527958167
            ],
            [
              112.81439249383426,
              27.85868863168824
            ],
            [
              112.81624789508922,
              27.858192706124484
            ],
            [
              112.81633419282201,
              27.857391590805847
            ],
            [
              112.81801699861141,
              27.85754418465629
            ],
            [
              112.82004499533194,
              27.857506036213834
            ],
            [
              112.81994564949687,
              27.85518525758428
            ],
            [
              112.81880118900578,
              27.854999406799024
            ],
            [
              112.81728302712985,
              27.85532980797477
            ],
            [
              112.8156247272346,
              27.85508200718735
            ],
            [
              112.81354601328141,
              27.854152749190206
            ],
            [
              112.81001920646196,
              27.85223225742446
            ],
            [
              112.80864361742228,
              27.847847676811966
            ],
            [
              112.81004499761545,
              27.847269434195738
            ],
            [
              112.81137630879894,
              27.847950934097582
            ],
            [
              112.81280104532867,
              27.848384613623594
            ],
            [
              112.81354844809836,
              27.84619554687191
            ],
            [
              112.81483304660877,
              27.845865117863866
            ],
            [
              112.81422641130276,
              27.84373069203727
            ],
            [
              112.81294181279236,
              27.843090470371195
            ],
            [
              112.81149371992609,
              27.84145892065375
            ],
            [
              112.81055946646397,
              27.84015779379807
            ],
            [
              112.80918144260735,
              27.83960016322564
            ],
            [
              112.80892452290529,
              27.838257707499324
            ],
            [
              112.80863524929231,
              27.838348518246363
            ],
            [
              112.79637175282556,
              27.840389764946025
            ],
            [
              112.79276193801084,
              27.84205784681842
            ],
            [
              112.79320570840532,
              27.843276341566735
            ],
            [
              112.79182768454871,
              27.843586126184903
            ],
            [
              112.79292543236669,
              27.84466003934476
            ],
            [
              112.79238823662598,
              27.845155687986264
            ],
            [
              112.79065986772109,
              27.844928515973393
            ],
            [
              112.79075329306728,
              27.84556872679066
            ],
            [
              112.78935191287412,
              27.84600241584245
            ],
            [
              112.78895485515275,
              27.84699369859176
            ],
            [
              112.78900156782584,
              27.847840412098805
            ],
            [
              112.78797388901751,
              27.848088229435717
            ],
            [
              112.78694621020921,
              27.84903819064786
            ],
            [
              112.78803437686116,
              27.850211596732592
            ],
            [
              112.78747382478392,
              27.851512602986162
            ],
            [
              112.78672642201423,
              27.85188431619163
            ],
            [
              112.78724026141838,
              27.852441883610595
            ],
            [
              112.78922555002536,
              27.853391806683987
            ],
            [
              112.7891554810157,
              27.855580728168505
            ],
            [
              112.78988942141207,
              27.856517548078628
            ],
            [
              112.79027871808081,
              27.859893788051536
            ],
            [
              112.79116853903795,
              27.86072963704821
            ],
            [
              112.78945750476923,
              27.861023233562662
            ],
            [
              112.7883318034021,
              27.861427087880855
            ],
            [
              112.78763843661797,
              27.860806882416085
            ],
            [
              112.78710821495957,
              27.86015782638529
            ],
            [
              112.78665140860767,
              27.85880921976117
            ],
            [
              112.78439184861706,
              27.85777792102185
            ],
            [
              112.7821241313702,
              27.857446172488608
            ],
            [
              112.78085975664621,
              27.857828404405296
            ],
            [
              112.77961940453181,
              27.858074565014434
            ],
            [
              112.77889642500412,
              27.859713506050383
            ],
            [
              112.77885934913091,
              27.861319644224025
            ],
            [
              112.77785083379005,
              27.864060480576853
            ],
            [
              112.77727615775522,
              27.864257143948393
            ],
            [
              112.7753296744115,
              27.86389659416129
            ],
            [
              112.77490330186954,
              27.863175490988624
            ],
            [
              112.77482915012313,
              27.863027992021344
            ],
            [
              112.77232652868116,
              27.86437186408368
            ],
            [
              112.77234506661777,
              27.865519058757314
            ],
            [
              112.77183475681913,
              27.866372165941115
            ],
            [
              112.77131924131828,
              27.866563354650495
            ],
            [
              112.77140018486365,
              27.86695691861719
            ],
            [
              112.77222405348788,
              27.86833874164634
            ],
            [
              112.77322510206464,
              27.869338403947282
            ],
            [
              112.77376270222624,
              27.87071497300488
            ],
            [
              112.7752086612816,
              27.87161628850845
            ],
            [
              112.77589255163184,
              27.872158353009695
            ]
          ]
        ]
      },
      "properties": {
        "sourceFileId": "file_1775484757701_27_g1",
        "sourceFileName": "棋盘学校.geojson",
        "name": "湘潭市雨湖区姜畲镇棋盘学校",
        "id": "imported_1775484757701_27_0_g1",
        "sourceFile": "棋盘学校.geojson",
        "sourceGroupId": 1,
        "isAssistFeature": false
      },
      "id": "imported_1775484757701_27_0_g1"
    }
  ],
  "properties": {
    "fileName": "棋盘学校.geojson",
    "exportTime": "2026/4/6 22:23:27",
    "isStarred": false
  }
}