{
  "type": "FeatureCollection",
  "features": [
    {
      "type": "Feature",
      "geometry": {
        "type": "Polygon",
        "coordinates": [
          [
            [
              112.64559371176807,
              27.852481454171496
            ],
            [
              112.64567954220018,
              27.853442691562577
            ],
            [
              112.64563662698411,
              27.854277443289803
            ],
            [
              112.64662367964863,
              27.85473275999371
            ],
            [
              112.6479969710544,
              27.854846589268064
            ],
            [
              112.65112979081053,
              27.85609869783842
            ],
            [
              112.65220267480552,
              27.85533984542836
            ],
            [
              112.65318972747002,
              27.854884532068183
            ],
            [
              112.65387637272376,
              27.854277443289803
            ],
            [
              112.65507800236688,
              27.855529559227406
            ],
            [
              112.65533549456165,
              27.856212525678643
            ],
            [
              112.65662295463694,
              27.855377788850106
            ],
            [
              112.658655124371,
              27.8552220630028
            ],
            [
              112.65919787568586,
              27.855301902787588
            ],
            [
              112.65992743615564,
              27.856136640200376
            ],
            [
              112.66065699752377,
              27.856591949096355
            ],
            [
              112.66022784356643,
              27.857730212176065
            ],
            [
              112.65979869050744,
              27.858071689404824
            ],
            [
              112.65936953744847,
              27.858754639046907
            ],
            [
              112.65791041561054,
              27.85905817092825
            ],
            [
              112.6578245842801,
              27.86008258524957
            ],
            [
              112.65808207647486,
              27.861486396970236
            ],
            [
              112.66168696540434,
              27.86224520555919
            ],
            [
              112.66233069544202,
              27.86053787757234
            ],
            [
              112.66306025681016,
              27.859247878220344
            ],
            [
              112.66357524030124,
              27.85898228823615
            ],
            [
              112.66473395472835,
              27.859551408720677
            ],
            [
              112.66481978605883,
              27.85905817092825
            ],
            [
              112.66417605512284,
              27.858564931685805
            ],
            [
              112.66400439425858,
              27.858071689404824
            ],
            [
              112.66344649465306,
              27.85754050302218
            ],
            [
              112.66361815641562,
              27.856743718568126
            ],
            [
              112.66361815641562,
              27.85579515767064
            ],
            [
              112.66370398684776,
              27.855150132091595
            ],
            [
              112.66254527242067,
              27.853860068626645
            ],
            [
              112.66220194979381,
              27.85393595490416
            ],
            [
              112.66185862716698,
              27.853822125467957
            ],
            [
              112.65868289129642,
              27.852266439764946
            ],
            [
              112.6588974682751,
              27.85177316882836
            ],
            [
              112.66177279673481,
              27.851735224939432
            ],
            [
              112.66297442547966,
              27.851659337121674
            ],
            [
              112.66327483289045,
              27.85154550450123
            ],
            [
              112.66443354731756,
              27.85150756053264
            ],
            [
              112.66559226174466,
              27.851343135985715
            ],
            [
              112.66726596056122,
              27.849559746219924
            ],
            [
              112.667995521031,
              27.848851441792846
            ],
            [
              112.66790969059885,
              27.848889386690843
            ],
            [
              112.66696555315043,
              27.848687013218537
            ],
            [
              112.66563517696073,
              27.84789016370226
            ],
            [
              112.66447646253363,
              27.847624545895755
            ],
            [
              112.66417605512284,
              27.846637959549057
            ],
            [
              112.66520602390176,
              27.845271902526875
            ],
            [
              112.66534418209747,
              27.844444897461273
            ],
            [
              112.66489824491572,
              27.84321816062132
            ],
            [
              112.66489824491572,
              27.842341910959945
            ],
            [
              112.66494853170704,
              27.84094594165343
            ],
            [
              112.66477686994442,
              27.840186983208014
            ],
            [
              112.6646481242962,
              27.839845450453367
            ],
            [
              112.66413313990677,
              27.839731605433258
            ],
            [
              112.6637898172799,
              27.83946596764767
            ],
            [
              112.66224486500988,
              27.8395418647916
            ],
            [
              112.66181571195088,
              27.840262879053228
            ],
            [
              112.66082865838806,
              27.839655709216416
            ],
            [
              112.66044242054512,
              27.839428019452953
            ],
            [
              112.66057116709163,
              27.838820844943825
            ],
            [
              112.65572173240457,
              27.836126466171024
            ],
            [
              112.65585047895108,
              27.83703724927814
            ],
            [
              112.65516383369737,
              27.838555204928255
            ],
            [
              112.65383345750769,
              27.838972639286837
            ],
            [
              112.65327555790213,
              27.839579812946454
            ],
            [
              112.65267474308058,
              27.839807502391366
            ],
            [
              112.65117270602663,
              27.839124432623166
            ],
            [
              112.64941317767622,
              27.84246384261509
            ],
            [
              112.64821154803307,
              27.8421982115197
            ],
            [
              112.64743907144889,
              27.843829935002958
            ],
            [
              112.64829737846519,
              27.843943774927737
            ],
            [
              112.64949900810836,
              27.844626814350292
            ],
            [
              112.64988524595128,
              27.845385741732542
            ],
            [
              112.64975650030307,
              27.847358927438705
            ],
            [
              112.6491556854815,
              27.84819372599965
            ],
            [
              112.64859778587599,
              27.848345507226867
            ],
            [
              112.64803988627047,
              27.849028518134773
            ],
            [
              112.64773947885968,
              27.849825359286655
            ],
            [
              112.6479540558383,
              27.851039582504256
            ],
            [
              112.6476965636436,
              27.851684632537342
            ],
            [
              112.64709574882204,
              27.85217790387665
            ],
            [
              112.64610869615751,
              27.85191229657235
            ],
            [
              112.64559371176807,
              27.852481454171496
            ]
          ]
        ]
      },
      "properties": {
        "name": "江南学校（小学部）",
        "isAssistFeature": false,
        "sourceFileId": "file_1776680404445_29_g1",
        "sourceFileName": "江南学校（小学部）.geojson",
        "sourceGroupId": 1,
        "id": "imported_1776680404445_29_0_g1",
        "sourceFile": "江南学校（小学部）.geojson"
      },
      "id": "imported_1776680404445_29_0_g1"
    }
  ],
  "properties": {
    "fileName": "江南学校（小学部）.geojson",
    "exportTime": "2026/4/20 18:37:22",
    "isStarred": false
  }
}