{
  "type": "FeatureCollection",
  "features": [
    {
      "type": "Feature",
      "geometry": {
        "type": "Polygon",
        "coordinates": [
          [
            [
              112.74655397056831,
              27.894085495362134
            ],
            [
              112.74792784857392,
              27.89189981812848
            ],
            [
              112.74835865273641,
              27.891306865250485
            ],
            [
              112.74848063676548,
              27.891139145795762
            ],
            [
              112.74908992449684,
              27.890299968995407
            ],
            [
              112.74972025346709,
              27.88917190692004
            ],
            [
              112.74973173752969,
              27.88915132299698
            ],
            [
              112.75024339545763,
              27.888234235184683
            ],
            [
              112.75114395473335,
              27.886812851115806
            ],
            [
              112.75193483959433,
              27.885564552961142
            ],
            [
              112.75277288510937,
              27.88583391044554
            ],
            [
              112.75432085302381,
              27.886333708656878
            ],
            [
              112.75543575391956,
              27.886692849533958
            ],
            [
              112.7568654774915,
              27.88715430497389
            ],
            [
              112.75760904269653,
              27.887399532247088
            ],
            [
              112.7591793041014,
              27.886370682073803
            ],
            [
              112.76134794050353,
              27.8845094598733
            ],
            [
              112.76248193059907,
              27.884649792985556
            ],
            [
              112.7637077958903,
              27.884535066020987
            ],
            [
              112.76496333972187,
              27.884809049595958
            ],
            [
              112.76569802508033,
              27.883923187088243
            ],
            [
              112.767456477249,
              27.883019015859304
            ],
            [
              112.76787471398067,
              27.883732879841602
            ],
            [
              112.76849485785222,
              27.88307000573272
            ],
            [
              112.76947555044455,
              27.882751314858695
            ],
            [
              112.76974956714892,
              27.881400055642644
            ],
            [
              112.7706725717303,
              27.881361811657655
            ],
            [
              112.77135956732698,
              27.880399095639092
            ],
            [
              112.77305070603646,
              27.87964129875337
            ],
            [
              112.77308750821705,
              27.879639077796952
            ],
            [
              112.77350480261596,
              27.878639483970943
            ],
            [
              112.77367571698021,
              27.878561522649377
            ],
            [
              112.77452182936656,
              27.878180502270382
            ],
            [
              112.7744750118689,
              27.877752350520296
            ],
            [
              112.77440785022499,
              27.877180824311182
            ],
            [
              112.775066112309,
              27.876590649487028
            ],
            [
              112.77509119237338,
              27.87656783103597
            ],
            [
              112.77536875472819,
              27.87593648397612
            ],
            [
              112.77578625573967,
              27.875589826880187
            ],
            [
              112.77709172793473,
              27.875368970205216
            ],
            [
              112.77761531908291,
              27.875081703152546
            ],
            [
              112.77788578923854,
              27.87419327478497
            ],
            [
              112.77788900610558,
              27.87417097992804
            ],
            [
              112.77724175018042,
              27.87371003535354
            ],
            [
              112.77720331396439,
              27.873681040633272
            ],
            [
              112.77642858260886,
              27.873068789886986
            ],
            [
              112.77559043827908,
              27.871713039900754
            ],
            [
              112.7742673851556,
              27.871131378343676
            ],
            [
              112.77380696802977,
              27.87069267670806
            ],
            [
              112.7733597255959,
              27.86978006707784
            ],
            [
              112.77309819367731,
              27.869246963086724
            ],
            [
              112.77218037866334,
              27.868430533696355
            ],
            [
              112.77209919341955,
              27.868353846757103
            ],
            [
              112.77177793072113,
              27.867729816653622
            ],
            [
              112.77154555182845,
              27.867267473989344
            ],
            [
              112.77153181748609,
              27.867245327799765
            ],
            [
              112.77070581119244,
              27.865049277188547
            ],
            [
              112.77050980418733,
              27.864532982150465
            ],
            [
              112.77055157584806,
              27.86397905318475
            ],
            [
              112.77061974719834,
              27.86302271077713
            ],
            [
              112.77103907987464,
              27.862857064785317
            ],
            [
              112.7712120226348,
              27.862788016229118
            ],
            [
              112.77337561589492,
              27.862653786612157
            ],
            [
              112.77341357420728,
              27.86181484972542
            ],
            [
              112.77246462897541,
              27.861244368774535
            ],
            [
              112.77230711837352,
              27.86023998224192
            ],
            [
              112.77162955868059,
              27.858861739592157
            ],
            [
              112.77185730496126,
              27.8581737879162
            ],
            [
              112.77147772722789,
              27.85743549312663
            ],
            [
              112.77161707209812,
              27.856131543679368
            ],
            [
              112.76677103933102,
              27.85504580768361
            ],
            [
              112.76588544778458,
              27.85604764523491
            ],
            [
              112.76362696009114,
              27.855024079144385
            ],
            [
              112.76230283707412,
              27.854815439516145
            ],
            [
              112.76062829563783,
              27.85532611561534
            ],
            [
              112.7589230713447,
              27.855264630462003
            ],
            [
              112.75799310571817,
              27.855617006672574
            ],
            [
              112.7569872243653,
              27.854207496547332
            ],
            [
              112.7607450442854,
              27.853234253805965
            ],
            [
              112.76102972758548,
              27.8517575919236
            ],
            [
              112.76268089126484,
              27.84986139442435
            ],
            [
              112.76304670590974,
              27.84976492818535
            ],
            [
              112.76376268744569,
              27.849576122475867
            ],
            [
              112.76399043462477,
              27.849475438406614
            ],
            [
              112.76583138627251,
              27.848502153192427
            ],
            [
              112.76543282983205,
              27.847780573361987
            ],
            [
              112.76649556466094,
              27.847387623400863
            ],
            [
              112.76752050736584,
              27.847008645141983
            ],
            [
              112.76518610484435,
              27.845196272305856
            ],
            [
              112.76408532905812,
              27.843266396265932
            ],
            [
              112.76353494116502,
              27.84192385410492
            ],
            [
              112.76164274602023,
              27.839246774599545
            ],
            [
              112.76004851936018,
              27.837115401723437
            ],
            [
              112.75852340997648,
              27.83456634980027
            ],
            [
              112.75757072775305,
              27.833427884906243
            ],
            [
              112.75603062728388,
              27.831587425525257
            ],
            [
              112.75392740979403,
              27.830371557805137
            ],
            [
              112.75014898701282,
              27.828259001353743
            ],
            [
              112.74698598655813,
              27.824423001360202
            ],
            [
              112.74621645554973,
              27.826202368984525
            ],
            [
              112.74545575677728,
              27.82797147362119
            ],
            [
              112.73998698670238,
              27.83372600085204
            ],
            [
              112.73835798715605,
              27.83669900083612
            ],
            [
              112.7383309873919,
              27.839913001195782
            ],
            [
              112.73892558138013,
              27.841065620563114
            ],
            [
              112.73979398725685,
              27.842749001413907
            ],
            [
              112.74076335209344,
              27.843208645505214
            ],
            [
              112.7423185253948,
              27.84394606016056
            ],
            [
              112.74381998662864,
              27.844658001184044
            ],
            [
              112.74520532084908,
              27.846228274433813
            ],
            [
              112.74602498683346,
              27.84715100142337
            ],
            [
              112.74554498733275,
              27.848494001520436
            ],
            [
              112.74223540607815,
              27.84976417760167
            ],
            [
              112.74130056798954,
              27.850122953613962
            ],
            [
              112.74062326072318,
              27.850382893462893
            ],
            [
              112.73482245445469,
              27.852609123191613
            ],
            [
              112.73410962151384,
              27.852882690307027
            ],
            [
              112.73353889127105,
              27.853101721571903
            ],
            [
              112.73179314667044,
              27.853771690504715
            ],
            [
              112.72954098670984,
              27.854636001045364
            ],
            [
              112.72917806194515,
              27.85667705353633
            ],
            [
              112.72868623612372,
              27.85944296507465
            ],
            [
              112.72831649404435,
              27.86185752101605
            ],
            [
              112.72838681865638,
              27.861896378639685
            ],
            [
              112.73117110735362,
              27.863434821359604
            ],
            [
              112.73253855881171,
              27.864190390418457
            ],
            [
              112.73380965787075,
              27.864892716280693
            ],
            [
              112.73552627190337,
              27.86542386663328
            ],
            [
              112.73767203899502,
              27.867017302071346
            ],
            [
              112.74230689580509,
              27.868610714079082
            ],
            [
              112.74310753547172,
              27.869028123270468
            ],
            [
              112.74548395399573,
              27.87027244210374
            ],
            [
              112.7462811809626,
              27.87192600108601
            ],
            [
              112.74668426131879,
              27.87293557118663
            ],
            [
              112.74644702793034,
              27.874123774468245
            ],
            [
              112.74599761516674,
              27.87559109978909
            ],
            [
              112.74342269501615,
              27.876273939819725
            ],
            [
              112.74287757574216,
              27.87727472672536
            ],
            [
              112.74271919107949,
              27.877565504874852
            ],
            [
              112.74230689580509,
              27.878322432496375
            ],
            [
              112.73884207758456,
              27.87730214346746
            ],
            [
              112.73741454680028,
              27.876956774751832
            ],
            [
              112.73798449011883,
              27.878846021925398
            ],
            [
              112.73810119205402,
              27.879232861956197
            ],
            [
              112.73825371251449,
              27.879893552893705
            ],
            [
              112.73814086075862,
              27.880657134992916
            ],
            [
              112.73805734887824,
              27.88116511345973
            ],
            [
              112.7381515498122,
              27.8823224347899
            ],
            [
              112.73808431450644,
              27.883141920493685
            ],
            [
              112.73808167525614,
              27.883210802831996
            ],
            [
              112.73803288236316,
              27.88376692818572
            ],
            [
              112.73801199832944,
              27.884009618304816
            ],
            [
              112.73724288503767,
              27.885378057452797
            ],
            [
              112.73432464226023,
              27.886136699507233
            ],
            [
              112.73372382743861,
              27.888033280991166
            ],
            [
              112.73398112290232,
              27.889265361454406
            ],
            [
              112.7334663352439,
              27.89084016033054
            ],
            [
              112.73380965787075,
              27.892433221892944
            ],
            [
              112.73489541921533,
              27.892896567084208
            ],
            [
              112.73616156586222,
              27.89276092422179
            ],
            [
              112.73808505471821,
              27.892554860598437
            ],
            [
              112.73817746351318,
              27.892544960775723
            ],
            [
              112.73838264680892,
              27.892522979339248
            ],
            [
              112.73972344704919,
              27.89237933848942
            ],
            [
              112.74229411547357,
              27.892103940977293
            ],
            [
              112.7429850483861,
              27.892425345058342
            ],
            [
              112.74307955474731,
              27.892469306378615
            ],
            [
              112.74379753952631,
              27.89280329194213
            ],
            [
              112.74574047870487,
              27.893707086908805
            ],
            [
              112.74655397056831,
              27.894085495362134
            ]
          ]
        ]
      },
      "properties": {
        "name": "清联学校",
        "isAssistFeature": false,
        "sourceFileId": "file_1776680404445_30_g1",
        "sourceFileName": "清联学校.geojson",
        "sourceGroupId": 1,
        "id": "imported_1776680404445_30_0_g1",
        "sourceFile": "清联学校.geojson"
      },
      "id": "imported_1776680404445_30_0_g1"
    }
  ],
  "properties": {
    "fileName": "清联学校.geojson",
    "exportTime": "2026/4/20 18:37:26",
    "isStarred": false
  }
}