{
  "type": "FeatureCollection",
  "features": [
    {
      "type": "Feature",
      "geometry": {
        "type": "Polygon",
        "coordinates": [
          [
            [
              112.93236082746301,
              27.901776743226648
            ],
            [
              112.93059357721684,
              27.897775950475832
            ],
            [
              112.93569340467563,
              27.89621227726289
            ],
            [
              112.93753126250986,
              27.900204245496795
            ],
            [
              112.94234793602564,
              27.898858559295945
            ],
            [
              112.94077803069308,
              27.89419652235226
            ],
            [
              112.93773385972106,
              27.88564003681857
            ],
            [
              112.92698276308667,
              27.88813100987933
            ],
            [
              112.92954852536124,
              27.895554706963466
            ],
            [
              112.92420507865742,
              27.896178301453062
            ],
            [
              112.92448336358343,
              27.89767895933676
            ],
            [
              112.92469656964197,
              27.898828663848064
            ],
            [
              112.92543817327889,
              27.898751872624942
            ],
            [
              112.92588779813283,
              27.90240405986883
            ],
            [
              112.92982569848253,
              27.902359251657856
            ],
            [
              112.93236082746301,
              27.901776743226648
            ]
          ]
        ]
      },
      "properties": {
        "sourceFileId": "file_1776048123141_30_g1",
        "sourceFileName": "湖南师范大学附属九华步步高小学.geojson",
        "name": "湖南师范大学附属九华步步高小学",
        "id": "imported_1776048123141_30_0_g1",
        "sourceFile": "湖南师范大学附属九华步步高小学.geojson",
        "isAssistFeature": false,
        "sourceGroupId": 1
      },
      "id": "imported_1776048123141_30_0_g1"
    }
  ],
  "properties": {
    "fileName": "湖南师范大学附属九华步步高小学.geojson",
    "exportTime": "2026/4/13 11:25:45",
    "isStarred": false
  }
}