{
  "type": "FeatureCollection",
  "features": [
    {
      "type": "Feature",
      "properties": {
        "name": "湖湘学校教育集团湖湘校区",
        "isAssistFeature": false
      },
      "geometry": {
        "type": "Polygon",
        "coordinates": [
          [
            [
              112.94170523154867,
              27.847864204175746
            ],
            [
              112.94183336364752,
              27.84584756452764
            ],
            [
              112.94229007073126,
              27.839598747698975
            ],
            [
              112.94445791392096,
              27.84001851340141
            ],
            [
              112.94686860317302,
              27.84060165653253
            ],
            [
              112.94663280259748,
              27.836750100677556
            ],
            [
              112.94664717743863,
              27.83516536525816
            ],
            [
              112.94666354204817,
              27.833264612620564
            ],
            [
              112.94666367499882,
              27.83321408548142
            ],
            [
              112.94264178991108,
              27.83280245742726
            ],
            [
              112.93160280121965,
              27.831669990026377
            ],
            [
              112.93158530832612,
              27.83174497985748
            ],
            [
              112.93077855921723,
              27.834925314302893
            ],
            [
              112.93022267093964,
              27.836872671724684
            ],
            [
              112.93015777574519,
              27.837100006210896
            ],
            [
              112.92997817736708,
              27.83759518043563
            ],
            [
              112.92971309171327,
              27.838326048069757
            ],
            [
              112.9295496603153,
              27.838776643409247
            ],
            [
              112.92924570006755,
              27.83961468221565
            ],
            [
              112.9286455212532,
              27.841509076217054
            ],
            [
              112.92860700508707,
              27.84162862503002
            ],
            [
              112.92975606711644,
              27.842002409724603
            ],
            [
              112.93106602100644,
              27.842428531029935
            ],
            [
              112.93188056210211,
              27.84269349592097
            ],
            [
              112.94036420762791,
              27.847213804928277
            ],
            [
              112.94120956992099,
              27.847784662330522
            ],
            [
              112.94151498903275,
              27.847990904842977
            ],
            [
              112.94170523154867,
              27.847864204175746
            ]
          ]
        ]
      }
    }
  ]
}