{
  "type": "FeatureCollection",
  "features": [
    {
      "type": "Feature",
      "geometry": {
        "type": "Polygon",
        "coordinates": [
          [
            [
              112.92857546321845,
              27.841486900752685
            ],
            [
              112.93048339781524,
              27.836142389503436
            ],
            [
              112.9315507738134,
              27.831741523670473
            ],
            [
              112.94669667961207,
              27.833267862609375
            ],
            [
              112.94659434741561,
              27.837192942296284
            ],
            [
              112.94673267294299,
              27.8404589704207
            ],
            [
              112.94229010127289,
              27.83959874431565
            ],
            [
              112.94171753019621,
              27.847432802515257
            ],
            [
              112.94154408159649,
              27.84794007666207
            ],
            [
              112.93911190763083,
              27.846809954833304
            ],
            [
              112.93037090069377,
              27.84204997026127
            ],
            [
              112.92857546321845,
              27.841486900752685
            ]
          ]
        ]
      },
      "properties": {
        "sourceFileId": "file_1774580185881",
        "sourceFileName": "湖湘学校教育集团湖湘校区.geojson",
        "name": "湖湘学校教育集团湖湘校区",
        "id": "polygon_1773560034988_imported_1774580185882",
        "sourceFile": "湖湘学校教育集团湖湘校区.geojson",
        "isAssistFeature": false
      },
      "id": "polygon_1773560034988_imported_1774580185882"
    }
  ],
  "properties": {
    "fileName": "湖湘学校教育集团湖湘校区.geojson",
    "exportTime": "2026/3/27 11:00:05",
    "isStarred": false
  }
}