{
  "type": "FeatureCollection",
  "features": [
    {
      "type": "Feature",
      "geometry": {
        "type": "Polygon",
        "coordinates": [
          [
            [
              112.41752293864603,
              27.776036282269644
            ],
            [
              112.4180591427956,
              27.774748561747415
            ],
            [
              112.41890174931638,
              27.774477460747775
            ],
            [
              112.41943795346594,
              27.774929295371848
            ],
            [
              112.41999969114644,
              27.775494086012927
            ],
            [
              112.42029883810444,
              27.775523694869904
            ],
            [
              112.42072499534535,
              27.775404624659643
            ],
            [
              112.4212913358892,
              27.775369895823772
            ],
            [
              112.42183810537355,
              27.775358536526497
            ],
            [
              112.42268071189434,
              27.774861520297904
            ],
            [
              112.4229105136727,
              27.77391266482867
            ],
            [
              112.42377865372441,
              27.77305416941593
            ],
            [
              112.42482552849262,
              27.772511958296406
            ],
            [
              112.425821336199,
              27.773257497889063
            ],
            [
              112.42652778274893,
              27.775509647976747
            ],
            [
              112.42638579939313,
              27.776568474257317
            ],
            [
              112.42634523272004,
              27.777519614501628
            ],
            [
              112.42642204477632,
              27.778182895607344
            ],
            [
              112.4265566207471,
              27.778639319047997
            ],
            [
              112.42665853556561,
              27.77893179718771
            ],
            [
              112.426791466124,
              27.77906295644665
            ],
            [
              112.42681714390534,
              27.779402356892575
            ],
            [
              112.4263830738795,
              27.781096650343216
            ],
            [
              112.42630272048179,
              27.781672489541563
            ],
            [
              112.42612773857017,
              27.782926457623887
            ],
            [
              112.42597453738458,
              27.784304440314486
            ],
            [
              112.42520853145663,
              27.785795352739
            ],
            [
              112.4247463531562,
              27.786827904246408
            ],
            [
              112.42449713255746,
              27.78731897783223
            ],
            [
              112.42357954762582,
              27.78816081310505
            ],
            [
              112.42280837954898,
              27.787873560192764
            ],
            [
              112.42225414716897,
              27.788230965750216
            ],
            [
              112.42158277006425,
              27.788099449913886
            ],
            [
              112.42109763297653,
              27.78825757243942
            ],
            [
              112.42040921371067,
              27.788209843583076
            ],
            [
              112.41560452642014,
              27.78698812824119
            ],
            [
              112.41317841033862,
              27.7830618347585
            ],
            [
              112.41386621965336,
              27.78224629857654
            ],
            [
              112.4117484371621,
              27.781403248582805
            ],
            [
              112.41213077009974,
              27.779879544735138
            ],
            [
              112.41253818574819,
              27.77875696713845
            ],
            [
              112.41752293864603,
              27.776036282269644
            ]
          ]
        ]
      },
      "properties": {
        "name": "湖湘学校教育集团青山校区",
        "id": "polygon_1774256532029619"
      },
      "id": "polygon_1773073597928"
    }
  ]
}