{
  "type": "FeatureCollection",
  "features": [
    {
      "type": "Feature",
      "geometry": {
        "type": "Polygon",
        "coordinates": [
          [
            [
              112.87161512067837,
              27.921482781277433
            ],
            [
              112.87024204249391,
              27.920849138348743
            ],
            [
              112.86959371039386,
              27.919944331945686
            ],
            [
              112.86903020679287,
              27.919762298973353
            ],
            [
              112.86760629984413,
              27.918370271993737
            ],
            [
              112.86648535182061,
              27.918579077183153
            ],
            [
              112.86580672382802,
              27.91771172990903
            ],
            [
              112.86475242676809,
              27.917454736788002
            ],
            [
              112.86292255485948,
              27.916608796783848
            ],
            [
              112.86217121672482,
              27.9160198473039
            ],
            [
              112.86178342930049,
              27.91603055550486
            ],
            [
              112.861250221592,
              27.915484435902314
            ],
            [
              112.86134716844809,
              27.914734855486742
            ],
            [
              112.86037769988722,
              27.914263687994847
            ],
            [
              112.86028075303116,
              27.913653308873677
            ],
            [
              112.86035346317321,
              27.91279663061259
            ],
            [
              112.85848723619355,
              27.911822150841218
            ],
            [
              112.85832226265914,
              27.909768480251614
            ],
            [
              112.85790676745914,
              27.909307385545205
            ],
            [
              112.8581483344359,
              27.908111945671536
            ],
            [
              112.85788744210099,
              27.906976265554988
            ],
            [
              112.8546467024875,
              27.901772586687883
            ],
            [
              112.85482063071078,
              27.90006469245563
            ],
            [
              112.85442952288757,
              27.899230850316783
            ],
            [
              112.85433289609686,
              27.898120696056694
            ],
            [
              112.85455513771547,
              27.896950751934924
            ],
            [
              112.85490299416199,
              27.89610530998968
            ],
            [
              112.85555039365968,
              27.895797874917633
            ],
            [
              112.85585959938992,
              27.89574663565405
            ],
            [
              112.85625723128517,
              27.895097358015946
            ],
            [
              112.85612099259937,
              27.89450033077867
            ],
            [
              112.85596204746592,
              27.893677531542522
            ],
            [
              112.85562145075139,
              27.8930905307038
            ],
            [
              112.85541141611077,
              27.892929982911454
            ],
            [
              112.8548494315318,
              27.892924965789106
            ],
            [
              112.8542704171171,
              27.89277946913988
            ],
            [
              112.85371410915005,
              27.892498509539635
            ],
            [
              112.85315212457111,
              27.892568749508058
            ],
            [
              112.8527830351876,
              27.89205038510488
            ],
            [
              112.85262839878195,
              27.89172920453835
            ],
            [
              112.85166192124662,
              27.89103900477754
            ],
            [
              112.85093513014007,
              27.889966111263988
            ],
            [
              112.85093513014007,
              27.890868162573156
            ],
            [
              112.85084234829668,
              27.89115517732253
            ],
            [
              112.85048668456366,
              27.89164720083673
            ],
            [
              112.85038617090001,
              27.89298658685084
            ],
            [
              112.84976762527741,
              27.893676774193807
            ],
            [
              112.84908722509255,
              27.893594771967614
            ],
            [
              112.84853053403222,
              27.893861278975663
            ],
            [
              112.84760271559831,
              27.893382932595642
            ],
            [
              112.84738323028084,
              27.890352987803254
            ],
            [
              112.84654819369034,
              27.889560272674657
            ],
            [
              112.84701210290727,
              27.888357521395122
            ],
            [
              112.84707395746953,
              27.887414445705033
            ],
            [
              112.84759972124876,
              27.88644402591254
            ],
            [
              112.84784713949789,
              27.883642060800568
            ],
            [
              112.84719766659416,
              27.88332768945945
            ],
            [
              112.84764611217052,
              27.882616933497943
            ],
            [
              112.84678014829888,
              27.881263750599416
            ],
            [
              112.84586779350555,
              27.878461651448532
            ],
            [
              112.84504822055561,
              27.878735030166823
            ],
            [
              112.84495543871222,
              27.876889710427918
            ],
            [
              112.84376473838871,
              27.875208391740188
            ],
            [
              112.84317712004724,
              27.875536455972366
            ],
            [
              112.84113591949269,
              27.875140044900093
            ],
            [
              112.84135241046059,
              27.87396447250103
            ],
            [
              112.84141426502283,
              27.87285723566849
            ],
            [
              112.84407401120002,
              27.87303494110769
            ],
            [
              112.84640902092534,
              27.87323998548301
            ],
            [
              112.84797084862241,
              27.873267324703733
            ],
            [
              112.85019761286377,
              27.873267324703733
            ],
            [
              112.8511099676571,
              27.874552260295232
            ],
            [
              112.8526563317136,
              27.874456574127464
            ],
            [
              112.85284189540039,
              27.873554386104757
            ],
            [
              112.85383156839656,
              27.873390351111595
            ],
            [
              112.85573359618603,
              27.87370475129697
            ],
            [
              112.85630575088693,
              27.874005481055292
            ],
            [
              112.85789850586512,
              27.873677412186666
            ],
            [
              112.85865622425283,
              27.873800438128825
            ],
            [
              112.85975414273294,
              27.87356805567633
            ],
            [
              112.8621510070205,
              27.87358172524614
            ],
            [
              112.86182627056864,
              27.874647946378474
            ],
            [
              112.85836241508208,
              27.876561650294192
            ],
            [
              112.85882632429903,
              27.877231438677384
            ],
            [
              112.86037117971914,
              27.880595619427055
            ],
            [
              112.86076066066887,
              27.880832784033473
            ],
            [
              112.86107224542869,
              27.880985793181353
            ],
            [
              112.86122803780856,
              27.88128416039791
            ],
            [
              112.8660701789639,
              27.88276540707865
            ],
            [
              112.8683739980244,
              27.883377970926887
            ],
            [
              112.86811577093205,
              27.88455523994007
            ],
            [
              112.86563793871164,
              27.883997420494723
            ],
            [
              112.86487233786937,
              27.886437679884807
            ],
            [
              112.86530083425811,
              27.8875402221811
            ],
            [
              112.86551984352347,
              27.887582303725694
            ],
            [
              112.8655103213815,
              27.887944204334033
            ],
            [
              112.86543414424574,
              27.88849967733303
            ],
            [
              112.86608164989983,
              27.888903655905892
            ],
            [
              112.86721478479448,
              27.889669527812444
            ],
            [
              112.86829078683736,
              27.890544803357017
            ],
            [
              112.86516339066236,
              27.893851337242253
            ],
            [
              112.86628991433005,
              27.895980604653587
            ],
            [
              112.86690336781247,
              27.896296048115005
            ],
            [
              112.86693803238923,
              27.89695011966583
            ],
            [
              112.86771068299717,
              27.89816420058537
            ],
            [
              112.867710594431,
              27.89930239502783
            ],
            [
              112.8679688119244,
              27.89964474117268
            ],
            [
              112.86921293264277,
              27.899912142040264
            ],
            [
              112.86929895344251,
              27.900632357006828
            ],
            [
              112.86852619768871,
              27.901352646685766
            ],
            [
              112.86908464952239,
              27.902074374510164
            ],
            [
              112.86861219104429,
              27.90245392883969
            ],
            [
              112.86934280065188,
              27.90309982586345
            ],
            [
              112.86848390509249,
              27.904615158860665
            ],
            [
              112.86706555510992,
              27.904689588873836
            ],
            [
              112.86706440053236,
              27.9066629255193
            ],
            [
              112.86775301521448,
              27.907269806080393
            ],
            [
              112.8676668832148,
              27.907914820289704
            ],
            [
              112.86895498990147,
              27.90905443041983
            ],
            [
              112.86964259967161,
              27.90909216972996
            ],
            [
              112.871790273031,
              27.910687629271564
            ],
            [
              112.87260695351272,
              27.9101203216686
            ],
            [
              112.87290716904526,
              27.9102716320005
            ],
            [
              112.87380888018237,
              27.90962735664951
            ],
            [
              112.87419515323792,
              27.909628705740687
            ],
            [
              112.8749266716087,
              27.909401312742062
            ],
            [
              112.8759133180702,
              27.90932514017659
            ],
            [
              112.8762985688743,
              27.90917543302278
            ],
            [
              112.8769009098233,
              27.9094399653264
            ],
            [
              112.87642860994283,
              27.909667623629076
            ],
            [
              112.87720099565882,
              27.91057939815316
            ],
            [
              112.87798242077854,
              27.91034300531929
            ],
            [
              112.87842512639281,
              27.91020907999335
            ],
            [
              112.87870484760944,
              27.910124459894234
            ],
            [
              112.87848968950861,
              27.910731406077588
            ],
            [
              112.87806042686861,
              27.911187164068977
            ],
            [
              112.87870472063928,
              27.9117567395201
            ],
            [
              112.87926203698295,
              27.911264055687724
            ],
            [
              112.88016439374307,
              27.912098822123326
            ],
            [
              112.8737220745681,
              27.919186916200445
            ],
            [
              112.8727774016269,
              27.91888198549168
            ],
            [
              112.87178953782765,
              27.920133247822733
            ],
            [
              112.87247703700228,
              27.920625998552993
            ],
            [
              112.87161512067837,
              27.921482781277433
            ]
          ]
        ]
      },
      "properties": {
        "sourceFileId": "file_1775836072657_1_g1",
        "sourceFileName": "新建学区_组1_2026-04-10T15-47-52.geojson",
        "sourceGroupId": 1,
        "name": "湘潭大学附属实验学校",
        "id": "polygon_1775837235850",
        "sourceFile": "新建学区_组1_2026-04-10T15-47-52.geojson"
      },
      "id": "polygon_1775837235850"
    }
  ],
  "properties": {
    "fileName": "新建学区_组1_2026-04-10T15-47-52.geojson",
    "exportTime": "2026/4/11 00:10:36",
    "isStarred": false
  }
}