{
  "type": "FeatureCollection",
  "features": [
    {
      "type": "Feature",
      "geometry": {
        "type": "Polygon",
        "coordinates": [
          [
            [
              112.93306487860045,
              27.805294231030317
            ],
            [
              112.93299993891267,
              27.804861208773247
            ],
            [
              112.9331547950912,
              27.80475516224314
            ],
            [
              112.93352944713597,
              27.804799348309942
            ],
            [
              112.93364933579026,
              27.804759580850614
            ],
            [
              112.93454850069769,
              27.8048214413366
            ],
            [
              112.93457347750068,
              27.805192603512737
            ],
            [
              112.93448356100996,
              27.805382602707468
            ],
            [
              112.93441862132218,
              27.80565655444984
            ],
            [
              112.9343636723556,
              27.805806785757213
            ],
            [
              112.93308486004285,
              27.805709577287928
            ],
            [
              112.93306487860045,
              27.805294231030317
            ]
          ]
        ]
      },
      "properties": {
        "sourceFileId": "file_1775725670448_33_g1",
        "sourceFileName": "湘机小学教育集团一完小校区.geojson",
        "name": "湘机小学教育集团一完小校区",
        "id": "imported_1775725670448_33_0_g1",
        "sourceFile": "湘机小学教育集团一完小校区.geojson",
        "sourceGroupId": 1,
        "isAssistFeature": false
      },
      "id": "imported_1775725670448_33_0_g1"
    },
    {
      "type": "Feature",
      "geometry": {
        "type": "Polygon",
        "coordinates": [
          [
            [
              112.91073691242377,
              27.811128090895934
            ],
            [
              112.90973840969112,
              27.81080263814171
            ],
            [
              112.91082245496514,
              27.807712148814105
            ],
            [
              112.91148542480218,
              27.80756158426746
            ],
            [
              112.91194012566608,
              27.80667199011016
            ],
            [
              112.91139402844168,
              27.806407590285474
            ],
            [
              112.91045113085822,
              27.805631692825585
            ],
            [
              112.90995303283145,
              27.80419453635075
            ],
            [
              112.90740324531346,
              27.80592541589678
            ],
            [
              112.90624002249214,
              27.80715615065199
            ],
            [
              112.90515199873333,
              27.80798345811334
            ],
            [
              112.90360585970765,
              27.808489969776133
            ],
            [
              112.90242239526822,
              27.808523737136355
            ],
            [
              112.90114144154838,
              27.808285661746936
            ],
            [
              112.89633835343305,
              27.80398473089565
            ],
            [
              112.89536609533577,
              27.803603234033147
            ],
            [
              112.89897666005301,
              27.801132583886428
            ],
            [
              112.90360908270911,
              27.79959593168077
            ],
            [
              112.9125673706396,
              27.797064927739825
            ],
            [
              112.9158032541126,
              27.797064927739825
            ],
            [
              112.91854611029339,
              27.797384473742056
            ],
            [
              112.92190976711714,
              27.797998768458882
            ],
            [
              112.92735672107047,
              27.79833470941351
            ],
            [
              112.93242390731783,
              27.79907377585843
            ],
            [
              112.93221774770605,
              27.799947211540626
            ],
            [
              112.92922246051388,
              27.80356994257268
            ],
            [
              112.92761139041887,
              27.805716669166884
            ],
            [
              112.9275049926334,
              27.809298240839894
            ],
            [
              112.91722865558054,
              27.80916022270364
            ],
            [
              112.9155347787126,
              27.80913747277826
            ],
            [
              112.91467790873563,
              27.80971164333444
            ],
            [
              112.91427319607484,
              27.81127845086428
            ],
            [
              112.91073691242377,
              27.811128090895934
            ]
          ]
        ]
      },
      "properties": {
        "sourceFileId": "file_1775725670448_33_g1",
        "sourceFileName": "湘机小学教育集团一完小校区.geojson",
        "name": "湘机小学教育集团一完小校区",
        "id": "imported_1775725670448_33_1_g1",
        "sourceFile": "湘机小学教育集团一完小校区.geojson",
        "sourceGroupId": 1,
        "isAssistFeature": false
      },
      "id": "imported_1775725670448_33_1_g1"
    }
  ],
  "properties": {
    "fileName": "湘机小学教育集团一完小校区.geojson",
    "exportTime": "2026/4/9 17:20:26",
    "isStarred": false
  }
}