{
  "type": "FeatureCollection",
  "features": [
    {
      "type": "Feature",
      "geometry": {
        "type": "Polygon",
        "coordinates": [
          [
            [
              112.91722864006788,
              27.80916022442824
            ],
            [
              112.91553476329338,
              27.809137474423054
            ],
            [
              112.91467789358153,
              27.809711644416396
            ],
            [
              112.91423243520181,
              27.81127672002785
            ],
            [
              112.9134698661369,
              27.81395587587869
            ],
            [
              112.91340979130227,
              27.81416134128132
            ],
            [
              112.91340432774872,
              27.814321666793205
            ],
            [
              112.91340606149723,
              27.814385813775687
            ],
            [
              112.91427027673315,
              27.814481130801525
            ],
            [
              112.91608181933512,
              27.81455423756165
            ],
            [
              112.91679429025493,
              27.814581714656384
            ],
            [
              112.9168374929319,
              27.81458473306047
            ],
            [
              112.91678868656419,
              27.81582794689733
            ],
            [
              112.91660322218723,
              27.81613011473857
            ],
            [
              112.91879209403947,
              27.817305674607013
            ],
            [
              112.91789758132394,
              27.819050452241584
            ],
            [
              112.91813264168769,
              27.819042677330216
            ],
            [
              112.92667407314076,
              27.81876017182212
            ],
            [
              112.92691212399612,
              27.81870402799653
            ],
            [
              112.92745304544279,
              27.818576452553202
            ],
            [
              112.92754047218116,
              27.81650769842078
            ],
            [
              112.92753489364326,
              27.815215499013746
            ],
            [
              112.92759949688521,
              27.812562589315007
            ],
            [
              112.92759949688521,
              27.810619163441203
            ],
            [
              112.92750497704932,
              27.809298241977515
            ],
            [
              112.91722864006788,
              27.80916022442824
            ]
          ]
        ]
      },
      "properties": {
        "name": "湘机小学教育集团湘机校区",
        "isAssistFeature": false,
        "sourceFileId": "file_1776680404446_35_g1",
        "sourceFileName": "湘机小学教育集团湘机校区.geojson",
        "sourceGroupId": 1,
        "id": "imported_1776680404446_35_0_g1",
        "sourceFile": "湘机小学教育集团湘机校区.geojson"
      },
      "id": "imported_1776680404446_35_0_g1"
    }
  ],
  "properties": {
    "fileName": "湘机小学教育集团湘机校区.geojson",
    "exportTime": "2026/4/20 18:37:54",
    "isStarred": false
  }
}