{
  "type": "FeatureCollection",
  "features": [
    {
      "type": "Feature",
      "geometry": {
        "type": "Polygon",
        "coordinates": [
          [
            [
              112.87534101945397,
              27.89088391911251
            ],
            [
              112.87181795939382,
              27.889836696282615
            ],
            [
              112.87064608197812,
              27.891339556545674
            ],
            [
              112.87011758824163,
              27.891258321389174
            ],
            [
              112.86848615105507,
              27.89036473064435
            ],
            [
              112.86699258179975,
              27.889532059902365
            ],
            [
              112.86759000950191,
              27.8891868043018
            ],
            [
              112.86777383341027,
              27.887399581238782
            ],
            [
              112.86997972031041,
              27.888008865142936
            ],
            [
              112.87039332410417,
              27.887074628421246
            ],
            [
              112.87154222353132,
              27.886465339259715
            ],
            [
              112.87253027703869,
              27.884414040547185
            ],
            [
              112.87225454117616,
              27.883520393312324
            ],
            [
              112.8728979248554,
              27.882850153046434
            ],
            [
              112.87292090284393,
              27.88211897711615
            ],
            [
              112.87354130853458,
              27.88175338729971
            ],
            [
              112.87429958215652,
              27.881550281312855
            ],
            [
              112.87448340606481,
              27.87864582403141
            ],
            [
              112.87567826146908,
              27.878828624338965
            ],
            [
              112.87459829600753,
              27.87805679871957
            ],
            [
              112.87459829600753,
              27.877609949794476
            ],
            [
              112.8731966387064,
              27.875903782396605
            ],
            [
              112.87280601290118,
              27.87462413921226
            ],
            [
              112.8728749468668,
              27.87279605129865
            ],
            [
              112.8735530839806,
              27.87218121871919
            ],
            [
              112.87392073179728,
              27.871124970092154
            ],
            [
              112.87420331008866,
              27.869601181892477
            ],
            [
              112.87438029156813,
              27.868646807893313
            ],
            [
              112.87418043699655,
              27.866755791439715
            ],
            [
              112.87545179318577,
              27.866767876663644
            ],
            [
              112.87578672035393,
              27.867281497436167
            ],
            [
              112.87573203836729,
              27.867885754051713
            ],
            [
              112.87595760156216,
              27.86885255762789
            ],
            [
              112.8766001149051,
              27.869293658893838
            ],
            [
              112.8773998389596,
              27.869293658893838
            ],
            [
              112.87795349407429,
              27.869535357456087
            ],
            [
              112.87899602599715,
              27.86907542172051
            ],
            [
              112.87949142494837,
              27.868483964781944
            ],
            [
              112.88005835951466,
              27.86826121348284
            ],
            [
              112.88038940308421,
              27.86722692802843
            ],
            [
              112.88098025548854,
              27.866112611671923
            ],
            [
              112.88034813602827,
              27.865034817065265
            ],
            [
              112.87970220711709,
              27.864763832701527
            ],
            [
              112.87843671765664,
              27.864449180980728
            ],
            [
              112.87896476190413,
              27.861462612699086
            ],
            [
              112.88631382334484,
              27.86317502878812
            ],
            [
              112.88826030968495,
              27.863736945938527
            ],
            [
              112.88925883087093,
              27.863955359140547
            ],
            [
              112.89054558497659,
              27.86436488270796
            ],
            [
              112.89330438577913,
              27.865029217648157
            ],
            [
              112.89611257193245,
              27.865945056355045
            ],
            [
              112.90237921347108,
              27.86720413638878
            ],
            [
              112.90175254931721,
              27.869117910022027
            ],
            [
              112.90067012941508,
              27.869470443583538
            ],
            [
              112.90101194622628,
              27.87218994964745
            ],
            [
              112.90632309976237,
              27.873794169738886
            ],
            [
              112.90699350227034,
              27.876871202393033
            ],
            [
              112.90587186730512,
              27.877327051648862
            ],
            [
              112.90641334625383,
              27.87861481543159
            ],
            [
              112.90490494061096,
              27.87912763745412
            ],
            [
              112.90524014186492,
              27.880005127282857
            ],
            [
              112.90055619047801,
              27.881204120442007
            ],
            [
              112.90009086710471,
              27.881394691560843
            ],
            [
              112.89974028711687,
              27.88000931984088
            ],
            [
              112.89747182837195,
              27.877639563975578
            ],
            [
              112.89543021550152,
              27.877657793064714
            ],
            [
              112.89522399197925,
              27.87876976170172
            ],
            [
              112.89788427541647,
              27.880957207669027
            ],
            [
              112.89969904241241,
              27.881522290696367
            ],
            [
              112.89562394873032,
              27.88265450925104
            ],
            [
              112.8935945439155,
              27.883161286679808
            ],
            [
              112.89169204225972,
              27.88282917478331
            ],
            [
              112.88911216881756,
              27.882650878657202
            ],
            [
              112.88650664692732,
              27.882352222717998
            ],
            [
              112.88396396788725,
              27.883882281486038
            ],
            [
              112.88316800698041,
              27.88416533903532
            ],
            [
              112.88293545222464,
              27.8858581647101
            ],
            [
              112.88216422107838,
              27.886104651438004
            ],
            [
              112.88184005687827,
              27.8866885555434
            ],
            [
              112.88085469106451,
              27.886378884632478
            ],
            [
              112.87638902146995,
              27.89119543374207
            ],
            [
              112.87534101945397,
              27.89088391911251
            ]
          ]
        ]
      },
      "properties": {
        "sourceFileId": "file_1776043853134_14_g1",
        "sourceFileName": "湘潭市益智中学.geojson",
        "name": "湘潭市益智中学",
        "id": "imported_1776043853134_14_0_g1",
        "sourceFile": "湘潭市益智中学.geojson",
        "sourceGroupId": 1,
        "isAssistFeature": false
      },
      "id": "imported_1776043853134_14_0_g1"
    },
    {
      "type": "Feature",
      "geometry": {
        "type": "Polygon",
        "coordinates": [
          [
            [
              112.89136298341975,
              27.8912090286981
            ],
            [
              112.88687873222294,
              27.889424064136293
            ],
            [
              112.88706719315871,
              27.888137291908393
            ],
            [
              112.88925899227391,
              27.885085323930568
            ],
            [
              112.89226734617957,
              27.883750276002445
            ],
            [
              112.89601743698195,
              27.88295776624213
            ],
            [
              112.89756523664923,
              27.88241427011232
            ],
            [
              112.90027720781684,
              27.881637619218253
            ],
            [
              112.90695027032204,
              27.879781080287472
            ],
            [
              112.90670280671698,
              27.880267169592116
            ],
            [
              112.90608414770432,
              27.880899082426552
            ],
            [
              112.90582072792122,
              27.882063805342554
            ],
            [
              112.90611534591145,
              27.882864341680232
            ],
            [
              112.90569431345384,
              27.884756383666897
            ],
            [
              112.90453766504768,
              27.886685328874435
            ],
            [
              112.90579251945059,
              27.887399029891654
            ],
            [
              112.90554154857001,
              27.88860459524885
            ],
            [
              112.90457585626861,
              27.890273075556806
            ],
            [
              112.90290089843518,
              27.890157343648667
            ],
            [
              112.89983777421982,
              27.89334514082097
            ],
            [
              112.90079511169907,
              27.89371964964222
            ],
            [
              112.89908622826002,
              27.895558140451172
            ],
            [
              112.89874116154702,
              27.8958053116326
            ],
            [
              112.89865730929829,
              27.895830857962736
            ],
            [
              112.89671488325246,
              27.895226152437246
            ],
            [
              112.89384264443164,
              27.894427051658113
            ],
            [
              112.89574162533313,
              27.89256837765349
            ],
            [
              112.89298233535396,
              27.89176252882939
            ],
            [
              112.89136298341975,
              27.8912090286981
            ]
          ]
        ]
      },
      "properties": {
        "sourceFileId": "file_1776043853134_14_g1",
        "sourceFileName": "湘潭市益智中学.geojson",
        "sourceGroupId": 1,
        "name": "湘潭市益智中学",
        "id": "imported_1776043853134_14_2_g1",
        "sourceFile": "湘潭市益智中学.geojson",
        "isAssistFeature": false
      },
      "id": "imported_1776043853134_14_2_g1"
    }
  ],
  "properties": {
    "fileName": "湘潭市益智中学.geojson",
    "exportTime": "2026/4/13 10:14:20",
    "isStarred": false
  }
}