{
  "type": "FeatureCollection",
  "features": [
    {
      "type": "Feature",
      "geometry": {
        "type": "Polygon",
        "coordinates": [
          [
            [
              112.95689575468123,
              27.8692682861532
            ],
            [
              112.95772883790268,
              27.869707184939656
            ],
            [
              112.95801968095061,
              27.869586641077376
            ],
            [
              112.95824067908691,
              27.86949541216717
            ],
            [
              112.95826825017966,
              27.869256112208305
            ],
            [
              112.95830084195646,
              27.869054180965833
            ],
            [
              112.95757279963951,
              27.868134288034227
            ],
            [
              112.95725348448863,
              27.867586740903263
            ],
            [
              112.95655104864883,
              27.866413659541777
            ],
            [
              112.95638822900357,
              27.865870851942134
            ],
            [
              112.95482089790319,
              27.860645550554167
            ],
            [
              112.95403026007892,
              27.858013797217225
            ],
            [
              112.95393493625086,
              27.858023953548567
            ],
            [
              112.95073328667932,
              27.858370141872598
            ],
            [
              112.94833473187016,
              27.85873096148329
            ],
            [
              112.94495481342713,
              27.85932859818891
            ],
            [
              112.94484399096545,
              27.85937072881518
            ],
            [
              112.94191914916391,
              27.86048263611943
            ],
            [
              112.94063721642254,
              27.861454067382283
            ],
            [
              112.93915669491794,
              27.862575975798848
            ],
            [
              112.9383125264859,
              27.863695427364263
            ],
            [
              112.94186864228537,
              27.86549026977417
            ],
            [
              112.94430389956213,
              27.86687921815755
            ],
            [
              112.9485983326088,
              27.869795950306198
            ],
            [
              112.94992974545433,
              27.87105531748834
            ],
            [
              112.95127774120002,
              27.87232128491162
            ],
            [
              112.95329758515004,
              27.871741414949895
            ],
            [
              112.95338069638181,
              27.87166264582055
            ],
            [
              112.95370324187449,
              27.87133877395887
            ],
            [
              112.95588655764664,
              27.87081948648884
            ],
            [
              112.95591077173512,
              27.870812562607355
            ],
            [
              112.95620472025904,
              27.870335457743863
            ],
            [
              112.95689575468123,
              27.8692682861532
            ]
          ]
        ]
      },
      "properties": {
        "name": "湘纺小学教育集团纺小校区",
        "isAssistFeature": false,
        "sourceFileId": "file_1776680404447_38_g1",
        "sourceFileName": "湘纺小学教育集团纺小校区.geojson",
        "sourceGroupId": 1,
        "id": "imported_1776680404447_38_0_g1",
        "sourceFile": "湘纺小学教育集团纺小校区.geojson"
      },
      "id": "imported_1776680404447_38_0_g1"
    }
  ],
  "properties": {
    "fileName": "湘纺小学教育集团纺小校区.geojson",
    "exportTime": "2026/4/20 18:38:05",
    "isStarred": false
  }
}