{
  "type": "FeatureCollection",
  "features": [
    {
      "type": "Feature",
      "geometry": {
        "type": "Polygon",
        "coordinates": [
          [
            [
              112.91732575377424,
              27.82609073241592
            ],
            [
              112.91734629249139,
              27.82588001170835
            ],
            [
              112.91768968167254,
              27.824754841311503
            ],
            [
              112.91796885923839,
              27.82363056378132
            ],
            [
              112.91833424568948,
              27.823023955489703
            ],
            [
              112.918802865175,
              27.82250810372628
            ],
            [
              112.91893694883646,
              27.822384564831978
            ],
            [
              112.91938614687506,
              27.821696844712662
            ],
            [
              112.9166741362355,
              27.820382944973048
            ],
            [
              112.91575683851921,
              27.821282394833645
            ],
            [
              112.91477971703877,
              27.82188643295973
            ],
            [
              112.91278576234788,
              27.823250757157055
            ],
            [
              112.91302000747498,
              27.823466032308446
            ],
            [
              112.91428029298416,
              27.824742602483397
            ],
            [
              112.91398035220912,
              27.825083652408026
            ],
            [
              112.9140440521035,
              27.82555812069276
            ],
            [
              112.91399106437966,
              27.825917325490764
            ],
            [
              112.91386293060583,
              27.82613389749649
            ],
            [
              112.9134768801939,
              27.826419420962722
            ],
            [
              112.91352687668892,
              27.827006082688683
            ],
            [
              112.9134096033305,
              27.827605305866584
            ],
            [
              112.91347475519629,
              27.827951010041417
            ],
            [
              112.91342263370368,
              27.82817763773626
            ],
            [
              112.91310781485522,
              27.828460676024903
            ],
            [
              112.91567287515392,
              27.829214060867344
            ],
            [
              112.91634060365224,
              27.829444970107872
            ],
            [
              112.91678340875907,
              27.828270191382245
            ],
            [
              112.91685095710578,
              27.827510060712044
            ],
            [
              112.9172559707426,
              27.826241611434824
            ],
            [
              112.91732575377424,
              27.82609073241592
            ]
          ]
        ]
      },
      "properties": {
        "sourceFileId": "file_1775722744209_39_g1",
        "sourceFileName": "湘钢一校教育集团钢一校区.geojson",
        "name": "湘钢一校教育集团钢一校区",
        "id": "imported_1775722744209_39_0_g1",
        "sourceFile": "湘钢一校教育集团钢一校区.geojson",
        "sourceGroupId": 1,
        "isAssistFeature": false
      },
      "id": "imported_1775722744209_39_0_g1"
    },
    {
      "type": "Feature",
      "geometry": {
        "type": "Polygon",
        "coordinates": [
          [
            [
              112.92042858214523,
              27.82784535102205
            ],
            [
              112.92301477716985,
              27.824737542037767
            ],
            [
              112.92413810832437,
              27.825895721220448
            ],
            [
              112.92529494384544,
              27.827086219481686
            ],
            [
              112.92731575429988,
              27.829367131029045
            ],
            [
              112.92674473249193,
              27.831171062076592
            ],
            [
              112.92659131436662,
              27.831126446866307
            ],
            [
              112.92042858214523,
              27.82784535102205
            ]
          ]
        ]
      },
      "properties": {
        "sourceFileId": "file_1775722744209_39_g1",
        "sourceFileName": "湘钢一校教育集团钢一校区.geojson",
        "name": "湘钢一校教育集团钢一校区",
        "id": "imported_1775722744209_39_1_g1",
        "sourceFile": "湘钢一校教育集团钢一校区.geojson",
        "sourceGroupId": 1,
        "isAssistFeature": false
      },
      "id": "imported_1775722744209_39_1_g1"
    }
  ],
  "properties": {
    "fileName": "湘钢一校教育集团钢一校区.geojson",
    "exportTime": "2026/4/9 16:21:16",
    "isStarred": false
  }
}