{
  "type": "FeatureCollection",
  "features": [
    {
      "type": "Feature",
      "geometry": {
        "type": "Polygon",
        "coordinates": [
          [
            [
              112.92042856667064,
              27.82784535254504
            ],
            [
              112.9229641334253,
              27.824703854768487
            ],
            [
              112.92369364269113,
              27.823804633983485
            ],
            [
              112.9237364941268,
              27.823749632020366
            ],
            [
              112.92379690582966,
              27.823672061027807
            ],
            [
              112.9236840738367,
              27.823621073403018
            ],
            [
              112.92362215476079,
              27.823593094113576
            ],
            [
              112.91979120658668,
              27.821865377686294
            ],
            [
              112.91938604932555,
              27.82168444830279
            ],
            [
              112.91893693390433,
              27.82238456592144
            ],
            [
              112.91880385388484,
              27.822508935979073
            ],
            [
              112.91874477079033,
              27.822568936566057
            ],
            [
              112.91833004467479,
              27.823032058501013
            ],
            [
              112.91795324273558,
              27.823693392261816
            ],
            [
              112.91794130592211,
              27.823722080977447
            ],
            [
              112.91772453166426,
              27.824617323828065
            ],
            [
              112.91768687428753,
              27.824754187256616
            ],
            [
              112.91734627714926,
              27.825880012977137
            ],
            [
              112.91732179266786,
              27.826096295974423
            ],
            [
              112.917257665533,
              27.82624264951545
            ],
            [
              112.91685094161001,
              27.827510061719607
            ],
            [
              112.91678339369052,
              27.828270192430452
            ],
            [
              112.91632248249131,
              27.82952214226846
            ],
            [
              112.91852913379961,
              27.830568632578377
            ],
            [
              112.92042856667064,
              27.82784535254504
            ]
          ]
        ]
      },
      "properties": {
        "name": "湘钢一校教育集团葩金校区",
        "isAssistFeature": false,
        "sourceFileId": "file_1776680404447_39_g1",
        "sourceFileName": "湘钢一校教育集团葩金校区.geojson",
        "sourceGroupId": 1,
        "id": "imported_1776680404447_39_0_g1",
        "sourceFile": "湘钢一校教育集团葩金校区.geojson"
      },
      "id": "imported_1776680404447_39_0_g1"
    }
  ],
  "properties": {
    "fileName": "湘钢一校教育集团葩金校区.geojson",
    "exportTime": "2026/4/20 18:38:09",
    "isStarred": false
  }
}