{
  "type": "FeatureCollection",
  "features": [
    {
      "type": "Feature",
      "geometry": {
        "type": "Polygon",
        "coordinates": [
          [
            [
              112.91325144526712,
              27.83813523100389
            ],
            [
              112.90912119101675,
              27.83713679465862
            ],
            [
              112.90868110366411,
              27.837022748205868
            ],
            [
              112.9084873460405,
              27.836974563801732
            ],
            [
              112.90867990620984,
              27.834986640196092
            ],
            [
              112.90881856117393,
              27.833609751951983
            ],
            [
              112.90914503949091,
              27.83271523387701
            ],
            [
              112.90896469910439,
              27.830443534542326
            ],
            [
              112.90796438730627,
              27.83012058181629
            ],
            [
              112.90743024364845,
              27.82994813225679
            ],
            [
              112.90666880556248,
              27.829246107559612
            ],
            [
              112.90628549083749,
              27.828892701108714
            ],
            [
              112.90499003126457,
              27.827346083813666
            ],
            [
              112.90482410434673,
              27.827147986313634
            ],
            [
              112.90429801228882,
              27.826824330238736
            ],
            [
              112.90426390595242,
              27.826803347583137
            ],
            [
              112.9029973712333,
              27.82678180802334
            ],
            [
              112.90251024270252,
              27.826458708552863
            ],
            [
              112.90153598474261,
              27.826458708552863
            ],
            [
              112.90014766721711,
              27.82676026766488
            ],
            [
              112.89980667751502,
              27.827147986313634
            ],
            [
              112.89962986121931,
              27.82905059142044
            ],
            [
              112.89931109314246,
              27.829571886243258
            ],
            [
              112.89905162734904,
              27.829991210115367
            ],
            [
              112.89788251851579,
              27.830077367370095
            ],
            [
              112.89581222068783,
              27.829495805765134
            ],
            [
              112.89403420051732,
              27.831865112985483
            ],
            [
              112.88600688568116,
              27.830854318350845
            ],
            [
              112.88533189516991,
              27.830939508922384
            ],
            [
              112.88505414776218,
              27.830967782631745
            ],
            [
              112.8869538043137,
              27.83833089917843
            ],
            [
              112.88778849282457,
              27.840279436233217
            ],
            [
              112.88897374977338,
              27.842316505337237
            ],
            [
              112.89107716399432,
              27.84430925429986
            ],
            [
              112.89277992870016,
              27.845932947461463
            ],
            [
              112.89521721796613,
              27.84764518060021
            ],
            [
              112.89668626978116,
              27.848663650372572
            ],
            [
              112.89732478779355,
              27.848918616000603
            ],
            [
              112.89772128349867,
              27.84907694023248
            ],
            [
              112.89887477422242,
              27.849511083673903
            ],
            [
              112.90019196044882,
              27.85000683586412
            ],
            [
              112.90167188906533,
              27.85043017757043
            ],
            [
              112.90359748896225,
              27.850981004292777
            ],
            [
              112.90606923670418,
              27.851898640985027
            ],
            [
              112.90696513192692,
              27.8522592208256
            ],
            [
              112.90698968827354,
              27.852216231233683
            ],
            [
              112.90930532948033,
              27.84816232810975
            ],
            [
              112.91316079178024,
              27.838352655687203
            ],
            [
              112.91325144526712,
              27.83813523100389
            ]
          ]
        ]
      },
      "properties": {
        "name": "湘钢三校教育集团东坪校区",
        "isAssistFeature": false,
        "sourceFileId": "file_1776680404448_41_g1",
        "sourceFileName": "湘钢三校教育集团东坪校区.geojson",
        "sourceGroupId": 1,
        "id": "imported_1776680404448_41_0_g1",
        "sourceFile": "湘钢三校教育集团东坪校区.geojson"
      },
      "id": "imported_1776680404448_41_0_g1"
    }
  ],
  "properties": {
    "fileName": "湘钢三校教育集团东坪校区.geojson",
    "exportTime": "2026/4/20 18:38:17",
    "isStarred": false
  }
}