{
  "type": "FeatureCollection",
  "features": [
    {
      "type": "Feature",
      "geometry": {
        "type": "Polygon",
        "coordinates": [
          [
            [
              112.8761307301924,
              27.997038642879573
            ],
            [
              112.8768799853265,
              27.99640700154073
            ],
            [
              112.8776306346459,
              27.996421480462246
            ],
            [
              112.87904240359023,
              27.996484304395864
            ],
            [
              112.88068098546572,
              27.996819001211946
            ],
            [
              112.88193998511615,
              27.997461001499246
            ],
            [
              112.88291998510736,
              27.99872300141982
            ],
            [
              112.88387498498422,
              27.999314001419464
            ],
            [
              112.8849689847783,
              27.999526001372942
            ],
            [
              112.88626998515988,
              27.999393001159078
            ],
            [
              112.88663376422237,
              27.999160858355694
            ],
            [
              112.88738098467232,
              27.998862001233462
            ],
            [
              112.88791783405581,
              27.99791079141464
            ],
            [
              112.8881799849136,
              27.99724500141437
            ],
            [
              112.88808245841648,
              27.99613741515317
            ],
            [
              112.88808398465413,
              27.9956620015344
            ],
            [
              112.88735811176858,
              27.99401513934626
            ],
            [
              112.8866048941658,
              27.992442694219292
            ],
            [
              112.8864009846811,
              27.992017001050755
            ],
            [
              112.88542561101362,
              27.99042245816416
            ],
            [
              112.88517698519075,
              27.990016000992483
            ],
            [
              112.88387498498422,
              27.988523001016986
            ],
            [
              112.88134981353406,
              27.98623100833558
            ],
            [
              112.87837298532874,
              27.982661001048612
            ],
            [
              112.87826411849943,
              27.981981503867885
            ],
            [
              112.87826644154273,
              27.981955083871213
            ],
            [
              112.8791537614478,
              27.979335396093745
            ],
            [
              112.87977968507991,
              27.978261979197114
            ],
            [
              112.88027747301986,
              27.977786888968396
            ],
            [
              112.88030494619619,
              27.977767181886918
            ],
            [
              112.8805636600997,
              27.977523471765025
            ],
            [
              112.88086586863264,
              27.977462468583767
            ],
            [
              112.88196794517937,
              27.977240004020743
            ],
            [
              112.88239293364873,
              27.97715421615277
            ],
            [
              112.88390098492354,
              27.977914001580885
            ],
            [
              112.88520298513002,
              27.979178001019193
            ],
            [
              112.88611398462594,
              27.980665001297652
            ],
            [
              112.886990984685,
              27.981416001559367
            ],
            [
              112.8890649853686,
              27.98241600098204
            ],
            [
              112.893065984626,
              27.98226700109356
            ],
            [
              112.89350912894555,
              27.98210880589437
            ],
            [
              112.89486998497283,
              27.981623001635356
            ],
            [
              112.89312713384572,
              27.979436286183187
            ],
            [
              112.89234781569233,
              27.978480489313853
            ],
            [
              112.89227028659175,
              27.978385403084815
            ],
            [
              112.88668013166411,
              27.971529089647532
            ],
            [
              112.88626842658284,
              27.971025024941483
            ],
            [
              112.88171206815555,
              27.96483601601841
            ],
            [
              112.88109496148799,
              27.963997757928993
            ],
            [
              112.88104450940666,
              27.964051396968216
            ],
            [
              112.88054730986322,
              27.96457999841968
            ],
            [
              112.88108212007097,
              27.965672335624177
            ],
            [
              112.8786420478243,
              27.96708940630168
            ],
            [
              112.87794010965119,
              27.9696282770346
            ],
            [
              112.87708023327808,
              27.969872588132915
            ],
            [
              112.87608354169056,
              27.97015577057732
            ],
            [
              112.87565075225127,
              27.970091961785883
            ],
            [
              112.87567763792941,
              27.97031660226733
            ],
            [
              112.87530622857689,
              27.973221929497285
            ],
            [
              112.8689922695838,
              27.97312821035736
            ],
            [
              112.86755969116588,
              27.970832069566356
            ],
            [
              112.86039679727988,
              27.968207847917412
            ],
            [
              112.85938868630849,
              27.96670826460037
            ],
            [
              112.86004393095145,
              27.962892253329272
            ],
            [
              112.86034373918594,
              27.962021930535712
            ],
            [
              112.85928256922229,
              27.95710106167502
            ],
            [
              112.853393078574,
              27.956866729066462
            ],
            [
              112.85383412442901,
              27.955016180901552
            ],
            [
              112.85466648181172,
              27.952179968493112
            ],
            [
              112.85457662063891,
              27.94483570279391
            ],
            [
              112.85484191290527,
              27.94300768701646
            ],
            [
              112.85562228298579,
              27.940775353815923
            ],
            [
              112.85595614096283,
              27.93982030258529
            ],
            [
              112.85611531614302,
              27.9382734498343
            ],
            [
              112.85261345679002,
              27.938695321107204
            ],
            [
              112.84489572835021,
              27.93313557662603
            ],
            [
              112.84486603094524,
              27.93312497416241
            ],
            [
              112.84478062361963,
              27.933072157068466
            ],
            [
              112.83864560094626,
              27.932082637942074
            ],
            [
              112.83539644127603,
              27.931206351602142
            ],
            [
              112.83486271892805,
              27.931062408138914
            ],
            [
              112.83441932757181,
              27.931483226589265
            ],
            [
              112.83313743794957,
              27.932699845387702
            ],
            [
              112.83215465587591,
              27.934317001542823
            ],
            [
              112.8320562481315,
              27.935403772774052
            ],
            [
              112.83099836061187,
              27.93627318157165
            ],
            [
              112.82862990744952,
              27.936970962875222
            ],
            [
              112.82844792763758,
              27.938538484197778
            ],
            [
              112.82562723920499,
              27.938538484197778
            ],
            [
              112.82555621121213,
              27.938598326890514
            ],
            [
              112.82408519028999,
              27.939837684976467
            ],
            [
              112.82543830194122,
              27.942076307718736
            ],
            [
              112.82644614880792,
              27.943361485419757
            ],
            [
              112.82615176010952,
              27.944640884906917
            ],
            [
              112.82659459720523,
              27.94590141814814
            ],
            [
              112.8251184756489,
              27.94700980593896
            ],
            [
              112.82283048638318,
              27.946488212868033
            ],
            [
              112.82199401741146,
              27.947792190425275
            ],
            [
              112.81957784753783,
              27.947469139207982
            ],
            [
              112.81967756053437,
              27.94804168599569
            ],
            [
              112.81984703220432,
              27.949021721363493
            ],
            [
              112.81949633440894,
              27.950642760333167
            ],
            [
              112.8185368546338,
              27.952316130374527
            ],
            [
              112.81654409039797,
              27.95392427940314
            ],
            [
              112.81509329594277,
              27.95410890466286
            ],
            [
              112.81420689770921,
              27.955206435726666
            ],
            [
              112.8129767959631,
              27.95501085336808
            ],
            [
              112.81324741793402,
              27.953880816788413
            ],
            [
              112.81189430628281,
              27.95451103132133
            ],
            [
              112.81182050069908,
              27.956075685132816
            ],
            [
              112.81046738904783,
              27.957140506394794
            ],
            [
              112.80931109378379,
              27.95874858356251
            ],
            [
              112.80869604246158,
              27.96007414352178
            ],
            [
              112.80795676401706,
              27.96014293242831
            ],
            [
              112.80799127369701,
              27.96083594082414
            ],
            [
              112.80546032518124,
              27.96068821080739
            ],
            [
              112.80891576229523,
              27.963514426962902
            ],
            [
              112.81210142544796,
              27.963150404515048
            ],
            [
              112.8123866468389,
              27.96472209852095
            ],
            [
              112.8118081659319,
              27.96537237803561
            ],
            [
              112.81312289526596,
              27.96658002959542
            ],
            [
              112.81538225252862,
              27.965318392134776
            ],
            [
              112.81796109741872,
              27.965883309191057
            ],
            [
              112.81898131678184,
              27.964585803123242
            ],
            [
              112.8199447689072,
              27.966287703992677
            ],
            [
              112.81882074112819,
              27.967516837839796
            ],
            [
              112.82005320813843,
              27.96941779951817
            ],
            [
              112.8284552632802,
              27.97153506296611
            ],
            [
              112.8290731281259,
              27.972419336579705
            ],
            [
              112.82918610744254,
              27.97251604971119
            ],
            [
              112.83063376318418,
              27.97057044270339
            ],
            [
              112.82735142244222,
              27.96738668930888
            ],
            [
              112.82720511832349,
              27.96609396815323
            ],
            [
              112.82839769025364,
              27.96583063982409
            ],
            [
              112.82951572716806,
              27.96721310400295
            ],
            [
              112.83272076518482,
              27.968068906172178
            ],
            [
              112.83331705159905,
              27.96701560986459
            ],
            [
              112.83510590994347,
              27.967081441284208
            ],
            [
              112.83801280520227,
              27.97122873181702
            ],
            [
              112.84159052189106,
              27.97445429263429
            ],
            [
              112.84539184632207,
              27.97511255804916
            ],
            [
              112.847028697144,
              27.975822573203715
            ],
            [
              112.84814611062761,
              27.97612802259998
            ],
            [
              112.84875046391306,
              27.97629322462197
            ],
            [
              112.84911941367835,
              27.97868265655238
            ],
            [
              112.84997921010142,
              27.979733106778
            ],
            [
              112.85252195259855,
              27.98052899973183
            ],
            [
              112.85254756177066,
              27.98057588743258
            ],
            [
              112.85432570860364,
              27.98378717440511
            ],
            [
              112.85658040360997,
              27.98523522008618
            ],
            [
              112.85633443680035,
              27.98979643861658
            ],
            [
              112.85750898583099,
              27.989878001151126
            ],
            [
              112.86046015905015,
              27.990458616225723
            ],
            [
              112.86072734496508,
              27.9905111823455
            ],
            [
              112.86449598509283,
              27.99148100155638
            ],
            [
              112.86638798530316,
              27.992535001300254
            ],
            [
              112.8676289854103,
              27.993799001475494
            ],
            [
              112.86884475902762,
              27.9959532235098
            ],
            [
              112.86894588417576,
              27.996174378768615
            ],
            [
              112.86945098530047,
              27.997279001309536
            ],
            [
              112.86994198557018,
              27.999810001435335
            ],
            [
              112.86977198479251,
              28.000781001272472
            ],
            [
              112.86912198541252,
              28.00161900123858
            ],
            [
              112.86899198481785,
              28.00182500122233
            ],
            [
              112.86892050048081,
              28.001864154364824
            ],
            [
              112.86802798561847,
              28.002353001137962
            ],
            [
              112.86689898566435,
              28.00281700123513
            ],
            [
              112.86508598509667,
              28.002881001638755
            ],
            [
              112.86399198530266,
              28.003458001330287
            ],
            [
              112.86362798525458,
              28.004138001611793
            ],
            [
              112.8638879855456,
              28.004882001575226
            ],
            [
              112.86452998542796,
              28.005437001153922
            ],
            [
              112.86639698552402,
              28.00574700166048
            ],
            [
              112.86742098499782,
              28.006070001316047
            ],
            [
              112.86793198535901,
              28.006663000912894
            ],
            [
              112.86855078265596,
              28.007786027867382
            ],
            [
              112.86858398528716,
              28.007891001211817
            ],
            [
              112.86960798565931,
              28.00817700164319
            ],
            [
              112.87217898556203,
              28.00772300114238
            ],
            [
              112.87460204371726,
              28.00563486431875
            ],
            [
              112.87560393205868,
              28.00477144721421
            ],
            [
              112.87705262625276,
              28.002038864897827
            ],
            [
              112.87721272400267,
              28.000936287527338
            ],
            [
              112.87738187497406,
              27.99977135120743
            ],
            [
              112.87728402149014,
              27.999661117594485
            ],
            [
              112.87547223274981,
              27.997620076020524
            ],
            [
              112.87552438444364,
              27.997574027781198
            ],
            [
              112.8761307301924,
              27.997038642879573
            ]
          ]
        ]
      },
      "properties": {
        "name": "湘锰小学",
        "isAssistFeature": false,
        "sourceFileId": "file_1776680404449_44_g1",
        "sourceFileName": "湘锰小学.geojson",
        "sourceGroupId": 1,
        "id": "imported_1776680404449_44_0_g1",
        "sourceFile": "湘锰小学.geojson"
      },
      "id": "imported_1776680404449_44_0_g1"
    }
  ],
  "properties": {
    "fileName": "湘锰小学.geojson",
    "exportTime": "2026/4/20 18:38:26",
    "isStarred": false
  }
}