{
  "type": "FeatureCollection",
  "features": [
    {
      "type": "Feature",
      "geometry": {
        "type": "Polygon",
        "coordinates": [
          [
            [
              112.9173198549898,
              27.82610212660299
            ],
            [
              112.91734629249139,
              27.82588001170835
            ],
            [
              112.91772523001403,
              27.82461745525245
            ],
            [
              112.91793673002671,
              27.823721187128115
            ],
            [
              112.91820551129277,
              27.82326915344096
            ],
            [
              112.91832448004986,
              27.823039239033193
            ],
            [
              112.91874307382486,
              27.822567718131225
            ],
            [
              112.91893694883646,
              27.822384564831978
            ],
            [
              112.91939079261356,
              27.821675329992402
            ],
            [
              112.92352385536034,
              27.82360428204464
            ],
            [
              112.92031488866378,
              27.827782368997546
            ],
            [
              112.91829916470171,
              27.830318515276275
            ],
            [
              112.91634060365224,
              27.829444970107872
            ],
            [
              112.91678340875907,
              27.828270191382245
            ],
            [
              112.91680043972474,
              27.827532182859457
            ],
            [
              112.91568277139835,
              27.82687652476278
            ],
            [
              112.91635763461791,
              27.825821788530234
            ],
            [
              112.91725939150612,
              27.826243684253058
            ],
            [
              112.9173198549898,
              27.82610212660299
            ]
          ]
        ]
      },
      "properties": {
        "sourceFileId": "file_1774580465697",
        "sourceFileName": "湘钢一校教育集团葩金校区.geojson",
        "name": "湘钢一校教育集团葩金校区",
        "id": "polygon_1773559608157_imported_1774580465697",
        "sourceFile": "湘钢一校教育集团葩金校区.geojson",
        "isAssistFeature": false
      },
      "id": "polygon_1773559608157_imported_1774580465697"
    }
  ],
  "properties": {
    "fileName": "湘钢一校教育集团葩金校区.geojson",
    "exportTime": "2026/3/27 11:03:44",
    "isStarred": false
  }
}