{
  "type": "FeatureCollection",
  "features": [
    {
      "type": "Feature",
      "properties": {
        "name": "湘钢三校教育集团霞光校区",
        "isAssistFeature": false
      },
      "geometry": {
        "type": "Polygon",
        "coordinates": [
          [
            [
              112.9185291337996,
              27.830568632578352
            ],
            [
              112.91632248249131,
              27.829522142268477
            ],
            [
              112.91567285950538,
              27.829214062295346
            ],
            [
              112.91310779926332,
              27.82846067729693
            ],
            [
              112.91342261834623,
              27.82817763940272
            ],
            [
              112.91347473949732,
              27.827951011537778
            ],
            [
              112.91340958828303,
              27.82760530684769
            ],
            [
              112.91352686154674,
              27.827006084418464
            ],
            [
              112.91347686491129,
              27.826419421945747
            ],
            [
              112.91386291500632,
              27.82613389848268
            ],
            [
              112.9139910489018,
              27.825917327177475
            ],
            [
              112.91404403692717,
              27.82555812235203
            ],
            [
              112.91398033649205,
              27.825083653749257
            ],
            [
              112.91428027767721,
              27.824742604152732
            ],
            [
              112.91301999163926,
              27.82346603366422
            ],
            [
              112.91287475382073,
              27.823328462334974
            ],
            [
              112.91277971475861,
              27.82324605832581
            ],
            [
              112.9113040001391,
              27.822096144738616
            ],
            [
              112.9085014989978,
              27.821553727857076
            ],
            [
              112.90589491772499,
              27.82148592575498
            ],
            [
              112.90590102537058,
              27.82326557985817
            ],
            [
              112.90545083556427,
              27.823874504200546
            ],
            [
              112.9047225866348,
              27.82393305414779
            ],
            [
              112.90436508320288,
              27.824296065022686
            ],
            [
              112.90423267422493,
              27.825818355421642
            ],
            [
              112.90426390595242,
              27.826803347583134
            ],
            [
              112.90429801228882,
              27.826824330238743
            ],
            [
              112.90482410434673,
              27.82714798631363
            ],
            [
              112.90499003126457,
              27.827346083813655
            ],
            [
              112.90628549083748,
              27.828892701108707
            ],
            [
              112.90666880556249,
              27.829246107559612
            ],
            [
              112.90743024364843,
              27.829948132256767
            ],
            [
              112.90796438730627,
              27.83012058181628
            ],
            [
              112.90896469910437,
              27.830443534542358
            ],
            [
              112.90914503949091,
              27.832715233876996
            ],
            [
              112.90881856117393,
              27.833609751951958
            ],
            [
              112.90867990620984,
              27.834986640196096
            ],
            [
              112.90848734604049,
              27.83697456380172
            ],
            [
              112.90868110366411,
              27.83702274820586
            ],
            [
              112.90912119101675,
              27.837136794658626
            ],
            [
              112.91325144526714,
              27.838135231003896
            ],
            [
              112.9185291337996,
              27.830568632578352
            ]
          ]
        ]
      }
    }
  ]
}