{
  "type": "FeatureCollection",
  "features": [
    {
      "type": "Feature",
      "geometry": {
        "type": "Polygon",
        "coordinates": [
          [
            [
              112.92507063739936,
              27.821983596107813
            ],
            [
              112.92743098133244,
              27.81913697768684
            ],
            [
              112.92764555805363,
              27.81651802282711
            ],
            [
              112.92532812946477,
              27.81629028463692
            ],
            [
              112.92459856861271,
              27.8159107199252
            ],
            [
              112.92459856861271,
              27.814885888577166
            ],
            [
              112.92107951038517,
              27.814772017830393
            ],
            [
              112.91879003605602,
              27.81731363005224
            ],
            [
              112.9165691669917,
              27.816146475330115
            ],
            [
              112.91679447254896,
              27.81457127101953
            ],
            [
              112.9144126709437,
              27.814514335496142
            ],
            [
              112.91341488919008,
              27.81442893215508
            ],
            [
              112.91339343151797,
              27.814210678867255
            ],
            [
              112.91427319607484,
              27.81127845086428
            ],
            [
              112.91073691242377,
              27.811128090895934
            ],
            [
              112.91073691242377,
              27.812190915547106
            ],
            [
              112.9102219282929,
              27.812760281617912
            ],
            [
              112.90957819812931,
              27.81306394230195
            ],
            [
              112.90850531452337,
              27.81446836192201
            ],
            [
              112.90756117695011,
              27.815075672889776
            ],
            [
              112.90730368488471,
              27.816176415362705
            ],
            [
              112.9077757536713,
              27.81758079473323
            ],
            [
              112.90811907642521,
              27.818909244989115
            ],
            [
              112.90811907642521,
              27.81982017291422
            ],
            [
              112.90760409229436,
              27.82069313833796
            ],
            [
              112.90713202350774,
              27.821224505159535
            ],
            [
              112.90575873249213,
              27.821945641686455
            ],
            [
              112.90790449970403,
              27.82205950491074
            ],
            [
              112.90983569019474,
              27.82221132235736
            ],
            [
              112.91138064258733,
              27.822666773423506
            ],
            [
              112.91215311878364,
              27.823008360469217
            ],
            [
              112.9127968489472,
              27.82357766982375
            ],
            [
              112.91429888599554,
              27.822590865045157
            ],
            [
              112.91610133045353,
              27.821262459833022
            ],
            [
              112.91747462146917,
              27.82095882207382
            ],
            [
              112.9195345579926,
              27.821983596107813
            ],
            [
              112.92090784900823,
              27.822439048129283
            ],
            [
              112.92369734638373,
              27.82221132235736
            ],
            [
              112.92455565326847,
              27.82221132235736
            ],
            [
              112.92507063739936,
              27.821983596107813
            ]
          ]
        ]
      },
      "properties": {
        "sourceFileId": "file_1775627444259_42_g1",
        "sourceFileName": "湘钢二校.geojson",
        "sourceGroupId": 1,
        "name": "湘钢二校",
        "id": "imported_1775627444259_42_0_g1",
        "sourceFile": "湘钢二校.geojson",
        "isAssistFeature": false
      },
      "id": "imported_1775627444259_42_0_g1"
    }
  ],
  "properties": {
    "fileName": "湘钢二校.geojson",
    "exportTime": "2026/4/8 14:23:57",
    "isStarred": false
  }
}