{
  "type": "FeatureCollection",
  "features": [
    {
      "type": "Feature",
      "geometry": {
        "type": "Polygon",
        "coordinates": [
          [
            [
              112.84139011673433,
              27.85087861942823
            ],
            [
              112.84170779066321,
              27.85027005233337
            ],
            [
              112.84256981490817,
              27.850279118864748
            ],
            [
              112.84501020695508,
              27.849597887848944
            ],
            [
              112.84550923277351,
              27.8494585847788
            ],
            [
              112.84739994210483,
              27.848930793024053
            ],
            [
              112.84796189760385,
              27.848773922897593
            ],
            [
              112.84897859467274,
              27.84884542992441
            ],
            [
              112.85078923716279,
              27.84628943666766
            ],
            [
              112.84995739181981,
              27.84376267265202
            ],
            [
              112.84960604094925,
              27.84269403288144
            ],
            [
              112.85170611792891,
              27.841529493644558
            ],
            [
              112.8517480027773,
              27.841506267470123
            ],
            [
              112.85243722529762,
              27.841124075448263
            ],
            [
              112.8526440300524,
              27.84037725651598
            ],
            [
              112.8526529628996,
              27.84034499768461
            ],
            [
              112.85306604060658,
              27.83885326389236
            ],
            [
              112.85224006844894,
              27.83680387591062
            ],
            [
              112.85481350548103,
              27.835598756503202
            ],
            [
              112.85604433216753,
              27.835230171966302
            ],
            [
              112.85819321731152,
              27.834586661293102
            ],
            [
              112.85906617944336,
              27.834598446707588
            ],
            [
              112.85887834081915,
              27.833815674268266
            ],
            [
              112.85880432862291,
              27.833550683723303
            ],
            [
              112.85881692030826,
              27.83319240738129
            ],
            [
              112.85859835121646,
              27.8322121815917
            ],
            [
              112.86334096543646,
              27.827798862555625
            ],
            [
              112.86144080942162,
              27.82693594531446
            ],
            [
              112.86035427193262,
              27.825975048213778
            ],
            [
              112.85974607655268,
              27.825437177468842
            ],
            [
              112.85947384120752,
              27.82530425456659
            ],
            [
              112.85928984467778,
              27.82499688954333
            ],
            [
              112.85928984467778,
              27.824807046870504
            ],
            [
              112.8578490745228,
              27.82532962445015
            ],
            [
              112.85666214850418,
              27.825623536192126
            ],
            [
              112.85307539206869,
              27.82626734152197
            ],
            [
              112.85019269383037,
              27.826790603231586
            ],
            [
              112.84697459161443,
              27.827128073823403
            ],
            [
              112.84513089920677,
              27.827135071993624
            ],
            [
              112.84346920278072,
              27.826904144054367
            ],
            [
              112.83948113028026,
              27.82511268847719
            ],
            [
              112.83708498565093,
              27.824495001108943
            ],
            [
              112.83568296702073,
              27.82430092549754
            ],
            [
              112.83337241746496,
              27.824650824297066
            ],
            [
              112.8307971595478,
              27.825238881845394
            ],
            [
              112.82856833242838,
              27.82687447902343
            ],
            [
              112.82745496316018,
              27.82978375764914
            ],
            [
              112.8268854752875,
              27.831271821261055
            ],
            [
              112.82589989496172,
              27.83429935368602
            ],
            [
              112.82298227112348,
              27.83766814929973
            ],
            [
              112.82163680626874,
              27.838695581299675
            ],
            [
              112.82076939359199,
              27.83913102013713
            ],
            [
              112.82355340021817,
              27.842803630744186
            ],
            [
              112.82514747057137,
              27.842807884324458
            ],
            [
              112.82598493577474,
              27.842857919284086
            ],
            [
              112.82702189973475,
              27.843985023492564
            ],
            [
              112.82983186857106,
              27.8440907525558
            ],
            [
              112.8297953673261,
              27.84548771318694
            ],
            [
              112.82957387691303,
              27.845509270479795
            ],
            [
              112.82839699136436,
              27.845623814773603
            ],
            [
              112.8284949301882,
              27.84683455362061
            ],
            [
              112.83191913198148,
              27.846903973739387
            ],
            [
              112.83253367036566,
              27.84691880470946
            ],
            [
              112.83325704054482,
              27.848243172296478
            ],
            [
              112.83996696793199,
              27.84848789352459
            ],
            [
              112.84092849586602,
              27.85010315574297
            ],
            [
              112.84139011673433,
              27.85087861942823
            ]
          ]
        ]
      },
      "properties": {
        "name": "源湘学校",
        "isAssistFeature": false,
        "sourceFileId": "file_1776680404449_45_g1",
        "sourceFileName": "源湘学校.geojson",
        "sourceGroupId": 1,
        "id": "imported_1776680404449_45_0_g1",
        "sourceFile": "源湘学校.geojson"
      },
      "id": "imported_1776680404449_45_0_g1"
    }
  ],
  "properties": {
    "fileName": "源湘学校.geojson",
    "exportTime": "2026/4/20 18:38:35",
    "isStarred": false
  }
}