{
  "type": "FeatureCollection",
  "features": [
    {
      "type": "Feature",
      "geometry": {
        "type": "Polygon",
        "coordinates": [
          [
            [
              113.0620124047277,
              28.014693202004267
            ],
            [
              113.05267837702615,
              28.01328366209019
            ],
            [
              113.0513273993325,
              28.01219938806419
            ],
            [
              113.04960797317696,
              28.012849953789697
            ],
            [
              113.04727446625155,
              28.011874103727806
            ],
            [
              113.04174773932301,
              28.012307815958025
            ],
            [
              113.03843170316587,
              28.011006674027854
            ],
            [
              113.03499285085476,
              28.010789815511302
            ],
            [
              113.03081710161986,
              28.00818747925706
            ],
            [
              113.03118555008177,
              28.006886287553712
            ],
            [
              113.03192244700557,
              28.005476645472413
            ],
            [
              113.03425595393097,
              28.00254886836801
            ],
            [
              113.03081710161986,
              28.00157292498662
            ],
            [
              113.02479911007543,
              27.999621011705173
            ],
            [
              113.02344813238177,
              27.997777505585447
            ],
            [
              113.02393939699765,
              27.995283300051398
            ],
            [
              113.02393939699765,
              27.993114378754413
            ],
            [
              113.02369376468972,
              27.99116231227164
            ],
            [
              113.02676416853892,
              27.989210210439055
            ],
            [
              113.02700980084687,
              27.985956628834046
            ],
            [
              113.0287292270024,
              27.985197445665293
            ],
            [
              113.0290976754643,
              27.98367906329183
            ],
            [
              113.0310627339278,
              27.98357060658985
            ],
            [
              113.02995738854209,
              27.982377575668664
            ],
            [
              113.02897485931032,
              27.97868994210276
            ],
            [
              113.026518536231,
              27.97836455661681
            ],
            [
              113.0241850293056,
              27.97879840371327
            ],
            [
              113.02332531622783,
              27.977279931240645
            ],
            [
              113.0207461769945,
              27.975219112977797
            ],
            [
              113.01964083160877,
              27.972290514034285
            ],
            [
              113.01669324391355,
              27.971205827583276
            ],
            [
              113.01399128852626,
              27.96947030657877
            ],
            [
              113.01497381775802,
              27.96665002540641
            ],
            [
              113.01264031083261,
              27.966541551581514
            ],
            [
              113.01214904621672,
              27.963070331613423
            ],
            [
              112.99630576235488,
              27.96274489901711
            ],
            [
              112.99728829158666,
              27.94278315762446
            ],
            [
              113.01190341390883,
              27.94365113615855
            ],
            [
              113.01214904621678,
              27.947556953246092
            ],
            [
              113.01399128852628,
              27.94766544614889
            ],
            [
              113.01485100160406,
              27.946146535591467
            ],
            [
              113.01706169237548,
              27.948207909028028
            ],
            [
              113.01976364776277,
              27.948967352481063
            ],
            [
              113.02197433853418,
              27.949184335343816
            ],
            [
              113.0246762939215,
              27.951788095689494
            ],
            [
              113.02836077854053,
              27.953415414022373
            ],
            [
              113.03081710161989,
              27.953632387946982
            ],
            [
              113.03364187316113,
              27.953089952317896
            ],
            [
              113.03351905700718,
              27.949618299761383
            ],
            [
              113.03560693162464,
              27.949075843966924
            ],
            [
              113.03855451931986,
              27.947014487097206
            ],
            [
              113.04236182009286,
              27.94788243162752
            ],
            [
              113.04702883394364,
              27.947339967113507
            ],
            [
              113.04911670856109,
              27.94788243162752
            ],
            [
              113.0529240093341,
              27.94723147388372
            ],
            [
              113.05538033241345,
              27.949184335343816
            ],
            [
              113.05894200087852,
              27.950160752830882
            ],
            [
              113.06152114011186,
              27.951679606928607
            ],
            [
              113.06594252165469,
              27.95352390103919
            ],
            [
              113.06766194781025,
              27.952113561318157
            ],
            [
              113.07159206473722,
              27.950703203175465
            ],
            [
              113.07441683627849,
              27.94929282661171
            ],
            [
              113.07613626243403,
              27.94950980882048
            ],
            [
              113.07773287243562,
              27.952005072884276
            ],
            [
              113.08129454090069,
              27.953089952317896
            ],
            [
              113.08301396705622,
              27.955693618483465
            ],
            [
              113.0823998862864,
              27.958839631323286
            ],
            [
              113.08289115090227,
              27.96155163776851
            ],
            [
              113.08547029013559,
              27.961985552476236
            ],
            [
              113.08510184167369,
              27.96372119386224
            ],
            [
              113.08583873859749,
              27.96578223175429
            ],
            [
              113.08141735705463,
              27.96730086606574
            ],
            [
              113.0793294824372,
              27.96708391961546
            ],
            [
              113.07822413705149,
              27.965131381935535
            ],
            [
              113.07625907858798,
              27.96838559177455
            ],
            [
              113.07380275550864,
              27.971097358338383
            ],
            [
              113.06815321242613,
              27.969904189447092
            ],
            [
              113.06729349934835,
              27.972615917843
            ],
            [
              113.06766194781025,
              27.975544507952677
            ],
            [
              113.0670478670404,
              27.9779307077752
            ],
            [
              113.06839884473405,
              27.979340710129733
            ],
            [
              113.07220614550705,
              27.980425314782025
            ],
            [
              113.07810132089752,
              27.983462149778802
            ],
            [
              113.07994356320705,
              27.987474979135
            ],
            [
              113.08301396705622,
              27.989427112388285
            ],
            [
              113.08252270244037,
              27.992572141610736
            ],
            [
              113.07994356320705,
              27.99322282585581
            ],
            [
              113.0769959755118,
              27.99517485502311
            ],
            [
              113.07748724012768,
              27.998428158405247
            ],
            [
              113.0755221816642,
              28.006018817686524
            ],
            [
              113.06974982242771,
              28.00927179367025
            ],
            [
              113.06974982242764,
              28.013500515585434
            ],
            [
              113.0620124047277,
              28.014693202004267
            ]
          ]
        ]
      },
      "properties": {
        "sourceFileId": "file_1774324188380_1",
        "sourceFileName": "新建学区_2026-03-24T03-49-48.geojson",
        "name": "滴水湖学校教育集团南天校区",
        "id": "polygon_1774324276073",
        "sourceFile": "新建学区_2026-03-24T03-49-48.geojson"
      },
      "id": "polygon_1774324276073"
    }
  ],
  "properties": {
    "fileName": "新建学区_2026-03-24T03-49-48.geojson",
    "exportTime": "2026/3/24 11:51:40",
    "isStarred": false
  }
}