{
  "type": "FeatureCollection",
  "features": [
    {
      "type": "Feature",
      "geometry": {
        "type": "Polygon",
        "coordinates": [
          [
            [
              112.95905767197623,
              27.866929047176825
            ],
            [
              112.95725814028634,
              27.86758458629427
            ],
            [
              112.95757691408991,
              27.868132394075147
            ],
            [
              112.95830085833538,
              27.869054179763268
            ],
            [
              112.9582303526253,
              27.869491011861328
            ],
            [
              112.9577302056288,
              27.869718055092406
            ],
            [
              112.95736523349619,
              27.869461137716556
            ],
            [
              112.95689888021568,
              27.86927591783514
            ],
            [
              112.95588506873626,
              27.870823390342252
            ],
            [
              112.95371551217028,
              27.871343192750587
            ],
            [
              112.95328971134893,
              27.871749473356346
            ],
            [
              112.95127775700085,
              27.87232128369041
            ],
            [
              112.95695348543428,
              27.879699301053037
            ],
            [
              112.9582729581119,
              27.88199473647383
            ],
            [
              112.95880939991487,
              27.884251751143566
            ],
            [
              112.96024706394687,
              27.888443225006867
            ],
            [
              112.96706098972489,
              27.886775350485493
            ],
            [
              112.97269436203551,
              27.88522843292465
            ],
            [
              112.97303905793851,
              27.8850432400031
            ],
            [
              112.9705585991855,
              27.882295178785967
            ],
            [
              112.96847014753787,
              27.8799174521573
            ],
            [
              112.96989966186725,
              27.87991712508547
            ],
            [
              112.97009978963452,
              27.87786798630748
            ],
            [
              112.96913596487856,
              27.876460252435976
            ],
            [
              112.96833158238358,
              27.875628068877347
            ],
            [
              112.96926109104447,
              27.874179632879347
            ],
            [
              112.96927896621104,
              27.873673992479638
            ],
            [
              112.96841273836422,
              27.871098768548308
            ],
            [
              112.96505754794448,
              27.868997222877013
            ],
            [
              112.96454679689698,
              27.86850390147481
            ],
            [
              112.96038512169534,
              27.868570792644007
            ],
            [
              112.96032509124218,
              27.86855535066212
            ],
            [
              112.95905767197623,
              27.866929047176825
            ]
          ]
        ]
      },
      "properties": {
        "sourceFileId": "file_1775634890261_47_g1",
        "sourceFileName": "滴水湖学校教育集团江滨学校小学部.geojson",
        "name": "滴水湖学校教育集团江滨学校小学部",
        "id": "imported_1775634890261_47_0_g1",
        "sourceFile": "滴水湖学校教育集团江滨学校小学部.geojson",
        "isAssistFeature": false,
        "sourceGroupId": 1
      },
      "id": "imported_1775634890261_47_0_g1"
    }
  ],
  "properties": {
    "fileName": "滴水湖学校教育集团江滨学校小学部.geojson",
    "exportTime": "2026/4/8 16:58:14",
    "isStarred": false
  }
}