{
  "type": "FeatureCollection",
  "features": [
    {
      "type": "Feature",
      "geometry": {
        "type": "Polygon",
        "coordinates": [
          [
            [
              112.95403026007892,
              27.858013797217225
            ],
            [
              112.95401452339176,
              27.857964325196036
            ],
            [
              112.95355403619735,
              27.856625872541855
            ],
            [
              112.95294512126685,
              27.854855974697628
            ],
            [
              112.95305000945773,
              27.854807201747548
            ],
            [
              112.95313268051501,
              27.854768760142818
            ],
            [
              112.95321735840864,
              27.854729384507507
            ],
            [
              112.95317505404695,
              27.854704157311957
            ],
            [
              112.95294579679992,
              27.8545674460309
            ],
            [
              112.95268469337779,
              27.854411742846693
            ],
            [
              112.94468777124261,
              27.849642855415297
            ],
            [
              112.94170524682005,
              27.84786420258719
            ],
            [
              112.9415150043041,
              27.847990903254427
            ],
            [
              112.94169268118583,
              27.84811088495485
            ],
            [
              112.94061396173478,
              27.84966992569852
            ],
            [
              112.93989928185766,
              27.848861087469317
            ],
            [
              112.93959688018694,
              27.848821341939242
            ],
            [
              112.93891692378882,
              27.848735503776425
            ],
            [
              112.93884155603482,
              27.84872206700925
            ],
            [
              112.93858499090146,
              27.84875021614897
            ],
            [
              112.93688231962037,
              27.848944624519746
            ],
            [
              112.93704053719642,
              27.851186483004284
            ],
            [
              112.93704235628485,
              27.851211979477455
            ],
            [
              112.93675469147635,
              27.851413963023475
            ],
            [
              112.93363216461675,
              27.850186776028735
            ],
            [
              112.93316061646622,
              27.85120539587423
            ],
            [
              112.9330571098843,
              27.85142279356505
            ],
            [
              112.93302441300456,
              27.8525014271371
            ],
            [
              112.93301908060504,
              27.852532653007373
            ],
            [
              112.9328369678424,
              27.85387329825518
            ],
            [
              112.93408282424195,
              27.854476711199396
            ],
            [
              112.93393595867616,
              27.85511784111958
            ],
            [
              112.9338407049167,
              27.8555336614056
            ],
            [
              112.93381943281076,
              27.855626522288418
            ],
            [
              112.93547651279458,
              27.85625679158744
            ],
            [
              112.93597739632902,
              27.856478212989714
            ],
            [
              112.9350403483848,
              27.857859580182605
            ],
            [
              112.93433759094812,
              27.858882679514224
            ],
            [
              112.9325870394624,
              27.861431171884377
            ],
            [
              112.9383125264859,
              27.863695427364263
            ],
            [
              112.93915669491794,
              27.862575975798848
            ],
            [
              112.94063721642254,
              27.861454067382283
            ],
            [
              112.94191914916391,
              27.86048263611943
            ],
            [
              112.94484399096545,
              27.85937072881518
            ],
            [
              112.94495481342713,
              27.85932859818891
            ],
            [
              112.94833473187016,
              27.85873096148329
            ],
            [
              112.95073328667932,
              27.858370141872598
            ],
            [
              112.95393493625086,
              27.858023953548567
            ],
            [
              112.95403026007892,
              27.858013797217225
            ]
          ]
        ]
      },
      "properties": {
        "name": "滴水湖学校教育集团滴水湖校区",
        "isAssistFeature": false,
        "sourceFileId": "file_1776680404450_48_g1",
        "sourceFileName": "滴水湖学校教育集团滴水湖校区.geojson",
        "sourceGroupId": 1,
        "id": "imported_1776680404450_48_0_g1",
        "sourceFile": "滴水湖学校教育集团滴水湖校区.geojson"
      },
      "id": "imported_1776680404450_48_0_g1"
    }
  ],
  "properties": {
    "fileName": "滴水湖学校教育集团滴水湖校区.geojson",
    "exportTime": "2026/4/20 18:38:43",
    "isStarred": false
  }
}