{
  "type": "FeatureCollection",
  "features": [
    {
      "type": "Feature",
      "geometry": {
        "type": "Polygon",
        "coordinates": [
          [
            [
              112.95115054604395,
              27.84121819894733
            ],
            [
              112.95120330050734,
              27.83310824016425
            ],
            [
              112.95122083472337,
              27.83041248741074
            ],
            [
              112.9512284641151,
              27.827959457102907
            ],
            [
              112.94299480356321,
              27.827439425626892
            ],
            [
              112.94264396203741,
              27.83276881966094
            ],
            [
              112.94264180518242,
              27.832802455838475
            ],
            [
              112.94666369116851,
              27.833214083892642
            ],
            [
              112.94666355821784,
              27.83326461103175
            ],
            [
              112.94664719360833,
              27.835165363669432
            ],
            [
              112.94663281876714,
              27.83675009908883
            ],
            [
              112.9468686193427,
              27.84060165494384
            ],
            [
              112.94445793009064,
              27.840018511812744
            ],
            [
              112.94229008600261,
              27.83959874611027
            ],
            [
              112.94183337891891,
              27.845847562939056
            ],
            [
              112.94170524682005,
              27.84786420258719
            ],
            [
              112.94468777124261,
              27.849642855415297
            ],
            [
              112.95268469337779,
              27.854411742846693
            ],
            [
              112.95294579679992,
              27.8545674460309
            ],
            [
              112.95317505404695,
              27.854704157311957
            ],
            [
              112.95321735840864,
              27.854729384507507
            ],
            [
              112.95320781291043,
              27.854654922050173
            ],
            [
              112.95313615430022,
              27.85412894738512
            ],
            [
              112.95162631986959,
              27.844317439647313
            ],
            [
              112.95153527471724,
              27.843724367725315
            ],
            [
              112.95137046799856,
              27.842650804378934
            ],
            [
              112.95115054604395,
              27.84121819894733
            ]
          ]
        ]
      },
      "properties": {
        "name": "火炬学校教育集团火炬校区",
        "isAssistFeature": false,
        "sourceFileId": "file_1776680404450_49_g1",
        "sourceFileName": "火炬学校教育集团火炬校区.geojson",
        "sourceGroupId": 1,
        "id": "imported_1776680404450_49_0_g1",
        "sourceFile": "火炬学校教育集团火炬校区.geojson"
      },
      "id": "imported_1776680404450_49_0_g1"
    }
  ],
  "properties": {
    "fileName": "火炬学校教育集团火炬校区.geojson",
    "exportTime": "2026/4/20 18:38:46",
    "isStarred": false
  }
}