{
  "type": "FeatureCollection",
  "features": [
    {
      "type": "Feature",
      "properties": {
        "name": "火炬学校教育集团红旗校区",
        "isAssistFeature": false
      },
      "geometry": {
        "type": "Polygon",
        "coordinates": [
          [
            [
              112.93858497563008,
              27.848750217737514
            ],
            [
              112.93884154076343,
              27.848722068597827
            ],
            [
              112.93891690851748,
              27.848735505365
            ],
            [
              112.9395968649156,
              27.848821343527796
            ],
            [
              112.93989926658631,
              27.848861089057863
            ],
            [
              112.94061394646342,
              27.849669927287064
            ],
            [
              112.94169266591446,
              27.848110886543402
            ],
            [
              112.94151498903275,
              27.847990904842977
            ],
            [
              112.94120956992099,
              27.847784662330522
            ],
            [
              112.94036420762791,
              27.847213804928277
            ],
            [
              112.93188056210211,
              27.84269349592097
            ],
            [
              112.93106602100644,
              27.842428531029935
            ],
            [
              112.92975606711644,
              27.842002409724603
            ],
            [
              112.92860700508707,
              27.84162862503002
            ],
            [
              112.9286455212532,
              27.841509076217054
            ],
            [
              112.92924570006755,
              27.83961468221565
            ],
            [
              112.92699479954499,
              27.839202789300533
            ],
            [
              112.92579383196016,
              27.83898298725057
            ],
            [
              112.92576612252692,
              27.838978013841558
            ],
            [
              112.92483490734385,
              27.838808417359907
            ],
            [
              112.92466885466187,
              27.839120190813624
            ],
            [
              112.92432208609758,
              27.839576690384103
            ],
            [
              112.92409353582468,
              27.839867250347105
            ],
            [
              112.9237024506725,
              27.839793664170084
            ],
            [
              112.92331630086444,
              27.840300900034936
            ],
            [
              112.92312206893035,
              27.840557021221805
            ],
            [
              112.92305704168358,
              27.8406440216149
            ],
            [
              112.92296517996262,
              27.84076692347199
            ],
            [
              112.92247954083854,
              27.84141665760164
            ],
            [
              112.92198038925598,
              27.842520080589928
            ],
            [
              112.92169826076459,
              27.844467833878703
            ],
            [
              112.92153549322161,
              27.845974200829925
            ],
            [
              112.9235403119502,
              27.846556837752175
            ],
            [
              112.92724282798817,
              27.847676841547752
            ],
            [
              112.92727154263622,
              27.84768696866459
            ],
            [
              112.9336321493454,
              27.850186777617267
            ],
            [
              112.936754676205,
              27.851413964611982
            ],
            [
              112.9370423410135,
              27.85121198106598
            ],
            [
              112.93704052192504,
              27.85118648459282
            ],
            [
              112.936882304349,
              27.848944626108295
            ],
            [
              112.93858497563008,
              27.848750217737514
            ]
          ]
        ]
      }
    },
    {
      "type": "Feature",
      "properties": {
        "name": "火炬学校教育集团红旗校区",
        "isAssistFeature": false
      },
      "geometry": {
        "type": "Polygon",
        "coordinates": [
          [
            [
              112.93323044700485,
              27.856069896961483
            ],
            [
              112.93269773077,
              27.855722618763505
            ],
            [
              112.93236401742172,
              27.856252235142243
            ],
            [
              112.93219657055447,
              27.85652890322664
            ],
            [
              112.93188897841803,
              27.85702568201973
            ],
            [
              112.93238491223525,
              27.85712938741794
            ],
            [
              112.93311077164606,
              27.85752748907249
            ],
            [
              112.93359216353547,
              27.857266031137108
            ],
            [
              112.93323044700485,
              27.856069896961483
            ]
          ]
        ]
      }
    }
  ]
}