{
  "type": "FeatureCollection",
  "features": [
    {
      "type": "Feature",
      "geometry": {
        "type": "Polygon",
        "coordinates": [
          [
            [
              112.77744598665186,
              28.037298001079407
            ],
            [
              112.77882598667617,
              28.037281001503274
            ],
            [
              112.78190798604172,
              28.03790000079988
            ],
            [
              112.78316698659053,
              28.0370360011579
            ],
            [
              112.78423955527683,
              28.035893296592604
            ],
            [
              112.7849379864271,
              28.03513100128363
            ],
            [
              112.78476398634977,
              28.03099300154868
            ],
            [
              112.784938986252,
              28.028639000958847
            ],
            [
              112.78544182272384,
              28.02805360473303
            ],
            [
              112.78608398609964,
              28.02730600143869
            ],
            [
              112.78692598599862,
              28.027106001398664
            ],
            [
              112.78969598609292,
              28.027543001536273
            ],
            [
              112.79225798667316,
              28.02854400101296
            ],
            [
              112.79531955475589,
              28.028504478536746
            ],
            [
              112.79723998574671,
              28.028575000795826
            ],
            [
              112.79873398647216,
              28.02902400104965
            ],
            [
              112.79881073763168,
              28.028876118650032
            ],
            [
              112.80053049576782,
              28.02580344662951
            ],
            [
              112.79961595601135,
              28.02504862426838
            ],
            [
              112.79882708517323,
              28.024398171816316
            ],
            [
              112.796714065267,
              28.023957817255962
            ],
            [
              112.79650829537137,
              28.023886231744854
            ],
            [
              112.79538428645697,
              28.023495203981298
            ],
            [
              112.79519651251142,
              28.023439597760103
            ],
            [
              112.79512905083023,
              28.02340641021661
            ],
            [
              112.79511055272188,
              28.02320760590362
            ],
            [
              112.79503046881264,
              28.022313112400482
            ],
            [
              112.79493068574749,
              28.021569376379915
            ],
            [
              112.79512905083023,
              28.021340094960266
            ],
            [
              112.79492550875652,
              28.01972295118101
            ],
            [
              112.79350071513889,
              28.020441685100806
            ],
            [
              112.79289008891777,
              28.022058818084446
            ],
            [
              112.78831039495431,
              28.022193577739557
            ],
            [
              112.78831039495431,
              28.021205334236825
            ],
            [
              112.78866659313417,
              28.01855499912152
            ],
            [
              112.78439221138294,
              28.016937813511205
            ],
            [
              112.78352715801884,
              28.016084289069468
            ],
            [
              112.78347627294958,
              28.014152603009535
            ],
            [
              112.78312007387144,
              28.012580275690183
            ],
            [
              112.78194970739678,
              28.01024420316911
            ],
            [
              112.77965986041505,
              28.009705102132003
            ],
            [
              112.77777709668243,
              28.009210924207608
            ],
            [
              112.77731912746576,
              28.008042858138708
            ],
            [
              112.7759452189174,
              28.00786315442035
            ],
            [
              112.77482573841036,
              28.006021174419402
            ],
            [
              112.7748766234796,
              28.00350524945472
            ],
            [
              112.77396068504622,
              28.002876258636874
            ],
            [
              112.77421511218918,
              28.001393623291534
            ],
            [
              112.77319740271899,
              28.00080954946108
            ],
            [
              112.77250659826551,
              27.998849012220276
            ],
            [
              112.77248500546101,
              27.998787730802675
            ],
            [
              112.7714300626189,
              27.999115423103405
            ],
            [
              112.77077452422685,
              27.999737106216756
            ],
            [
              112.77101731639029,
              28.00117339642577
            ],
            [
              112.76846800002187,
              28.001730758081095
            ],
            [
              112.76764250756459,
              28.002502484051007
            ],
            [
              112.76640426887862,
              28.002438174095147
            ],
            [
              112.76634476627085,
              28.002656801773412
            ],
            [
              112.76576812062197,
              28.004987854949704
            ],
            [
              112.76479569792018,
              28.005771615437226
            ],
            [
              112.76305373971846,
              28.007175596289443
            ],
            [
              112.76175821906007,
              28.007479487223534
            ],
            [
              112.7616321441032,
              28.0074283887038
            ],
            [
              112.76147798691228,
              28.007361001244632
            ],
            [
              112.76150142665298,
              28.00738507454406
            ],
            [
              112.76247798699497,
              28.00838800150244
            ],
            [
              112.7631549870375,
              28.009752000934753
            ],
            [
              112.7634409863694,
              28.015457001422646
            ],
            [
              112.76378898652396,
              28.017550001055923
            ],
            [
              112.76418631047584,
              28.019168478824568
            ],
            [
              112.76457898654438,
              28.020768001474707
            ],
            [
              112.76769498624516,
              28.022465001329465
            ],
            [
              112.76955648326172,
              28.022675931166276
            ],
            [
              112.7698659861148,
              28.022711001512405
            ],
            [
              112.77002121769083,
              28.022793144980994
            ],
            [
              112.7717723755394,
              28.023719799787415
            ],
            [
              112.77391198647635,
              28.024852001310634
            ],
            [
              112.77486698635323,
              28.026302000945407
            ],
            [
              112.7748202416191,
              28.026774868716757
            ],
            [
              112.77468498677837,
              28.028040001525127
            ],
            [
              112.77356698669486,
              28.02842800113227
            ],
            [
              112.77064140288486,
              28.030981781488492
            ],
            [
              112.7687223606895,
              28.032656988541873
            ],
            [
              112.76686198656704,
              28.03438400139963
            ],
            [
              112.76658085161232,
              28.035495568011754
            ],
            [
              112.76607198654659,
              28.03705100109798
            ],
            [
              112.76623598657812,
              28.038690001141276
            ],
            [
              112.76704498686513,
              28.039546000880364
            ],
            [
              112.76860005416525,
              28.039795110516664
            ],
            [
              112.77145498637645,
              28.040309001482825
            ],
            [
              112.77292198643937,
              28.039520000951526
            ],
            [
              112.77428498674524,
              28.03846700093203
            ],
            [
              112.77744598665186,
              28.037298001079407
            ]
          ]
        ]
      },
      "properties": {
        "name": "烧汤河学校",
        "isAssistFeature": false,
        "sourceFileId": "file_1776680404450_51_g1",
        "sourceFileName": "烧汤河学校.geojson",
        "sourceGroupId": 1,
        "id": "imported_1776680404450_51_0_g1",
        "sourceFile": "烧汤河学校.geojson"
      },
      "id": "imported_1776680404450_51_0_g1"
    }
  ],
  "properties": {
    "fileName": "烧汤河学校.geojson",
    "exportTime": "2026/4/20 18:38:57",
    "isStarred": false
  }
}