{
  "type": "FeatureCollection",
  "features": [
    {
      "type": "Feature",
      "geometry": {
        "type": "Polygon",
        "coordinates": [
          [
            [
              112.90519242587278,
              27.867802701387333
            ],
            [
              112.90575032534788,
              27.870496293239228
            ],
            [
              112.90830378833007,
              27.87123607082971
            ],
            [
              112.90967707934568,
              27.871672347553698
            ],
            [
              112.91141515078735,
              27.872298306741243
            ],
            [
              112.91285281481932,
              27.873076008572582
            ],
            [
              112.9134965449829,
              27.873398468670246
            ],
            [
              112.91313176455688,
              27.874100290270846
            ],
            [
              112.91321759524537,
              27.874821075290143
            ],
            [
              112.9134965449829,
              27.87537114484141
            ],
            [
              112.91386132540892,
              27.876016050413398
            ],
            [
              112.91422610583494,
              27.87658508155313
            ],
            [
              112.91459088626098,
              27.876774757935465
            ],
            [
              112.9156208545227,
              27.87700236915579
            ],
            [
              112.91667228045654,
              27.877059271886154
            ],
            [
              112.91969781222528,
              27.876072953661875
            ],
            [
              112.92066340747064,
              27.875731533722572
            ],
            [
              112.9216075450439,
              27.875219401795903
            ],
            [
              112.92199378314204,
              27.87497281889361
            ],
            [
              112.9226375133056,
              27.875219401795903
            ],
            [
              112.92246585192866,
              27.874650363482147
            ],
            [
              112.92680030169673,
              27.872431085497894
            ],
            [
              112.92514806094354,
              27.871824095567632
            ],
            [
              112.91540627780154,
              27.867878578130657
            ],
            [
              112.91102891268922,
              27.865090072911357
            ],
            [
              112.90959124865725,
              27.864198494879872
            ],
            [
              112.90935521426394,
              27.864407162736185
            ],
            [
              112.90871148410038,
              27.865260799782774
            ],
            [
              112.90705924334718,
              27.8669111456732
            ],
            [
              112.90609364810182,
              27.86793548565329
            ],
            [
              112.90519242587278,
              27.867802701387333
            ]
          ]
        ]
      },
      "properties": {
        "sourceFileId": "file_1773307235149_1",
        "sourceFileName": "新建文件_2026-03-12T09-20-35.geojson",
        "name": "熙春路逸夫小学",
        "id": "polygon_1773308862963",
        "sourceFile": "新建文件_2026-03-12T09-20-35.geojson"
      },
      "id": "polygon_1773308862963"
    }
  ]
}