{
  "type": "FeatureCollection",
  "features": [
    {
      "type": "Feature",
      "geometry": {
        "type": "Polygon",
        "coordinates": [
          [
            [
              112.77259869166261,
              28.076785327492416
            ],
            [
              112.77209084043426,
              28.074656897455682
            ],
            [
              112.77196387762717,
              28.07219234683049
            ],
            [
              112.77196387762717,
              28.06995179719837
            ],
            [
              112.7743761709618,
              28.06871947498408
            ],
            [
              112.77323350569803,
              28.06737510735796
            ],
            [
              112.76891677025709,
              28.06491038969203
            ],
            [
              112.76955158429254,
              28.063453939044877
            ],
            [
              112.76853588183583,
              28.061773394540637
            ],
            [
              112.7723447660484,
              28.058748348213868
            ],
            [
              112.77450313376889,
              28.057739980519386
            ],
            [
              112.77755024113893,
              28.052922093202085
            ],
            [
              112.78097823693027,
              28.053482323750785
            ],
            [
              112.78834207974127,
              28.05314618577185
            ],
            [
              112.7888499309696,
              28.049560648609372
            ],
            [
              112.7926588151822,
              28.04978474818482
            ],
            [
              112.79481718290265,
              28.04631115228463
            ],
            [
              112.79545199693807,
              28.044854449645854
            ],
            [
              112.79761036465855,
              28.044406229480003
            ],
            [
              112.79824517869396,
              28.041828927278516
            ],
            [
              112.80408546781993,
              28.03958774473314
            ],
            [
              112.80141924887113,
              28.032415646832447
            ],
            [
              112.79837214150105,
              28.031631169620837
            ],
            [
              112.80053050922153,
              28.025803445598484
            ],
            [
              112.79887999272941,
              28.02434646528917
            ],
            [
              112.79519807132392,
              28.023449852220125
            ],
            [
              112.79557895974516,
              28.021768682587677
            ],
            [
              112.79786429027273,
              28.0213203662518
            ],
            [
              112.79735643904436,
              28.019190838162388
            ],
            [
              112.80205406290654,
              28.01661293201701
            ],
            [
              112.80180013729239,
              28.01302617732337
            ],
            [
              112.80446635624119,
              28.010560214177147
            ],
            [
              112.80675168676873,
              28.012353647519205
            ],
            [
              112.80852916606796,
              28.012465736111537
            ],
            [
              112.81017968256008,
              28.015043741537895
            ],
            [
              112.81309982712303,
              28.01560416933394
            ],
            [
              112.81411552957971,
              28.017957934227823
            ],
            [
              112.81373464115848,
              28.019751244374802
            ],
            [
              112.81640086010728,
              28.020087486702195
            ],
            [
              112.81640086010728,
              28.02288946525971
            ],
            [
              112.81957493028443,
              28.02311362039393
            ],
            [
              112.81855922782773,
              28.026363817389452
            ],
            [
              112.82122544677654,
              28.02670003906374
            ],
            [
              112.82401862853243,
              28.026139669023152
            ],
            [
              112.82389166572534,
              28.02983805737746
            ],
            [
              112.82554218221748,
              28.030398408162895
            ],
            [
              112.82820840116628,
              28.032527714538688
            ],
            [
              112.82820840116628,
              28.035441433935276
            ],
            [
              112.82947802923714,
              28.03813095104013
            ],
            [
              112.82706573590251,
              28.039475684380207
            ],
            [
              112.82858928958754,
              28.041828927278516
            ],
            [
              112.82655788467414,
              28.045974991888386
            ],
            [
              112.82338381449702,
              28.04496650439546
            ],
            [
              112.82122544677654,
              28.046535258631707
            ],
            [
              112.81894011624897,
              28.046535258631707
            ],
            [
              112.81830530221356,
              28.049560648609372
            ],
            [
              112.82033670712694,
              28.052585953471677
            ],
            [
              112.81716263694979,
              28.056619560875987
            ],
            [
              112.8170356741427,
              28.05807610413521
            ],
            [
              112.81449641800099,
              28.058972428639166
            ],
            [
              112.81043360817422,
              28.058524267321417
            ],
            [
              112.81094145940258,
              28.061325244901454
            ],
            [
              112.81195716185925,
              28.064686321646462
            ],
            [
              112.81157627343799,
              28.06995179719837
            ],
            [
              112.8134807155443,
              28.074432849735288
            ],
            [
              112.80840220326085,
              28.07387272838993
            ],
            [
              112.80713257519,
              28.072304373085515
            ],
            [
              112.8034506537845,
              28.072304373085515
            ],
            [
              112.80205406290654,
              28.07476892114063
            ],
            [
              112.7996417695719,
              28.074656897455682
            ],
            [
              112.79837214150105,
              28.07219234683049
            ],
            [
              112.7963407365877,
              28.071744240642175
            ],
            [
              112.79595984816642,
              28.074432849735288
            ],
            [
              112.79278577798927,
              28.077009370306016
            ],
            [
              112.78986563342629,
              28.074880944708767
            ],
            [
              112.78973867061919,
              28.07342462921079
            ],
            [
              112.7852949723712,
              28.07208032045864
            ],
            [
              112.78262875342239,
              28.07376070377039
            ],
            [
              112.78110519973735,
              28.076337240463218
            ],
            [
              112.7770423899106,
              28.07801755718407
            ],
            [
              112.77259869166261,
              28.076785327492416
            ]
          ]
        ]
      },
      "properties": {
        "sourceFileId": "file_1774234827242_1",
        "sourceFileName": "新建学区_2026-03-23T03-00-27.geojson",
        "name": "碑头富利学校",
        "id": "polygon_1774234986484",
        "sourceFile": "新建学区_2026-03-23T03-00-27.geojson"
      },
      "id": "polygon_1774234986484"
    }
  ],
  "properties": {
    "fileName": "新建学区_2026-03-23T03-00-27.geojson",
    "exportTime": "2026/3/23 11:03:23",
    "isStarred": false
  }
}