{
  "type": "FeatureCollection",
  "features": [
    {
      "type": "Feature",
      "geometry": {
        "type": "Polygon",
        "coordinates": [
          [
            [
              112.87604642689627,
              27.865880081557947
            ],
            [
              112.87614239930795,
              27.865074062014017
            ],
            [
              112.8765982673652,
              27.86414076953116
            ],
            [
              112.8765022949535,
              27.862146889580288
            ],
            [
              112.87609441310212,
              27.861404478597905
            ],
            [
              112.87674059284555,
              27.86110866800307
            ],
            [
              112.87668838096462,
              27.861053927972208
            ],
            [
              112.87343844425162,
              27.857819660048037
            ],
            [
              112.87286868688437,
              27.85721696461789
            ],
            [
              112.87260293288396,
              27.856951908930412
            ],
            [
              112.87218260217936,
              27.85653288385153
            ],
            [
              112.87064823835158,
              27.855000334844902
            ],
            [
              112.8702816215111,
              27.85332845019107
            ],
            [
              112.87021666163797,
              27.852868978450488
            ],
            [
              112.87005297422016,
              27.851711176514655
            ],
            [
              112.87003077774779,
              27.85155417776957
            ],
            [
              112.86998693816528,
              27.851466281470053
            ],
            [
              112.86933745621486,
              27.85016408942586
            ],
            [
              112.86900718251584,
              27.849501893172175
            ],
            [
              112.87741485751803,
              27.845342045665276
            ],
            [
              112.87888594311887,
              27.84461418329481
            ],
            [
              112.878263276778,
              27.84403579344064
            ],
            [
              112.87600918004964,
              27.841444432125215
            ],
            [
              112.8751812639377,
              27.840010075923857
            ],
            [
              112.8750985219135,
              27.839866725287763
            ],
            [
              112.8750692916325,
              27.839873937108578
            ],
            [
              112.87399349619768,
              27.84013937372187
            ],
            [
              112.87055693538275,
              27.84098728906116
            ],
            [
              112.86533482292195,
              27.839268997999625
            ],
            [
              112.86484024376419,
              27.839484195454148
            ],
            [
              112.8634173680497,
              27.83838935553716
            ],
            [
              112.86320552913601,
              27.83822834588483
            ],
            [
              112.85990339311851,
              27.83566804082554
            ],
            [
              112.85884358140758,
              27.835570851794785
            ],
            [
              112.85903199225861,
              27.8349738300778
            ],
            [
              112.85906617944336,
              27.834598446707588
            ],
            [
              112.85819321731152,
              27.834586661293102
            ],
            [
              112.85604433216753,
              27.835230171966302
            ],
            [
              112.85481350548103,
              27.835598756503202
            ],
            [
              112.85224006844894,
              27.83680387591062
            ],
            [
              112.85306604060658,
              27.83885326389236
            ],
            [
              112.8526529628996,
              27.84034499768461
            ],
            [
              112.8526440300524,
              27.84037725651598
            ],
            [
              112.85243722529762,
              27.841124075448263
            ],
            [
              112.8517480027773,
              27.841506267470123
            ],
            [
              112.85170611792891,
              27.841529493644558
            ],
            [
              112.84960604094925,
              27.84269403288144
            ],
            [
              112.84995739181981,
              27.84376267265202
            ],
            [
              112.85078923716279,
              27.84628943666766
            ],
            [
              112.85301305976778,
              27.853046696335355
            ],
            [
              112.8530754459676,
              27.85398439466637
            ],
            [
              112.85328572360932,
              27.857217680998787
            ],
            [
              112.85330097700283,
              27.85737415609897
            ],
            [
              112.85374046248424,
              27.859278627216725
            ],
            [
              112.8540519416309,
              27.8606511074924
            ],
            [
              112.85469158343572,
              27.863400108258915
            ],
            [
              112.85475746408201,
              27.864305600339208
            ],
            [
              112.8548846161189,
              27.865823353000977
            ],
            [
              112.85504092477495,
              27.865842529357877
            ],
            [
              112.85766948961941,
              27.866165012005652
            ],
            [
              112.85833792063244,
              27.868036246609392
            ],
            [
              112.86285022657653,
              27.866028558188447
            ],
            [
              112.86531846100735,
              27.865658723039402
            ],
            [
              112.8653820222036,
              27.865649198774307
            ],
            [
              112.86568141182318,
              27.865604338704358
            ],
            [
              112.86721897904327,
              27.8711058873498
            ],
            [
              112.87051272479601,
              27.87081835090561
            ],
            [
              112.87257810434784,
              27.870638047135472
            ],
            [
              112.87253976065823,
              27.86990363314895
            ],
            [
              112.87421310464028,
              27.869548285714757
            ],
            [
              112.87460684072084,
              27.869464672422453
            ],
            [
              112.87471404836181,
              27.86933198929553
            ],
            [
              112.87508670277933,
              27.868870784306296
            ],
            [
              112.8743189243841,
              27.866876991380522
            ],
            [
              112.8745767812948,
              27.866759559796364
            ],
            [
              112.87511069588223,
              27.86651640774801
            ],
            [
              112.87575850966118,
              27.86632551004506
            ],
            [
              112.87604642689627,
              27.865880081557947
            ]
          ]
        ]
      },
      "properties": {
        "name": "立云中心小学",
        "isAssistFeature": false,
        "sourceFileId": "file_1776680404451_54_g1",
        "sourceFileName": "立云中心小学.geojson",
        "sourceGroupId": 1,
        "id": "imported_1776680404451_54_0_g1",
        "sourceFile": "立云中心小学.geojson"
      },
      "id": "imported_1776680404451_54_0_g1"
    }
  ],
  "properties": {
    "fileName": "立云中心小学.geojson",
    "exportTime": "2026/4/20 18:39:05",
    "isStarred": false
  }
}