{
  "type": "FeatureCollection",
  "features": [
    {
      "type": "Feature",
      "geometry": {
        "type": "Polygon",
        "coordinates": [
          [
            [
              112.8345638054156,
              28.02478157256317
            ],
            [
              112.83589198612273,
              28.024654001373918
            ],
            [
              112.83744098530309,
              28.024837001256074
            ],
            [
              112.83794370589229,
              28.024954170689767
            ],
            [
              112.83808003062654,
              28.02498369101039
            ],
            [
              112.8400507753581,
              28.02546288143462
            ],
            [
              112.84040669326357,
              28.025546275707356
            ],
            [
              112.84296198522523,
              28.02614500116991
            ],
            [
              112.84403798547594,
              28.02604600164328
            ],
            [
              112.8463299857194,
              28.022460001464978
            ],
            [
              112.84714033258096,
              28.02118470330805
            ],
            [
              112.84805806854324,
              28.018405517073006
            ],
            [
              112.84813215709629,
              28.018224461080067
            ],
            [
              112.84925721164969,
              28.015414589019258
            ],
            [
              112.85023598544053,
              28.012970001219657
            ],
            [
              112.85080206420675,
              28.01228599455989
            ],
            [
              112.85130802412083,
              28.011674628064483
            ],
            [
              112.85199415913146,
              28.010845542873923
            ],
            [
              112.85217998552949,
              28.010621001108262
            ],
            [
              112.85335741815214,
              28.00899655211684
            ],
            [
              112.85385618795071,
              28.00830548380317
            ],
            [
              112.85432298580999,
              28.00765400147698
            ],
            [
              112.85488962871818,
              28.005928270565477
            ],
            [
              112.85515603309885,
              28.005191016235543
            ],
            [
              112.85546898548259,
              28.004168001140442
            ],
            [
              112.85544298554332,
              28.00151500132823
            ],
            [
              112.85585098507401,
              28.00001300116081
            ],
            [
              112.85513166989003,
              27.998275617430565
            ],
            [
              112.85460886207278,
              27.99689153829698
            ],
            [
              112.85458881526887,
              27.996833801319454
            ],
            [
              112.85392382480339,
              27.99458384119889
            ],
            [
              112.85380413866486,
              27.99416415710715
            ],
            [
              112.85355680731429,
              27.993322666138724
            ],
            [
              112.85329898543785,
              27.99233700144366
            ],
            [
              112.85314298580226,
              27.991261001128564
            ],
            [
              112.85322098562007,
              27.990810001544915
            ],
            [
              112.85393298582267,
              27.990204001595785
            ],
            [
              112.8553106547188,
              27.990013579234443
            ],
            [
              112.85571998555275,
              27.989957001461335
            ],
            [
              112.85633443680035,
              27.98979643861658
            ],
            [
              112.85658040360997,
              27.98523522008618
            ],
            [
              112.85432570860364,
              27.98378717440511
            ],
            [
              112.85252195259855,
              27.98052899973183
            ],
            [
              112.84997921010142,
              27.979733106778
            ],
            [
              112.84997921010142,
              27.979733106778
            ],
            [
              112.84911941367835,
              27.97868265655238
            ],
            [
              112.84875046391306,
              27.97629322462197
            ],
            [
              112.84814611062761,
              27.97612802259998
            ],
            [
              112.847028697144,
              27.975822573203715
            ],
            [
              112.84539184632207,
              27.97511255804916
            ],
            [
              112.84159052189106,
              27.97445429263429
            ],
            [
              112.83801280520227,
              27.97122873181702
            ],
            [
              112.83510590994347,
              27.967081441284208
            ],
            [
              112.83331705159905,
              27.96701560986459
            ],
            [
              112.83272076518482,
              27.968068906172178
            ],
            [
              112.82951572716806,
              27.96721310400295
            ],
            [
              112.82839769025364,
              27.96583063982409
            ],
            [
              112.82720511832349,
              27.96609396815323
            ],
            [
              112.82735142244222,
              27.96738668930888
            ],
            [
              112.8273541892533,
              27.967410596986454
            ],
            [
              112.83063376318418,
              27.97057044270339
            ],
            [
              112.82918610744254,
              27.97251604971119
            ],
            [
              112.8289194407538,
              27.97287443861508
            ],
            [
              112.83085737092635,
              27.97353271367041
            ],
            [
              112.83123004959839,
              27.974783425843825
            ],
            [
              112.8279504756675,
              27.97695568110983
            ],
            [
              112.82857281951323,
              27.977904389620548
            ],
            [
              112.82774459258421,
              27.979680707552802
            ],
            [
              112.82579234326604,
              27.979628463791983
            ],
            [
              112.82466832087691,
              27.98187494248738
            ],
            [
              112.82484579743432,
              27.98333774044538
            ],
            [
              112.82460916142556,
              27.98511396967828
            ],
            [
              112.82433579599974,
              27.985838168492577
            ],
            [
              112.82384855068794,
              27.987128968157762
            ],
            [
              112.82378093449651,
              27.987308093264645
            ],
            [
              112.8233716270188,
              27.98753607795915
            ],
            [
              112.82094797148389,
              27.988886047032437
            ],
            [
              112.81993559351488,
              27.989449933197363
            ],
            [
              112.81967706017278,
              27.989076360331026
            ],
            [
              112.81928484404163,
              27.988509618892337
            ],
            [
              112.817805866741,
              27.9879872181598
            ],
            [
              112.81579445797148,
              27.988509618892337
            ],
            [
              112.81638604889173,
              27.989136496271385
            ],
            [
              112.81490707159111,
              27.98955441276344
            ],
            [
              112.81488909360733,
              27.98965363303745
            ],
            [
              112.81467043558234,
              27.99086039006994
            ],
            [
              112.81360557174621,
              27.9919051611582
            ],
            [
              112.81390136720634,
              27.99362901147427
            ],
            [
              112.81685932180758,
              27.993837960817814
            ],
            [
              112.819403162046,
              27.993576773678456
            ],
            [
              112.82005391241759,
              27.994046909756293
            ],
            [
              112.82046802588212,
              27.995770725819284
            ],
            [
              112.82165120772261,
              27.995614016263133
            ],
            [
              112.82283438866477,
              27.997233335239983
            ],
            [
              112.8236034570408,
              27.997807926933945
            ],
            [
              112.82414536753254,
              27.997899067410174
            ],
            [
              112.82588429751347,
              27.998191527044668
            ],
            [
              112.82608813872615,
              27.998225809805902
            ],
            [
              112.82774459258421,
              28.000576369082026
            ],
            [
              112.8250824343414,
              28.0018299798366
            ],
            [
              112.82401757050526,
              28.003501438419278
            ],
            [
              112.82141457081553,
              28.00418046128489
            ],
            [
              112.82129625281112,
              28.005225103246886
            ],
            [
              112.81969895750613,
              28.005642956560976
            ],
            [
              112.81845661711262,
              28.005590725381907
            ],
            [
              112.8181016622011,
              28.00642642834633
            ],
            [
              112.82064550243953,
              28.007732201993235
            ],
            [
              112.82171036627564,
              28.01013478367223
            ],
            [
              112.82295270666918,
              28.01039593067742
            ],
            [
              112.82342597958502,
              28.012171713204012
            ],
            [
              112.82449084342116,
              28.011440512366605
            ],
            [
              112.82585150181905,
              28.011492740709272
            ],
            [
              112.82620645673057,
              28.012171713204012
            ],
            [
              112.82591066127043,
              28.01342518903118
            ],
            [
              112.82768543403118,
              28.013999694372345
            ],
            [
              112.829578523898,
              28.016663268053307
            ],
            [
              112.82940104734055,
              28.01760333668568
            ],
            [
              112.8285136609602,
              28.01744665967891
            ],
            [
              112.82744879712408,
              28.01645436218142
            ],
            [
              112.82644309273934,
              28.016036550807954
            ],
            [
              112.82626561528359,
              28.016663268053307
            ],
            [
              112.82525991089881,
              28.019692350117197
            ],
            [
              112.82407672995664,
              28.020266822022577
            ],
            [
              112.82437252541678,
              28.022094664981225
            ],
            [
              112.82514159289445,
              28.022825793475434
            ],
            [
              112.82478663888129,
              28.025959146425535
            ],
            [
              112.82401861434764,
              28.02613967001369
            ],
            [
              112.82713798542568,
              28.0286080011944
            ],
            [
              112.82912545678782,
              28.02727548499864
            ],
            [
              112.82944989323413,
              28.027050171047335
            ],
            [
              112.83028898618481,
              28.02644500139013
            ],
            [
              112.83195721246472,
              28.02559294399154
            ],
            [
              112.83330998545105,
              28.02490200121302
            ],
            [
              112.8345638054156,
              28.02478157256317
            ]
          ]
        ]
      },
      "properties": {
        "name": "立新学校",
        "isAssistFeature": false,
        "sourceFileId": "file_1776680404451_55_g1",
        "sourceFileName": "立新学校.geojson",
        "sourceGroupId": 1,
        "id": "imported_1776680404451_55_0_g1",
        "sourceFile": "立新学校.geojson"
      },
      "id": "imported_1776680404451_55_0_g1"
    }
  ],
  "properties": {
    "fileName": "立新学校.geojson",
    "exportTime": "2026/4/20 18:39:08",
    "isStarred": false
  }
}