{
  "type": "FeatureCollection",
  "features": [
    {
      "type": "Feature",
      "geometry": {
        "type": "Polygon",
        "coordinates": [
          [
            [
              112.93555109167923,
              27.818205948481975
            ],
            [
              112.93536686418068,
              27.817527042900153
            ],
            [
              112.93509052293288,
              27.81731658130795
            ],
            [
              112.9345378404373,
              27.81729621403541
            ],
            [
              112.9345378404373,
              27.816257478072245
            ],
            [
              112.93520566511945,
              27.816196375647323
            ],
            [
              112.93611912646637,
              27.81599948982212
            ],
            [
              112.9356662338659,
              27.799724624074017
            ],
            [
              112.94398717588284,
              27.801734501644148
            ],
            [
              112.94788665793504,
              27.802956706314262
            ],
            [
              112.95240023164901,
              27.805020842986067
            ],
            [
              112.95580844037183,
              27.806324488047892
            ],
            [
              112.95151824804503,
              27.8176990524841
            ],
            [
              112.95135859696084,
              27.822089040648592
            ],
            [
              112.94929764660124,
              27.82211471257196
            ],
            [
              112.94932667407109,
              27.817865926624336
            ],
            [
              112.93622077143235,
              27.818276692646236
            ],
            [
              112.93555109167923,
              27.818205948481975
            ]
          ]
        ]
      },
      "properties": {
        "sourceFileId": "file_1773302170201_1",
        "sourceFileName": "新建文件_2026-03-12T07-56-10.geojson",
        "name": "红霞学校",
        "id": "polygon_1773302573953",
        "sourceFile": "新建文件_2026-03-12T07-56-10.geojson"
      },
      "id": "polygon_1773302573953"
    }
  ]
}