{
  "type": "FeatureCollection",
  "features": [
    {
      "type": "Feature",
      "geometry": {
        "type": "Polygon",
        "coordinates": [
          [
            [
              112.9713635312217,
              27.91833639269865
            ],
            [
              112.96913794452271,
              27.915562869466726
            ],
            [
              112.96633928538404,
              27.91112405512375
            ],
            [
              112.96677614509487,
              27.909643392497628
            ],
            [
              112.97038670981212,
              27.909763792755186
            ],
            [
              112.97263479727758,
              27.90705475454618
            ],
            [
              112.96956922346105,
              27.906874149586727
            ],
            [
              112.96589915160567,
              27.90540041883665
            ],
            [
              112.96528794961523,
              27.903584958752276
            ],
            [
              112.96807231423826,
              27.90311983597735
            ],
            [
              112.9686156048964,
              27.90208455552613
            ],
            [
              112.96712155558649,
              27.900944235159386
            ],
            [
              112.96370034931377,
              27.900653318357854
            ],
            [
              112.96301291998422,
              27.900194017838174
            ],
            [
              112.96275825248821,
              27.898603539915996
            ],
            [
              112.9630298978173,
              27.89746318286676
            ],
            [
              112.96268871333953,
              27.89645875360675
            ],
            [
              112.9679342507589,
              27.894893347326573
            ],
            [
              112.96950109959846,
              27.895375013208863
            ],
            [
              112.97093170071284,
              27.894833138940598
            ],
            [
              112.97440601770491,
              27.895254596939253
            ],
            [
              112.97583661881929,
              27.894411679300802
            ],
            [
              112.97992405057464,
              27.89368917324319
            ],
            [
              112.98067341306314,
              27.89230435648598
            ],
            [
              112.98026466988757,
              27.88995614845213
            ],
            [
              112.97542470332273,
              27.88698253571313
            ],
            [
              112.97395057462371,
              27.886082824418253
            ],
            [
              112.97307699358029,
              27.885495674571985
            ],
            [
              112.97274760846962,
              27.88527428796951
            ],
            [
              112.97303905793851,
              27.8850432400031
            ],
            [
              112.96851797481246,
              27.879912602962335
            ],
            [
              112.96989011343803,
              27.879940168276647
            ],
            [
              112.96999926082869,
              27.87925103331378
            ],
            [
              112.97011421436174,
              27.877853037838335
            ],
            [
              112.96922860414807,
              27.876528237134025
            ],
            [
              112.96834299393441,
              27.875624954636535
            ],
            [
              112.96929672801066,
              27.874179686973562
            ],
            [
              112.96933307001105,
              27.873598733002893
            ],
            [
              112.97180679262813,
              27.872539748196786
            ],
            [
              112.97367375309382,
              27.8735849800198
            ],
            [
              112.9750272994315,
              27.872773550927505
            ],
            [
              112.9763808457691,
              27.870407994144045
            ],
            [
              112.97748546404463,
              27.870463007679106
            ],
            [
              112.97767216009123,
              27.86980284341483
            ],
            [
              112.97835671226197,
              27.87014667947105
            ],
            [
              112.97944577253364,
              27.870614294756464
            ],
            [
              112.98040091761274,
              27.869000652846623
            ],
            [
              112.98212174920113,
              27.867822326488536
            ],
            [
              112.98319399597891,
              27.868097307585288
            ],
            [
              112.98421585391775,
              27.866350818725934
            ],
            [
              112.98557833116953,
              27.86412249897053
            ],
            [
              112.98660018910839,
              27.86532700182525
            ],
            [
              112.98761372457112,
              27.868578778198383
            ],
            [
              112.98906061893206,
              27.869018893126764
            ],
            [
              112.9894340110252,
              27.871054401416814
            ],
            [
              112.98935622100578,
              27.871893349785978
            ],
            [
              112.98921619897087,
              27.87258100753887
            ],
            [
              112.99159657356464,
              27.8724847357162
            ],
            [
              112.99495796942078,
              27.87240947672774
            ],
            [
              112.9955925389702,
              27.8724935169966
            ],
            [
              113.00041882878298,
              27.87386729903683
            ],
            [
              113.00597303616851,
              27.873564733755742
            ],
            [
              113.00657979831986,
              27.87223068584882
            ],
            [
              113.00945802903784,
              27.872560761087158
            ],
            [
              113.00868012884379,
              27.875682672977334
            ],
            [
              113.01143389553074,
              27.877869333011958
            ],
            [
              113.01519893246994,
              27.87821314346678
            ],
            [
              113.01691031289684,
              27.87828190542679
            ],
            [
              113.01569678859413,
              27.87535260725099
            ],
            [
              113.01823274322672,
              27.873963569630902
            ],
            [
              113.02085568424323,
              27.875297841872822
            ],
            [
              113.02176946553713,
              27.875603477625873
            ],
            [
              113.02330066662421,
              27.87507953009269
            ],
            [
              113.02480717091957,
              27.87296188299368
            ],
            [
              113.0266594302991,
              27.873049209465535
            ],
            [
              113.02897323163901,
              27.87207197040172
            ],
            [
              113.03026516189128,
              27.871804800595996
            ],
            [
              113.03190255773036,
              27.8707470989969
            ],
            [
              113.03206802768736,
              27.87005823772354
            ],
            [
              113.03273484106397,
              27.869730754050536
            ],
            [
              113.03321299999999,
              27.871052999999975
            ],
            [
              113.03357199999999,
              27.871903999999986
            ],
            [
              113.034495,
              27.873334000000014
            ],
            [
              113.03537201245716,
              27.87430220726266
            ],
            [
              113.036784,
              27.87586100000003
            ],
            [
              113.03981925061157,
              27.878513625016723
            ],
            [
              113.04014899999999,
              27.87880099999998
            ],
            [
              113.04058699999999,
              27.879598000000016
            ],
            [
              113.04177157040591,
              27.885620921143882
            ],
            [
              113.0419467443782,
              27.887342833457254
            ],
            [
              113.04226256499602,
              27.89088518094617
            ],
            [
              113.04256416417138,
              27.894065872948303
            ],
            [
              113.0447868754268,
              27.89864952410892
            ],
            [
              113.04789867118444,
              27.904084173207465
            ],
            [
              113.04239363256913,
              27.905850715788034
            ],
            [
              113.03925993489001,
              27.90464666362962
            ],
            [
              113.03837432467637,
              27.906753746112912
            ],
            [
              113.03612623721091,
              27.907235359204066
            ],
            [
              113.0349000076843,
              27.906512938763314
            ],
            [
              113.0336056542951,
              27.907415963560467
            ],
            [
              113.03169818614259,
              27.907897573703465
            ],
            [
              113.02890510777642,
              27.906934351273378
            ],
            [
              113.0284282407383,
              27.910124992723723
            ],
            [
              113.02345519876928,
              27.911328983907723
            ],
            [
              113.02052587267791,
              27.910305592255682
            ],
            [
              113.01841403293766,
              27.910004592868205
            ],
            [
              113.01739217499882,
              27.908439382551393
            ],
            [
              113.01453097277005,
              27.91000459286822
            ],
            [
              113.01010292170176,
              27.909823992833694
            ],
            [
              113.00628798539674,
              27.910185192601205
            ],
            [
              113.00533425132049,
              27.91295435074713
            ],
            [
              113.00220055364137,
              27.912894152410885
            ],
            [
              113.00288179226729,
              27.915723437993663
            ],
            [
              113.00049745707663,
              27.917408934646517
            ],
            [
              113.00022645297686,
              27.91974427681481
            ],
            [
              112.99906685596224,
              27.920779849135997
            ],
            [
              112.99763625484789,
              27.920478878900738
            ],
            [
              112.99511567193208,
              27.917770109082753
            ],
            [
              112.99348069922993,
              27.919034210109288
            ],
            [
              112.9917776026652,
              27.918492454336075
            ],
            [
              112.9864639413832,
              27.91957596316813
            ],
            [
              112.98224026190267,
              27.917830304704836
            ],
            [
              112.97597286654444,
              27.913797123936504
            ],
            [
              112.97392915066678,
              27.91698756294626
            ],
            [
              112.9713635312217,
              27.91833639269865
            ]
          ]
        ]
      },
      "properties": {
        "sourceFileId": "file_1775719487275_56_g1",
        "sourceFileName": "育才学校教育集团清水校区.geojson",
        "name": "育才学校教育集团清水校区",
        "id": "imported_1775719487275_56_0_g1",
        "sourceFile": "育才学校教育集团清水校区.geojson",
        "sourceGroupId": 1,
        "isAssistFeature": false
      },
      "id": "imported_1775719487275_56_0_g1"
    }
  ],
  "properties": {
    "fileName": "育才学校教育集团清水校区.geojson",
    "exportTime": "2026/4/9 15:57:12",
    "isStarred": false
  }
}