{
  "type": "FeatureCollection",
  "features": [
    {
      "type": "Feature",
      "geometry": {
        "type": "Point",
        "coordinates": [
          112.95278226178985,
          27.90499714102397
        ]
      },
      "properties": {
        "id": "assist_point_1775801939736_reimported_1775804262161_reimported_1775985401715_reimported_1775986295889_reimported_1776001065921_reimported_1776063371137",
        "iconType": "home",
        "iconColor": "#e74c3c",
        "iconSize": 1,
        "text": "九华和平小学",
        "textColor": "#333333",
        "assistFileId": "assist_file_1777448860348_1",
        "sourceFileName": "辅助元素图层_primary_point.geojson",
        "type": "assistPoint",
        "isAssistFeature": true,
        "sch_code": "2143004735_primary"
      },
      "id": "assist_imported_1777448860348_0"
    },
    {
      "type": "Feature",
      "geometry": {
        "type": "Point",
        "coordinates": [
          112.93875141184286,
          27.883304569667587
        ]
      },
      "properties": {
        "id": "assist_point_1775802038112_reimported_1775804262161_reimported_1775985401715_reimported_1775986295890_reimported_1776001065921_reimported_1776063371137",
        "iconType": "home",
        "iconColor": "#e74c3c",
        "iconSize": 1,
        "text": "风车坪东校区（小学部）",
        "textColor": "#333333",
        "assistFileId": "assist_file_1777448860348_1",
        "sourceFileName": "辅助元素图层_primary_point.geojson",
        "type": "assistPoint",
        "isAssistFeature": true,
        "sch_code": "3143019755_primary"
      },
      "id": "assist_imported_1777448860348_1"
    },
    {
      "type": "Feature",
      "geometry": {
        "type": "Point",
        "coordinates": [
          112.936459123216,
          27.90094693685093
        ]
      },
      "properties": {
        "id": "assist_point_1775802228048_reimported_1775804262161_reimported_1775985401715_reimported_1775986295890_reimported_1776001065921_reimported_1776063371137",
        "iconType": "home",
        "iconColor": "#e74c3c",
        "iconSize": 1,
        "text": "九华莲城小学",
        "textColor": "#333333",
        "assistFileId": "assist_file_1777448860348_1",
        "sourceFileName": "辅助元素图层_primary_point.geojson",
        "type": "assistPoint",
        "isAssistFeature": true,
        "sch_code": "2143010981_primary"
      },
      "id": "assist_imported_1777448860349_2"
    },
    {
      "type": "Feature",
      "geometry": {
        "type": "Point",
        "coordinates": [
          112.93650259975988,
          27.892251022823316
        ]
      },
      "properties": {
        "id": "assist_point_1775802296496_reimported_1775804262161_reimported_1775985401715_reimported_1775986295890_reimported_1776001065921_reimported_1776063371137",
        "iconType": "home",
        "iconColor": "#e74c3c",
        "iconSize": 1,
        "text": "湖南师范大学附属九华步步高小学",
        "textColor": "#333333",
        "assistFileId": "assist_file_1777448860348_1",
        "sourceFileName": "辅助元素图层_primary_point.geojson",
        "type": "assistPoint",
        "isAssistFeature": true,
        "sch_code": "2143011067_primary"
      },
      "id": "assist_imported_1777448860349_3"
    },
    {
      "type": "Feature",
      "geometry": {
        "type": "Point",
        "coordinates": [
          112.86796337379727,
          27.872475012026143
        ]
      },
      "properties": {
        "id": "assist_point_1775804287278_reimported_1775985401715_reimported_1775986295890_reimported_1776001065921_reimported_1776063371138",
        "iconType": "home",
        "iconColor": "#e74c3c",
        "iconSize": 1,
        "text": "先锋学校",
        "textColor": "#333333",
        "assistFileId": "assist_file_1777448860348_1",
        "sourceFileName": "辅助元素图层_primary_point.geojson",
        "type": "assistPoint",
        "isAssistFeature": true,
        "sch_code": "2143006267_primary"
      },
      "id": "assist_imported_1777448860349_4"
    },
    {
      "type": "Feature",
      "geometry": {
        "type": "Point",
        "coordinates": [
          112.80746042206383,
          28.05935616551723
        ]
      },
      "properties": {
        "id": "assist_point_1775805010990_reimported_1775985401716_reimported_1775986295890_reimported_1776001065921_reimported_1776063371138",
        "iconType": "home",
        "iconColor": "#e74c3c",
        "iconSize": 1,
        "text": "碑头富利学校",
        "textColor": "#333333",
        "assistFileId": "assist_file_1777448860348_1",
        "sourceFileName": "辅助元素图层_primary_point.geojson",
        "type": "assistPoint",
        "isAssistFeature": true,
        "sch_code": "2143020360_primary"
      },
      "id": "assist_imported_1777448860349_5"
    },
    {
      "type": "Feature",
      "geometry": {
        "type": "Point",
        "coordinates": [
          112.81274579174794,
          28.011453713022817
        ]
      },
      "properties": {
        "id": "assist_point_1775805057791_reimported_1775985401716_reimported_1775986295890_reimported_1776001065922_reimported_1776063371138",
        "iconType": "home",
        "iconColor": "#e74c3c",
        "iconSize": 1,
        "text": "陈蒲学校",
        "textColor": "#333333",
        "assistFileId": "assist_file_1777448860348_1",
        "sourceFileName": "辅助元素图层_primary_point.geojson",
        "type": "assistPoint",
        "isAssistFeature": true,
        "sch_code": "2143020367_primary"
      },
      "id": "assist_imported_1777448860349_6"
    },
    {
      "type": "Feature",
      "geometry": {
        "type": "Point",
        "coordinates": [
          112.78133297602253,
          28.03209669362981
        ]
      },
      "properties": {
        "id": "assist_point_1775805082389_reimported_1775985401716_reimported_1775986295890_reimported_1776001065922_reimported_1776063371138",
        "iconType": "home",
        "iconColor": "#e74c3c",
        "iconSize": 1,
        "text": "烧汤河学校",
        "textColor": "#333333",
        "assistFileId": "assist_file_1777448860348_1",
        "sourceFileName": "辅助元素图层_primary_point.geojson",
        "type": "assistPoint",
        "isAssistFeature": true,
        "sch_code": "2143020378_primary"
      },
      "id": "assist_imported_1777448860349_7"
    },
    {
      "type": "Feature",
      "geometry": {
        "type": "Point",
        "coordinates": [
          112.78896426449343,
          28.007916619103426
        ]
      },
      "properties": {
        "id": "assist_point_1775805101686_reimported_1775985401716_reimported_1775986295890_reimported_1776001065922_reimported_1776063371138",
        "iconType": "home",
        "iconColor": "#e74c3c",
        "iconSize": 1,
        "text": "南谷小学",
        "textColor": "#333333",
        "assistFileId": "assist_file_1777448860348_1",
        "sourceFileName": "辅助元素图层_primary_point.geojson",
        "type": "assistPoint",
        "isAssistFeature": true,
        "sch_code": "2143020375_primary"
      },
      "id": "assist_imported_1777448860349_8"
    },
    {
      "type": "Feature",
      "geometry": {
        "type": "Point",
        "coordinates": [
          112.83748522456867,
          27.988114496541243
        ]
      },
      "properties": {
        "id": "assist_point_1775805129837_reimported_1775985401716_reimported_1775986295890_reimported_1776001065922_reimported_1776063371138",
        "iconType": "home",
        "iconColor": "#e74c3c",
        "iconSize": 1,
        "text": "立新学校",
        "textColor": "#333333",
        "assistFileId": "assist_file_1777448860348_1",
        "sourceFileName": "辅助元素图层_primary_point.geojson",
        "type": "assistPoint",
        "isAssistFeature": true,
        "sch_code": "2143020372_primary"
      },
      "id": "assist_imported_1777448860349_9"
    },
    {
      "type": "Feature",
      "geometry": {
        "type": "Point",
        "coordinates": [
          112.81583543745981,
          27.97558758857963
        ]
      },
      "properties": {
        "id": "assist_point_1775805155725_reimported_1775985401716_reimported_1775986295890_reimported_1776001065922_reimported_1776063371138",
        "iconType": "home",
        "iconColor": "#e74c3c",
        "iconSize": 1,
        "text": "柴山学校",
        "textColor": "#333333",
        "assistFileId": "assist_file_1777448860348_1",
        "sourceFileName": "辅助元素图层_primary_point.geojson",
        "type": "assistPoint",
        "isAssistFeature": true,
        "sch_code": "2143020298_primary"
      },
      "id": "assist_imported_1777448860349_10"
    },
    {
      "type": "Feature",
      "geometry": {
        "type": "Point",
        "coordinates": [
          112.76996748523416,
          27.973787444761726
        ]
      },
      "properties": {
        "id": "assist_point_1775805173525_reimported_1775985401716_reimported_1775986295890_reimported_1776001065922_reimported_1776063371138",
        "iconType": "home",
        "iconColor": "#e74c3c",
        "iconSize": 1,
        "text": "长龙学校",
        "textColor": "#333333",
        "assistFileId": "assist_file_1777448860348_1",
        "sourceFileName": "辅助元素图层_primary_point.geojson",
        "type": "assistPoint",
        "isAssistFeature": true,
        "sch_code": "2143020366_primary"
      },
      "id": "assist_imported_1777448860349_11"
    },
    {
      "type": "Feature",
      "geometry": {
        "type": "Point",
        "coordinates": [
          112.75081943443433,
          27.941293253322087
        ]
      },
      "properties": {
        "id": "assist_point_1775805200905_reimported_1775985401716_reimported_1775986295890_reimported_1776001065922_reimported_1776063371138",
        "iconType": "home",
        "iconColor": "#e74c3c",
        "iconSize": 1,
        "text": "仁兴学校",
        "textColor": "#333333",
        "assistFileId": "assist_file_1777448860348_1",
        "sourceFileName": "辅助元素图层_primary_point.geojson",
        "type": "assistPoint",
        "isAssistFeature": true,
        "sch_code": "2143020382_primary"
      },
      "id": "assist_imported_1777448860349_12"
    },
    {
      "type": "Feature",
      "geometry": {
        "type": "Point",
        "coordinates": [
          112.73731327841993,
          27.870977538085754
        ]
      },
      "properties": {
        "id": "assist_point_1775805223197_reimported_1775985401716_reimported_1775986295890_reimported_1776001065922_reimported_1776063371138",
        "iconType": "home",
        "iconColor": "#e74c3c",
        "iconSize": 1,
        "text": "进军学校",
        "textColor": "#333333",
        "assistFileId": "assist_file_1777448860348_1",
        "sourceFileName": "辅助元素图层_primary_point.geojson",
        "type": "assistPoint",
        "isAssistFeature": true,
        "sch_code": "2143020324_primary"
      },
      "id": "assist_imported_1777448860349_13"
    },
    {
      "type": "Feature",
      "geometry": {
        "type": "Point",
        "coordinates": [
          112.9814592629692,
          27.958254444108718
        ]
      },
      "properties": {
        "id": "assist_point_1775805258446_reimported_1775985401716_reimported_1775986295890_reimported_1776001065922_reimported_1776063371138",
        "iconType": "home",
        "iconColor": "#e74c3c",
        "iconSize": 1,
        "text": "九华和平湘江湾小学",
        "textColor": "#333333",
        "assistFileId": "assist_file_1777448860348_1",
        "sourceFileName": "辅助元素图层_primary_point.geojson",
        "type": "assistPoint",
        "isAssistFeature": true,
        "sch_code": "2143011060_primary"
      },
      "id": "assist_imported_1777448860349_14"
    },
    {
      "type": "Feature",
      "geometry": {
        "type": "Point",
        "coordinates": [
          112.96296300901855,
          27.94231224185343
        ]
      },
      "properties": {
        "id": "assist_point_1775805277837_reimported_1775985401716_reimported_1775986295890_reimported_1776001065922_reimported_1776063371138",
        "iconType": "home",
        "iconColor": "#e74c3c",
        "iconSize": 1,
        "text": "九华和平将军渡小学",
        "textColor": "#333333",
        "assistFileId": "assist_file_1777448860348_1",
        "sourceFileName": "辅助元素图层_primary_point.geojson",
        "type": "assistPoint",
        "isAssistFeature": true,
        "sch_code": "2143010808_primary"
      },
      "id": "assist_imported_1777448860349_15"
    },
    {
      "type": "Feature",
      "geometry": {
        "type": "Point",
        "coordinates": [
          112.95483635060374,
          27.93930913940234
        ]
      },
      "properties": {
        "id": "assist_point_1775805303949_reimported_1775985401716_reimported_1775986295890_reimported_1776001065922_reimported_1776063371138",
        "iconType": "home",
        "iconColor": "#e74c3c",
        "iconSize": 1,
        "text": "九华砂子塘潭州小学",
        "textColor": "#333333",
        "assistFileId": "assist_file_1777448860348_1",
        "sourceFileName": "辅助元素图层_primary_point.geojson",
        "type": "assistPoint",
        "isAssistFeature": true,
        "sch_code": "2143011292_primary"
      },
      "id": "assist_imported_1777448860349_16"
    },
    {
      "type": "Feature",
      "geometry": {
        "type": "Point",
        "coordinates": [
          112.91381191122319,
          27.918450883959935
        ]
      },
      "properties": {
        "id": "assist_point_1775805321957_reimported_1775985401716_reimported_1775986295890_reimported_1776001065922_reimported_1776063371138",
        "iconType": "home",
        "iconColor": "#e74c3c",
        "iconSize": 1,
        "text": "九华风车坪雅爱小学",
        "textColor": "#333333",
        "assistFileId": "assist_file_1777448860348_1",
        "sourceFileName": "辅助元素图层_primary_point.geojson",
        "type": "assistPoint",
        "isAssistFeature": true,
        "sch_code": "2143011059_primary"
      },
      "id": "assist_imported_1777448860349_17"
    },
    {
      "type": "Feature",
      "geometry": {
        "type": "Point",
        "coordinates": [
          112.883149,
          27.91736069542904
        ]
      },
      "properties": {
        "id": "assist_point_1775805342677_reimported_1775985401716_reimported_1775986295890_reimported_1776001065922_reimported_1776063371138",
        "iconType": "home",
        "iconColor": "#e74c3c",
        "iconSize": 1,
        "text": "响水中心小学",
        "textColor": "#333333",
        "assistFileId": "assist_file_1777448860348_1",
        "sourceFileName": "辅助元素图层_primary_point.geojson",
        "type": "assistPoint",
        "isAssistFeature": true,
        "sch_code": "2143004140_primary"
      },
      "id": "assist_imported_1777448860350_18"
    },
    {
      "type": "Feature",
      "geometry": {
        "type": "Point",
        "coordinates": [
          112.90178595345854,
          27.86971626599238
        ]
      },
      "properties": {
        "id": "assist_point_1775805477877_reimported_1775985401716_reimported_1775986295890_reimported_1776001065922_reimported_1776063371138",
        "iconType": "home",
        "iconColor": "#e74c3c",
        "iconSize": 1,
        "text": "云塘学校",
        "textColor": "#333333",
        "assistFileId": "assist_file_1777448860348_1",
        "sourceFileName": "辅助元素图层_primary_point.geojson",
        "type": "assistPoint",
        "isAssistFeature": true,
        "sch_code": "2143006427_primary"
      },
      "id": "assist_imported_1777448860350_19"
    },
    {
      "type": "Feature",
      "geometry": {
        "type": "Point",
        "coordinates": [
          112.85143726850913,
          27.931726081740067
        ]
      },
      "properties": {
        "id": "assist_point_1775805520399_reimported_1775985401716_reimported_1775986295890_reimported_1776001065922_reimported_1776063371138",
        "iconType": "home",
        "iconColor": "#e74c3c",
        "iconSize": 1,
        "text": "响水乡黄龙学校",
        "textColor": "#333333",
        "assistFileId": "assist_file_1777448860348_1",
        "sourceFileName": "辅助元素图层_primary_point.geojson",
        "type": "assistPoint",
        "isAssistFeature": true,
        "sch_code": "2143013195_primary"
      },
      "id": "assist_imported_1777448860350_20"
    },
    {
      "type": "Feature",
      "geometry": {
        "type": "Point",
        "coordinates": [
          112.85028322756644,
          27.877464515167972
        ]
      },
      "properties": {
        "id": "assist_point_1775805552916_reimported_1775985401716_reimported_1775986295890_reimported_1776001065922_reimported_1776063371138",
        "iconType": "home",
        "iconColor": "#e74c3c",
        "iconSize": 1,
        "text": "长城中学（小学部）",
        "textColor": "#333333",
        "assistFileId": "assist_file_1777448860348_1",
        "sourceFileName": "辅助元素图层_primary_point.geojson",
        "type": "assistPoint",
        "isAssistFeature": true,
        "sch_code": "3143001270_primary"
      },
      "id": "assist_imported_1777448860350_21"
    },
    {
      "type": "Feature",
      "geometry": {
        "type": "Point",
        "coordinates": [
          112.88506562698362,
          27.858407427102705
        ]
      },
      "properties": {
        "id": "assist_point_1775805580173_reimported_1775985401716_reimported_1775986295890_reimported_1776001065922_reimported_1776063371138",
        "iconType": "home",
        "iconColor": "#e74c3c",
        "iconSize": 1,
        "text": "韶西逸夫小学",
        "textColor": "#333333",
        "assistFileId": "assist_file_1777448860348_1",
        "sourceFileName": "辅助元素图层_primary_point.geojson",
        "type": "assistPoint",
        "isAssistFeature": true,
        "sch_code": "2143006221_primary"
      },
      "id": "assist_imported_1777448860350_22"
    },
    {
      "type": "Feature",
      "geometry": {
        "type": "Point",
        "coordinates": [
          112.895711496465,
          27.857809975414384
        ]
      },
      "properties": {
        "id": "assist_point_1775805607588_reimported_1775985401716_reimported_1775986295890_reimported_1776001065922_reimported_1776063371138",
        "iconType": "home",
        "iconColor": "#e74c3c",
        "iconSize": 1,
        "text": "金庭学校",
        "textColor": "#333333",
        "assistFileId": "assist_file_1777448860348_1",
        "sourceFileName": "辅助元素图层_primary_point.geojson",
        "type": "assistPoint",
        "isAssistFeature": true,
        "sch_code": "2143006242_primary"
      },
      "id": "assist_imported_1777448860350_23"
    },
    {
      "type": "Feature",
      "geometry": {
        "type": "Point",
        "coordinates": [
          112.8532816980694,
          27.96254917083975
        ]
      },
      "properties": {
        "id": "assist_point_1775805629030_reimported_1775985401717_reimported_1775986295890_reimported_1776001065922_reimported_1776063371138",
        "iconType": "home",
        "iconColor": "#e74c3c",
        "iconSize": 1,
        "text": "湘锰小学",
        "textColor": "#333333",
        "assistFileId": "assist_file_1777448860348_1",
        "sourceFileName": "辅助元素图层_primary_point.geojson",
        "type": "assistPoint",
        "isAssistFeature": true,
        "sch_code": "2143006332_primary"
      },
      "id": "assist_imported_1777448860350_24"
    },
    {
      "type": "Feature",
      "geometry": {
        "type": "Point",
        "coordinates": [
          112.92071512588296,
          27.90578982900442
        ]
      },
      "properties": {
        "id": "assist_point_1775805771277_reimported_1775985401717_reimported_1775986295890_reimported_1776001065922_reimported_1776063371138",
        "iconType": "home",
        "iconColor": "#e74c3c",
        "iconSize": 1,
        "text": "九华和平科大小学",
        "textColor": "#333333",
        "assistFileId": "assist_file_1777448860348_1",
        "sourceFileName": "辅助元素图层_primary_point.geojson",
        "type": "assistPoint",
        "isAssistFeature": true,
        "sch_code": "3143019696_primary"
      },
      "id": "assist_imported_1777448860350_25"
    },
    {
      "type": "Feature",
      "geometry": {
        "type": "Point",
        "coordinates": [
          112.8490085423279,
          27.830416927214145
        ]
      },
      "properties": {
        "id": "assist_point_1775805796238_reimported_1775985401717_reimported_1775986295890_reimported_1776001065922_reimported_1776063371139",
        "iconType": "home",
        "iconColor": "#e74c3c",
        "iconSize": 1,
        "text": "源湘学校",
        "textColor": "#333333",
        "assistFileId": "assist_file_1777448860348_1",
        "sourceFileName": "辅助元素图层_primary_point.geojson",
        "type": "assistPoint",
        "isAssistFeature": true,
        "sch_code": "2143020368_primary"
      },
      "id": "assist_imported_1777448860350_26"
    },
    {
      "type": "Feature",
      "geometry": {
        "type": "Point",
        "coordinates": [
          112.86771562698362,
          27.855123600079793
        ]
      },
      "properties": {
        "id": "assist_point_1775805822813_reimported_1775985401717_reimported_1775986295890_reimported_1776001065922_reimported_1776063371139",
        "iconType": "home",
        "iconColor": "#e74c3c",
        "iconSize": 1,
        "text": "立云中心小学",
        "textColor": "#333333",
        "assistFileId": "assist_file_1777448860348_1",
        "sourceFileName": "辅助元素图层_primary_point.geojson",
        "type": "assistPoint",
        "isAssistFeature": true,
        "sch_code": "2143006275_primary"
      },
      "id": "assist_imported_1777448860350_27"
    },
    {
      "type": "Feature",
      "geometry": {
        "type": "Point",
        "coordinates": [
          112.93591932771594,
          27.898259999211916
        ]
      },
      "properties": {
        "id": "assist_point_1775806030612_reimported_1775985401717_reimported_1775986295890_reimported_1776001065922_reimported_1776063371139",
        "iconType": "home",
        "iconColor": "#e74c3c",
        "iconSize": 1,
        "text": "九华吉利学校",
        "textColor": "#333333",
        "assistFileId": "assist_file_1777448860348_1",
        "sourceFileName": "辅助元素图层_primary_point.geojson",
        "type": "assistPoint",
        "isAssistFeature": true,
        "sch_code": "2143004706_primary"
      },
      "id": "assist_imported_1777448860350_28"
    },
    {
      "type": "Feature",
      "geometry": {
        "type": "Point",
        "coordinates": [
          112.8668748742735,
          27.837800856035017
        ]
      },
      "properties": {
        "id": "assist_point_1775985912743_reimported_1775986295890_reimported_1776001065922_reimported_1776063371139",
        "iconType": "home",
        "iconColor": "#e74c3c",
        "iconSize": 1,
        "text": "月塘实验学校",
        "textColor": "#333333",
        "assistFileId": "assist_file_1777448860348_1",
        "sourceFileName": "辅助元素图层_primary_point.geojson",
        "type": "assistPoint",
        "isAssistFeature": true,
        "sch_code": "3143001271_primary"
      },
      "id": "assist_imported_1777448860350_29"
    },
    {
      "type": "Feature",
      "geometry": {
        "type": "Point",
        "coordinates": [
          112.83354933287697,
          27.856492846767893
        ]
      },
      "properties": {
        "id": "assist_point_1775986432637_reimported_1776001065922_reimported_1776063371139",
        "iconType": "home",
        "iconColor": "#e74c3c",
        "iconSize": 1,
        "text": "青亭学校",
        "textColor": "#333333",
        "assistFileId": "assist_file_1777448860348_1",
        "sourceFileName": "辅助元素图层_primary_point.geojson",
        "type": "assistPoint",
        "isAssistFeature": true,
        "sch_code": "2143020361_primary"
      },
      "id": "assist_imported_1777448860350_30"
    },
    {
      "type": "Feature",
      "geometry": {
        "type": "Point",
        "coordinates": [
          112.81759979629518,
          27.848378458891318
        ]
      },
      "properties": {
        "id": "assist_point_1775986862358_reimported_1776001065922_reimported_1776063371139",
        "iconType": "home",
        "iconColor": "#e74c3c",
        "iconSize": 1,
        "text": "梅花学校",
        "textColor": "#333333",
        "assistFileId": "assist_file_1777448860348_1",
        "sourceFileName": "辅助元素图层_primary_point.geojson",
        "type": "assistPoint",
        "isAssistFeature": true,
        "sch_code": "2143020325_primary"
      },
      "id": "assist_imported_1777448860350_31"
    },
    {
      "type": "Feature",
      "geometry": {
        "type": "Point",
        "coordinates": [
          112.7628022565306,
          27.860902266098336
        ]
      },
      "properties": {
        "id": "assist_point_1775986969310_reimported_1776001065922_reimported_1776063371139",
        "iconType": "home",
        "iconColor": "#e74c3c",
        "iconSize": 1,
        "text": "清联学校",
        "textColor": "#333333",
        "assistFileId": "assist_file_1777448860348_1",
        "sourceFileName": "辅助元素图层_primary_point.geojson",
        "type": "assistPoint",
        "isAssistFeature": true,
        "sch_code": "2143020373_primary"
      },
      "id": "assist_imported_1777448860350_32"
    },
    {
      "type": "Feature",
      "geometry": {
        "type": "Point",
        "coordinates": [
          112.78217121856805,
          27.85404599214985
        ]
      },
      "properties": {
        "id": "assist_point_1775987021478_reimported_1776001065922_reimported_1776063371139",
        "iconType": "home",
        "iconColor": "#e74c3c",
        "iconSize": 1,
        "text": "金陵学校",
        "textColor": "#333333",
        "assistFileId": "assist_file_1777448860348_1",
        "sourceFileName": "辅助元素图层_primary_point.geojson",
        "type": "assistPoint",
        "isAssistFeature": true,
        "sch_code": "2143020321_primary"
      },
      "id": "assist_imported_1777448860350_33"
    },
    {
      "type": "Feature",
      "geometry": {
        "type": "Point",
        "coordinates": [
          112.76776135314735,
          27.89240338324346
        ]
      },
      "properties": {
        "id": "assist_point_1775987060547_reimported_1776001065922_reimported_1776063371139",
        "iconType": "home",
        "iconColor": "#e74c3c",
        "iconSize": 1,
        "text": "奇头学校",
        "textColor": "#333333",
        "assistFileId": "assist_file_1777448860348_1",
        "sourceFileName": "辅助元素图层_primary_point.geojson",
        "type": "assistPoint",
        "isAssistFeature": true,
        "sch_code": "2143020327_primary"
      },
      "id": "assist_imported_1777448860350_34"
    },
    {
      "type": "Feature",
      "geometry": {
        "type": "Point",
        "coordinates": [
          112.789675392744,
          27.909657124402145
        ]
      },
      "properties": {
        "id": "assist_point_1775987081148_reimported_1776001065922_reimported_1776063371139",
        "iconType": "home",
        "iconColor": "#e74c3c",
        "iconSize": 1,
        "text": "司马学校",
        "textColor": "#333333",
        "assistFileId": "assist_file_1777448860348_1",
        "sourceFileName": "辅助元素图层_primary_point.geojson",
        "type": "assistPoint",
        "isAssistFeature": true,
        "sch_code": "2143020398_primary"
      },
      "id": "assist_imported_1777448860350_35"
    },
    {
      "type": "Feature",
      "geometry": {
        "type": "Point",
        "coordinates": [
          112.81999552303786,
          27.922673251532444
        ]
      },
      "properties": {
        "id": "assist_point_1775987162777_reimported_1776001065922_reimported_1776063371139",
        "iconType": "home",
        "iconColor": "#e74c3c",
        "iconSize": 1,
        "text": "双湖学校",
        "textColor": "#333333",
        "assistFileId": "assist_file_1777448860348_1",
        "sourceFileName": "辅助元素图层_primary_point.geojson",
        "type": "assistPoint",
        "isAssistFeature": true,
        "sch_code": "2143020380_primary"
      },
      "id": "assist_imported_1777448860350_36"
    },
    {
      "type": "Feature",
      "geometry": {
        "type": "Point",
        "coordinates": [
          112.91055054943921,
          27.877005688233226
        ]
      },
      "properties": {
        "id": "assist_point_1776003091118_reimported_1776063371139",
        "iconType": "home",
        "iconColor": "#e74c3c",
        "iconSize": 1,
        "text": "护潭学校",
        "textColor": "#333333",
        "assistFileId": "assist_file_1777448860348_1",
        "sourceFileName": "辅助元素图层_primary_point.geojson",
        "type": "assistPoint",
        "isAssistFeature": true,
        "sch_code": "3143001278_primary"
      },
      "id": "assist_imported_1777448860350_37"
    },
    {
      "type": "Feature",
      "geometry": {
        "type": "Point",
        "coordinates": [
          112.88219852634629,
          27.855142376733724
        ]
      },
      "properties": {
        "id": "assist_point_1776063619890",
        "iconType": "home",
        "iconColor": "#e74c3c",
        "iconSize": 1,
        "text": "金庭宝庆路学校",
        "textColor": "#333333",
        "assistFileId": "assist_file_1777448860348_1",
        "sourceFileName": "辅助元素图层_primary_point.geojson",
        "type": "assistPoint",
        "isAssistFeature": true,
        "sch_code": "2143010639_primary"
      },
      "id": "assist_imported_1777448860350_38"
    },
    {
      "type": "Feature",
      "geometry": {
        "type": "Point",
        "coordinates": [
          112.88968053198276,
          27.8755905710795
        ]
      },
      "properties": {
        "id": "assist_point_1776064232220",
        "iconType": "home",
        "iconColor": "#e74c3c",
        "iconSize": 1,
        "text": "风车坪北校区（小学部）",
        "textColor": "#333333",
        "assistFileId": "assist_file_1777448860348_1",
        "sourceFileName": "辅助元素图层_primary_point.geojson",
        "type": "assistPoint",
        "isAssistFeature": true,
        "sch_code": "3143003400_primary"
      },
      "id": "assist_imported_1777448860350_39"
    },
    {
      "type": "Feature",
      "geometry": {
        "type": "Point",
        "coordinates": [
          112.8930004892492,
          27.86672416191331
        ]
      },
      "properties": {
        "id": "assist_point_1776064250306",
        "iconType": "home",
        "iconColor": "#e74c3c",
        "iconSize": 1,
        "text": "风车坪广场学校",
        "textColor": "#333333",
        "assistFileId": "assist_file_1777448860348_1",
        "sourceFileName": "辅助元素图层_primary_point.geojson",
        "type": "assistPoint",
        "isAssistFeature": true,
        "sch_code": "2143010681_primary"
      },
      "id": "assist_imported_1777448860350_40"
    },
    {
      "type": "Feature",
      "geometry": {
        "type": "Point",
        "coordinates": [
          112.91770486108453,
          27.865845155750776
        ]
      },
      "properties": {
        "id": "assist_point_1776064309570",
        "iconType": "home",
        "iconColor": "#e74c3c",
        "iconSize": 1,
        "text": "曙光学校",
        "textColor": "#333333",
        "assistFileId": "assist_file_1777448860348_1",
        "sourceFileName": "辅助元素图层_primary_point.geojson",
        "type": "assistPoint",
        "isAssistFeature": true,
        "sch_code": "2143006362_primary"
      },
      "id": "assist_imported_1777448860351_41"
    },
    {
      "type": "Feature",
      "geometry": {
        "type": "Point",
        "coordinates": [
          112.90494339042083,
          27.86243563740716
        ]
      },
      "properties": {
        "id": "assist_point_1776064397323",
        "iconType": "home",
        "iconColor": "#e74c3c",
        "iconSize": 1,
        "text": "湘潭市和平小学",
        "textColor": "#333333",
        "assistFileId": "assist_file_1777448860348_1",
        "sourceFileName": "辅助元素图层_primary_point.geojson",
        "type": "assistPoint",
        "isAssistFeature": true,
        "sch_code": "2143000003_primary"
      },
      "id": "assist_imported_1777448860351_42"
    },
    {
      "type": "Feature",
      "geometry": {
        "type": "Point",
        "coordinates": [
          112.91431433652939,
          27.869518951369415
        ]
      },
      "properties": {
        "id": "assist_point_1776064457537",
        "iconType": "home",
        "iconColor": "#e74c3c",
        "iconSize": 1,
        "text": "熙春路逸夫小学",
        "textColor": "#333333",
        "assistFileId": "assist_file_1777448860348_1",
        "sourceFileName": "辅助元素图层_primary_point.geojson",
        "type": "assistPoint",
        "isAssistFeature": true,
        "sch_code": "2143006278_primary"
      },
      "id": "assist_imported_1777448860351_43"
    },
    {
      "type": "Feature",
      "geometry": {
        "type": "Point",
        "coordinates": [
          112.9025580448307,
          27.891938627540412
        ]
      },
      "properties": {
        "id": "assist_point_1776064629578",
        "iconType": "home",
        "iconColor": "#e74c3c",
        "iconSize": 1,
        "text": "风车坪建元学校",
        "textColor": "#333333",
        "assistFileId": "assist_file_1777448860348_1",
        "sourceFileName": "辅助元素图层_primary_point.geojson",
        "type": "assistPoint",
        "isAssistFeature": true,
        "sch_code": "2143009138_primary"
      },
      "id": "assist_imported_1777448860351_44"
    },
    {
      "type": "Feature",
      "geometry": {
        "type": "Point",
        "coordinates": [
          112.926216929067,
          27.939246840378217
        ]
      },
      "properties": {
        "id": "assist_point_1776064687730",
        "iconType": "home",
        "iconColor": "#e74c3c",
        "iconSize": 1,
        "text": "九华杉山学校",
        "textColor": "#333333",
        "assistFileId": "assist_file_1777448860348_1",
        "sourceFileName": "辅助元素图层_primary_point.geojson",
        "type": "assistPoint",
        "isAssistFeature": true,
        "sch_code": "2143004782_primary"
      },
      "id": "assist_imported_1777448860351_45"
    },
    {
      "type": "Feature",
      "geometry": {
        "type": "Point",
        "coordinates": [
          113.0138927462301,
          27.95918503265483
        ]
      },
      "properties": {
        "id": "assist_point_1775698176266",
        "iconType": "home",
        "iconColor": "#e74c3c",
        "iconSize": 1,
        "text": "滴水湖学校教育集团南天校区",
        "textColor": "#333333",
        "assistFileId": "assist_file_1777448860348_1",
        "sourceFileName": "辅助元素图层_primary_point.geojson",
        "type": "assistPoint",
        "isAssistFeature": true,
        "sch_code": "3143008808_primary"
      },
      "id": "assist_imported_1777448860351_46"
    },
    {
      "type": "Feature",
      "geometry": {
        "type": "Point",
        "coordinates": [
          113.01080909919739,
          27.91298981192672
        ]
      },
      "properties": {
        "id": "assist_point_1775698204002",
        "iconType": "home",
        "iconColor": "#e74c3c",
        "iconSize": 1,
        "text": "昭山和平小学",
        "textColor": "#333333",
        "assistFileId": "assist_file_1777448860348_1",
        "sourceFileName": "辅助元素图层_primary_point.geojson",
        "type": "assistPoint",
        "isAssistFeature": true,
        "sch_code": "2143006846_primary"
      },
      "id": "assist_imported_1777448860351_47"
    },
    {
      "type": "Feature",
      "geometry": {
        "type": "Point",
        "coordinates": [
          112.95816289135718,
          27.860544613386168
        ]
      },
      "properties": {
        "id": "assist_point_1775698366761",
        "iconType": "home",
        "iconColor": "#e74c3c",
        "iconSize": 1,
        "text": "育才学校教育集团育才校区",
        "textColor": "#333333",
        "assistFileId": "assist_file_1777448860348_1",
        "sourceFileName": "辅助元素图层_primary_point.geojson",
        "type": "assistPoint",
        "isAssistFeature": true,
        "sch_code": "2143010917_primary"
      },
      "id": "assist_imported_1777448860351_48"
    },
    {
      "type": "Feature",
      "geometry": {
        "type": "Point",
        "coordinates": [
          112.96629177520063,
          27.874620894043844
        ]
      },
      "properties": {
        "id": "assist_point_1775698413193",
        "iconType": "home",
        "iconColor": "#e74c3c",
        "iconSize": 1,
        "text": "滴水湖学校教育集团江滨学校小学部",
        "textColor": "#333333",
        "assistFileId": "assist_file_1777448860348_1",
        "sourceFileName": "辅助元素图层_primary_point.geojson",
        "type": "assistPoint",
        "isAssistFeature": true,
        "sch_code": "3143008807_primary"
      },
      "id": "assist_imported_1777448860351_49"
    },
    {
      "type": "Feature",
      "geometry": {
        "type": "Point",
        "coordinates": [
          112.9550288753546,
          27.863859424043937
        ]
      },
      "properties": {
        "id": "assist_point_1775698454330",
        "iconType": "home",
        "iconColor": "#e74c3c",
        "iconSize": 1,
        "text": "湘纺小学教育集团纺小校区",
        "textColor": "#333333",
        "assistFileId": "assist_file_1777448860348_1",
        "sourceFileName": "辅助元素图层_primary_point.geojson",
        "type": "assistPoint",
        "isAssistFeature": true,
        "sch_code": "2143010912_primary"
      },
      "id": "assist_imported_1777448860351_50"
    },
    {
      "type": "Feature",
      "geometry": {
        "type": "Point",
        "coordinates": [
          112.98295418990713,
          27.87872427658897
        ]
      },
      "properties": {
        "id": "assist_point_1775698524361",
        "iconType": "home",
        "iconColor": "#e74c3c",
        "iconSize": 1,
        "text": "育才学校教育集团清水校区",
        "textColor": "#333333",
        "assistFileId": "assist_file_1777448860348_1",
        "sourceFileName": "辅助元素图层_primary_point.geojson",
        "type": "assistPoint",
        "isAssistFeature": true,
        "sch_code": "2143010866_primary"
      },
      "id": "assist_imported_1777448860351_51"
    },
    {
      "type": "Feature",
      "geometry": {
        "type": "Point",
        "coordinates": [
          113.00593051748109,
          27.850933669129773
        ]
      },
      "properties": {
        "id": "assist_point_1775698569154",
        "iconType": "home",
        "iconColor": "#e74c3c",
        "iconSize": 1,
        "text": "长郡湘潭高新实验学校教育集团长郡实校小学部",
        "textColor": "#333333",
        "assistFileId": "assist_file_1777448860348_1",
        "sourceFileName": "辅助元素图层_primary_point.geojson",
        "type": "assistPoint",
        "isAssistFeature": true,
        "sch_code": "3143008806_primary"
      },
      "id": "assist_imported_1777448860351_52"
    },
    {
      "type": "Feature",
      "geometry": {
        "type": "Point",
        "coordinates": [
          112.99258,
          27.839644582078193
        ]
      },
      "properties": {
        "id": "assist_point_1775698597073",
        "iconType": "home",
        "iconColor": "#e74c3c",
        "iconSize": 1,
        "text": "长郡湘潭高新实验学校教育集团高才校区",
        "textColor": "#333333",
        "assistFileId": "assist_file_1777448860348_1",
        "sourceFileName": "辅助元素图层_primary_point.geojson",
        "type": "assistPoint",
        "isAssistFeature": true,
        "sch_code": "2143010887_primary"
      },
      "id": "assist_imported_1777448860351_53"
    },
    {
      "type": "Feature",
      "geometry": {
        "type": "Point",
        "coordinates": [
          112.94459142921184,
          27.855983227439054
        ]
      },
      "properties": {
        "id": "assist_point_1775698637610",
        "iconType": "home",
        "iconColor": "#e74c3c",
        "iconSize": 1,
        "text": "滴水湖学校教育集团滴水湖校区",
        "textColor": "#333333",
        "assistFileId": "assist_file_1777448860348_1",
        "sourceFileName": "辅助元素图层_primary_point.geojson",
        "type": "assistPoint",
        "isAssistFeature": true,
        "sch_code": "2143009930_primary"
      },
      "id": "assist_imported_1777448860351_54"
    },
    {
      "type": "Feature",
      "geometry": {
        "type": "Point",
        "coordinates": [
          112.93090872265635,
          27.847663663639295
        ]
      },
      "properties": {
        "id": "assist_point_1775698707169",
        "iconType": "home",
        "iconColor": "#e74c3c",
        "iconSize": 1,
        "text": "火炬学校教育集团红旗校区",
        "textColor": "#333333",
        "assistFileId": "assist_file_1777448860348_1",
        "sourceFileName": "辅助元素图层_primary_point.geojson",
        "type": "assistPoint",
        "isAssistFeature": true,
        "sch_code": "2143010921_primary"
      },
      "id": "assist_imported_1777448860351_55"
    },
    {
      "type": "Feature",
      "geometry": {
        "type": "Point",
        "coordinates": [
          112.9140883944913,
          27.85114011228569
        ]
      },
      "properties": {
        "id": "assist_point_1775698726641",
        "iconType": "home",
        "iconColor": "#e74c3c",
        "iconSize": 1,
        "text": "大桥学校",
        "textColor": "#333333",
        "assistFileId": "assist_file_1777448860348_1",
        "sourceFileName": "辅助元素图层_primary_point.geojson",
        "type": "assistPoint",
        "isAssistFeature": true,
        "sch_code": "2143010957_primary"
      },
      "id": "assist_imported_1777448860351_56"
    },
    {
      "type": "Feature",
      "geometry": {
        "type": "Point",
        "coordinates": [
          112.89811449864195,
          27.842768231671883
        ]
      },
      "properties": {
        "id": "assist_point_1775698769641",
        "iconType": "home",
        "iconColor": "#e74c3c",
        "iconSize": 1,
        "text": "湘钢三校教育集团东坪校区",
        "textColor": "#333333",
        "assistFileId": "assist_file_1777448860348_1",
        "sourceFileName": "辅助元素图层_primary_point.geojson",
        "type": "assistPoint",
        "isAssistFeature": true,
        "sch_code": "2143010895_primary"
      },
      "id": "assist_imported_1777448860351_57"
    },
    {
      "type": "Feature",
      "geometry": {
        "type": "Point",
        "coordinates": [
          112.91031579571874,
          27.82942671200307
        ]
      },
      "properties": {
        "id": "assist_point_1775698803323",
        "iconType": "home",
        "iconColor": "#e74c3c",
        "iconSize": 1,
        "text": "湘钢三校教育集团霞光校区",
        "textColor": "#333333",
        "assistFileId": "assist_file_1777448860348_1",
        "sourceFileName": "辅助元素图层_primary_point.geojson",
        "type": "assistPoint",
        "isAssistFeature": true,
        "sch_code": "2143010384_primary"
      },
      "id": "assist_imported_1777448860351_58"
    },
    {
      "type": "Feature",
      "geometry": {
        "type": "Point",
        "coordinates": [
          112.9155365674347,
          27.824617802191142
        ]
      },
      "properties": {
        "id": "assist_point_1775698835705",
        "iconType": "home",
        "iconColor": "#e74c3c",
        "iconSize": 1,
        "text": "湘钢一校教育集团钢一校区",
        "textColor": "#333333",
        "assistFileId": "assist_file_1777448860348_1",
        "sourceFileName": "辅助元素图层_primary_point.geojson",
        "type": "assistPoint",
        "isAssistFeature": true,
        "sch_code": "2143010974_primary"
      },
      "id": "assist_imported_1777448860351_59"
    },
    {
      "type": "Feature",
      "geometry": {
        "type": "Point",
        "coordinates": [
          112.91808267358127,
          27.825571548225668
        ]
      },
      "properties": {
        "id": "assist_point_1775698862833",
        "iconType": "home",
        "iconColor": "#e74c3c",
        "iconSize": 1,
        "text": "湘钢一校教育集团葩金校区",
        "textColor": "#333333",
        "assistFileId": "assist_file_1777448860348_1",
        "sourceFileName": "辅助元素图层_primary_point.geojson",
        "type": "assistPoint",
        "isAssistFeature": true,
        "sch_code": "2143006487_primary"
      },
      "id": "assist_imported_1777448860351_60"
    },
    {
      "type": "Feature",
      "geometry": {
        "type": "Point",
        "coordinates": [
          112.91359207562273,
          27.81739344214509
        ]
      },
      "properties": {
        "id": "assist_point_1775698891793",
        "iconType": "home",
        "iconColor": "#e74c3c",
        "iconSize": 1,
        "text": "湘钢二校",
        "textColor": "#333333",
        "assistFileId": "assist_file_1777448860348_1",
        "sourceFileName": "辅助元素图层_primary_point.geojson",
        "type": "assistPoint",
        "isAssistFeature": true,
        "sch_code": "2143010976_primary"
      },
      "id": "assist_imported_1777448860351_61"
    },
    {
      "type": "Feature",
      "geometry": {
        "type": "Point",
        "coordinates": [
          112.9166651528295,
          27.81102093090429
        ]
      },
      "properties": {
        "id": "assist_point_1775698929209",
        "iconType": "home",
        "iconColor": "#e74c3c",
        "iconSize": 1,
        "text": "湘机小学教育集团湘机校区",
        "textColor": "#333333",
        "assistFileId": "assist_file_1777448860348_1",
        "sourceFileName": "辅助元素图层_primary_point.geojson",
        "type": "assistPoint",
        "isAssistFeature": true,
        "sch_code": "2143010970_primary"
      },
      "id": "assist_imported_1777448860351_62"
    },
    {
      "type": "Feature",
      "geometry": {
        "type": "Point",
        "coordinates": [
          112.91643939650696,
          27.809554254811317
        ]
      },
      "properties": {
        "id": "assist_point_1775698979880",
        "iconType": "home",
        "iconColor": "#e74c3c",
        "iconSize": 1,
        "text": "湘机小学教育集团一完小校区",
        "textColor": "#333333",
        "assistFileId": "assist_file_1777448860348_1",
        "sourceFileName": "辅助元素图层_primary_point.geojson",
        "type": "assistPoint",
        "isAssistFeature": true,
        "sch_code": "2143010966_primary"
      },
      "id": "assist_imported_1777448860351_63"
    },
    {
      "type": "Feature",
      "geometry": {
        "type": "Point",
        "coordinates": [
          112.94303673132812,
          27.81456503516715
        ]
      },
      "properties": {
        "id": "assist_point_1775699000248",
        "iconType": "home",
        "iconColor": "#e74c3c",
        "iconSize": 1,
        "text": "红霞学校",
        "textColor": "#333333",
        "assistFileId": "assist_file_1777448860348_1",
        "sourceFileName": "辅助元素图层_primary_point.geojson",
        "type": "assistPoint",
        "isAssistFeature": true,
        "sch_code": "2143010899_primary"
      },
      "id": "assist_imported_1777448860351_64"
    },
    {
      "type": "Feature",
      "geometry": {
        "type": "Point",
        "coordinates": [
          112.93701743145604,
          27.835286210022403
        ]
      },
      "properties": {
        "id": "assist_point_1775699028601",
        "iconType": "home",
        "iconColor": "#e74c3c",
        "iconSize": 1,
        "text": "湖湘学校教育集团湖湘校区",
        "textColor": "#333333",
        "assistFileId": "assist_file_1777448860348_1",
        "sourceFileName": "辅助元素图层_primary_point.geojson",
        "type": "assistPoint",
        "isAssistFeature": true,
        "sch_code": "2143010694_primary"
      },
      "id": "assist_imported_1777448860351_65"
    },
    {
      "type": "Feature",
      "geometry": {
        "type": "Point",
        "coordinates": [
          112.94724217553,
          27.844007045209594
        ]
      },
      "properties": {
        "id": "assist_point_1775699099136",
        "iconType": "home",
        "iconColor": "#e74c3c",
        "iconSize": 1,
        "text": "火炬学校教育集团火炬校区",
        "textColor": "#333333",
        "assistFileId": "assist_file_1777448860348_1",
        "sourceFileName": "辅助元素图层_primary_point.geojson",
        "type": "assistPoint",
        "isAssistFeature": true,
        "sch_code": "2143006466_primary"
      },
      "id": "assist_imported_1777448860351_66"
    },
    {
      "type": "Feature",
      "geometry": {
        "type": "Point",
        "coordinates": [
          112.9177835699218,
          27.83499999957003
        ]
      },
      "properties": {
        "id": "assist_point_1775699121936",
        "iconType": "home",
        "iconColor": "#e74c3c",
        "iconSize": 1,
        "text": "建设路学校",
        "textColor": "#333333",
        "assistFileId": "assist_file_1777448860348_1",
        "sourceFileName": "辅助元素图层_primary_point.geojson",
        "type": "assistPoint",
        "isAssistFeature": true,
        "sch_code": "2143010959_primary"
      },
      "id": "assist_imported_1777448860351_67"
    },
    {
      "type": "Feature",
      "geometry": {
        "type": "Point",
        "coordinates": [
          112.92875380575349,
          27.823144982925925
        ]
      },
      "properties": {
        "id": "assist_point_1775699170081",
        "iconType": "home",
        "iconColor": "#e74c3c",
        "iconSize": 1,
        "text": "友谊学校",
        "textColor": "#333333",
        "assistFileId": "assist_file_1777448860348_1",
        "sourceFileName": "辅助元素图层_primary_point.geojson",
        "type": "assistPoint",
        "isAssistFeature": true,
        "sch_code": "2143010971_primary"
      },
      "id": "assist_imported_1777448860351_68"
    },
    {
      "type": "Feature",
      "geometry": {
        "type": "Point",
        "coordinates": [
          112.93277554232789,
          27.828506440178117
        ]
      },
      "properties": {
        "id": "assist_point_1775699199936",
        "iconType": "home",
        "iconColor": "#e74c3c",
        "iconSize": 1,
        "text": "长郡湘潭高新实验小学（万达旁）",
        "textColor": "#333333",
        "assistFileId": "assist_file_1777448860348_1",
        "sourceFileName": "辅助元素图层_primary_point.geojson",
        "type": "assistPoint",
        "isAssistFeature": true,
        "sch_code": "2143010883_primary"
      },
      "id": "assist_imported_1777448860352_69"
    },
    {
      "type": "Feature",
      "geometry": {
        "type": "Point",
        "coordinates": [
          113.02500563139961,
          27.886328630274164
        ]
      },
      "properties": {
        "iconType": "home",
        "iconColor": "#e74c3c",
        "iconSize": 1,
        "text": "湖湘学校教育集团青山校区",
        "textColor": "#333333",
        "assistFileId": "assist_file_1777448860348_1",
        "sch_code": "2143010863_primary",
        "sourceFileName": "辅助元素图层_primary_point.geojson",
        "type": "assistPoint"
      },
      "id": "assist_point_1777448925422"
    },
    {
      "type": "Feature",
      "geometry": {
        "type": "Point",
        "coordinates": [
          112.65781783355102,
          27.84986882507542
        ]
      },
      "properties": {
        "iconType": "home",
        "iconColor": "#e74c3c",
        "iconSize": 1,
        "text": "江南学校（小学部）",
        "textColor": "#333333",
        "assistFileId": "assist_file_1777448860348_1",
        "sch_code": "3443000657_primary",
        "sourceFileName": "辅助元素图层_primary_point.geojson",
        "type": "assistPoint"
      },
      "id": "assist_point_1777448949855"
    },
    {
      "type": "Feature",
      "geometry": {
        "type": "Point",
        "coordinates": [
          112.87781338760574,
          27.893385886311393
        ]
      },
      "properties": {
        "iconType": "home",
        "iconColor": "#e74c3c",
        "iconSize": 1,
        "text": "湘潭大学附属实验学校",
        "textColor": "#333333",
        "assistFileId": "assist_file_1777448860348_1",
        "sch_code": "3443000270_union",
        "sourceFileName": "辅助元素图层_primary_point.geojson",
        "type": "assistPoint"
      },
      "id": "assist_point_1777448963885"
    },
    {
      "type": "Feature",
      "geometry": {
        "type": "Point",
        "coordinates": [
          112.89800425598764,
          27.86394599054566
        ]
      },
      "properties": {
        "iconType": "home",
        "iconColor": "#e74c3c",
        "iconSize": 1,
        "text": "风车坪本部",
        "textColor": "#333333",
        "assistFileId": "assist_file_1777448860348_1",
        "sch_code": "2143013156_primary",
        "sourceFileName": "辅助元素图层_primary_point.geojson",
        "type": "assistPoint"
      },
      "id": "assist_point_1777449003591"
    }
  ],
  "properties": {
    "fileName": "辅助元素图层_primary_point.geojson",
    "exportTime": "2026/4/29 15:50:14",
    "source": "GIS-APP 辅助元素导出"
  }
}