{
  "type": "FeatureCollection",
  "features": [
    {
      "type": "Feature",
      "geometry": {
        "type": "Polygon",
        "coordinates": [
          [
            [
              112.72968979765086,
              27.89690883988905
            ],
            [
              112.72453995634227,
              27.895391701671855
            ],
            [
              112.71904679227977,
              27.893343531345025
            ],
            [
              112.71587105680614,
              27.885909106029004
            ],
            [
              112.71604271818309,
              27.878853516039314
            ],
            [
              112.72024842191846,
              27.870431726285986
            ],
            [
              112.72556992460399,
              27.864361561951185
            ],
            [
              112.72831650663525,
              27.86185752010556
            ],
            [
              112.73380967069772,
              27.864892714905054
            ],
            [
              112.73552628446726,
              27.865423865255707
            ],
            [
              112.73767205167918,
              27.86701730068782
            ],
            [
              112.74230690885692,
              27.868610712689602
            ],
            [
              112.74565430570749,
              27.870355851330515
            ],
            [
              112.74668427396922,
              27.872935570007897
            ],
            [
              112.74599762846141,
              27.875591098600452
            ],
            [
              112.74342270780713,
              27.87627393828822
            ],
            [
              112.74230690885692,
              27.878322431524396
            ],
            [
              112.73973198820262,
              27.877639604750286
            ],
            [
              112.73741455961375,
              27.876956773671523
            ],
            [
              112.73810120512158,
              27.879232860527054
            ],
            [
              112.73801537443309,
              27.88173650082331
            ],
            [
              112.73810120512158,
              27.88363315948486
            ],
            [
              112.73724289823679,
              27.885378056114163
            ],
            [
              112.7343246548286,
              27.88613669805234
            ],
            [
              112.73372384000926,
              27.888033279642627
            ],
            [
              112.73346634794383,
              27.89084015942521
            ],
            [
              112.73380967069772,
              27.892433220981644
            ],
            [
              112.73020478178172,
              27.89592270246696
            ],
            [
              112.72968979765086,
              27.89690883988905
            ]
          ]
        ]
      },
      "properties": {
        "sourceFileId": "file_1775315374916_58_g1",
        "sourceFileName": "进军学校.geojson",
        "sourceGroupId": 1,
        "name": "进军学校",
        "id": "polygon_1775317482894",
        "sourceFile": "进军学校.geojson"
      },
      "id": "polygon_1775317482894"
    }
  ],
  "properties": {
    "fileName": "进军学校.geojson",
    "exportTime": "2026/4/4 23:45:00",
    "isStarred": false
  }
}