{
  "type": "FeatureCollection",
  "features": [
    {
      "type": "Feature",
      "geometry": {
        "type": "Polygon",
        "coordinates": [
          [
            [
              112.89193543689326,
              27.85138260179548
            ],
            [
              112.89026318128725,
              27.85304310938197
            ],
            [
              112.88959260274952,
              27.85318576810522
            ],
            [
              112.88928555493295,
              27.853589024129946
            ],
            [
              112.8882982060372,
              27.855028018226264
            ],
            [
              112.88870862450698,
              27.855530444644756
            ],
            [
              112.88885911507778,
              27.85639582250242
            ],
            [
              112.88943474949191,
              27.857093534167802
            ],
            [
              112.88934003753735,
              27.857428478990656
            ],
            [
              112.88975877642716,
              27.858514373129168
            ],
            [
              112.8894967768601,
              27.85845728758342
            ],
            [
              112.88859092568124,
              27.858229188508034
            ],
            [
              112.88606967876756,
              27.857478587147114
            ],
            [
              112.88489283533437,
              27.857156116225127
            ],
            [
              112.88506833934396,
              27.855681736001728
            ],
            [
              112.88477815123488,
              27.85572706849412
            ],
            [
              112.88323970774199,
              27.857091911690475
            ],
            [
              112.88218490035972,
              27.857933497683234
            ],
            [
              112.88165811619034,
              27.85824567609599
            ],
            [
              112.88139689610628,
              27.85940040168572
            ],
            [
              112.88129249315038,
              27.859910801233198
            ],
            [
              112.8810688233975,
              27.862046677603587
            ],
            [
              112.87727104157898,
              27.86129977631836
            ],
            [
              112.87680795541115,
              27.86118605239504
            ],
            [
              112.87577887503824,
              27.86004880659918
            ],
            [
              112.8745439785907,
              27.858888803595377
            ],
            [
              112.87345306035765,
              27.857798603149533
            ],
            [
              112.8706482530433,
              27.855000333221724
            ],
            [
              112.8702166761493,
              27.852868976889866
            ],
            [
              112.87003079254058,
              27.8515541766113
            ],
            [
              112.8690071968735,
              27.849501891672872
            ],
            [
              112.87888595809004,
              27.84461418189791
            ],
            [
              112.88314648031904,
              27.84798620647861
            ],
            [
              112.8848677580316,
              27.849114827777655
            ],
            [
              112.88655035534617,
              27.84986723545164
            ],
            [
              112.88829097325775,
              27.85022633727388
            ],
            [
              112.88958676659196,
              27.85017503708636
            ],
            [
              112.8908245393291,
              27.850089536719892
            ],
            [
              112.89136944268813,
              27.85010877052116
            ],
            [
              112.89167816680003,
              27.85115513302253
            ],
            [
              112.89193543689326,
              27.85138260179548
            ]
          ]
        ]
      },
      "properties": {
        "sourceFileId": "file_1776048123167_60_g1",
        "sourceFileName": "金庭宝庆路学校.geojson",
        "name": "金庭宝庆路学校",
        "id": "imported_1776048123167_60_0_g1",
        "sourceFile": "金庭宝庆路学校.geojson",
        "sourceGroupId": 1,
        "isAssistFeature": false
      },
      "id": "imported_1776048123167_60_0_g1"
    },
    {
      "type": "Feature",
      "geometry": {
        "type": "Polygon",
        "coordinates": [
          [
            [
              112.88295989489986,
              27.846153517934738
            ],
            [
              112.87849669909907,
              27.842586538862165
            ],
            [
              112.87527804828122,
              27.838032778109806
            ],
            [
              112.87416224933101,
              27.835452228838903
            ],
            [
              112.87424808001948,
              27.830290946184306
            ],
            [
              112.87476306415036,
              27.82797587937128
            ],
            [
              112.87600760913325,
              27.825508950557136
            ],
            [
              112.87652259326414,
              27.827899974705318
            ],
            [
              112.87652259326414,
              27.829531913325894
            ],
            [
              112.87828212237788,
              27.8345034820598
            ],
            [
              112.87965541339352,
              27.838791751509106
            ],
            [
              112.88102870440915,
              27.84201732922159
            ],
            [
              112.88235908008052,
              27.844104416634664
            ],
            [
              112.88295989489986,
              27.845546380844567
            ],
            [
              112.88295989489986,
              27.846153517934738
            ]
          ]
        ]
      },
      "properties": {
        "sourceFileId": "file_1776048123167_60_g1",
        "sourceFileName": "金庭宝庆路学校.geojson",
        "sourceGroupId": 1,
        "name": "金庭宝庆路学校",
        "id": "imported_1776048123167_60_1_g1",
        "sourceFile": "金庭宝庆路学校.geojson",
        "isAssistFeature": false
      },
      "id": "imported_1776048123167_60_1_g1"
    }
  ],
  "properties": {
    "fileName": "金庭宝庆路学校.geojson",
    "exportTime": "2026/4/13 15:01:39",
    "isStarred": false
  }
}