{
  "type": "FeatureCollection",
  "features": [
    {
      "type": "Feature",
      "geometry": {
        "type": "Polygon",
        "coordinates": [
          [
            [
              112.90136845576639,
              27.862396705666654
            ],
            [
              112.89492804285636,
              27.859075275983898
            ],
            [
              112.89470704829573,
              27.858963629520673
            ],
            [
              112.89442291243206,
              27.859382303164878
            ],
            [
              112.89271809724998,
              27.859689329476225
            ],
            [
              112.89221296682565,
              27.859354391638917
            ],
            [
              112.89145527118919,
              27.859438126195272
            ],
            [
              112.88984516796167,
              27.858656601153882
            ],
            [
              112.88934003753735,
              27.857428478990656
            ],
            [
              112.88943474949191,
              27.857093534167802
            ],
            [
              112.88883490711306,
              27.85636781683479
            ],
            [
              112.88870862450698,
              27.855530444644756
            ],
            [
              112.8882982060372,
              27.855028018226264
            ],
            [
              112.88959260274952,
              27.85318576810522
            ],
            [
              112.89035029838598,
              27.853018289269343
            ],
            [
              112.89177097770438,
              27.8514830545528
            ],
            [
              112.89221296682565,
              27.850952695690154
            ],
            [
              112.89284437985604,
              27.850896868290576
            ],
            [
              112.89382307005316,
              27.851231832257028
            ],
            [
              112.895938303705,
              27.852180891209514
            ],
            [
              112.89780097214465,
              27.853213681219387
            ],
            [
              112.89865337973569,
              27.853995245498567
            ],
            [
              112.90080018403903,
              27.854888454919035
            ],
            [
              112.90398881984254,
              27.856451553698065
            ],
            [
              112.90446237961534,
              27.85659111499315
            ],
            [
              112.90136845576639,
              27.862396705666654
            ]
          ]
        ]
      },
      "properties": {
        "sourceFileId": "file_1775110549939_g1",
        "sourceFileName": "金庭学校.geojson",
        "name": "金庭学校",
        "id": "polygon_1773215368685_imported_1775110549939_g1",
        "sourceFile": "金庭学校.geojson",
        "sourceGroupId": 1,
        "isAssistFeature": false
      },
      "id": "polygon_1773215368685_imported_1775110549939_g1"
    }
  ],
  "properties": {
    "fileName": "金庭学校.geojson",
    "exportTime": "2026/4/2 14:17:51",
    "isStarred": false
  }
}