{
  "type": "FeatureCollection",
  "features": [
    {
      "type": "Feature",
      "geometry": {
        "type": "Polygon",
        "coordinates": [
          [
            [
              112.79559680988689,
              27.888012425307707
            ],
            [
              112.7970009620159,
              27.88675350618331
            ],
            [
              112.79973049929492,
              27.884306245351354
            ],
            [
              112.80027096799063,
              27.882959132880572
            ],
            [
              112.8013678307155,
              27.88232751737472
            ],
            [
              112.80290026586034,
              27.881435579245775
            ],
            [
              112.80449868765277,
              27.88185244275175
            ],
            [
              112.80671609359162,
              27.88210152196845
            ],
            [
              112.80987396825934,
              27.883036462169045
            ],
            [
              112.81082329258025,
              27.88379226374849
            ],
            [
              112.8122267269554,
              27.884023135657102
            ],
            [
              112.8135437748412,
              27.885247397894858
            ],
            [
              112.8157999017621,
              27.88486964854377
            ],
            [
              112.81903588763872,
              27.88444641992413
            ],
            [
              112.81995026569844,
              27.88355914029887
            ],
            [
              112.81949307711774,
              27.88198661761693
            ],
            [
              112.81923826010595,
              27.881976433358318
            ],
            [
              112.81902193231079,
              27.88149555596921
            ],
            [
              112.8189994573607,
              27.88144559601359
            ],
            [
              112.81800404227918,
              27.87923285163349
            ],
            [
              112.81758655833573,
              27.878304798029276
            ],
            [
              112.81851084840628,
              27.87732014178026
            ],
            [
              112.81979695651708,
              27.875950022187965
            ],
            [
              112.81774790294729,
              27.874471961697566
            ],
            [
              112.81732906614101,
              27.87416983643905
            ],
            [
              112.81731527879802,
              27.87253277819562
            ],
            [
              112.82089096619262,
              27.87052780082118
            ],
            [
              112.82101286667834,
              27.870459302710685
            ],
            [
              112.82177435866323,
              27.870156907379084
            ],
            [
              112.82186201716695,
              27.870120595487236
            ],
            [
              112.82249798306563,
              27.869863495096524
            ],
            [
              112.82282815974663,
              27.869240815759667
            ],
            [
              112.82280207177244,
              27.867730887944163
            ],
            [
              112.82334450777869,
              27.866780895264455
            ],
            [
              112.8237527327865,
              27.866060462336307
            ],
            [
              112.82383086555494,
              27.865911906334432
            ],
            [
              112.82246255979899,
              27.865290871220665
            ],
            [
              112.8196400873123,
              27.863673278856368
            ],
            [
              112.81839430726954,
              27.86308818700354
            ],
            [
              112.8168176157239,
              27.863053769223484
            ],
            [
              112.81265030686636,
              27.861975970490136
            ],
            [
              112.80913832260184,
              27.861067650706318
            ],
            [
              112.80859326710825,
              27.85747667937646
            ],
            [
              112.80831550802239,
              27.85429677577099
            ],
            [
              112.80826872555905,
              27.851923135738232
            ],
            [
              112.80838111468252,
              27.8490320121452
            ],
            [
              112.81237903182024,
              27.849265837358075
            ],
            [
              112.81239221729196,
              27.847913460789414
            ],
            [
              112.81239601986054,
              27.847670339541125
            ],
            [
              112.81241306988466,
              27.84689135962917
            ],
            [
              112.81234429666313,
              27.84406432029965
            ],
            [
              112.81264348595839,
              27.84236091592507
            ],
            [
              112.80871449026425,
              27.842421204202225
            ],
            [
              112.8082489168087,
              27.83872486455934
            ],
            [
              112.80547321959882,
              27.839430209459664
            ],
            [
              112.78858543483982,
              27.843718456450404
            ],
            [
              112.78709040823831,
              27.844681168699353
            ],
            [
              112.78475036789008,
              27.84571571509943
            ],
            [
              112.78299400969438,
              27.846306954817535
            ],
            [
              112.78170567196501,
              27.846740643099096
            ],
            [
              112.77907312668556,
              27.84786137970771
            ],
            [
              112.77787965823676,
              27.84809221618363
            ],
            [
              112.77647308155474,
              27.848364271267883
            ],
            [
              112.77549806451842,
              27.848450480652332
            ],
            [
              112.77455554852905,
              27.848579795394897
            ],
            [
              112.77200425496873,
              27.848450480652332
            ],
            [
              112.77119174047235,
              27.84834990276569
            ],
            [
              112.76930670849362,
              27.848105641908916
            ],
            [
              112.7675354274844,
              27.847645854153
            ],
            [
              112.76752050736584,
              27.847008645141983
            ],
            [
              112.76649556466094,
              27.847387623400863
            ],
            [
              112.76543282983205,
              27.847780573361987
            ],
            [
              112.76583138627251,
              27.848502153192427
            ],
            [
              112.76399043462477,
              27.849475438406614
            ],
            [
              112.76304670590974,
              27.84976492818535
            ],
            [
              112.76268089126484,
              27.84986139442435
            ],
            [
              112.76102972758548,
              27.8517575919236
            ],
            [
              112.7607450442854,
              27.853234253805965
            ],
            [
              112.7569872243653,
              27.854207496547332
            ],
            [
              112.75799310571817,
              27.855617006672574
            ],
            [
              112.7589230713447,
              27.855264630462003
            ],
            [
              112.76062829563783,
              27.85532611561534
            ],
            [
              112.76222266602828,
              27.854839889133487
            ],
            [
              112.76230283707412,
              27.854815439516145
            ],
            [
              112.76362696009114,
              27.855024079144385
            ],
            [
              112.76588544778458,
              27.85604764523491
            ],
            [
              112.76677103933102,
              27.85504580768361
            ],
            [
              112.76895072680779,
              27.855551674453437
            ],
            [
              112.77161707209812,
              27.856131543679368
            ],
            [
              112.77147772722789,
              27.85743549312663
            ],
            [
              112.77185730496126,
              27.8581737879162
            ],
            [
              112.77162955868059,
              27.858861739592157
            ],
            [
              112.77230711837352,
              27.86023998224192
            ],
            [
              112.77246462897541,
              27.861244368774535
            ],
            [
              112.77341357420728,
              27.86181484972542
            ],
            [
              112.77337561589492,
              27.862653786612157
            ],
            [
              112.77103907987464,
              27.862857064785317
            ],
            [
              112.77062450557438,
              27.862893132917748
            ],
            [
              112.77061974719834,
              27.86302271077713
            ],
            [
              112.77055157584806,
              27.86397905318475
            ],
            [
              112.77070581119244,
              27.865049277188547
            ],
            [
              112.77081950826299,
              27.8658381972661
            ],
            [
              112.77122576596034,
              27.866628322671403
            ],
            [
              112.77153181748609,
              27.867245327799765
            ],
            [
              112.77154555182845,
              27.867267473989344
            ],
            [
              112.77177793072113,
              27.867729816653622
            ],
            [
              112.77209919341955,
              27.868353846757103
            ],
            [
              112.77218037866334,
              27.868430533696355
            ],
            [
              112.7733597255959,
              27.86978006707784
            ],
            [
              112.77380696802977,
              27.87069267670806
            ],
            [
              112.7742673851556,
              27.871131378343676
            ],
            [
              112.77559043827908,
              27.871713039900754
            ],
            [
              112.77642858260886,
              27.873068789886986
            ],
            [
              112.77788900610558,
              27.87417097992804
            ],
            [
              112.77788578923854,
              27.87419327478497
            ],
            [
              112.77761531908291,
              27.875081703152546
            ],
            [
              112.77709172793473,
              27.875368970205216
            ],
            [
              112.77578625573967,
              27.875589826880187
            ],
            [
              112.7753817668251,
              27.875907655019702
            ],
            [
              112.77536875472819,
              27.87593648397612
            ],
            [
              112.775066112309,
              27.876590649487028
            ],
            [
              112.77440785022499,
              27.877180824311182
            ],
            [
              112.7744750118689,
              27.877752350520296
            ],
            [
              112.77452182936656,
              27.878180502270382
            ],
            [
              112.77367571698021,
              27.878561522649377
            ],
            [
              112.77350480261596,
              27.878639483970943
            ],
            [
              112.77308750821705,
              27.879639077796952
            ],
            [
              112.77480693487477,
              27.880230188865184
            ],
            [
              112.77715498909366,
              27.880774140993935
            ],
            [
              112.77766178354265,
              27.882299813671835
            ],
            [
              112.77839607274413,
              27.88271941721416
            ],
            [
              112.78017766102295,
              27.883737483566463
            ],
            [
              112.7820491140678,
              27.88480689226644
            ],
            [
              112.78389615539484,
              27.884402226669877
            ],
            [
              112.78437851476984,
              27.885549222291175
            ],
            [
              112.78460785106857,
              27.886094552292434
            ],
            [
              112.78490473259188,
              27.887207927372074
            ],
            [
              112.78517296594246,
              27.888213857519887
            ],
            [
              112.7888535882403,
              27.88800805599108
            ],
            [
              112.79131160882638,
              27.89185431311887
            ],
            [
              112.79333781823851,
              27.890037736622332
            ],
            [
              112.79559680988689,
              27.888012425307707
            ]
          ]
        ]
      },
      "properties": {
        "name": "金陵学校",
        "isAssistFeature": false,
        "sourceFileId": "file_1776680404452_62_g1",
        "sourceFileName": "金陵学校.geojson",
        "sourceGroupId": 1,
        "id": "imported_1776680404452_62_0_g1",
        "sourceFile": "金陵学校.geojson"
      },
      "id": "imported_1776680404452_62_0_g1"
    }
  ],
  "properties": {
    "fileName": "金陵学校.geojson",
    "exportTime": "2026/4/20 18:39:34",
    "isStarred": false
  }
}