{
  "type": "FeatureCollection",
  "features": [
    {
      "type": "Feature",
      "geometry": {
        "type": "Polygon",
        "coordinates": [
          [
            [
              112.84512242865213,
              27.89709798960945
            ],
            [
              112.84211835455544,
              27.894879171652136
            ],
            [
              112.84179648947367,
              27.89387405111225
            ],
            [
              112.84057340216287,
              27.892887886039773
            ],
            [
              112.84005841803202,
              27.891958606884117
            ],
            [
              112.83999404501564,
              27.890934494084675
            ],
            [
              112.8389426190818,
              27.889436237534483
            ],
            [
              112.83677539419779,
              27.888962101395634
            ],
            [
              112.83658227514871,
              27.88805175418831
            ],
            [
              112.83467254233011,
              27.887918994581028
            ],
            [
              112.83467254233011,
              27.886818980143985
            ],
            [
              112.83380857255915,
              27.885967336688793
            ],
            [
              112.83342233446099,
              27.884487977672137
            ],
            [
              112.83256402757623,
              27.88304653149757
            ],
            [
              112.82827249315238,
              27.881718866730296
            ],
            [
              112.82522550371147,
              27.88145333182365
            ],
            [
              112.82470106677084,
              27.882144748342995
            ],
            [
              112.82372402449076,
              27.88260946414583
            ],
            [
              112.82269341191245,
              27.881784558880312
            ],
            [
              112.82131190683663,
              27.881784558880312
            ],
            [
              112.81923827439495,
              27.88197643244773
            ],
            [
              112.81800405608459,
              27.87923285003852
            ],
            [
              112.81758657243707,
              27.878304796875526
            ],
            [
              112.81851086299822,
              27.877320140202855
            ],
            [
              112.81979697051452,
              27.87595002114483
            ],
            [
              112.81732908037164,
              27.87416983484698
            ],
            [
              112.81731529300575,
              27.872532776915904
            ],
            [
              112.82089105394343,
              27.870527902704694
            ],
            [
              112.82249799744434,
              27.869863493825946
            ],
            [
              112.8228281741905,
              27.869240814525
            ],
            [
              112.82280208620385,
              27.86773088656099
            ],
            [
              112.82375950058987,
              27.866064372801276
            ],
            [
              112.82564082965709,
              27.86689832489259
            ],
            [
              112.8270937316624,
              27.86753916231821
            ],
            [
              112.82792555598434,
              27.867656997009192
            ],
            [
              112.8297114709796,
              27.868131106625697
            ],
            [
              112.83771386888482,
              27.86942771162633
            ],
            [
              112.83865800645806,
              27.869275960256047
            ],
            [
              112.83990255144096,
              27.868972456877927
            ],
            [
              112.83973089006402,
              27.86794812670047
            ],
            [
              112.84076085832575,
              27.867872250005817
            ],
            [
              112.8419624879644,
              27.869086270744347
            ],
            [
              112.84187665727592,
              27.869845026798686
            ],
            [
              112.84260621812798,
              27.87037615287531
            ],
            [
              112.84359327104545,
              27.870262340363766
            ],
            [
              112.84569612291315,
              27.86453362284304
            ],
            [
              112.84947267320612,
              27.864457743757583
            ],
            [
              112.85367837694147,
              27.86423010618246
            ],
            [
              112.85475126054745,
              27.864305985427308
            ],
            [
              112.85505166795711,
              27.865899437296335
            ],
            [
              112.85766950395565,
              27.866165010329993
            ],
            [
              112.85844198015192,
              27.868327509376726
            ],
            [
              112.85832359214993,
              27.873734696920437
            ],
            [
              112.85722805237685,
              27.87391994273088
            ],
            [
              112.85569913520543,
              27.87369468750387
            ],
            [
              112.85400033834824,
              27.873281718371203
            ],
            [
              112.85281118054824,
              27.873431889147028
            ],
            [
              112.8524714211768,
              27.874483078749293
            ],
            [
              112.85111238369107,
              27.874483078749293
            ],
            [
              112.85026298526252,
              27.873281718371203
            ],
            [
              112.84139008483506,
              27.87284415383192
            ],
            [
              112.84138049140958,
              27.873973452059104
            ],
            [
              112.84106196699885,
              27.875118491655584
            ],
            [
              112.84315077567612,
              27.875579668501672
            ],
            [
              112.84375880700958,
              27.87526865988525
            ],
            [
              112.8449565947394,
              27.876873967707084
            ],
            [
              112.84505413961314,
              27.878647390015985
            ],
            [
              112.84590197396572,
              27.87846782767575
            ],
            [
              112.847666039781,
              27.88255156912551
            ],
            [
              112.84719061823358,
              27.883288786409665
            ],
            [
              112.847814684506,
              27.883658978922313
            ],
            [
              112.84763916214057,
              27.88649695241726
            ],
            [
              112.84722846268102,
              27.887195013403357
            ],
            [
              112.84706203135147,
              27.888257418251087
            ],
            [
              112.84654612502041,
              27.889547782706174
            ],
            [
              112.84736310765129,
              27.89030700652002
            ],
            [
              112.84754888221622,
              27.893115837923744
            ],
            [
              112.84573903825739,
              27.893743122235094
            ],
            [
              112.84659734514216,
              27.89465342158239
            ],
            [
              112.8465115144537,
              27.895677499197078
            ],
            [
              112.84512242865213,
              27.89709798960945
            ]
          ]
        ]
      },
      "properties": {
        "sourceFileId": "file_1776047216855_62_g2",
        "sourceFileName": "长城中学（小学部）.geojson",
        "sourceGroupId": 2,
        "name": "长城中学（小学部）",
        "id": "imported_1776047216855_62_0_g2",
        "sourceFile": "长城中学（小学部）.geojson",
        "isAssistFeature": false
      },
      "id": "imported_1776047216855_62_0_g2"
    }
  ],
  "properties": {
    "fileName": "长城中学（小学部）.geojson",
    "exportTime": "2026/4/13 10:41:36",
    "isStarred": false
  }
}