{
  "type": "FeatureCollection",
  "features": [
    {
      "type": "Feature",
      "geometry": {
        "type": "Polygon",
        "coordinates": [
          [
            [
              112.98777786505917,
              27.864521169464766
            ],
            [
              112.98676188446628,
              27.8522827360337
            ],
            [
              112.99608457849408,
              27.848762098158204
            ],
            [
              112.99874698747323,
              27.847616874361577
            ],
            [
              112.9998982994642,
              27.845517265992257
            ],
            [
              113.00076178345745,
              27.84430838212974
            ],
            [
              113.0022728804456,
              27.842590471358648
            ],
            [
              113.00248875144392,
              27.841063416721894
            ],
            [
              113.00256070844337,
              27.839154568197458
            ],
            [
              113.00076178345745,
              27.834827720535785
            ],
            [
              112.9935660835138,
              27.832155169607802
            ],
            [
              112.98637038357015,
              27.83240970110333
            ],
            [
              112.98549190872514,
              27.821512133378107
            ],
            [
              112.98841285292973,
              27.81499752923517
            ],
            [
              112.99819166613645,
              27.819041122642872
            ],
            [
              113.00352556424922,
              27.82420771731502
            ],
            [
              113.00695449875028,
              27.830272536451076
            ],
            [
              113.01025643567722,
              27.833080208327843
            ],
            [
              113.02003524888396,
              27.837796933551516
            ],
            [
              113.02587713729314,
              27.841165897462588
            ],
            [
              113.02473415912614,
              27.868338379728954
            ],
            [
              113.02143222219918,
              27.869011991111506
            ],
            [
              113.00530353028681,
              27.866766603551525
            ],
            [
              112.9974296806918,
              27.865419348682536
            ],
            [
              112.98777786505917,
              27.864521169464766
            ]
          ]
        ]
      },
      "properties": {
        "sourceFileId": "file_1774582980424",
        "sourceFileName": "长郡湘潭高新实验学校教育集团长郡实校小学部.geojson",
        "name": "长郡湘潭高新实验学校教育集团长郡实校小学部",
        "id": "polygon_1774582824288_imported_1774582980425",
        "sourceFile": "长郡湘潭高新实验学校教育集团长郡实校小学部.geojson",
        "isAssistFeature": false
      },
      "id": "polygon_1774582824288_imported_1774582980425"
    }
  ],
  "properties": {
    "fileName": "长郡湘潭高新实验学校教育集团长郡实校小学部.geojson",
    "exportTime": "2026/3/27 11:43:47",
    "isStarred": false
  }
}