{
  "type": "FeatureCollection",
  "features": [
    {
      "type": "Feature",
      "geometry": {
        "type": "Polygon",
        "coordinates": [
          [
            [
              112.98557833116953,
              27.86412249897053
            ],
            [
              112.98568081787252,
              27.864005994838948
            ],
            [
              112.98640660359342,
              27.8565627419503
            ],
            [
              112.98153304749455,
              27.85762351109568
            ],
            [
              112.97184679731576,
              27.85973177145692
            ],
            [
              112.96419756053409,
              27.861396636780157
            ],
            [
              112.96318146052484,
              27.842915451025988
            ],
            [
              112.95935276193961,
              27.842382963600357
            ],
            [
              112.95139834700768,
              27.841381175652657
            ],
            [
              112.95136994946043,
              27.841204036629406
            ],
            [
              112.95137042705265,
              27.83701538314463
            ],
            [
              112.95137080806228,
              27.833673677092193
            ],
            [
              112.95116876411575,
              27.832991595062538
            ],
            [
              112.95147654214864,
              27.81775066243989
            ],
            [
              112.95580844037183,
              27.806324488047892
            ],
            [
              112.96656082911291,
              27.808557416225725
            ],
            [
              112.97172558337957,
              27.810369612766948
            ],
            [
              112.98777473713382,
              27.814522449142316
            ],
            [
              112.99665299240215,
              27.81924138863893
            ],
            [
              113.00352556424922,
              27.82420771731502
            ],
            [
              113.00695449875028,
              27.830272536451076
            ],
            [
              113.01025643567722,
              27.833080208327843
            ],
            [
              113.02003524888396,
              27.837796933551516
            ],
            [
              113.02582925212332,
              27.842091876019737
            ],
            [
              113.03201359216237,
              27.847903117173516
            ],
            [
              113.03438389670696,
              27.849655955020097
            ],
            [
              113.03966111969291,
              27.85205702873985
            ],
            [
              113.03656200000002,
              27.858469
            ],
            [
              113.036281,
              27.859538
            ],
            [
              113.03659399999998,
              27.862423000000007
            ],
            [
              113.036997,
              27.86406700000002
            ],
            [
              113.03698200000001,
              27.865026
            ],
            [
              113.03677600000002,
              27.865417000000022
            ],
            [
              113.036013,
              27.865403999999998
            ],
            [
              113.034037,
              27.865647999999993
            ],
            [
              113.03332,
              27.866426000000004
            ],
            [
              113.03285399999999,
              27.867317999999997
            ],
            [
              113.032694,
              27.868728000000004
            ],
            [
              113.03282883048611,
              27.869682769165053
            ],
            [
              113.03273484106397,
              27.869730754050536
            ],
            [
              113.03206802768736,
              27.87005823772354
            ],
            [
              113.03190255773036,
              27.8707470989969
            ],
            [
              113.03055729769432,
              27.871570498579104
            ],
            [
              113.03026516189128,
              27.871804800595996
            ],
            [
              113.02897323163901,
              27.87207197040172
            ],
            [
              113.0266594302991,
              27.873049209465535
            ],
            [
              113.02480717091957,
              27.87296188299368
            ],
            [
              113.02330066662421,
              27.87507953009269
            ],
            [
              113.02176946553713,
              27.875603477625873
            ],
            [
              113.02085568424323,
              27.875297841872822
            ],
            [
              113.01823274322672,
              27.873963569630902
            ],
            [
              113.01569678859413,
              27.87535260725099
            ],
            [
              113.01691031289684,
              27.87828190542679
            ],
            [
              113.01495919129874,
              27.878191251145424
            ],
            [
              113.01336852261606,
              27.8780016110764
            ],
            [
              113.0114497756306,
              27.87786027204804
            ],
            [
              113.00868012884379,
              27.875682672977334
            ],
            [
              113.00945802903784,
              27.872560761087158
            ],
            [
              113.00657979831986,
              27.87223068584882
            ],
            [
              113.00597303616851,
              27.873564733755742
            ],
            [
              113.00041882878298,
              27.87386729903683
            ],
            [
              112.99710877022062,
              27.872925107389918
            ],
            [
              112.9955925389702,
              27.8724935169966
            ],
            [
              112.99495796942078,
              27.87240947672774
            ],
            [
              112.98921619897087,
              27.87258100753887
            ],
            [
              112.9894340110252,
              27.871054401416814
            ],
            [
              112.98906061893206,
              27.869018893126764
            ],
            [
              112.98761372457112,
              27.868578778198383
            ],
            [
              112.98660018910839,
              27.86532700182525
            ],
            [
              112.98557833116953,
              27.86412249897053
            ]
          ]
        ]
      },
      "properties": {
        "sourceFileId": "file_1775721842075_63_g1",
        "sourceFileName": "长郡湘潭高新实验学校教育集团长郡实校小学部.geojson",
        "name": "长郡湘潭高新实验学校教育集团长郡实校小学部",
        "id": "imported_1775721842075_63_0_g1",
        "sourceFile": "长郡湘潭高新实验学校教育集团长郡实校小学部.geojson",
        "isAssistFeature": false,
        "sourceGroupId": 1
      },
      "id": "imported_1775721842075_63_0_g1"
    }
  ],
  "properties": {
    "fileName": "长郡湘潭高新实验学校教育集团长郡实校小学部.geojson",
    "exportTime": "2026/4/9 16:07:04",
    "isStarred": false
  }
}