{
  "type": "FeatureCollection",
  "features": [
    {
      "type": "Feature",
      "geometry": {
        "type": "Polygon",
        "coordinates": [
          [
            [
              112.92875222254541,
              27.825848439586537
            ],
            [
              112.93553284693508,
              27.81833347290943
            ],
            [
              112.9432286495334,
              27.817974745972265
            ],
            [
              112.94404142256082,
              27.815034670195416
            ],
            [
              112.94427745695411,
              27.815177008265962
            ],
            [
              112.94513576383888,
              27.81519598666128
            ],
            [
              112.94550054426492,
              27.815452194673384
            ],
            [
              112.94569366331397,
              27.815774826125093
            ],
            [
              112.94607876907901,
              27.81685683690651
            ],
            [
              112.94590845942254,
              27.817368975341182
            ],
            [
              112.94591085854829,
              27.81795576806259
            ],
            [
              112.95147654214864,
              27.81775066243989
            ],
            [
              112.95131193460433,
              27.818310013551724
            ],
            [
              112.95116205089961,
              27.833679960750956
            ],
            [
              112.92674473249193,
              27.831171062076592
            ],
            [
              112.92733601618555,
              27.82934006527563
            ],
            [
              112.92875222254541,
              27.825848439586537
            ]
          ]
        ]
      },
      "properties": {
        "sourceFileId": "file_1775627444264_65_g1",
        "sourceFileName": "长郡湘潭高新实验小学（万达旁）.geojson",
        "name": "长郡湘潭高新实验小学（万达旁）",
        "id": "imported_1775627444264_65_0_g1",
        "sourceFile": "长郡湘潭高新实验小学（万达旁）.geojson",
        "sourceGroupId": 1,
        "isAssistFeature": false
      },
      "id": "imported_1775627444264_65_0_g1"
    }
  ],
  "properties": {
    "fileName": "长郡湘潭高新实验小学（万达旁）.geojson",
    "exportTime": "2026/4/8 15:19:52",
    "isStarred": false
  }
}