{
  "type": "FeatureCollection",
  "features": [
    {
      "type": "Feature",
      "geometry": {
        "type": "Polygon",
        "coordinates": [
          [
            [
              112.76634476627085,
              28.002656801773412
            ],
            [
              112.76640426887862,
              28.002438174095147
            ],
            [
              112.76764250756459,
              28.002502484051007
            ],
            [
              112.76846800002187,
              28.001730758081095
            ],
            [
              112.77101731639029,
              28.00117339642577
            ],
            [
              112.77077452422685,
              27.999737106216756
            ],
            [
              112.7714300626189,
              27.999115423103405
            ],
            [
              112.77339667689678,
              27.998000670647627
            ],
            [
              112.77422216935406,
              27.996735841687
            ],
            [
              112.77413095082686,
              27.994908951715942
            ],
            [
              112.77582141759649,
              27.994489984361806
            ],
            [
              112.77764900051619,
              27.99501914101127
            ],
            [
              112.77894105816912,
              27.99423103485522
            ],
            [
              112.77900056077692,
              27.994110942337684
            ],
            [
              112.7798229486566,
              27.99275052140861
            ],
            [
              112.77991406567418,
              27.992738773046213
            ],
            [
              112.78078349203707,
              27.992626674519713
            ],
            [
              112.78184516056571,
              27.99249134086196
            ],
            [
              112.78188145250319,
              27.992487354135278
            ],
            [
              112.7826479768503,
              27.992866130588425
            ],
            [
              112.78314562105979,
              27.99311247441321
            ],
            [
              112.78317473366153,
              27.993134102238713
            ],
            [
              112.78480877006166,
              27.99306570400752
            ],
            [
              112.78512937788824,
              27.99366491383921
            ],
            [
              112.78605489865075,
              27.995451577204406
            ],
            [
              112.78603568009355,
              27.995472128190045
            ],
            [
              112.78542611478278,
              27.996123964172753
            ],
            [
              112.78495365843551,
              27.996629180670055
            ],
            [
              112.78499226173821,
              27.996652155419696
            ],
            [
              112.78503626481411,
              27.996695274010406
            ],
            [
              112.78550957366257,
              27.997052138957443
            ],
            [
              112.78611513158887,
              27.997501936131613
            ],
            [
              112.78625389974069,
              27.99760982968418
            ],
            [
              112.78719716492499,
              27.998619045511717
            ],
            [
              112.78770826320256,
              27.998894436480455
            ],
            [
              112.7893802390504,
              27.99981485085651
            ],
            [
              112.78947374289164,
              27.999739796640057
            ],
            [
              112.79160726504763,
              27.998032401017028
            ],
            [
              112.79486333366076,
              27.995419952363832
            ],
            [
              112.79542867131684,
              27.994978591725413
            ],
            [
              112.79650670265838,
              27.994313605373577
            ],
            [
              112.79783086340464,
              27.99438142615162
            ],
            [
              112.79881466686275,
              27.994431814593568
            ],
            [
              112.80055737515774,
              27.994584003012747
            ],
            [
              112.80076385292577,
              27.9946020341514
            ],
            [
              112.80132485441399,
              27.994818291771935
            ],
            [
              112.80219896728771,
              27.99515524883219
            ],
            [
              112.80376268626235,
              27.995466268831507
            ],
            [
              112.80473727929386,
              27.99556083473061
            ],
            [
              112.80593142327581,
              27.99509273267921
            ],
            [
              112.80597195076983,
              27.995030602779252
            ],
            [
              112.80651528059977,
              27.99420481933501
            ],
            [
              112.80751262975409,
              27.99406933377614
            ],
            [
              112.80796989828484,
              27.992983445060702
            ],
            [
              112.80619695269736,
              27.99205126039294
            ],
            [
              112.80575947495062,
              27.991821074527437
            ],
            [
              112.80424702372756,
              27.991025271268157
            ],
            [
              112.80230252776863,
              27.99000213041805
            ],
            [
              112.80094183972629,
              27.989286168063956
            ],
            [
              112.8004169181732,
              27.9880244915593
            ],
            [
              112.79978503871074,
              27.986790313017337
            ],
            [
              112.80152002868084,
              27.98530549699747
            ],
            [
              112.80305153137442,
              27.984454319156043
            ],
            [
              112.80379207105359,
              27.983471451422773
            ],
            [
              112.80395651036133,
              27.98325320130421
            ],
            [
              112.8051567242596,
              27.982638300969697
            ],
            [
              112.80535949557878,
              27.982534416018368
            ],
            [
              112.80516671981377,
              27.98165011426464
            ],
            [
              112.80510508370718,
              27.980628063303286
            ],
            [
              112.80508639605432,
              27.980318173007888
            ],
            [
              112.80471155244246,
              27.97972705140866
            ],
            [
              112.80415999673947,
              27.978852184607362
            ],
            [
              112.8037628425692,
              27.978769658573256
            ],
            [
              112.80315862942092,
              27.97864410664117
            ],
            [
              112.80194842086678,
              27.978398196232646
            ],
            [
              112.80195242735296,
              27.978053973871667
            ],
            [
              112.80195558852444,
              27.97778237810101
            ],
            [
              112.80196612666101,
              27.976876880714613
            ],
            [
              112.80233812171511,
              27.976467216581582
            ],
            [
              112.80285504017736,
              27.975897949508948
            ],
            [
              112.80264421815662,
              27.975858980510722
            ],
            [
              112.80170373595305,
              27.975685137512087
            ],
            [
              112.80056314054524,
              27.974554860428157
            ],
            [
              112.8005484162594,
              27.97344425398863
            ],
            [
              112.800547075973,
              27.973343160747476
            ],
            [
              112.79999646978928,
              27.97311928026278
            ],
            [
              112.79946538489499,
              27.972903336927374
            ],
            [
              112.79947718516456,
              27.972812880622328
            ],
            [
              112.79948421538,
              27.97277433892708
            ],
            [
              112.79964970930982,
              27.971640620630254
            ],
            [
              112.79893750698628,
              27.97136158905961
            ],
            [
              112.79791472023807,
              27.972387854930048
            ],
            [
              112.79677243240427,
              27.971990098915114
            ],
            [
              112.79630988986443,
              27.971006334529378
            ],
            [
              112.79600225910045,
              27.969630644506665
            ],
            [
              112.79579722223014,
              27.968235685118387
            ],
            [
              112.79587614371941,
              27.96769288458667
            ],
            [
              112.79604890322328,
              27.966504676929546
            ],
            [
              112.79513782737052,
              27.966054547334224
            ],
            [
              112.79470999663167,
              27.965843171046515
            ],
            [
              112.79465127196491,
              27.9658141573846
            ],
            [
              112.79488230068966,
              27.96539115273272
            ],
            [
              112.79523667888276,
              27.964730212876447
            ],
            [
              112.79515900066178,
              27.964697098494923
            ],
            [
              112.79412433459227,
              27.96409854176123
            ],
            [
              112.79412859799662,
              27.964045096342304
            ],
            [
              112.79426007182838,
              27.96239702213147
            ],
            [
              112.79426356178321,
              27.962353277288756
            ],
            [
              112.79316100643442,
              27.962317094729173
            ],
            [
              112.7925446372837,
              27.96229652076279
            ],
            [
              112.79202852461025,
              27.962984202472953
            ],
            [
              112.79191611392716,
              27.963130851066865
            ],
            [
              112.79189965499455,
              27.963162077550564
            ],
            [
              112.79181829817249,
              27.96326431256341
            ],
            [
              112.79179219133371,
              27.963450026309417
            ],
            [
              112.79174626765978,
              27.963776714407302
            ],
            [
              112.79162016665175,
              27.9646737575152
            ],
            [
              112.79071970978399,
              27.964678866379856
            ],
            [
              112.79067234790729,
              27.964683216729895
            ],
            [
              112.7905099334022,
              27.964797030329805
            ],
            [
              112.78938181559369,
              27.96558657584825
            ],
            [
              112.78860828887898,
              27.965106202734376
            ],
            [
              112.78769296668986,
              27.964548729501246
            ],
            [
              112.78689345979878,
              27.96422039023524
            ],
            [
              112.7866240388754,
              27.964110927193744
            ],
            [
              112.78576084322732,
              27.964400464242487
            ],
            [
              112.78553097871915,
              27.964477566296523
            ],
            [
              112.78509053293872,
              27.964625302234495
            ],
            [
              112.78518395233839,
              27.96447766626831
            ],
            [
              112.7859210945892,
              27.963318052733456
            ],
            [
              112.7857569337592,
              27.963271616137405
            ],
            [
              112.78480213061341,
              27.96303080422763
            ],
            [
              112.78463284669135,
              27.962986377285432
            ],
            [
              112.78461524240676,
              27.962960273978823
            ],
            [
              112.78397385517533,
              27.96229936446126
            ],
            [
              112.7831612014401,
              27.961454677189593
            ],
            [
              112.78175287573826,
              27.96127751975081
            ],
            [
              112.78099903380635,
              27.960615610490507
            ],
            [
              112.7806694769629,
              27.960326241815906
            ],
            [
              112.77989422009291,
              27.96022517754426
            ],
            [
              112.77958645817488,
              27.960185201541208
            ],
            [
              112.77879706900882,
              27.960095389971485
            ],
            [
              112.77873256727649,
              27.960082767627384
            ],
            [
              112.77804947306309,
              27.95990899997929
            ],
            [
              112.77744771860372,
              27.959758788333858
            ],
            [
              112.77740833646168,
              27.959661416303277
            ],
            [
              112.77737612646882,
              27.959564628173453
            ],
            [
              112.77730720772027,
              27.959404487435066
            ],
            [
              112.77703798352793,
              27.95876577168113
            ],
            [
              112.77700124333109,
              27.95867860673738
            ],
            [
              112.77699853580886,
              27.958497821755586
            ],
            [
              112.7770055175152,
              27.958071979531297
            ],
            [
              112.777003770292,
              27.957969059592656
            ],
            [
              112.77700925810007,
              27.957541041153803
            ],
            [
              112.77697954901699,
              27.95751704797472
            ],
            [
              112.776459249296,
              27.957096846704587
            ],
            [
              112.77546962655147,
              27.95628851438049
            ],
            [
              112.77540278560609,
              27.956246808704577
            ],
            [
              112.77487952593629,
              27.956497274216076
            ],
            [
              112.77451682754706,
              27.95670264705919
            ],
            [
              112.77366463715951,
              27.957150032922073
            ],
            [
              112.77365610046934,
              27.957191191541213
            ],
            [
              112.77365435055117,
              27.957223958300915
            ],
            [
              112.77353726234041,
              27.95895377914674
            ],
            [
              112.77329615900973,
              27.959449053914284
            ],
            [
              112.77290072511325,
              27.96026135128362
            ],
            [
              112.77318931877974,
              27.96065403671706
            ],
            [
              112.77360300284957,
              27.961216929499344
            ],
            [
              112.77346417001904,
              27.962532150761447
            ],
            [
              112.77304587130362,
              27.9629314102951
            ],
            [
              112.77292843005493,
              27.962821501620482
            ],
            [
              112.77290697289608,
              27.962801160227812
            ],
            [
              112.77200686996451,
              27.961957095770586
            ],
            [
              112.77067898659976,
              27.9605798272499
            ],
            [
              112.77143799743779,
              27.959575695391322
            ],
            [
              112.77181994762189,
              27.958389876375307
            ],
            [
              112.77100021695881,
              27.957105632124637
            ],
            [
              112.7715798539976,
              27.955803738066848
            ],
            [
              112.77169230690147,
              27.95458338103049
            ],
            [
              112.7728329023093,
              27.95367519973199
            ],
            [
              112.77448756851993,
              27.952908915372873
            ],
            [
              112.77537019832087,
              27.952291250470182
            ],
            [
              112.77562723417142,
              27.95099990065482
            ],
            [
              112.77738364357116,
              27.951283715064136
            ],
            [
              112.77909185835584,
              27.95083434170651
            ],
            [
              112.77918750647574,
              27.950478660931623
            ],
            [
              112.77929134992597,
              27.95009250575947
            ],
            [
              112.77942386221014,
              27.949599737698932
            ],
            [
              112.77938730257469,
              27.9495392194533
            ],
            [
              112.7792748847051,
              27.94935313261871
            ],
            [
              112.77861158127573,
              27.94825515321969
            ],
            [
              112.77581988776556,
              27.947710811916835
            ],
            [
              112.7758752248854,
              27.946145387757554
            ],
            [
              112.77702144823849,
              27.94472223477925
            ],
            [
              112.77860650040448,
              27.944405288868182
            ],
            [
              112.77872509778491,
              27.942459054521862
            ],
            [
              112.77728934382252,
              27.94009000987343
            ],
            [
              112.77594407087045,
              27.940170935419843
            ],
            [
              112.77459497468855,
              27.940061112299347
            ],
            [
              112.77283759510834,
              27.93986221538806
            ],
            [
              112.77080532116973,
              27.939017027995135
            ],
            [
              112.76965499880401,
              27.93788752641123
            ],
            [
              112.76766470493524,
              27.93527383076605
            ],
            [
              112.7661118834233,
              27.93637444920944
            ],
            [
              112.76523156947914,
              27.937292002696225
            ],
            [
              112.76580855379291,
              27.938902660258236
            ],
            [
              112.76487669002617,
              27.939374804349853
            ],
            [
              112.76405175991427,
              27.93990833746723
            ],
            [
              112.76352888651996,
              27.9402480769985
            ],
            [
              112.76259086659859,
              27.940751746569575
            ],
            [
              112.76270218852359,
              27.94153254396224
            ],
            [
              112.76548123016126,
              27.942630832955217
            ],
            [
              112.76314059063672,
              27.944004749028522
            ],
            [
              112.7630157760162,
              27.944052430304453
            ],
            [
              112.7610596037552,
              27.944874586972077
            ],
            [
              112.76013192523938,
              27.945077229030346
            ],
            [
              112.75877045386615,
              27.9463227953985
            ],
            [
              112.75818672949283,
              27.94686907997422
            ],
            [
              112.75806027634523,
              27.94768985188213
            ],
            [
              112.75912361843525,
              27.949260542588362
            ],
            [
              112.7598786605164,
              27.949827403727667
            ],
            [
              112.75775811721965,
              27.94978010113674
            ],
            [
              112.75561615539158,
              27.94926922707316
            ],
            [
              112.75549834673195,
              27.94916516001433
            ],
            [
              112.75425065417595,
              27.948081908527186
            ],
            [
              112.75365090475631,
              27.94755683535824
            ],
            [
              112.7524246307316,
              27.946889847334177
            ],
            [
              112.75024540948047,
              27.946401795861505
            ],
            [
              112.74775876317959,
              27.94739948201567
            ],
            [
              112.74566839519154,
              27.94790707249213
            ],
            [
              112.74462816495715,
              27.94809960700762
            ],
            [
              112.74483621118368,
              27.94858969180136
            ],
            [
              112.74344923753786,
              27.949202294467497
            ],
            [
              112.74231984412158,
              27.951057584403088
            ],
            [
              112.74144983924369,
              27.952758805872378
            ],
            [
              112.74120258963981,
              27.953242276252524
            ],
            [
              112.74500798703232,
              27.95785300119212
            ],
            [
              112.74786122142766,
              27.962180340857657
            ],
            [
              112.74869886898905,
              27.96322471536145
            ],
            [
              112.7501693787698,
              27.964700104782267
            ],
            [
              112.75146761593358,
              27.966646027103593
            ],
            [
              112.75286598650541,
              27.968742001024026
            ],
            [
              112.75403798701558,
              27.972660001392498
            ],
            [
              112.75413298655184,
              27.973794000932685
            ],
            [
              112.75275298652754,
              27.975682001422385
            ],
            [
              112.75297798665844,
              27.976875001302943
            ],
            [
              112.75316340881456,
              27.9772519151185
            ],
            [
              112.75466198645631,
              27.980410000997594
            ],
            [
              112.75487998691453,
              27.984025000872748
            ],
            [
              112.75579198713372,
              27.985794000822438
            ],
            [
              112.75605645744155,
              27.98615687833552
            ],
            [
              112.75806598693548,
              27.98894800120034
            ],
            [
              112.7589259863778,
              27.990150001152273
            ],
            [
              112.75946498632804,
              27.991574001155115
            ],
            [
              112.75975659653726,
              27.992748261528575
            ],
            [
              112.76032398684374,
              27.99503300142176
            ],
            [
              112.76007998644626,
              28.00000400111466
            ],
            [
              112.75813598635739,
              28.005679000858166
            ],
            [
              112.75888198689518,
              28.006422001161496
            ],
            [
              112.76150142665298,
              28.00738507454406
            ],
            [
              112.7616321441032,
              28.0074283887038
            ],
            [
              112.76175821906007,
              28.007479487223534
            ],
            [
              112.76305373971846,
              28.007175596289443
            ],
            [
              112.76448621213513,
              28.006082363686673
            ],
            [
              112.76479569792018,
              28.005771615437226
            ],
            [
              112.76572445171936,
              28.00483906550768
            ],
            [
              112.76634476627085,
              28.002656801773412
            ]
          ]
        ]
      },
      "properties": {
        "name": "长龙学校",
        "isAssistFeature": false,
        "sourceFileId": "file_1776680404460_67_g1",
        "sourceFileName": "长龙学校.geojson",
        "sourceGroupId": 1,
        "id": "imported_1776680404460_67_0_g1",
        "sourceFile": "长龙学校.geojson"
      },
      "id": "imported_1776680404460_67_0_g1"
    }
  ],
  "properties": {
    "fileName": "长龙学校.geojson",
    "exportTime": "2026/4/20 18:39:56",
    "isStarred": false
  }
}