{
  "type": "FeatureCollection",
  "features": [
    {
      "type": "Feature",
      "geometry": {
        "type": "Polygon",
        "coordinates": [
          [
            [
              112.8345638054156,
              28.02478157256317
            ],
            [
              112.83589198612273,
              28.024654001373918
            ],
            [
              112.83794370589229,
              28.024954170689767
            ],
            [
              112.83808003062654,
              28.02498369101039
            ],
            [
              112.8400507753581,
              28.02546288143462
            ],
            [
              112.84040669326357,
              28.025546275707356
            ],
            [
              112.84296198522523,
              28.02614500116991
            ],
            [
              112.84403798547594,
              28.02604600164328
            ],
            [
              112.84507998539142,
              28.024758001145784
            ],
            [
              112.8459266709029,
              28.023201460989597
            ],
            [
              112.8463299857194,
              28.022460001464978
            ],
            [
              112.84696418283522,
              28.0210363866708
            ],
            [
              112.84702686817407,
              28.020890474240105
            ],
            [
              112.84805806854324,
              28.018405517073006
            ],
            [
              112.84813215709629,
              28.018224461080067
            ],
            [
              112.84925721164969,
              28.015414589019258
            ],
            [
              112.85023598544053,
              28.012970001219657
            ],
            [
              112.85080206420675,
              28.01228599455989
            ],
            [
              112.85130802412083,
              28.011674628064483
            ],
            [
              112.85199415913146,
              28.010845542873923
            ],
            [
              112.85335741815214,
              28.00899655211684
            ],
            [
              112.85385618795071,
              28.00830548380317
            ],
            [
              112.85432298580999,
              28.00765400147698
            ],
            [
              112.85488962871818,
              28.005928270565477
            ],
            [
              112.85523195691002,
              28.004839891155683
            ],
            [
              112.85546898548259,
              28.004168001140442
            ],
            [
              112.85277694388354,
              28.001927205139367
            ],
            [
              112.84955473816338,
              28.00348516319461
            ],
            [
              112.84663940952068,
              28.001588515590186
            ],
            [
              112.84594893744386,
              28.003281952689846
            ],
            [
              112.84418439559587,
              28.00179172928881
            ],
            [
              112.8426500129035,
              27.999556355938935
            ],
            [
              112.84119234813298,
              27.999691834599986
            ],
            [
              112.84057859487633,
              27.99847252210529
            ],
            [
              112.83858389656774,
              27.997253195814466
            ],
            [
              112.8389674924654,
              27.995966113722645
            ],
            [
              112.8380468621313,
              27.994746759074218
            ],
            [
              112.83482465641117,
              27.99623707990142
            ],
            [
              112.8339807457956,
              27.997591898989825
            ],
            [
              112.8296077523824,
              27.996846750122984
            ],
            [
              112.82891728030555,
              27.99583063037778
            ],
            [
              112.8268458622784,
              27.996101596897176
            ],
            [
              112.82588429751347,
              27.998191527044668
            ],
            [
              112.82584851312411,
              27.998269302147065
            ],
            [
              112.82414536753254,
              27.997899067410174
            ],
            [
              112.82165120772261,
              27.995614016263133
            ],
            [
              112.82046802588212,
              27.995770725819284
            ],
            [
              112.82005391241759,
              27.994046909756293
            ],
            [
              112.819403162046,
              27.993576773678456
            ],
            [
              112.81390136720634,
              27.99362901147427
            ],
            [
              112.81360557174621,
              27.9919051611582
            ],
            [
              112.81467043558234,
              27.99086039006994
            ],
            [
              112.81488909360733,
              27.98965363303745
            ],
            [
              112.81490707159111,
              27.98955441276344
            ],
            [
              112.80897029452458,
              27.991698311704425
            ],
            [
              112.80808041891254,
              27.992746004821385
            ],
            [
              112.80804966419049,
              27.992782213662764
            ],
            [
              112.80796989828484,
              27.992983445060702
            ],
            [
              112.80751262975409,
              27.99406933377614
            ],
            [
              112.80651528059977,
              27.99420481933501
            ],
            [
              112.80659200031829,
              27.99691449157457
            ],
            [
              112.80521105526628,
              27.996440303691756
            ],
            [
              112.80398354785474,
              27.997185454575686
            ],
            [
              112.80482745936862,
              27.998878960872062
            ],
            [
              112.8032163560594,
              28.0022658936239
            ],
            [
              112.8008380618531,
              28.004568946608984
            ],
            [
              112.80076134303287,
              28.00653327715166
            ],
            [
              112.80060790449417,
              28.008768505749998
            ],
            [
              112.80237244544381,
              28.009513571378164
            ],
            [
              112.80429042493222,
              28.00985223601333
            ],
            [
              112.80352323313683,
              28.011206883905743
            ],
            [
              112.80274442432825,
              28.011923106681735
            ],
            [
              112.80169352210828,
              28.01290189791264
            ],
            [
              112.8017104751143,
              28.013856066738214
            ],
            [
              112.80191213072595,
              28.01594801735601
            ],
            [
              112.80147198588112,
              28.01644255613222
            ],
            [
              112.80106821921206,
              28.016896219316223
            ],
            [
              112.79892008236472,
              28.017641228718176
            ],
            [
              112.79877947895476,
              28.017785213720614
            ],
            [
              112.7970021028763,
              28.019605320066688
            ],
            [
              112.79718379163413,
              28.02076815849115
            ],
            [
              112.79730897995381,
              28.021569376379915
            ],
            [
              112.79521515075695,
              28.021569376379915
            ],
            [
              112.79493068574749,
              28.021569376379915
            ],
            [
              112.79508412338792,
              28.023194774459995
            ],
            [
              112.79511055272188,
              28.02320760590362
            ],
            [
              112.79516558351621,
              28.02323432505463
            ],
            [
              112.79602353120639,
              28.02365087143147
            ],
            [
              112.79650829537137,
              28.023886231744854
            ],
            [
              112.79661850697865,
              28.023939741072354
            ],
            [
              112.796714065267,
              28.023957817255962
            ],
            [
              112.79876664382599,
              28.024346083747673
            ],
            [
              112.79882708517323,
              28.024398171816316
            ],
            [
              112.8003010274167,
              28.02570054931148
            ],
            [
              112.79881073763168,
              28.028876118650032
            ],
            [
              112.79873398647216,
              28.02902400104965
            ],
            [
              112.7999151327302,
              28.031249719377612
            ],
            [
              112.80063716172464,
              28.032610268608835
            ],
            [
              112.8012585389831,
              28.03389171683996
            ],
            [
              112.80190978163148,
              28.035249928483253
            ],
            [
              112.80279322979763,
              28.03670076328956
            ],
            [
              112.80306291841897,
              28.03714510232369
            ],
            [
              112.80429042493222,
              28.041681955394722
            ],
            [
              112.8053644929067,
              28.04831760442707
            ],
            [
              112.80643856177956,
              28.05414038753645
            ],
            [
              112.80559465116397,
              28.055223660973624
            ],
            [
              112.8053644929067,
              28.057254769842842
            ],
            [
              112.80689887649744,
              28.058473416585628
            ],
            [
              112.8150723274674,
              28.057457623990388
            ],
            [
              112.81545045531996,
              28.057030784692813
            ],
            [
              112.815652918517,
              28.056802239989167
            ],
            [
              112.81663398570679,
              28.055516001359905
            ],
            [
              112.81809581955852,
              28.052096103258407
            ],
            [
              112.82008898623955,
              28.047433001516183
            ],
            [
              112.82148482535898,
              28.046596104164934
            ],
            [
              112.82239898602633,
              28.04604800108075
            ],
            [
              112.82374250097538,
              28.04530608531772
            ],
            [
              112.82476254067548,
              28.044742795234413
            ],
            [
              112.82509898580051,
              28.04455700115369
            ],
            [
              112.82531602595967,
              28.04449113936198
            ],
            [
              112.82554462653825,
              28.044421769221344
            ],
            [
              112.82563776117195,
              28.044393506917643
            ],
            [
              112.82650398593918,
              28.043951001537067
            ],
            [
              112.82739302162643,
              28.04268496404208
            ],
            [
              112.8274849857553,
              28.042554000849194
            ],
            [
              112.82757985773078,
              28.042331630246963
            ],
            [
              112.82808398598002,
              28.041150000865912
            ],
            [
              112.82816298562273,
              28.03990900099909
            ],
            [
              112.82734614483995,
              28.035199318885972
            ],
            [
              112.82684492533558,
              28.033027245731986
            ],
            [
              112.82633098568682,
              28.030800001284845
            ],
            [
              112.82647798599992,
              28.029728000984377
            ],
            [
              112.82713798542568,
              28.0286080011944
            ],
            [
              112.82912545678782,
              28.02727548499864
            ],
            [
              112.82944989323413,
              28.027050171047335
            ],
            [
              112.82956614062176,
              28.026989675644813
            ],
            [
              112.83195721246472,
              28.02559294399154
            ],
            [
              112.83330998545105,
              28.02490200121302
            ],
            [
              112.8345638054156,
              28.02478157256317
            ]
          ]
        ]
      },
      "properties": {
        "name": "陈蒲学校",
        "isAssistFeature": false,
        "sourceFileId": "file_1776680404460_68_g1",
        "sourceFileName": "陈蒲学校.geojson",
        "sourceGroupId": 1,
        "id": "imported_1776680404460_68_0_g1",
        "sourceFile": "陈蒲学校.geojson"
      },
      "id": "imported_1776680404460_68_0_g1"
    }
  ],
  "properties": {
    "fileName": "陈蒲学校.geojson",
    "exportTime": "2026/4/20 18:39:59",
    "isStarred": false
  }
}