{
  "type": "FeatureCollection",
  "features": [
    {
      "type": "Feature",
      "geometry": {
        "type": "Polygon",
        "coordinates": [
          [
            [
              112.82639031181671,
              27.85558552959546
            ],
            [
              112.82733455241409,
              27.855565413216752
            ],
            [
              112.82764171501806,
              27.854921687126918
            ],
            [
              112.82876797789923,
              27.854921687126918
            ],
            [
              112.82925716278703,
              27.85657122758029
            ],
            [
              112.8306223299158,
              27.857989409978003
            ],
            [
              112.83104325644713,
              27.8593774003173
            ],
            [
              112.83054308106607,
              27.8599619553615
            ],
            [
              112.8305223497063,
              27.86108030031086
            ],
            [
              112.82966253078307,
              27.861056545572808
            ],
            [
              112.82941847616999,
              27.86177148370828
            ],
            [
              112.83049809687022,
              27.86212940881356
            ],
            [
              112.83062982707169,
              27.863313222441093
            ],
            [
              112.83181207809113,
              27.863669535546194
            ],
            [
              112.83319145517986,
              27.86374207370787
            ],
            [
              112.83486321377849,
              27.864219663028592
            ],
            [
              112.83597924599451,
              27.86517886113998
            ],
            [
              112.83648935239889,
              27.865566895354704
            ],
            [
              112.83711808819966,
              27.866374421563407
            ],
            [
              112.83737907287168,
              27.866730989662486
            ],
            [
              112.83733450093833,
              27.868394569901795
            ],
            [
              112.83725881336214,
              27.869348316282768
            ],
            [
              112.83767560348164,
              27.869412394362058
            ],
            [
              112.83806823185508,
              27.869326956914577
            ],
            [
              112.83899845907833,
              27.869182781069213
            ],
            [
              112.83987432237295,
              27.868969186871624
            ],
            [
              112.83973808160066,
              27.867900772099617
            ],
            [
              112.84082138556109,
              27.867915735702454
            ],
            [
              112.84202317589225,
              27.869142744102234
            ],
            [
              112.84186909928694,
              27.869698360433176
            ],
            [
              112.84265788622375,
              27.87035146693738
            ],
            [
              112.84358195095317,
              27.87021809864487
            ],
            [
              112.84414770486914,
              27.868434281951224
            ],
            [
              112.84509062806241,
              27.865916883196505
            ],
            [
              112.84556208965905,
              27.8645664663878
            ],
            [
              112.84665588056325,
              27.86449977870197
            ],
            [
              112.84739136065399,
              27.864416419036985
            ],
            [
              112.84797597303383,
              27.86449977870197
            ],
            [
              112.84829328275305,
              27.864406879584962
            ],
            [
              112.8520064966628,
              27.86435953309035
            ],
            [
              112.85463301077833,
              27.864266371478436
            ],
            [
              112.85460072791851,
              27.863281151969645
            ],
            [
              112.85442623996309,
              27.862449492900595
            ],
            [
              112.85404691832083,
              27.860652014402234
            ],
            [
              112.8532806886035,
              27.85721794276006
            ],
            [
              112.85324492777858,
              27.85571993851083
            ],
            [
              112.85299522424552,
              27.853162660080002
            ],
            [
              112.85163452730544,
              27.849077686383453
            ],
            [
              112.85088368538464,
              27.84917827425801
            ],
            [
              112.85060223205379,
              27.850182158747245
            ],
            [
              112.85057089867081,
              27.85021387569418
            ],
            [
              112.8434550095908,
              27.85027005129693
            ],
            [
              112.84170780468274,
              27.85027005129693
            ],
            [
              112.84139013106312,
              27.85087861846128
            ],
            [
              112.84008766922256,
              27.850897343550628
            ],
            [
              112.83897581155381,
              27.8507007299511
            ],
            [
              112.83763099323066,
              27.850447940513618
            ],
            [
              112.83682246395873,
              27.849822034445822
            ],
            [
              112.83633912051079,
              27.849418051529184
            ],
            [
              112.83416835077655,
              27.84934315013058
            ],
            [
              112.8338987310247,
              27.846693726448777
            ],
            [
              112.83306825435474,
              27.846432191789376
            ],
            [
              112.83213539015011,
              27.84641207371253
            ],
            [
              112.83098637448343,
              27.846864729538922
            ],
            [
              112.82849494447349,
              27.84683455254259
            ],
            [
              112.82825604022595,
              27.84830315662434
            ],
            [
              112.8280626415494,
              27.849771740818753
            ],
            [
              112.8273459288068,
              27.849822034445822
            ],
            [
              112.82732317602132,
              27.85089831247413
            ],
            [
              112.8265382049223,
              27.851019015885896
            ],
            [
              112.8265382049223,
              27.852437270909746
            ],
            [
              112.82639031181671,
              27.85558552959546
            ]
          ]
        ]
      },
      "properties": {
        "sourceFileId": "file_1775484757706_68_g1",
        "sourceFileName": "青亭学校.geojson",
        "name": "青亭学校",
        "id": "imported_1775484757706_68_0_g1",
        "sourceFile": "青亭学校.geojson",
        "isAssistFeature": false,
        "sourceGroupId": 1
      },
      "id": "imported_1775484757706_68_0_g1"
    },
    {
      "type": "Feature",
      "geometry": {
        "type": "Polygon",
        "coordinates": [
          [
            [
              112.81633571843541,
              27.899097913637817
            ],
            [
              112.81604377025984,
              27.89836939566331
            ],
            [
              112.8120767097564,
              27.8946356640716
            ],
            [
              112.81106347785293,
              27.89431692491982
            ],
            [
              112.80888245324715,
              27.893983006706435
            ],
            [
              112.80778335423321,
              27.89311785017979
            ],
            [
              112.80696556019524,
              27.892161116920676
            ],
            [
              112.805626033272,
              27.89237361402492
            ],
            [
              112.80538560536273,
              27.891508444635093
            ],
            [
              112.80308436680228,
              27.891326302829782
            ],
            [
              112.80294697942554,
              27.89082541128508
            ],
            [
              112.80344500866623,
              27.88936825906812
            ],
            [
              112.80502496349875,
              27.889079862033526
            ],
            [
              112.80500779007667,
              27.88750125412743
            ],
            [
              112.80482499634579,
              27.884933901870028
            ],
            [
              112.80429262026092,
              27.883582927487694
            ],
            [
              112.80449870132603,
              27.881852441298136
            ],
            [
              112.80633625748996,
              27.88198905963425
            ],
            [
              112.80987398244108,
              27.883036461152102
            ],
            [
              112.81082330677947,
              27.88379226233569
            ],
            [
              112.81222674126779,
              27.88402313447476
            ],
            [
              112.81354378857286,
              27.885247396596824
            ],
            [
              112.8157999155672,
              27.884869647709152
            ],
            [
              112.81903590207138,
              27.88444641857228
            ],
            [
              112.81995027953165,
              27.883559139278404
            ],
            [
              112.8194930908015,
              27.881986616531265
            ],
            [
              112.82131190683663,
              27.881784558880312
            ],
            [
              112.82269341191245,
              27.881784558880312
            ],
            [
              112.82372402449076,
              27.88260946414583
            ],
            [
              112.82470106677084,
              27.882144748342995
            ],
            [
              112.82517510176464,
              27.88149375621829
            ],
            [
              112.82706348999781,
              27.88166945901665
            ],
            [
              112.8282760340212,
              27.88166945901665
            ],
            [
              112.83246720167678,
              27.88309390298022
            ],
            [
              112.83350848349193,
              27.884613934982724
            ],
            [
              112.83380382252214,
              27.88585768451661
            ],
            [
              112.83454139714121,
              27.886809425879022
            ],
            [
              112.83449302861386,
              27.88798689045838
            ],
            [
              112.8351646355926,
              27.888002987989793
            ],
            [
              112.83655863325846,
              27.88806165958249
            ],
            [
              112.83677896088528,
              27.88896968026937
            ],
            [
              112.83890628826416,
              27.889459791829793
            ],
            [
              112.84001386687305,
              27.890839503451502
            ],
            [
              112.84007435959474,
              27.89191772733227
            ],
            [
              112.84051797288701,
              27.892871189089206
            ],
            [
              112.8416975809597,
              27.893949392733234
            ],
            [
              112.8421311121317,
              27.894831551362586
            ],
            [
              112.84348211624912,
              27.896016662243966
            ],
            [
              112.84522632305742,
              27.897219581070843
            ],
            [
              112.8464361774909,
              27.895847361483973
            ],
            [
              112.84649219310283,
              27.894752321783542
            ],
            [
              112.84579652680358,
              27.89373650138502
            ],
            [
              112.84817590718944,
              27.893077104093877
            ],
            [
              112.84859935624118,
              27.894119662830576
            ],
            [
              112.85024274184666,
              27.89412857354573
            ],
            [
              112.85141226779906,
              27.89331769546284
            ],
            [
              112.85159374596407,
              27.892488989607358
            ],
            [
              112.85324721368987,
              27.891909782823404
            ],
            [
              112.85504183109956,
              27.89308601489485
            ],
            [
              112.85729646447204,
              27.894528343804595
            ],
            [
              112.8570141651042,
              27.895847116688017
            ],
            [
              112.85685285117974,
              27.89819057209587
            ],
            [
              112.85651239340932,
              27.900723124114094
            ],
            [
              112.85651063351989,
              27.901814265652177
            ],
            [
              112.85651374572109,
              27.902617382489012
            ],
            [
              112.85539594277873,
              27.903300762370037
            ],
            [
              112.85536883616257,
              27.904625676657773
            ],
            [
              112.85535618107859,
              27.905580179446815
            ],
            [
              112.85289667958467,
              27.905617272386735
            ],
            [
              112.85192618744648,
              27.90543112736357
            ],
            [
              112.85174027949601,
              27.904522047727895
            ],
            [
              112.8503831514577,
              27.90390868847753
            ],
            [
              112.84853646581651,
              27.903755348121578
            ],
            [
              112.8482452100275,
              27.90484615092764
            ],
            [
              112.8473280641386,
              27.90560736645274
            ],
            [
              112.84625599495766,
              27.905240450285532
            ],
            [
              112.8452706828202,
              27.905719400668332
            ],
            [
              112.84613205632395,
              27.906929666308827
            ],
            [
              112.84710086323442,
              27.907583238045106
            ],
            [
              112.84802420605502,
              27.910315852977803
            ],
            [
              112.8490017376252,
              27.91078223459691
            ],
            [
              112.84875519517831,
              27.911640634441568
            ],
            [
              112.85019288332849,
              27.913436762611994
            ],
            [
              112.84954840243358,
              27.913579137349572
            ],
            [
              112.84931291902967,
              27.91454289987533
            ],
            [
              112.84693530421028,
              27.915425265488253
            ],
            [
              112.8463527926322,
              27.916575188790773
            ],
            [
              112.84841017395057,
              27.9170789608618
            ],
            [
              112.85071543253619,
              27.9202767636215
            ],
            [
              112.85070303867282,
              27.92106524839717
            ],
            [
              112.84650235784774,
              27.922724869688366
            ],
            [
              112.84590897685275,
              27.924870337391084
            ],
            [
              112.84472221486284,
              27.926277630700554
            ],
            [
              112.84416787209122,
              27.92891970541423
            ],
            [
              112.84756419752296,
              27.932327403534657
            ],
            [
              112.84665851074116,
              27.933437986385727
            ],
            [
              112.8431721677591,
              27.93284475721451
            ],
            [
              112.83864561529147,
              27.932082636321255
            ],
            [
              112.83504629109831,
              27.9310065302962
            ],
            [
              112.83583563963903,
              27.929423412453872
            ],
            [
              112.83730850213692,
              27.92844712682529
            ],
            [
              112.83669950585262,
              27.92758483422962
            ],
            [
              112.83557520502005,
              27.92700536974064
            ],
            [
              112.83572355026881,
              27.92627413630919
            ],
            [
              112.83709971876604,
              27.92379509192935
            ],
            [
              112.83673275946651,
              27.92314662063147
            ],
            [
              112.83375023920235,
              27.923008647513043
            ],
            [
              112.83385173858305,
              27.92224895600701
            ],
            [
              112.83495812776016,
              27.920537656874316
            ],
            [
              112.83413832506976,
              27.919482132568433
            ],
            [
              112.83268474059041,
              27.918535133892902
            ],
            [
              112.83317798477526,
              27.917681508500138
            ],
            [
              112.83196779985131,
              27.916798432864525
            ],
            [
              112.82967105993562,
              27.91712002179591
            ],
            [
              112.82982731289974,
              27.91567795665398
            ],
            [
              112.82842103622284,
              27.91618421575602
            ],
            [
              112.82769859030796,
              27.917027111231775
            ],
            [
              112.8256728522581,
              27.916449236999483
            ],
            [
              112.82442869818023,
              27.91698482785607
            ],
            [
              112.82311601992897,
              27.916791209877815
            ],
            [
              112.82213128583042,
              27.915885551129946
            ],
            [
              112.82160877385972,
              27.914766785734386
            ],
            [
              112.82038288039007,
              27.91450041131526
            ],
            [
              112.8198199427343,
              27.912575900411824
            ],
            [
              112.81866364533286,
              27.91242993215363
            ],
            [
              112.81761058877085,
              27.912995558056778
            ],
            [
              112.81310928817247,
              27.912648884467046
            ],
            [
              112.81263438031117,
              27.913816622652504
            ],
            [
              112.81139549023821,
              27.915586451803406
            ],
            [
              112.81056956352292,
              27.915677679325185
            ],
            [
              112.80809178337704,
              27.916042588642725
            ],
            [
              112.80776141269092,
              27.914929611374802
            ],
            [
              112.8082363205522,
              27.913597672703133
            ],
            [
              112.80695613414349,
              27.91157665787918
            ],
            [
              112.80559335506327,
              27.909423586203175
            ],
            [
              112.80617150376395,
              27.90880320166515
            ],
            [
              112.80575854040632,
              27.90812807327218
            ],
            [
              112.80569659590267,
              27.906960273672055
            ],
            [
              112.80648122628222,
              27.90464288401266
            ],
            [
              112.80979260653817,
              27.903548447597743
            ],
            [
              112.81032776870337,
              27.90311776751085
            ],
            [
              112.81406882671918,
              27.90058528927419
            ],
            [
              112.81504771177849,
              27.900888832810608
            ],
            [
              112.81664484003308,
              27.900372808292076
            ],
            [
              112.81633571843541,
              27.899097913637817
            ]
          ]
        ]
      },
      "properties": {
        "sourceFileId": "file_1775484757706_68_g1",
        "sourceFileName": "青亭学校.geojson",
        "name": "青亭学校",
        "id": "imported_1775484757706_68_1_g1",
        "sourceFile": "青亭学校.geojson",
        "isAssistFeature": false,
        "sourceGroupId": 1
      },
      "id": "imported_1775484757706_68_1_g1"
    }
  ],
  "properties": {
    "fileName": "青亭学校.geojson",
    "exportTime": "2026/4/6 22:19:02",
    "isStarred": false
  }
}