{
  "type": "FeatureCollection",
  "features": [
    {
      "type": "Feature",
      "geometry": {
        "type": "Polygon",
        "coordinates": [
          [
            [
              112.90492499233969,
              27.906891935649014
            ],
            [
              112.90562773270837,
              27.90662282744293
            ],
            [
              112.90644085985575,
              27.907409829190044
            ],
            [
              112.90661157030246,
              27.907575053778842
            ],
            [
              112.90696294003764,
              27.907626805289254
            ],
            [
              112.90798749826358,
              27.90730905835666
            ],
            [
              112.90866524570441,
              27.906731142085917
            ],
            [
              112.90952664382361,
              27.904171794040025
            ],
            [
              112.91051756463374,
              27.90342118379351
            ],
            [
              112.91151481138012,
              27.895990572369797
            ],
            [
              112.91936044015343,
              27.896699723037543
            ],
            [
              112.92954850957342,
              27.895554708118993
            ],
            [
              112.9289500204901,
              27.893775154288647
            ],
            [
              112.92703899306369,
              27.88811797962252
            ],
            [
              112.92613769716948,
              27.885446945514687
            ],
            [
              112.92610884867244,
              27.885454083636617
            ],
            [
              112.9170060060994,
              27.88766448169453
            ],
            [
              112.90529153911157,
              27.890505254850837
            ],
            [
              112.90497137056114,
              27.890586897942683
            ],
            [
              112.90466345682788,
              27.890301277460125
            ],
            [
              112.90459582806002,
              27.890238544974324
            ],
            [
              112.90338029069962,
              27.88911100707972
            ],
            [
              112.90492473721815,
              27.88621955833335
            ],
            [
              112.9052631424671,
              27.88558600065052
            ],
            [
              112.90540563772907,
              27.885237787217022
            ],
            [
              112.90580355906059,
              27.88426538928738
            ],
            [
              112.90587409298008,
              27.884093025042233
            ],
            [
              112.9059506060861,
              27.88362210295061
            ],
            [
              112.90599988496763,
              27.88338313910262
            ],
            [
              112.90609945782695,
              27.882821212210885
            ],
            [
              112.906153043232,
              27.882518806922192
            ],
            [
              112.90632470409622,
              27.881172169283943
            ],
            [
              112.90603432996886,
              27.88111934031754
            ],
            [
              112.90354027436352,
              27.88067304124182
            ],
            [
              112.9033020986423,
              27.880630346393446
            ],
            [
              112.90325625761336,
              27.880622128850064
            ],
            [
              112.90303279270329,
              27.880694447021767
            ],
            [
              112.90201236672767,
              27.881024678958838
            ],
            [
              112.89392137660921,
              27.883082828431043
            ],
            [
              112.89359726311646,
              27.883068312520635
            ],
            [
              112.8925010098893,
              27.88364657465337
            ],
            [
              112.88871764457745,
              27.885325556081398
            ],
            [
              112.88775604926978,
              27.886963739799384
            ],
            [
              112.88644609088819,
              27.88919536028085
            ],
            [
              112.88995423575317,
              27.891049903279793
            ],
            [
              112.89578129079428,
              27.892636059118047
            ],
            [
              112.89393659496845,
              27.89436123081552
            ],
            [
              112.90123516051355,
              27.896633381901722
            ],
            [
              112.90129566114958,
              27.896652216179845
            ],
            [
              112.8995057104538,
              27.897503292207617
            ],
            [
              112.89908760128291,
              27.898844963266384
            ],
            [
              112.8957947233027,
              27.899889296623698
            ],
            [
              112.89559962269773,
              27.899388181985913
            ],
            [
              112.89423822768131,
              27.900011547779556
            ],
            [
              112.89353992858337,
              27.90033982258646
            ],
            [
              112.89103224014526,
              27.903492301480725
            ],
            [
              112.88926713415526,
              27.90237134719051
            ],
            [
              112.88860729103641,
              27.903015234219907
            ],
            [
              112.88803583944647,
              27.903575132731845
            ],
            [
              112.88803583944647,
              27.903575132731845
            ],
            [
              112.8903356253885,
              27.904512967680134
            ],
            [
              112.89189727823799,
              27.905907875997073
            ],
            [
              112.89370200172863,
              27.907519878390232
            ],
            [
              112.89536413024433,
              27.909004492506796
            ],
            [
              112.90173676719176,
              27.90943625801323
            ],
            [
              112.90247929663931,
              27.909376199923457
            ],
            [
              112.90386184428576,
              27.909264375221454
            ],
            [
              112.90458456408467,
              27.907651615299585
            ],
            [
              112.90492499233969,
              27.906891935649014
            ]
          ]
        ]
      },
      "properties": {
        "name": "风车坪建元学校",
        "isAssistFeature": false,
        "sourceFileId": "file_1776680404461_74_g1",
        "sourceFileName": "风车坪建元学校.geojson",
        "sourceGroupId": 1,
        "id": "imported_1776680404461_74_0_g1",
        "sourceFile": "风车坪建元学校.geojson"
      },
      "id": "imported_1776680404461_74_0_g1"
    }
  ],
  "properties": {
    "fileName": "风车坪建元学校.geojson",
    "exportTime": "2026/4/20 18:40:18",
    "isStarred": false
  }
}