{
  "type": "FeatureCollection",
  "features": [
    {
      "type": "Feature",
      "geometry": {
        "type": "Polygon",
        "coordinates": [
          [
            [
              112.90121361243703,
              27.862603946260194
            ],
            [
              112.900478379496,
              27.864987246102288
            ],
            [
              112.90013118616274,
              27.866269150855487
            ],
            [
              112.89980441596673,
              27.866269150855487
            ],
            [
              112.89139008341934,
              27.864283094785648
            ],
            [
              112.89257462537988,
              27.862694223724375
            ],
            [
              112.89328943518366,
              27.861430332383094
            ],
            [
              112.89414720694819,
              27.859931699266497
            ],
            [
              112.89475990106575,
              27.85910112259141
            ],
            [
              112.89651629086931,
              27.859931699266497
            ],
            [
              112.89849733518265,
              27.86097893904666
            ],
            [
              112.90009033988822,
              27.861917835075047
            ],
            [
              112.90121361243703,
              27.862603946260194
            ]
          ]
        ]
      },
      "properties": {
        "sourceFileId": "file_1773216214697_1",
        "sourceFileName": "新建文件_2026-03-11T08-03-34.geojson",
        "name": "风车坪本部",
        "id": "polygon_1773216411964",
        "sourceFile": "新建文件_2026-03-11T08-03-34.geojson"
      },
      "id": "polygon_1773216411964"
    }
  ]
}