{
  "type": "FeatureCollection",
  "features": [
    {
      "type": "Feature",
      "geometry": {
        "type": "Polygon",
        "coordinates": [
          [
            [
              112.89259925234371,
              27.869281785492092
            ],
            [
              112.8933922177029,
              27.86861194418698
            ],
            [
              112.89368297181765,
              27.868923498538905
            ],
            [
              112.89445831672253,
              27.86914158652874
            ],
            [
              112.89511912103879,
              27.86900138738399
            ],
            [
              112.89497814931958,
              27.86838606628487
            ],
            [
              112.89496974647841,
              27.86830881071529
            ],
            [
              112.89493409593798,
              27.86798104312618
            ],
            [
              112.89463045099895,
              27.867553316430403
            ],
            [
              112.89517198509662,
              27.86703857951636
            ],
            [
              112.89574500963657,
              27.866415707645473
            ],
            [
              112.89612254549935,
              27.86594706414867
            ],
            [
              112.89629975885039,
              27.865737810223138
            ],
            [
              112.89366691622858,
              27.86514745711645
            ],
            [
              112.89324185319907,
              27.86505214647569
            ],
            [
              112.892469006509,
              27.864857449324788
            ],
            [
              112.88901439404839,
              27.864001561386544
            ],
            [
              112.88896604132995,
              27.863989581420157
            ],
            [
              112.88865490533969,
              27.864620327827424
            ],
            [
              112.88844289305116,
              27.864831758315418
            ],
            [
              112.88792396685425,
              27.8653542375974
            ],
            [
              112.88777514026619,
              27.865497675252556
            ],
            [
              112.89146266881194,
              27.868362699742804
            ],
            [
              112.89259925234371,
              27.869281785492092
            ]
          ]
        ]
      },
      "properties": {
        "name": "风车坪广场学校",
        "isAssistFeature": false,
        "sourceFileId": "file_1776680404461_73_g1",
        "sourceFileName": "风车坪广场学校.geojson",
        "sourceGroupId": 1,
        "id": "imported_1776680404461_73_0_g1",
        "sourceFile": "风车坪广场学校.geojson"
      },
      "id": "imported_1776680404461_73_0_g1"
    }
  ],
  "properties": {
    "fileName": "风车坪广场学校.geojson",
    "exportTime": "2026/4/20 18:40:15",
    "isStarred": false
  }
}