{
  "type": "FeatureCollection",
  "features": [
    {
      "type": "Feature",
      "geometry": {
        "type": "Polygon",
        "coordinates": [
          [
            [
              112.88136120778734,
              27.885474107487966
            ],
            [
              112.88223363421342,
              27.88460301950761
            ],
            [
              112.88384923870618,
              27.882860822524393
            ],
            [
              112.88399464311051,
              27.88216107978087
            ],
            [
              112.88368767825688,
              27.881618419030218
            ],
            [
              112.88399464311051,
              27.880461685722977
            ],
            [
              112.88426929587428,
              27.878305273364333
            ],
            [
              112.88156721820367,
              27.877553018969053
            ],
            [
              112.88177133716499,
              27.87703750137588
            ],
            [
              112.88158179812949,
              27.87607089927573
            ],
            [
              112.88461442269762,
              27.876225556191386
            ],
            [
              112.88464358254924,
              27.875349164083033
            ],
            [
              112.88480875211823,
              27.874162717578827
            ],
            [
              112.88525049940638,
              27.873047013992945
            ],
            [
              112.88444588827441,
              27.87285176468407
            ],
            [
              112.88466676191847,
              27.872224175236482
            ],
            [
              112.88585001358312,
              27.8719870849435
            ],
            [
              112.88610244060493,
              27.87059242565877
            ],
            [
              112.88717525544753,
              27.87003455691817
            ],
            [
              112.88856164243172,
              27.868350207024307
            ],
            [
              112.88811204860092,
              27.868179870436364
            ],
            [
              112.88674721018596,
              27.86735657315336
            ],
            [
              112.88663481172826,
              27.864389812097926
            ],
            [
              112.887325259397,
              27.86492922923999
            ],
            [
              112.88912363472025,
              27.86620678544557
            ],
            [
              112.89254375921888,
              27.86896057759884
            ],
            [
              112.89456693145753,
              27.867271404111875
            ],
            [
              112.8950486391334,
              27.867654664271328
            ],
            [
              112.89586754218236,
              27.87077747430719
            ],
            [
              112.89853299132224,
              27.871430414119743
            ],
            [
              112.89792282826616,
              27.873133716847846
            ],
            [
              112.89758563289304,
              27.87333243375508
            ],
            [
              112.89670250215397,
              27.87357373236668
            ],
            [
              112.89615656678798,
              27.873744060474806
            ],
            [
              112.89490412683071,
              27.874595696998426
            ],
            [
              112.89439833377111,
              27.874680860282595
            ],
            [
              112.89433410608098,
              27.875142160241438
            ],
            [
              112.89465524453155,
              27.875120869517346
            ],
            [
              112.89474355760545,
              27.87541184238441
            ],
            [
              112.89514498066869,
              27.87551119879417
            ],
            [
              112.8950245537497,
              27.876185400595872
            ],
            [
              112.89522290069631,
              27.876728927685804
            ],
            [
              112.89542681090202,
              27.877280934463244
            ],
            [
              112.89543955528987,
              27.877641427166793
            ],
            [
              112.89541406651416,
              27.878373674277213
            ],
            [
              112.89484056906062,
              27.87900452935655
            ],
            [
              112.89545229967773,
              27.87919603820714
            ],
            [
              112.8953503445749,
              27.87980435819233
            ],
            [
              112.89680320479056,
              27.879973335359608
            ],
            [
              112.89731298030485,
              27.88041267476075
            ],
            [
              112.89607677468273,
              27.881730682270828
            ],
            [
              112.89357591447204,
              27.882746710090757
            ],
            [
              112.89008309952622,
              27.88421317802596
            ],
            [
              112.88875874052594,
              27.885229402927862
            ],
            [
              112.88679403211891,
              27.8848049050781
            ],
            [
              112.88517860520648,
              27.88521653938112
            ],
            [
              112.88484387710766,
              27.88598834948155
            ],
            [
              112.88431995486579,
              27.886065530189015
            ],
            [
              112.88363594527223,
              27.88584685137498
            ],
            [
              112.88271908134895,
              27.885718216572187
            ],
            [
              112.88193319798614,
              27.885563854607142
            ],
            [
              112.88136120778734,
              27.885474107487966
            ]
          ]
        ]
      },
      "properties": {
        "sourceFileId": "file_1775540527293_1_g1",
        "sourceFileName": "新建学区_组1_2026-04-07T05-42-07.geojson",
        "sourceGroupId": 1,
        "name": "风车坪北校区（小学部）",
        "id": "polygon_1775540988826",
        "sourceFile": "新建学区_组1_2026-04-07T05-42-07.geojson"
      },
      "id": "polygon_1775540988826"
    }
  ],
  "properties": {
    "fileName": "新建学区_组1_2026-04-07T05-42-07.geojson",
    "exportTime": "2026/4/7 13:50:18",
    "isStarred": false
  }
}