{
  "type": "FeatureCollection",
  "features": [
    {
      "type": "Feature",
      "geometry": {
        "type": "Polygon",
        "coordinates": [
          [
            [
              112.94816883247942,
              27.86888030044028
            ],
            [
              112.94739910104823,
              27.868292630822936
            ],
            [
              112.9461745283168,
              27.867364724937985
            ],
            [
              112.94501993117001,
              27.86663785977821
            ],
            [
              112.94299063921505,
              27.865493423900773
            ],
            [
              112.94152115193734,
              27.86492120142985
            ],
            [
              112.93994670128265,
              27.86439537271164
            ],
            [
              112.93872212855122,
              27.863900472763902
            ],
            [
              112.93842473231643,
              27.86376128174639
            ],
            [
              112.9379174093277,
              27.86332824188213
            ],
            [
              112.93938689660541,
              27.86124034682642
            ],
            [
              112.94033156699825,
              27.860451576004976
            ],
            [
              112.94155613972968,
              27.859925725601826
            ],
            [
              112.94267574908413,
              27.85981746196687
            ],
            [
              112.94323555376134,
              27.859771063233083
            ],
            [
              112.94491496779304,
              27.859693731965933
            ],
            [
              112.94619202221294,
              27.859678265705895
            ],
            [
              112.9485012165065,
              27.859554535546096
            ],
            [
              112.9509503619694,
              27.859059613494495
            ],
            [
              112.95401179379797,
              27.85848735705548
            ],
            [
              112.95439665951355,
              27.859678265705895
            ],
            [
              112.95513392768501,
              27.862449190237555
            ],
            [
              112.95430919003273,
              27.862477622825708
            ],
            [
              112.95252481262409,
              27.862647747171053
            ],
            [
              112.95187753846604,
              27.86277147379994
            ],
            [
              112.95182505677754,
              27.86317358436844
            ],
            [
              112.95215744080467,
              27.86455002848183
            ],
            [
              112.95220992249315,
              27.865338769476864
            ],
            [
              112.94846622871418,
              27.865802732086507
            ],
            [
              112.94802888131011,
              27.866158435408693
            ],
            [
              112.9478364484523,
              27.867194607997178
            ],
            [
              112.94792391793314,
              27.867720423133022
            ],
            [
              112.94813384468708,
              27.868153445446723
            ],
            [
              112.94816883247942,
              27.86888030044028
            ]
          ]
        ]
      },
      "properties": {
        "name": "纱厂街社区",
        "type": "assistPolygon",
        "fill": "#9b59b6",
        "fill-opacity": 0.2,
        "stroke": "#9b59b6",
        "stroke-width": 2,
        "stroke-opacity": 0.8
      },
      "id": "assist_polygon_1773989885115"
    },
    {
      "type": "Feature",
      "geometry": {
        "type": "Point",
        "coordinates": [
          112.9471716803981,
          27.862926131887463
        ]
      },
      "properties": {
        "iconType": "default",
        "iconColor": "#e74c3c",
        "iconSize": 1,
        "text": "纱厂街社区中心点",
        "textColor": "#333333",
        "type": "assistPoint",
        "name": "辅助点_1"
      },
      "id": "assist_point_1773989896329"
    }
  ],
  "properties": {
    "description": "GIS-APP 辅助要素导出",
    "exportTime": "2026/3/20 14:58:52",
    "assistElements": {
      "lines": 0,
      "polygons": 1,
      "texts": 0,
      "points": 1
    }
  }
}