{
  "type": "FeatureCollection",
  "features": [
    {
      "type": "Feature",
      "geometry": {
        "type": "Polygon",
        "coordinates": [
          [
            [
              112.9228423185074,
              27.80731027061273
            ],
            [
              112.923337876282,
              27.806864980569912
            ],
            [
              112.92425819786344,
              27.805967437280373
            ],
            [
              112.92530437538765,
              27.80497247752625
            ],
            [
              112.92635841890828,
              27.803998382226823
            ],
            [
              112.9269562346364,
              27.80338608928301
            ],
            [
              112.92712142056128,
              27.803003404440986
            ],
            [
              112.92686184267932,
              27.80318431017065
            ],
            [
              112.92657866680811,
              27.803420878747303
            ],
            [
              112.92633482091901,
              27.803671362561147
            ],
            [
              112.92611457301919,
              27.803831393584375
            ],
            [
              112.92546956131253,
              27.803942719374547
            ],
            [
              112.92532797337692,
              27.804603713904427
            ],
            [
              112.92491107556651,
              27.804701123284673
            ],
            [
              112.92349519621045,
              27.804993350901356
            ],
            [
              112.9234086702498,
              27.805703043269602
            ],
            [
              112.92388063003517,
              27.805800451664226
            ],
            [
              112.92394355800656,
              27.80598831046433
            ],
            [
              112.92375477409242,
              27.806197042083497
            ],
            [
              112.92348733021404,
              27.806489265676603
            ],
            [
              112.92315695836429,
              27.806489265676603
            ],
            [
              112.9229524424573,
              27.806774530806933
            ],
            [
              112.92288951448592,
              27.80689281125106
            ],
            [
              112.92275579254672,
              27.807268524748764
            ],
            [
              112.9228423185074,
              27.80731027061273
            ]
          ]
        ]
      },
      "properties": {
        "name": "半边街社区",
        "type": "assistPolygon",
        "fill": "#9b59b6",
        "fill-opacity": 0.2,
        "stroke": "#9b59b6",
        "stroke-width": 2,
        "stroke-opacity": 0.8
      },
      "id": "assist_polygon_1773989353280"
    },
    {
      "type": "Feature",
      "geometry": {
        "type": "Polygon",
        "coordinates": [
          [
            [
              112.92297793001902,
              27.807279704644927
            ],
            [
              112.92434659569169,
              27.80592422183065
            ],
            [
              112.92599601329718,
              27.80445490074736
            ],
            [
              112.9270956250342,
              27.803389113161572
            ],
            [
              112.9291310765474,
              27.8035753680566
            ],
            [
              112.92961069443268,
              27.803627105470795
            ],
            [
              112.93054653420886,
              27.80384440234137
            ],
            [
              112.93097936010534,
              27.80416517311795
            ],
            [
              112.93152916597383,
              27.804765322350107
            ],
            [
              112.93170463593188,
              27.80489983810253
            ],
            [
              112.93224274380317,
              27.80508609040787
            ],
            [
              112.93273405968569,
              27.805675887268322
            ],
            [
              112.9328510396577,
              27.80593456909176
            ],
            [
              112.93175142792069,
              27.80593456909176
            ],
            [
              112.93060502419488,
              27.805986305382532
            ],
            [
              112.92986805037114,
              27.80605873614826
            ],
            [
              112.92934164049704,
              27.807372828797554
            ],
            [
              112.92714241702302,
              27.807362481673408
            ],
            [
              112.92297793001902,
              27.807279704644927
            ]
          ]
        ]
      },
      "properties": {
        "name": "半边街社区",
        "type": "assistPolygon",
        "fill": "#9b59b6",
        "fill-opacity": 0.2,
        "stroke": "#9b59b6",
        "stroke-width": 2,
        "stroke-opacity": 0.8
      },
      "id": "assist_polygon_1773989116254"
    },
    {
      "type": "Feature",
      "geometry": {
        "type": "Polygon",
        "coordinates": [
          [
            [
              112.92936313816782,
              27.803497625643487
            ],
            [
              112.93018199797199,
              27.802473219036713
            ],
            [
              112.93109444175374,
              27.8029388596007
            ],
            [
              112.93139858968101,
              27.802949207146114
            ],
            [
              112.93172613360268,
              27.80291816450689
            ],
            [
              112.9324046174404,
              27.802711213352055
            ],
            [
              112.93276725535365,
              27.802907816958523
            ],
            [
              112.93335215521377,
              27.803476930656103
            ],
            [
              112.93260348339284,
              27.803445888167644
            ],
            [
              112.93220575148796,
              27.8036424904448
            ],
            [
              112.93118802573137,
              27.804263337405544
            ],
            [
              112.93087217980691,
              27.803932219467953
            ],
            [
              112.93060312587126,
              27.80373561771505
            ],
            [
              112.92998313201954,
              27.803611448003636
            ],
            [
              112.92936313816782,
              27.803497625643487
            ]
          ]
        ]
      },
      "properties": {
        "name": "半边街社区",
        "type": "assistPolygon",
        "fill": "#9b59b6",
        "fill-opacity": 0.2,
        "stroke": "#9b59b6",
        "stroke-width": 2,
        "stroke-opacity": 0.8
      },
      "id": "assist_polygon_1773989179789"
    },
    {
      "type": "Feature",
      "geometry": {
        "type": "Point",
        "coordinates": [
          112.92762396866935,
          27.80560394464075
        ]
      },
      "properties": {
        "iconType": "default",
        "iconColor": "#e74c3c",
        "iconSize": 1,
        "text": "半边街社区中心点",
        "textColor": "#333333",
        "type": "assistPoint",
        "name": "辅助点_1"
      },
      "id": "assist_point_1773989471642"
    }
  ],
  "properties": {
    "description": "GIS-APP 辅助要素导出",
    "exportTime": "2026/3/20 14:51:21",
    "assistElements": {
      "lines": 0,
      "polygons": 3,
      "texts": 0,
      "points": 1
    }
  }
}