{
  "type": "FeatureCollection",
  "features": [
    {
      "type": "Feature",
      "geometry": {
        "type": "Point",
        "coordinates": [
          112.9169464611691,
          27.80198661320351
        ]
      },
      "properties": {
        "iconType": "default",
        "iconColor": "#e74c3c",
        "iconSize": 1,
        "text": "下摄司村",
        "textColor": "#333333",
        "type": "assistPoint",
        "name": "辅助点_1",
        "isAssistFeature": true,
        "sourceFileName": "辅助要素_下摄司村.geojson"
      },
      "id": "assist_point_1773971711292_reimported_1773986203658_reimported_1773986312011"
    }
  ],
  "properties": {
    "description": "GIS-APP 辅助要素导出",
    "exportTime": "2026/3/20 13:59:07",
    "assistElements": {
      "lines": 0,
      "polygons": 3,
      "texts": 0,
      "points": 1
    }
  }
}