{
  "type": "FeatureCollection",
  "features": [
    {
      "type": "Feature",
      "geometry": {
        "type": "Polygon",
        "coordinates": [
          [
            [
              112.96669338012794,
              27.911054023361075
            ],
            [
              112.96929270824045,
              27.915918069113047
            ],
            [
              112.97173913469928,
              27.918350009951766
            ],
            [
              112.97288589710186,
              27.918214903562273
            ],
            [
              112.97433846281179,
              27.91659361372119
            ],
            [
              112.97479716777283,
              27.91537763038808
            ],
            [
              112.97464426611916,
              27.9138914099683
            ],
            [
              112.97571457769492,
              27.913756298008238
            ],
            [
              112.97800810250006,
              27.91449941169961
            ],
            [
              112.97869615994159,
              27.91503985481343
            ],
            [
              112.97877261076844,
              27.91409407759184
            ],
            [
              112.98022517647837,
              27.913823854009365
            ],
            [
              112.9820599963225,
              27.91537763038808
            ],
            [
              112.9826716029372,
              27.913756298008238
            ],
            [
              112.9814483897078,
              27.912337612236882
            ],
            [
              112.98091323391992,
              27.911526926298095
            ],
            [
              112.97915486490263,
              27.911526926298095
            ],
            [
              112.97823745498057,
              27.910986465629833
            ],
            [
              112.97938421738316,
              27.91044600226101
            ],
            [
              112.98114258640045,
              27.910918907856427
            ],
            [
              112.98259515211038,
              27.9116620410432
            ],
            [
              112.98221289797618,
              27.910175769563892
            ],
            [
              112.98328320955194,
              27.90943262616578
            ],
            [
              112.98374191451296,
              27.908351681199946
            ],
            [
              112.98397126699348,
              27.907135605202157
            ],
            [
              112.9840477178203,
              27.90612219809475
            ],
            [
              112.98504157856921,
              27.90612219809475
            ],
            [
              112.98527093104973,
              27.905108781494278
            ],
            [
              112.9858060868376,
              27.90416291743591
            ],
            [
              112.98702930006702,
              27.903419732731862
            ],
            [
              112.98710575089387,
              27.90247385390734
            ],
            [
              112.98465932443501,
              27.90267654292299
            ],
            [
              112.9828245045909,
              27.90267654292299
            ],
            [
              112.98228934880301,
              27.901730657601547
            ],
            [
              112.98290095541772,
              27.90112258410001
            ],
            [
              112.98389481616665,
              27.901325275646883
            ],
            [
              112.98389481616665,
              27.902203601295867
            ],
            [
              112.98496512774238,
              27.902203601295867
            ],
            [
              112.98664704593284,
              27.90193334800938
            ],
            [
              112.98764090668172,
              27.90193334800938
            ],
            [
              112.98863476743065,
              27.903352170232907
            ],
            [
              112.98871121825748,
              27.90423047942859
            ],
            [
              112.98947572652587,
              27.903554857603197
            ],
            [
              112.98955217735269,
              27.90247385390734
            ],
            [
              112.99008733314058,
              27.901460403133854
            ],
            [
              112.9903166856211,
              27.90044694286837
            ],
            [
              112.9899344314869,
              27.899636167821896
            ],
            [
              112.98909347239167,
              27.900244249676263
            ],
            [
              112.98794670998909,
              27.899703732641115
            ],
            [
              112.98779380833541,
              27.89875782133322
            ],
            [
              112.98741155420123,
              27.8976092036296
            ],
            [
              112.98672349675968,
              27.896798407322493
            ],
            [
              112.98527093104973,
              27.896055172038345
            ],
            [
              112.98427707030085,
              27.895379499169138
            ],
            [
              112.984200619474,
              27.89423084561112
            ],
            [
              112.98465932443501,
              27.893487592695593
            ],
            [
              112.98595898849128,
              27.893149748774107
            ],
            [
              112.98274805376406,
              27.89125780332766
            ],
            [
              112.97984292234418,
              27.88956853837999
            ],
            [
              112.98060743061258,
              27.891663222992747
            ],
            [
              112.98068388143943,
              27.892541627058193
            ],
            [
              112.98022517647837,
              27.89369029854234
            ],
            [
              112.97839035663425,
              27.893960572414173
            ],
            [
              112.9761732826559,
              27.89429841380492
            ],
            [
              112.97441491363864,
              27.895109228840425
            ],
            [
              112.9721213888335,
              27.895176796485842
            ],
            [
              112.97082172477722,
              27.89504166115276
            ],
            [
              112.96967496237464,
              27.895244364089137
            ],
            [
              112.96806949501102,
              27.894906525650967
            ],
            [
              112.96547016689851,
              27.895311931650227
            ],
            [
              112.96355889622754,
              27.895920037801943
            ],
            [
              112.96271793713233,
              27.896528140537
            ],
            [
              112.96340599457386,
              27.89754163750267
            ],
            [
              112.96340599457386,
              27.898555124977264
            ],
            [
              112.96439985532275,
              27.89936590812316
            ],
            [
              112.96562306855218,
              27.900919892173476
            ],
            [
              112.96600532268637,
              27.902271164512015
            ],
            [
              112.96524081441798,
              27.902811668722478
            ],
            [
              112.96623467516689,
              27.90362241997559
            ],
            [
              112.96615822434005,
              27.905176342896326
            ],
            [
              112.96768724087683,
              27.905987076429838
            ],
            [
              112.96913980658677,
              27.906865364235088
            ],
            [
              112.9708217247772,
              27.907068045023678
            ],
            [
              112.97273299544818,
              27.906865364235088
            ],
            [
              112.9719684871798,
              27.908284121780923
            ],
            [
              112.97028656898935,
              27.909837977743123
            ],
            [
              112.96814594583783,
              27.909837977743123
            ],
            [
              112.96692273260842,
              27.90950018486751
            ],
            [
              112.96669338012794,
              27.911054023361075
            ]
          ]
        ]
      },
      "properties": {
        "name": "竹埠村",
        "type": "assistPolygon",
        "fill": "#9b59b6",
        "fill-opacity": 0.2,
        "stroke": "#9b59b6",
        "stroke-width": 2,
        "stroke-opacity": 0.8
      },
      "id": "assist_polygon_1773911927152"
    },
    {
      "type": "Feature",
      "geometry": {
        "type": "Point",
        "coordinates": [
          112.9767084384438,
          27.90314948248289
        ]
      },
      "properties": {
        "iconType": "default",
        "iconColor": "#e74c3c",
        "iconSize": 1,
        "text": "竹埠村中心点",
        "textColor": "#333333",
        "type": "assistPoint",
        "name": "辅助点_1"
      },
      "id": "assist_point_1773911953974"
    }
  ],
  "properties": {
    "description": "GIS-APP 辅助要素导出",
    "exportTime": "2026/3/19 17:19:20",
    "assistElements": {
      "lines": 0,
      "polygons": 1,
      "texts": 0,
      "points": 1
    }
  }
}