{
  "type": "FeatureCollection",
  "features": [
    {
      "type": "Feature",
      "properties": {
        "name": "厂区",
        "isAssistFeature": false
      },
      "geometry": {
        "type": "Polygon",
        "coordinates": [
          [
            [
              112.93095697541246,
              27.81459482830654
            ],
            [
              112.93098610687879,
              27.8144792978284
            ],
            [
              112.93540127978787,
              27.814965868867123
            ],
            [
              112.93543093227706,
              27.814913166544873
            ],
            [
              112.93569427160598,
              27.812532818664295
            ],
            [
              112.93566685682012,
              27.804870112294942
            ],
            [
              112.9356553413165,
              27.799803189201572
            ],
            [
              112.93565520028099,
              27.799729412967473
            ],
            [
              112.93380763703277,
              27.79934870207455
            ],
            [
              112.93261524835894,
              27.79909841723704
            ],
            [
              112.93242515047177,
              27.799066130246814
            ],
            [
              112.93228995941142,
              27.799975426789867
            ],
            [
              112.92811897734269,
              27.80504028464346
            ],
            [
              112.92768014134323,
              27.805625022904767
            ],
            [
              112.92761136003688,
              27.805716671841378
            ],
            [
              112.927504961778,
              27.80929824356664
            ],
            [
              112.92759948161385,
              27.81061916503032
            ],
            [
              112.92759948161385,
              27.812562590904086
            ],
            [
              112.9275348783719,
              27.81521550060278
            ],
            [
              112.93081389175398,
              27.81523826999245
            ],
            [
              112.93095697541246,
              27.81459482830654
            ]
          ],
          [
            [
              112.93299889186733,
              27.80486129067875
            ],
            [
              112.93315476394217,
              27.804755165038156
            ],
            [
              112.9333818185201,
              27.804781943776558
            ],
            [
              112.93347933603408,
              27.804792465043395
            ],
            [
              112.93352890956305,
              27.804797813479453
            ],
            [
              112.93365823372632,
              27.804761421701333
            ],
            [
              112.93399466268168,
              27.804783343857583
            ],
            [
              112.93454846956274,
              27.804821444012667
            ],
            [
              112.93455181219394,
              27.80487112143313
            ],
            [
              112.93457344632091,
              27.805192606158382
            ],
            [
              112.93448690981299,
              27.80537964086143
            ],
            [
              112.93441610370397,
              27.805656022297526
            ],
            [
              112.93436758569547,
              27.805812733059607
            ],
            [
              112.93308343591198,
              27.80571355466162
            ],
            [
              112.93306484797212,
              27.805294233970347
            ],
            [
              112.93299889186733,
              27.80486129067875
            ]
          ]
        ]
      }
    },
    {
      "type": "Feature",
      "properties": {
        "name": "厂区",
        "isAssistFeature": false
      },
      "geometry": {
        "type": "Polygon",
        "coordinates": [
          [
            [
              112.89403418524594,
              27.831865114574285
            ],
            [
              112.89581220541645,
              27.829495807353965
            ],
            [
              112.89788250324445,
              27.83007736895892
            ],
            [
              112.8990516120777,
              27.829991211704193
            ],
            [
              112.89931107787108,
              27.829571887832078
            ],
            [
              112.89962984594797,
              27.82905059300931
            ],
            [
              112.89980666224365,
              27.827147987902496
            ],
            [
              112.90014765194572,
              27.82676026925376
            ],
            [
              112.90153596947125,
              27.826458710141733
            ],
            [
              112.90251022743116,
              27.826458710141733
            ],
            [
              112.90299735596197,
              27.826781809612225
            ],
            [
              112.90426389068107,
              27.826803349172003
            ],
            [
              112.90423265895359,
              27.825818357010522
            ],
            [
              112.90436506793152,
              27.824296066611627
            ],
            [
              112.90472257136346,
              27.823933055736735
            ],
            [
              112.90545082029291,
              27.823874505789465
            ],
            [
              112.90590101009924,
              27.823265581447096
            ],
            [
              112.90589490245364,
              27.821485927343936
            ],
            [
              112.90713199309265,
              27.821224508062485
            ],
            [
              112.907604062266,
              27.820693141238944
            ],
            [
              112.90811904575715,
              27.819820176038913
            ],
            [
              112.90811904575715,
              27.818909247656425
            ],
            [
              112.90730365485521,
              27.816176418246865
            ],
            [
              112.90756114615164,
              27.815075675883357
            ],
            [
              112.90850528449839,
              27.814468365140353
            ],
            [
              112.90957816759504,
              27.813063944947523
            ],
            [
              112.91022189763271,
              27.812760284375873
            ],
            [
              112.91073688202215,
              27.81219091841644
            ],
            [
              112.91073688202215,
              27.81112809376134
            ],
            [
              112.909738379431,
              27.810802641119903
            ],
            [
              112.91082242409509,
              27.80771215151533
            ],
            [
              112.9114853942495,
              27.80756158716504
            ],
            [
              112.91194009539518,
              27.806671993040904
            ],
            [
              112.91139399785584,
              27.806407593364817
            ],
            [
              112.9104511000825,
              27.805631695883765
            ],
            [
              112.90995300222377,
              27.804194539061367
            ],
            [
              112.90740321513816,
              27.80592541859104
            ],
            [
              112.90623999206666,
              27.807156153335686
            ],
            [
              112.90515196786586,
              27.807983460812437
            ],
            [
              112.90360582892137,
              27.80848997289004
            ],
            [
              112.90242227607665,
              27.808527977985964
            ],
            [
              112.90114141143215,
              27.80828566478002
            ],
            [
              112.89633767045031,
              27.803985208925607
            ],
            [
              112.8955828170154,
              27.80374652487935
            ],
            [
              112.8953624773442,
              27.803607746990313
            ],
            [
              112.8951986021785,
              27.803507365133814
            ],
            [
              112.89346150026917,
              27.80484674557859
            ],
            [
              112.89340351671252,
              27.80488609005016
            ],
            [
              112.89198257956242,
              27.805987044534156
            ],
            [
              112.88893902898934,
              27.8092505553775
            ],
            [
              112.88805675761617,
              27.811025262893338
            ],
            [
              112.88798921598492,
              27.81119074331269
            ],
            [
              112.88760320002588,
              27.81213649297111
            ],
            [
              112.88663373817123,
              27.814511661279976
            ],
            [
              112.88521071962461,
              27.81824966046003
            ],
            [
              112.88467131363586,
              27.82123514293587
            ],
            [
              112.88458543828797,
              27.82171043554389
            ],
            [
              112.88455447336011,
              27.821881815324492
            ],
            [
              112.8844588935122,
              27.822410812786263
            ],
            [
              112.88432844735316,
              27.823132779027674
            ],
            [
              112.88410076485282,
              27.825221881451746
            ],
            [
              112.88431421714074,
              27.828078600592626
            ],
            [
              112.8850541324908,
              27.830967784220597
            ],
            [
              112.88533187989857,
              27.830939510511193
            ],
            [
              112.88600687040977,
              27.830854319939665
            ],
            [
              112.89403418524594,
              27.831865114574285
            ]
          ]
        ]
      }
    }
  ]
}