{
  "type": "FeatureCollection",
  "features": [
    {
      "type": "Feature",
      "geometry": {
        "type": "Polygon",
        "coordinates": [
          [
            [
              113.0330304406196,
              27.870548270311787
            ],
            [
              113.03190252340157,
              27.87074710216561
            ],
            [
              113.03026512820061,
              27.871804803760014
            ],
            [
              113.02897319721016,
              27.872071973560224
            ],
            [
              113.02665939665137,
              27.87304921220138
            ],
            [
              113.02480713701082,
              27.872961886024214
            ],
            [
              113.02330063263497,
              27.875079532923948
            ],
            [
              113.02176943177528,
              27.875603481070883
            ],
            [
              113.02085565019694,
              27.87529784515833
            ],
            [
              113.01823270970449,
              27.873963573058674
            ],
            [
              113.01569675487762,
              27.875352610551303
            ],
            [
              113.01691027911349,
              27.87828190847398
            ],
            [
              113.01741228115492,
              27.880173334222732
            ],
            [
              113.01685323984755,
              27.881479299452295
            ],
            [
              113.01341912895936,
              27.884002944395846
            ],
            [
              113.01512496313238,
              27.88695779270445
            ],
            [
              113.01626301150812,
              27.88836955786175
            ],
            [
              113.01847921097666,
              27.889922478272496
            ],
            [
              113.01666232672768,
              27.890398938023708
            ],
            [
              113.01592359357149,
              27.891228325921688
            ],
            [
              113.01460585334696,
              27.891245972403667
            ],
            [
              113.0149253055226,
              27.89283414400245
            ],
            [
              113.01624304574713,
              27.893469406117646
            ],
            [
              113.01660242944475,
              27.894775210979475
            ],
            [
              113.01458588758598,
              27.894722273250878
            ],
            [
              113.01360756529805,
              27.896010417295486
            ],
            [
              113.01418657236643,
              27.897016217739903
            ],
            [
              113.01566403867876,
              27.89685740776484
            ],
            [
              113.01552427835192,
              27.898357270458845
            ],
            [
              113.01502513432749,
              27.899363049092543
            ],
            [
              113.01530465498125,
              27.90112755042567
            ],
            [
              113.01325498923008,
              27.90333122819139
            ],
            [
              113.01168364265659,
              27.904878078237644
            ],
            [
              113.01011600531103,
              27.906421254843593
            ],
            [
              113.00809612999885,
              27.90861205339057
            ],
            [
              113.00868640626318,
              27.909958109377143
            ],
            [
              113.01010288811125,
              27.90982399609952
            ],
            [
              113.01453093926821,
              27.91000459580789
            ],
            [
              113.0173921408218,
              27.908439385936077
            ],
            [
              113.01841399871198,
              27.91000459580789
            ],
            [
              113.02052583913026,
              27.910305595445635
            ],
            [
              113.02345516442338,
              27.911328986837233
            ],
            [
              113.02842820639525,
              27.91012499544597
            ],
            [
              113.02890507347055,
              27.90693435420056
            ],
            [
              113.03169815218288,
              27.90789757647886
            ],
            [
              113.03360562048414,
              27.90741596641176
            ],
            [
              113.03489997333263,
              27.90651294165761
            ],
            [
              113.03612620333986,
              27.907235362381485
            ],
            [
              113.03837429033895,
              27.906753749366217
            ],
            [
              113.03894411597906,
              27.905203438504245
            ],
            [
              113.03925990075001,
              27.90464666671869
            ],
            [
              113.04239359816017,
              27.905850719084327
            ],
            [
              113.04789863681634,
              27.90408417620843
            ],
            [
              113.04494886184956,
              27.89849792036874
            ],
            [
              113.04259095094139,
              27.89403232367745
            ],
            [
              113.04175217337566,
              27.885522476133943
            ],
            [
              113.04058696574955,
              27.87959800319662
            ],
            [
              113.04014896608163,
              27.878801002950027
            ],
            [
              113.03678396596057,
              27.875861002994384
            ],
            [
              113.03449496609015,
              27.873334003094698
            ],
            [
              113.03357196600032,
              27.871904002758185
            ],
            [
              113.03320545264496,
              27.871032227053476
            ],
            [
              113.0330304406196,
              27.870548270311787
            ]
          ]
        ]
      },
      "properties": {
        "sourceFileId": "file_1779978568947_57_g1",
        "sourceFileName": "湖湘学校教育集团青山校区.geojson",
        "sourceGroupId": 1,
        "name": "湖湘学校教育集团青山校区",
        "id": "imported_1779978568947_57_0_g1",
        "sourceFile": "湖湘学校教育集团青山校区.geojson",
        "isAssistFeature": false
      },
      "id": "imported_1779978568947_57_0_g1"
    }
  ],
  "properties": {
    "fileName": "湖湘学校教育集团青山校区.geojson",
    "exportTime": "2026/5/28 22:45:20",
    "isStarred": false
  }
}