{
  "type": "FeatureCollection",
  "features": [
    {
      "type": "Feature",
      "properties": {
        "name": "湘纺小学教育集团纺小校区",
        "isAssistFeature": false
      },
      "geometry": {
        "type": "Polygon",
        "coordinates": [
          [
            [
              112.95689573851156,
              27.86926828774146
            ],
            [
              112.95772882173299,
              27.869707186527886
            ],
            [
              112.95801966478095,
              27.869586642665634
            ],
            [
              112.95824066291728,
              27.86949541375543
            ],
            [
              112.95826823400996,
              27.869256113796546
            ],
            [
              112.9583008257868,
              27.86905418255407
            ],
            [
              112.95757278346984,
              27.8681342896225
            ],
            [
              112.95725346831894,
              27.867586742491554
            ],
            [
              112.95655103247914,
              27.866413661130114
            ],
            [
              112.9563882128339,
              27.865870853530442
            ],
            [
              112.95482088173351,
              27.860645552142547
            ],
            [
              112.95403024390923,
              27.858013798805633
            ],
            [
              112.95393492008117,
              27.858023955136964
            ],
            [
              112.95073327050966,
              27.858370143461002
            ],
            [
              112.94833471570047,
              27.85873096307171
            ],
            [
              112.94495479725745,
              27.859328599777303
            ],
            [
              112.9448439747958,
              27.859370730403576
            ],
            [
              112.94191913389255,
              27.86048263770779
            ],
            [
              112.94063720115118,
              27.861454068970655
            ],
            [
              112.93915667964659,
              27.862575977387223
            ],
            [
              112.93831251121455,
              27.863695428952585
            ],
            [
              112.941868627014,
              27.865490271362468
            ],
            [
              112.94430388339245,
              27.86687921974588
            ],
            [
              112.94859831643912,
              27.869795951894456
            ],
            [
              112.94992972928465,
              27.87105531907656
            ],
            [
              112.95127772503034,
              27.872321286499794
            ],
            [
              112.95329756898035,
              27.8717414165381
            ],
            [
              112.95338068021213,
              27.871662647408783
            ],
            [
              112.9537032257048,
              27.87133877554709
            ],
            [
              112.95588654147696,
              27.870819488077068
            ],
            [
              112.95591075556545,
              27.870812564195557
            ],
            [
              112.95620470408934,
              27.870335459332107
            ],
            [
              112.95689573851156,
              27.86926828774146
            ]
          ]
        ]
      }
    }
  ]
}