{
  "type": "FeatureCollection",
  "features": [
    {
      "type": "Feature",
      "geometry": {
        "type": "Polygon",
        "coordinates": [
          [
            [
              112.91581530985158,
              27.821232146962004
            ],
            [
              112.91667410555138,
              27.820382948305664
            ],
            [
              112.91670355681799,
              27.820397216434145
            ],
            [
              112.91763974507447,
              27.82085077732613
            ],
            [
              112.9193860340542,
              27.821684449891734
            ],
            [
              112.91979119131533,
              27.821865379275224
            ],
            [
              112.92149530459601,
              27.822633919433216
            ],
            [
              112.92369731590229,
              27.82221132549097
            ],
            [
              112.92455562291863,
              27.82221132549097
            ],
            [
              112.92466416455775,
              27.822163328361626
            ],
            [
              112.92474884334973,
              27.82212588337221
            ],
            [
              112.92507060640976,
              27.821983599127066
            ],
            [
              112.92567144458756,
              27.82121010498156
            ],
            [
              112.92751145659749,
              27.81886671042342
            ],
            [
              112.92751522233515,
              27.81856036717116
            ],
            [
              112.9275404569098,
              27.816507700009794
            ],
            [
              112.92750349842241,
              27.816504068295984
            ],
            [
              112.92532809860448,
              27.816290287975505
            ],
            [
              112.92459853813473,
              27.815910722808354
            ],
            [
              112.92459853813473,
              27.81488589134304
            ],
            [
              112.9210794796373,
              27.81477202093636
            ],
            [
              112.91879207876808,
              27.817305676196042
            ],
            [
              112.9166032069159,
              27.8161301163276
            ],
            [
              112.91678867129284,
              27.815827948486344
            ],
            [
              112.91683747766055,
              27.814584734649486
            ],
            [
              112.91679427498356,
              27.814581716245428
            ],
            [
              112.91608180406375,
              27.81455423915071
            ],
            [
              112.91427026146175,
              27.814481132390554
            ],
            [
              112.91340604622586,
              27.814385815364744
            ],
            [
              112.91340431247734,
              27.814321668382263
            ],
            [
              112.91340977603092,
              27.81416134287035
            ],
            [
              112.91346985086554,
              27.813955877467762
            ],
            [
              112.91423241993044,
              27.811276721616963
            ],
            [
              112.91073688202215,
              27.81112809376134
            ],
            [
              112.91073688202215,
              27.812190918416434
            ],
            [
              112.91022189763271,
              27.812760284375855
            ],
            [
              112.90957816759504,
              27.81306394494753
            ],
            [
              112.9085052844984,
              27.814468365140357
            ],
            [
              112.90756114615165,
              27.81507567588332
            ],
            [
              112.9073036548552,
              27.81617641824687
            ],
            [
              112.90811904575715,
              27.818909247656407
            ],
            [
              112.90811904575715,
              27.819820176038917
            ],
            [
              112.90760406226602,
              27.820693141238962
            ],
            [
              112.90713199309265,
              27.821224508062485
            ],
            [
              112.90589490245365,
              27.821485927343915
            ],
            [
              112.90850148372641,
              27.821553729446023
            ],
            [
              112.91130398486776,
              27.82209614632754
            ],
            [
              112.91277969948726,
              27.823246059914737
            ],
            [
              112.91417305296825,
              27.82229828736267
            ],
            [
              112.91431544043238,
              27.822204087867803
            ],
            [
              112.9147954120853,
              27.821887070760255
            ],
            [
              112.91575502301454,
              27.821280239840235
            ],
            [
              112.91581530985158,
              27.821232146962004
            ]
          ]
        ]
      },
      "properties": {
        "name": "湘钢二校",
        "isAssistFeature": false,
        "sourceFileId": "file_1779978568948_65_g1",
        "sourceFileName": "湘钢二校.geojson",
        "sourceGroupId": 1,
        "id": "imported_1779978568949_65_0_g1",
        "sourceFile": "湘钢二校.geojson"
      },
      "id": "imported_1779978568949_65_0_g1"
    }
  ],
  "properties": {
    "fileName": "湘钢二校.geojson",
    "exportTime": "2026/5/28 22:51:21",
    "isStarred": false
  }
}