{
  "type": "FeatureCollection",
  "features": [
    {
      "type": "Feature",
      "properties": {
        "name": "湘钢一校教育集团葩金校区",
        "isAssistFeature": false
      },
      "geometry": {
        "type": "Polygon",
        "coordinates": [
          [
            [
              112.9204285513993,
              27.827845354133885
            ],
            [
              112.92296411815394,
              27.824703856357388
            ],
            [
              112.92369362741977,
              27.823804635572394
            ],
            [
              112.92373647885545,
              27.823749633609275
            ],
            [
              112.92379689055831,
              27.823672062616726
            ],
            [
              112.92368405856534,
              27.82362107499198
            ],
            [
              112.92362213948945,
              27.823593095702474
            ],
            [
              112.91979119131533,
              27.821865379275216
            ],
            [
              112.9193860340542,
              27.82168444989173
            ],
            [
              112.91893691863294,
              27.822384567510426
            ],
            [
              112.9188038386135,
              27.82250893756804
            ],
            [
              112.91874475551894,
              27.822568938154994
            ],
            [
              112.91833002940342,
              27.823032060089943
            ],
            [
              112.91795322746421,
              27.82369339385073
            ],
            [
              112.91794129065075,
              27.823722082566345
            ],
            [
              112.9177245163929,
              27.82461732541697
            ],
            [
              112.91768685901617,
              27.82475418884551
            ],
            [
              112.91734626187788,
              27.825880014566025
            ],
            [
              112.91732177739648,
              27.826096297563325
            ],
            [
              112.91725765026162,
              27.82624265110433
            ],
            [
              112.91685092633865,
              27.827510063308452
            ],
            [
              112.91678337841918,
              27.828270194019314
            ],
            [
              112.91632246721993,
              27.82952214385731
            ],
            [
              112.91852911852826,
              27.830568634167168
            ],
            [
              112.9204285513993,
              27.827845354133885
            ]
          ]
        ]
      }
    }
  ]
}