{
  "type": "FeatureCollection",
  "features": [
    {
      "type": "Feature",
      "properties": {
        "name": "滴水湖学校教育集团江滨学校小学部",
        "isAssistFeature": false
      },
      "geometry": {
        "type": "Polygon",
        "coordinates": [
          [
            [
              112.96034968891377,
              27.889485195730824
            ],
            [
              112.9604084953272,
              27.889469333651142
            ],
            [
              112.96452817101681,
              27.888358108119796
            ],
            [
              112.96474184339198,
              27.888300472692148
            ],
            [
              112.96755790011095,
              27.887451020272763
            ],
            [
              112.97307696146868,
              27.885495677678175
            ],
            [
              112.97293445452863,
              27.885400927246113
            ],
            [
              112.97274757620345,
              27.885274290955287
            ],
            [
              112.97279121635994,
              27.885239695219294
            ],
            [
              112.97303902561424,
              27.88504324306207
            ],
            [
              112.97040898304115,
              27.882058635527542
            ],
            [
              112.96929139169113,
              27.880790352931477
            ],
            [
              112.96851794223149,
              27.879912606064998
            ],
            [
              112.96989008109874,
              27.879940171420287
            ],
            [
              112.97010697034095,
              27.87786051539123
            ],
            [
              112.96913593284131,
              27.87646025566434
            ],
            [
              112.96898861093135,
              27.876293891725513
            ],
            [
              112.96833725599357,
              27.87562651492046
            ],
            [
              112.96926105917723,
              27.87417963629829
            ],
            [
              112.96927802835295,
              27.873587363802866
            ],
            [
              112.96848147871582,
              27.871090010666336
            ],
            [
              112.96727736343422,
              27.87035975218395
            ],
            [
              112.9664490592501,
              27.869860219346712
            ],
            [
              112.96506359297732,
              27.86900305505168
            ],
            [
              112.96453622800661,
              27.868454594294757
            ],
            [
              112.9608358427725,
              27.86853066968187
            ],
            [
              112.9603750573374,
              27.868540142869275
            ],
            [
              112.95905991208335,
              27.86692135776099
            ],
            [
              112.95725346831894,
              27.867586742491554
            ],
            [
              112.95757278346984,
              27.8681342896225
            ],
            [
              112.9583008257868,
              27.86905418255407
            ],
            [
              112.95826823400996,
              27.869256113796546
            ],
            [
              112.95824066291728,
              27.86949541375543
            ],
            [
              112.95801966478095,
              27.869586642665634
            ],
            [
              112.95772882173299,
              27.869707186527886
            ],
            [
              112.95689573851156,
              27.86926828774146
            ],
            [
              112.95620470408934,
              27.870335459332107
            ],
            [
              112.95591075556545,
              27.870812564195557
            ],
            [
              112.95588654147696,
              27.870819488077068
            ],
            [
              112.9537032257048,
              27.87133877554709
            ],
            [
              112.95338068021213,
              27.871662647408783
            ],
            [
              112.95329756898035,
              27.8717414165381
            ],
            [
              112.95127772503034,
              27.872321286499794
            ],
            [
              112.95422838710809,
              27.87615698692463
            ],
            [
              112.95695345347193,
              27.87969930405264
            ],
            [
              112.9582729259107,
              27.88199473977292
            ],
            [
              112.95880936745904,
              27.884251754451007
            ],
            [
              112.95953902045528,
              27.886519749145787
            ],
            [
              112.96011318316071,
              27.88830439736483
            ],
            [
              112.96010522318896,
              27.888979720017677
            ],
            [
              112.96009985845009,
              27.889401701045642
            ],
            [
              112.96018032504166,
              27.889534458835275
            ],
            [
              112.96034968891377,
              27.889485195730824
            ]
          ]
        ]
      }
    }
  ]
}