{
  "type": "FeatureCollection",
  "features": [
    {
      "type": "Feature",
      "geometry": {
        "type": "Polygon",
        "coordinates": [
          [
            [
              112.95115052987431,
              27.841218200536005
            ],
            [
              112.9548992539177,
              27.84176064753204
            ],
            [
              112.95490717495973,
              27.839750464596932
            ],
            [
              112.95123964286502,
              27.83966641406758
            ],
            [
              112.95120328433768,
              27.833108241753052
            ],
            [
              112.95122081855371,
              27.830412488999542
            ],
            [
              112.95122844794541,
              27.827959458691723
            ],
            [
              112.94299478829184,
              27.827439427215765
            ],
            [
              112.94264394676607,
              27.832768821249743
            ],
            [
              112.94264178991108,
              27.832802457427263
            ],
            [
              112.94666367499882,
              27.833214085481416
            ],
            [
              112.94666354204817,
              27.833264612620596
            ],
            [
              112.94664717743863,
              27.835165365258135
            ],
            [
              112.94663280259746,
              27.83675010067755
            ],
            [
              112.94686860317303,
              27.840601656532513
            ],
            [
              112.94445791392094,
              27.840018513401418
            ],
            [
              112.94229007073126,
              27.839598747698943
            ],
            [
              112.94183336364752,
              27.845847564527645
            ],
            [
              112.94170523154868,
              27.847864204175735
            ],
            [
              112.94468775507292,
              27.84964285700383
            ],
            [
              112.9526846772081,
              27.85441174443517
            ],
            [
              112.95294578063029,
              27.854567447619402
            ],
            [
              112.95317503787732,
              27.854704158900404
            ],
            [
              112.95321734223897,
              27.85472938609601
            ],
            [
              112.95320779674074,
              27.85465492363869
            ],
            [
              112.95313613813056,
              27.854128948973596
            ],
            [
              112.95162630369992,
              27.8443174412359
            ],
            [
              112.95153525854755,
              27.843724369313932
            ],
            [
              112.9513704518289,
              27.842650805967565
            ],
            [
              112.95115052987431,
              27.841218200536005
            ]
          ]
        ]
      },
      "properties": {
        "name": "火炬学校教育集团火炬校区",
        "isAssistFeature": false,
        "sourceFileId": "file_1780531358112_69_g1",
        "sourceFileName": "火炬学校教育集团火炬校区.geojson",
        "sourceGroupId": 1,
        "id": "imported_1780531358112_69_0_g1",
        "sourceFile": "火炬学校教育集团火炬校区.geojson"
      },
      "id": "imported_1780531358112_69_0_g1"
    }
  ],
  "properties": {
    "fileName": "火炬学校教育集团火炬校区.geojson",
    "exportTime": "2026/6/4 08:05:20",
    "isStarred": false
  }
}