{
  "type": "FeatureCollection",
  "features": [
    {
      "type": "Feature",
      "geometry": {
        "type": "Polygon",
        "coordinates": [
          [
            [
              112.96927802835295,
              27.87358736380287
            ],
            [
              112.97174569954012,
              27.872432511705526
            ],
            [
              112.97369516138598,
              27.873459047687504
            ],
            [
              112.97508431434468,
              27.872646374369097
            ],
            [
              112.97627763906306,
              27.870357752596007
            ],
            [
              112.97751519952098,
              27.870357752596007
            ],
            [
              112.97754451514194,
              27.870357752596007
            ],
            [
              112.9776776239075,
              27.869803887551868
            ],
            [
              112.97769069349657,
              27.869754712354975
            ],
            [
              112.97939064288232,
              27.87050773191244
            ],
            [
              112.98011642863133,
              27.86922452585752
            ],
            [
              112.98037732005108,
              27.869040467978365
            ],
            [
              112.98211595628288,
              27.867815949490463
            ],
            [
              112.98217348619033,
              27.867773272604538
            ],
            [
              112.98303797002252,
              27.86801835157995
            ],
            [
              112.98306795668499,
              27.868026852791388
            ],
            [
              112.98319968743489,
              27.86782413703402
            ],
            [
              112.98327972732669,
              27.867700967248282
            ],
            [
              112.98515161066463,
              27.86482035102884
            ],
            [
              112.98558588142578,
              27.86413144049685
            ],
            [
              112.98568078574063,
              27.864005997587213
            ],
            [
              112.98576856012704,
              27.86310586127351
            ],
            [
              112.98581053211207,
              27.862675431822225
            ],
            [
              112.98620300336475,
              27.85866857604627
            ],
            [
              112.9864065714896,
              27.856562744887356
            ],
            [
              112.98330767840679,
              27.857237245660343
            ],
            [
              112.9815330152405,
              27.857623513972015
            ],
            [
              112.97184676539946,
              27.859731774617813
            ],
            [
              112.96419752811018,
              27.861396640009957
            ],
            [
              112.96318142842097,
              27.842915454176875
            ],
            [
              112.95688958954344,
              27.84209619725658
            ],
            [
              112.95699150970064,
              27.83429972783975
            ],
            [
              112.95137077612071,
              27.83367368020363
            ],
            [
              112.95121894796043,
              27.83963957805439
            ],
            [
              112.95489487105985,
              27.839722925745747
            ],
            [
              112.95494873089609,
              27.84178277784335
            ],
            [
              112.95125934246781,
              27.841330328076722
            ],
            [
              112.95153525854755,
              27.843724369313932
            ],
            [
              112.95162630369992,
              27.8443174412359
            ],
            [
              112.95313613813056,
              27.854128948973596
            ],
            [
              112.95320779674074,
              27.85465492363869
            ],
            [
              112.95321734223897,
              27.85472938609601
            ],
            [
              112.95313266434533,
              27.854768761731293
            ],
            [
              112.95304999328806,
              27.854807203336023
            ],
            [
              112.95294510509717,
              27.85485597628609
            ],
            [
              112.95355402002765,
              27.856625874130273
            ],
            [
              112.9540145072221,
              27.857964326784455
            ],
            [
              112.95403024390923,
              27.85801379880563
            ],
            [
              112.95482088173351,
              27.860645552142543
            ],
            [
              112.9563882128339,
              27.865870853530453
            ],
            [
              112.95655103247914,
              27.86641366113011
            ],
            [
              112.95725346831894,
              27.86758674249154
            ],
            [
              112.95905991208335,
              27.866921357761
            ],
            [
              112.9603750573374,
              27.868540142869293
            ],
            [
              112.9608358427725,
              27.868530669681874
            ],
            [
              112.96453622800661,
              27.86845459429479
            ],
            [
              112.96506359297733,
              27.86900305505165
            ],
            [
              112.9664490592501,
              27.86986021934672
            ],
            [
              112.9672773634342,
              27.870359752183944
            ],
            [
              112.96848147871582,
              27.871090010666336
            ],
            [
              112.96927802835295,
              27.87358736380287
            ]
          ]
        ]
      },
      "properties": {
        "name": "育才学校教育集团育才校区",
        "isAssistFeature": false,
        "sourceFileId": "file_1780531358113_73_g1",
        "sourceFileName": "育才学校教育集团育才校区.geojson",
        "sourceGroupId": 1,
        "id": "imported_1780531358113_73_0_g1",
        "sourceFile": "育才学校教育集团育才校区.geojson"
      },
      "id": "imported_1780531358113_73_0_g1"
    }
  ],
  "properties": {
    "fileName": "育才学校教育集团育才校区.geojson",
    "exportTime": "2026/6/4 08:04:10",
    "isStarred": false
  }
}