{
  "type": "FeatureCollection",
  "features": [
    {
      "type": "Feature",
      "properties": {
        "name": "育才学校教育集团清水校区",
        "isAssistFeature": false
      },
      "geometry": {
        "type": "Polygon",
        "coordinates": [
          [
            [
              113.0002264200088,
              27.919744279842266
            ],
            [
              113.00049742466203,
              27.917408937709826
            ],
            [
              113.0015524591323,
              27.916663131976215
            ],
            [
              113.0016820788413,
              27.91657150377411
            ],
            [
              113.00288175824197,
              27.915723440925564
            ],
            [
              113.00220051994796,
              27.912894155689226
            ],
            [
              113.0053342173581,
              27.912954353916785
            ],
            [
              113.00628795150875,
              27.910185196008577
            ],
            [
              113.01010288811125,
              27.9098239960995
            ],
            [
              113.01453093926823,
              27.9100045958079
            ],
            [
              113.0173921408218,
              27.908439385936084
            ],
            [
              113.01841399871198,
              27.9100045958079
            ],
            [
              113.02052583913027,
              27.910305595445628
            ],
            [
              113.0234551644234,
              27.911328986837265
            ],
            [
              113.02842820639526,
              27.910124995445972
            ],
            [
              113.02890507347055,
              27.90693435420053
            ],
            [
              113.03169815218287,
              27.907897576478895
            ],
            [
              113.03360562048414,
              27.90741596641178
            ],
            [
              113.03489997333263,
              27.906512941657603
            ],
            [
              113.03612620333986,
              27.907235362381506
            ],
            [
              113.03837429033895,
              27.906753749366217
            ],
            [
              113.03925990075,
              27.904646666718666
            ],
            [
              113.04239359816017,
              27.905850719084327
            ],
            [
              113.04789863681634,
              27.904084176208446
            ],
            [
              113.0449194137024,
              27.898881067049984
            ],
            [
              113.0447868412311,
              27.89864952739222
            ],
            [
              113.04256412984213,
              27.89406587622103
            ],
            [
              113.04255440737582,
              27.893963343900676
            ],
            [
              113.04226253036697,
              27.890885183828466
            ],
            [
              113.04194670966251,
              27.887342836396886
            ],
            [
              113.04177153638548,
              27.885620924200218
            ],
            [
              113.04058696574954,
              27.87959800319661
            ],
            [
              113.04014896608165,
              27.878801002950024
            ],
            [
              113.03981921610043,
              27.87851362827265
            ],
            [
              113.03678396596055,
              27.8758610029944
            ],
            [
              113.0353719778273,
              27.874302210299486
            ],
            [
              113.03449496609015,
              27.87333400309469
            ],
            [
              113.03357196600032,
              27.871904002758203
            ],
            [
              113.03321296597512,
              27.871053003444707
            ],
            [
              113.03273480712242,
              27.86973075686944
            ],
            [
              113.03260792637676,
              27.86979307082104
            ],
            [
              113.03206799397525,
              27.87005824122385
            ],
            [
              113.03190252340158,
              27.8707471021656
            ],
            [
              113.03026512820061,
              27.87180480376001
            ],
            [
              113.02897319721015,
              27.872071973560235
            ],
            [
              113.02665939665137,
              27.873049212201373
            ],
            [
              113.02609705936833,
              27.87302270044867
            ],
            [
              113.02480713701084,
              27.87296188602421
            ],
            [
              113.02330063263497,
              27.875079532923934
            ],
            [
              113.0217694317753,
              27.875603481070886
            ],
            [
              113.02085565019695,
              27.875297845158343
            ],
            [
              113.0182327097045,
              27.873963573058678
            ],
            [
              113.01569675487762,
              27.87535261055129
            ],
            [
              113.01691027911349,
              27.878281908473987
            ],
            [
              113.01519932356885,
              27.87820599795209
            ],
            [
              113.01495915718101,
              27.878191254638914
            ],
            [
              113.01144404318603,
              27.877866761486988
            ],
            [
              113.00868009504175,
              27.87568267613728
            ],
            [
              113.00945799565362,
              27.872560763920376
            ],
            [
              113.00657976473721,
              27.872230688822395
            ],
            [
              113.00597300217012,
              27.873564736889918
            ],
            [
              113.00179384363567,
              27.873792396262267
            ],
            [
              113.00041879602352,
              27.873867302174713
            ],
            [
              112.99940521251541,
              27.87357879155925
            ],
            [
              112.99927105900922,
              27.873540605163765
            ],
            [
              112.99710873776353,
              27.872925110524715
            ],
            [
              112.99559250642974,
              27.87249352018798
            ],
            [
              112.99495793651305,
              27.872409479559103
            ],
            [
              112.99159654133118,
              27.87248473900899
            ],
            [
              112.98921616662672,
              27.872581010327476
            ],
            [
              112.98935618882669,
              27.87189335299939
            ],
            [
              112.98943397843871,
              27.871054404259034
            ],
            [
              112.98906058650434,
              27.869018896305207
            ],
            [
              112.98783215562466,
              27.86864523333123
            ],
            [
              112.98779350471123,
              27.868633476234635
            ],
            [
              112.98761369163577,
              27.868578781299256
            ],
            [
              112.98660015663667,
              27.865327005252094
            ],
            [
              112.98558588142579,
              27.864131440496852
            ],
            [
              112.98515161066463,
              27.864820351028833
            ],
            [
              112.9832797273267,
              27.867700967248275
            ],
            [
              112.98319968743489,
              27.86782413703402
            ],
            [
              112.98306795668499,
              27.86802685279138
            ],
            [
              112.98303797002252,
              27.868018351579938
            ],
            [
              112.98217348619032,
              27.867773272604552
            ],
            [
              112.98211595628287,
              27.867815949490474
            ],
            [
              112.98037732005109,
              27.86904046797837
            ],
            [
              112.98011642863132,
              27.869224525857522
            ],
            [
              112.97939064288234,
              27.870507731912443
            ],
            [
              112.97769069349657,
              27.869754712354997
            ],
            [
              112.9776776239075,
              27.869803887551843
            ],
            [
              112.97754451514196,
              27.870357752596007
            ],
            [
              112.97751519952098,
              27.870357752596007
            ],
            [
              112.97627763906306,
              27.870357752596007
            ],
            [
              112.97508431434468,
              27.872646374369097
            ],
            [
              112.97369516138598,
              27.87345904768754
            ],
            [
              112.97174569954011,
              27.87243251170551
            ],
            [
              112.96927802835295,
              27.873587363802866
            ],
            [
              112.96926105917723,
              27.87417963629829
            ],
            [
              112.96833725599357,
              27.87562651492046
            ],
            [
              112.96898861093135,
              27.876293891725513
            ],
            [
              112.96913593284131,
              27.87646025566434
            ],
            [
              112.97010697034095,
              27.87786051539123
            ],
            [
              112.96989008109874,
              27.879940171420287
            ],
            [
              112.96851794223149,
              27.879912606064998
            ],
            [
              112.96929139169113,
              27.880790352931477
            ],
            [
              112.97040898304115,
              27.882058635527542
            ],
            [
              112.97303902561424,
              27.88504324306207
            ],
            [
              112.97279121635994,
              27.885239695219294
            ],
            [
              112.97274757620345,
              27.885274290955287
            ],
            [
              112.97293445452863,
              27.885400927246113
            ],
            [
              112.97307696146868,
              27.885495677678175
            ],
            [
              112.97395054253977,
              27.8860828272618
            ],
            [
              112.97410928652856,
              27.886190632069987
            ],
            [
              112.97528066630284,
              27.887020597029174
            ],
            [
              112.97873940921713,
              27.889495637325837
            ],
            [
              112.98027069631506,
              27.889903805161996
            ],
            [
              112.98026463717846,
              27.88995615187041
            ],
            [
              112.9806733805142,
              27.892304359633624
            ],
            [
              112.97992401848062,
              27.893689176271945
            ],
            [
              112.97583658602149,
              27.894411682612738
            ],
            [
              112.97440598569386,
              27.89525460031687
            ],
            [
              112.97093166868753,
              27.894833142285343
            ],
            [
              112.96950106746158,
              27.895375016369023
            ],
            [
              112.9679342187565,
              27.894893350562626
            ],
            [
              112.96268868092805,
              27.89645875639769
            ],
            [
              112.96302986556455,
              27.897463185819845
            ],
            [
              112.96275822041252,
              27.898603543316668
            ],
            [
              112.96301288740568,
              27.90019402079762
            ],
            [
              112.96370031688862,
              27.9006533212116
            ],
            [
              112.96712152369876,
              27.900944238225254
            ],
            [
              112.9686155729332,
              27.902084558245694
            ],
            [
              112.96807228173083,
              27.9031198387168
            ],
            [
              112.96528791757508,
              27.9035849616847
            ],
            [
              112.9658991196163,
              27.905400421677374
            ],
            [
              112.96956919120116,
              27.906874152622578
            ],
            [
              112.97263476487176,
              27.90705475725588
            ],
            [
              112.97038667787264,
              27.909763796129706
            ],
            [
              112.96677611248884,
              27.909643395295745
            ],
            [
              112.96655839679657,
              27.91038130961124
            ],
            [
              112.96633925278302,
              27.91112405801061
            ],
            [
              112.96913791182988,
              27.915562872431728
            ],
            [
              112.96966502976386,
              27.91621977277652
            ],
            [
              112.97136348974294,
              27.918336384567713
            ],
            [
              112.97392911861857,
              27.916987565976715
            ],
            [
              112.97597283439895,
              27.91379712717183
            ],
            [
              112.9822402292193,
              27.917830307800987
            ],
            [
              112.98646390915752,
              27.919575966286974
            ],
            [
              112.99177756982726,
              27.918492457030265
            ],
            [
              112.99348066690978,
              27.9190342134127
            ],
            [
              112.99511563935445,
              27.917770112287595
            ],
            [
              112.99763622221016,
              27.920478881976546
            ],
            [
              112.99906682343608,
              27.920779852462065
            ],
            [
              113.0002264200088,
              27.919744279842266
            ]
          ]
        ]
      }
    }
  ]
}