{
  "type": "FeatureCollection",
  "features": [
    {
      "type": "Feature",
      "properties": {
        "name": "长郡湘潭高新实验学校教育集团高才校区",
        "isAssistFeature": false
      },
      "geometry": {
        "type": "Polygon",
        "coordinates": [
          [
            [
              112.98667215391178,
              27.84422378906837
            ],
            [
              112.98918459623435,
              27.844469826795475
            ],
            [
              112.99142985533696,
              27.84542308020344
            ],
            [
              112.9951205746986,
              27.839617153415904
            ],
            [
              112.9910723725663,
              27.837547823212255
            ],
            [
              112.99246884679458,
              27.834851928929144
            ],
            [
              112.99566404286911,
              27.832791278733737
            ],
            [
              112.99432149810058,
              27.832420521522074
            ],
            [
              112.99359151721922,
              27.832133616500244
            ],
            [
              112.99007760696675,
              27.832294249119762
            ],
            [
              112.98666798393221,
              27.832217407929033
            ],
            [
              112.98667215391178,
              27.84422378906837
            ]
          ]
        ]
      }
    }
  ]
}