{
  "type": "FeatureCollection",
  "features": [
    {
      "type": "Feature",
      "properties": {
        "name": "长郡湘潭高新实验小学（万达旁）",
        "isAssistFeature": false
      },
      "geometry": {
        "type": "Polygon",
        "coordinates": [
          [
            [
              112.95131190233363,
              27.818310016952655
            ],
            [
              112.9514639502803,
              27.817797630831972
            ],
            [
              112.9514765105246,
              27.817750665399632
            ],
            [
              112.94591082660362,
              27.81795577086413
            ],
            [
              112.9459084272035,
              27.817368978445554
            ],
            [
              112.94607873700159,
              27.816856839743977
            ],
            [
              112.94569363103591,
              27.815774829460906
            ],
            [
              112.94550051211446,
              27.81545219778098
            ],
            [
              112.94513573232871,
              27.81519598954092
            ],
            [
              112.9442774262107,
              27.815177011599527
            ],
            [
              112.94404139117485,
              27.81503467296094
            ],
            [
              112.94321895478616,
              27.818057357338436
            ],
            [
              112.93783907750023,
              27.818225974055082
            ],
            [
              112.9362513267951,
              27.818275736712625
            ],
            [
              112.936220939484,
              27.81827486435279
            ],
            [
              112.93554744736268,
              27.818216093661388
            ],
            [
              112.93128896669032,
              27.823034857398106
            ],
            [
              112.93102095522359,
              27.823334029924258
            ],
            [
              112.93054972328007,
              27.823859442070955
            ],
            [
              112.9298929209584,
              27.824604174049018
            ],
            [
              112.92917135998623,
              27.82542232767333
            ],
            [
              112.92878912952779,
              27.825852577669178
            ],
            [
              112.92818607340956,
              27.827294016691358
            ],
            [
              112.92749986563535,
              27.828934184983407
            ],
            [
              112.92744805889463,
              27.82905801209819
            ],
            [
              112.9273307676646,
              27.82933835700301
            ],
            [
              112.9273193123481,
              27.829368040426637
            ],
            [
              112.92726010438771,
              27.829554819797224
            ],
            [
              112.92676953081782,
              27.83110740973238
            ],
            [
              112.92674470138333,
              27.83117106538854
            ],
            [
              112.93160280121965,
              27.831669990026377
            ],
            [
              112.94264178991108,
              27.83280245742726
            ],
            [
              112.94666367499882,
              27.83321408548142
            ],
            [
              112.94854037330667,
              27.833415795113957
            ],
            [
              112.95116201932679,
              27.833679963798595
            ],
            [
              112.95116873243691,
              27.832991594995605
            ],
            [
              112.95122844794543,
              27.827959458691744
            ],
            [
              112.95127504266091,
              27.822090084513814
            ],
            [
              112.95127913089377,
              27.821670839756933
            ],
            [
              112.95128400694911,
              27.821170755300216
            ],
            [
              112.95131190233363,
              27.818310016952655
            ]
          ]
        ]
      }
    }
  ]
}