{
  "type": "FeatureCollection",
  "features": [
    {
      "type": "Feature",
      "geometry": {
        "type": "Polygon",
        "coordinates": [
          [
            [
              113.01569675487762,
              27.875352610551303
            ],
            [
              113.01823270970449,
              27.873963573058674
            ],
            [
              113.02085565019694,
              27.87529784515833
            ],
            [
              113.02176943177528,
              27.875603481070883
            ],
            [
              113.02330063263497,
              27.875079532923948
            ],
            [
              113.02480713701082,
              27.872961886024214
            ],
            [
              113.02609705936833,
              27.873022700448672
            ],
            [
              113.02665939665137,
              27.87304921220138
            ],
            [
              113.02897319721016,
              27.872071973560224
            ],
            [
              113.03026512820061,
              27.871804803760014
            ],
            [
              113.03190252340157,
              27.87074710216561
            ],
            [
              113.03206799397525,
              27.870058241223845
            ],
            [
              113.03260792637676,
              27.86979307082106
            ],
            [
              113.03273480712242,
              27.869730756869444
            ],
            [
              113.03282879605398,
              27.869682772029037
            ],
            [
              113.03269396611637,
              27.868728003096237
            ],
            [
              113.03285396594991,
              27.86731800273509
            ],
            [
              113.03331996610525,
              27.866426002959287
            ],
            [
              113.03403696543243,
              27.86564800278134
            ],
            [
              113.03601296620668,
              27.865404003259243
            ],
            [
              113.03677596556464,
              27.86541700276271
            ],
            [
              113.03698196542896,
              27.86502600284325
            ],
            [
              113.03699696549756,
              27.864067002872588
            ],
            [
              113.03659396598977,
              27.862423003374815
            ],
            [
              113.03628096599532,
              27.859538003473318
            ],
            [
              113.03656196620268,
              27.858469002924735
            ],
            [
              113.03966108566097,
              27.852057031554423
            ],
            [
              113.03614866032362,
              27.85045892593557
            ],
            [
              113.03438386245583,
              27.84965595847531
            ],
            [
              113.03201355786567,
              27.847903120031873
            ],
            [
              113.03072013567181,
              27.846687756043195
            ],
            [
              113.02582921768324,
              27.842091879308114
            ],
            [
              113.02003521525468,
              27.837796936734776
            ],
            [
              113.01178661661795,
              27.833818310832754
            ],
            [
              113.01025640210845,
              27.83308021168483
            ],
            [
              113.00935218489293,
              27.832311353266007
            ],
            [
              113.00695446461862,
              27.830272539268407
            ],
            [
              113.00352553139878,
              27.824207720015295
            ],
            [
              112.99665295953781,
              27.81924139184538
            ],
            [
              112.99531982462187,
              27.818532821961853
            ],
            [
              112.99273543622822,
              27.817159188253456
            ],
            [
              112.98777470476897,
              27.814522452538
            ],
            [
              112.97937580810374,
              27.812349196123392
            ],
            [
              112.9717255512266,
              27.810369615693503
            ],
            [
              112.96710149486117,
              27.8087471393074
            ],
            [
              112.96656079709503,
              27.808557419193164
            ],
            [
              112.96619900420761,
              27.80848228700914
            ],
            [
              112.95580840870849,
              27.806324490787674
            ],
            [
              112.9556624010338,
              27.806711618928603
            ],
            [
              112.95339298263997,
              27.812728643433374
            ],
            [
              112.95289237309169,
              27.814055891336693
            ],
            [
              112.9514765105246,
              27.817750665399643
            ],
            [
              112.95146395028031,
              27.817797630831976
            ],
            [
              112.95131190233363,
              27.818310016952637
            ],
            [
              112.95128400694911,
              27.821170755300244
            ],
            [
              112.95127913089377,
              27.82167083975692
            ],
            [
              112.9512750426609,
              27.822090084513817
            ],
            [
              112.95122844794541,
              27.827959458691723
            ],
            [
              112.95122081855371,
              27.830412488999542
            ],
            [
              112.95120328433768,
              27.833108241753052
            ],
            [
              112.95137077612071,
              27.83367368020363
            ],
            [
              112.95137039523503,
              27.83701538606121
            ],
            [
              112.95126418096376,
              27.839656447283105
            ],
            [
              112.95488235960018,
              27.83974918058894
            ],
            [
              112.95493479713346,
              27.841766111255296
            ],
            [
              112.95688958954344,
              27.84209619725658
            ],
            [
              112.96318142842097,
              27.842915454176875
            ],
            [
              112.96419752811018,
              27.861396640009957
            ],
            [
              112.97184676539946,
              27.859731774617813
            ],
            [
              112.9815330152405,
              27.857623513972015
            ],
            [
              112.98330767840679,
              27.857237245660343
            ],
            [
              112.9864065714896,
              27.856562744887356
            ],
            [
              112.98620300336475,
              27.85866857604627
            ],
            [
              112.98581053211207,
              27.862675431822225
            ],
            [
              112.98576856012704,
              27.86310586127351
            ],
            [
              112.98568078574063,
              27.864005997587213
            ],
            [
              112.98558588142578,
              27.86413144049685
            ],
            [
              112.98660015663665,
              27.865327005252098
            ],
            [
              112.98761369163579,
              27.86857878129925
            ],
            [
              112.98779350471123,
              27.86863347623465
            ],
            [
              112.98783215562467,
              27.868645233331222
            ],
            [
              112.98906058650434,
              27.869018896305192
            ],
            [
              112.98943397843871,
              27.871054404259056
            ],
            [
              112.98935618882669,
              27.87189335299942
            ],
            [
              112.98921616662672,
              27.87258101032748
            ],
            [
              112.99159654133116,
              27.87248473900901
            ],
            [
              112.99495793651305,
              27.872409479559096
            ],
            [
              112.99559250642976,
              27.872493520187987
            ],
            [
              112.99710873776353,
              27.872925110524733
            ],
            [
              112.99927105900922,
              27.873540605163768
            ],
            [
              112.99940521251543,
              27.873578791559282
            ],
            [
              113.00041879602352,
              27.873867302174716
            ],
            [
              113.00179384363565,
              27.873792396262246
            ],
            [
              113.00597300217012,
              27.873564736889904
            ],
            [
              113.00657976473722,
              27.872230688822413
            ],
            [
              113.00945799565362,
              27.872560763920376
            ],
            [
              113.00868009504175,
              27.875682676137274
            ],
            [
              113.01144404318602,
              27.877866761486985
            ],
            [
              113.01495915718101,
              27.878191254638907
            ],
            [
              113.01519932356885,
              27.878205997952108
            ],
            [
              113.01691027911349,
              27.87828190847398
            ],
            [
              113.01569675487762,
              27.875352610551303
            ]
          ]
        ]
      },
      "properties": {
        "name": "长郡湘潭高新实验学校教育集团长郡实校小学部",
        "isAssistFeature": false,
        "sourceFileId": "file_1780531358113_74_g1",
        "sourceFileName": "长郡湘潭高新实验学校教育集团长郡实校小学部.geojson",
        "sourceGroupId": 1,
        "id": "imported_1780531358113_74_0_g1",
        "sourceFile": "长郡湘潭高新实验学校教育集团长郡实校小学部.geojson"
      },
      "id": "imported_1780531358113_74_0_g1"
    }
  ],
  "properties": {
    "fileName": "长郡湘潭高新实验学校教育集团长郡实校小学部.geojson",
    "exportTime": "2026/6/4 08:04:42",
    "isStarred": false
  }
}