{
  "type": "FeatureCollection",
  "features": [
    {
      "type": "Feature",
      "geometry": {
        "type": "LineString",
        "coordinates": [
          [
            112.92036864810177,
            27.827870753808043
          ],
          [
            112.92405936770626,
            27.822898881250268
          ]
        ]
      },
      "properties": {
        "type": "assistLine",
        "name": "辅助线_1",
        "stroke": "#e74c3c",
        "stroke-width": 2,
        "stroke-opacity": 0.8,
        "stroke-dasharray": "5,5",
        "isAssistFeature": true,
        "sourceFileName": "辅助要素_新塘里社区.geojson"
      },
      "id": "assist_imported_1773908204683_1"
    },
    {
      "type": "Feature",
      "geometry": {
        "type": "Polygon",
        "coordinates": [
          [
            [
              113.02212995612749,
              27.854962891645172
            ],
            [
              113.02294317048728,
              27.856257065544455
            ],
            [
              113.02375638484713,
              27.857047941988796
            ],
            [
              113.02489488495084,
              27.855753777530452
            ],
            [
              113.02505752782284,
              27.854747194493356
            ],
            [
              113.02660263510646,
              27.855178588367863
            ],
            [
              113.0277411352102,
              27.85481909359163
            ],
            [
              113.02896095674993,
              27.855897574344283
            ],
            [
              113.02920492105788,
              27.857263634563168
            ],
            [
              113.03164456413731,
              27.85913295223112
            ],
            [
              113.03058738546954,
              27.859348640657018
            ],
            [
              113.03066870690553,
              27.860714657387845
            ],
            [
              113.03172588557328,
              27.8620087626215
            ],
            [
              113.03327099285691,
              27.865100173690934
            ],
            [
              113.03440949296066,
              27.866250443671632
            ],
            [
              113.03595460024431,
              27.86488449671033
            ],
            [
              113.0367678146041,
              27.86438124875302
            ],
            [
              113.03798763614385,
              27.864812604288076
            ],
            [
              113.03806895757981,
              27.863662319046
            ],
            [
              113.0376623503999,
              27.86222444532494
            ],
            [
              113.03709310034806,
              27.861289817176967
            ],
            [
              113.0364425288602,
              27.859204848420774
            ],
            [
              113.03709310034806,
              27.858270194236013
            ],
            [
              113.03741838609196,
              27.857263634563168
            ],
            [
              113.04002067204337,
              27.85546618333062
            ],
            [
              113.0385568861957,
              27.853812501876703
            ],
            [
              113.03992344099119,
              27.852232618997604
            ],
            [
              113.03896479725204,
              27.851990450135105
            ],
            [
              113.03786920440731,
              27.851990450135105
            ],
            [
              113.0363627642458,
              27.85114285485713
            ],
            [
              113.03382920579233,
              27.84944764442544
            ],
            [
              113.03091267121347,
              27.846622289297898
            ],
            [
              113.02668395654244,
              27.842667469176718
            ],
            [
              113.02147938463963,
              27.839287781361477
            ],
            [
              113.01838917007235,
              27.838352955504618
            ],
            [
              113.01603084842888,
              27.839719236732478
            ],
            [
              113.01253402668169,
              27.84216411809011
            ],
            [
              113.01302195529759,
              27.84381797717542
            ],
            [
              113.01424177683731,
              27.84439322659871
            ],
            [
              113.01424177683731,
              27.84561562149355
            ],
            [
              113.0121274195018,
              27.846550384764598
            ],
            [
              113.01172081232188,
              27.84683800261182
            ],
            [
              113.01229006237375,
              27.849282723516936
            ],
            [
              113.01285931242562,
              27.849354626238707
            ],
            [
              113.0150549911971,
              27.851511685722485
            ],
            [
              113.01521763406907,
              27.852805900816662
            ],
            [
              113.0164374556088,
              27.853668702297412
            ],
            [
              113.01741331284057,
              27.853596802436257
            ],
            [
              113.01733199140459,
              27.855106689507977
            ],
            [
              113.01692538422469,
              27.856257065544455
            ],
            [
              113.01716934853263,
              27.857263634563168
            ],
            [
              113.0185518129443,
              27.856616555552577
            ],
            [
              113.0190397415602,
              27.855969472679703
            ],
            [
              113.01960899161206,
              27.85546618333062
            ],
            [
              113.02139806320366,
              27.856185167399786
            ],
            [
              113.0211540988957,
              27.854962891645172
            ],
            [
              113.02212995612749,
              27.854962891645172
            ]
          ]
        ]
      },
      "properties": {
        "name": "云和村",
        "type": "assistPolygon",
        "fill": "#9b59b6",
        "fill-opacity": 0.2,
        "stroke": "#9b59b6",
        "stroke-width": 2,
        "stroke-opacity": 0.8
      },
      "id": "assist_polygon_1773909416717"
    },
    {
      "type": "Feature",
      "geometry": {
        "type": "Point",
        "coordinates": [
          113.02473224207888,
          27.84971413913236
        ]
      },
      "properties": {
        "iconType": "default",
        "iconColor": "#e74c3c",
        "iconSize": 1,
        "text": "云和村中心点",
        "textColor": "#333333",
        "type": "assistPoint",
        "name": "辅助点_1"
      },
      "id": "assist_point_1773909563981"
    }
  ],
  "properties": {
    "description": "GIS-APP 辅助要素导出",
    "exportTime": "2026/3/19 16:41:29",
    "assistElements": {
      "lines": 1,
      "polygons": 1,
      "texts": 0,
      "points": 1
    }
  }
}