{
  "type": "FeatureCollection",
  "features": [
    {
      "type": "Feature",
      "geometry": {
        "type": "Polygon",
        "coordinates": [
          [
            [
              112.95440817453272,
              27.857903811871154
            ],
            [
              112.95797148125561,
              27.858048323344192
            ],
            [
              112.95780802681878,
              27.857065641528706
            ],
            [
              112.95842915367874,
              27.856140756388797
            ],
            [
              112.95895220787658,
              27.85541818438314
            ],
            [
              112.9601944615965,
              27.85434876897682
            ],
            [
              112.96163286064059,
              27.853077018006417
            ],
            [
              112.96258089637419,
              27.851805252119433
            ],
            [
              112.96290780524787,
              27.850793609512223
            ],
            [
              112.9628751143605,
              27.848625772144814
            ],
            [
              112.96290780524787,
              27.845677443781256
            ],
            [
              112.9629731870226,
              27.842902473283786
            ],
            [
              112.95878875343975,
              27.84249778415483
            ],
            [
              112.95551966470316,
              27.842093093516098
            ],
            [
              112.95306784815072,
              27.841717307999716
            ],
            [
              112.95153137644454,
              27.841543868091563
            ],
            [
              112.95192366709291,
              27.84475246150359
            ],
            [
              112.9524140304034,
              27.848278914144444
            ],
            [
              112.95303515726334,
              27.852065387264332
            ],
            [
              112.95352552057385,
              27.85440657548466
            ],
            [
              112.95359090234858,
              27.855244766385184
            ],
            [
              112.95385242944751,
              27.855967339546623
            ],
            [
              112.95440817453272,
              27.857903811871154
            ]
          ]
        ]
      },
      "properties": {
        "name": "金耐社区",
        "type": "assistPolygon",
        "fill": "#9b59b6",
        "fill-opacity": 0.2,
        "stroke": "#9b59b6",
        "stroke-width": 2,
        "stroke-opacity": 0.8
      },
      "id": "assist_polygon_1773993175112"
    },
    {
      "type": "Feature",
      "geometry": {
        "type": "Point",
        "coordinates": [
          112.95702344552201,
          27.849088247752903
        ]
      },
      "properties": {
        "iconType": "default",
        "iconColor": "#e74c3c",
        "iconSize": 1,
        "text": "金耐社区中心点",
        "textColor": "#333333",
        "type": "assistPoint",
        "name": "辅助点_1"
      },
      "id": "assist_point_1773993198015"
    }
  ],
  "properties": {
    "description": "GIS-APP 辅助要素导出",
    "exportTime": "2026/3/20 15:53:33",
    "assistElements": {
      "lines": 0,
      "polygons": 1,
      "texts": 0,
      "points": 1
    }
  }
}