{
  "type": "FeatureCollection",
  "features": [
    {
      "type": "Feature",
      "geometry": {
        "type": "Polygon",
        "coordinates": [
          [
            [
              112.97063075109207,
              27.98545579315089
            ],
            [
              112.96936385620246,
              27.98443317886617
            ],
            [
              112.96349457191631,
              27.98049995662052
            ],
            [
              112.95805486680312,
              27.977560440363206
            ],
            [
              112.95476947792739,
              27.97601394000648
            ],
            [
              112.94661636560302,
              27.97266758786141
            ],
            [
              112.94584664420081,
              27.97479890973662
            ],
            [
              112.94429851299678,
              27.980840450595764
            ],
            [
              112.94408930752677,
              27.984184400135575
            ],
            [
              112.94369181406918,
              27.98782382839444
            ],
            [
              112.94120925411266,
              27.995360474409082
            ],
            [
              112.9387107001625,
              28.001920778689453
            ],
            [
              112.94484750201381,
              28.00211429251597
            ],
            [
              112.94848574590179,
              28.003681736918466
            ],
            [
              112.95383352670302,
              27.99905674245835
            ],
            [
              112.96047442009693,
              27.992999441815144
            ],
            [
              112.96562495065209,
              27.988586880504016
            ],
            [
              112.96777282768824,
              27.987251464506514
            ],
            [
              112.97063075109207,
              27.98545579315089
            ]
          ]
        ]
      },
      "properties": {
        "name": "船形山社区",
        "type": "assistPolygon",
        "fill": "#c0392b",
        "fill-opacity": 0.4,
        "stroke": "#c0392b",
        "stroke-opacity": 1,
        "stroke-width": 3
      },
      "id": "assist_polygon_1773801433849"
    },
    {
      "type": "Feature",
      "geometry": {
        "type": "Point",
        "coordinates": [
          112.95286917522225,
          27.989341673533488
        ]
      },
      "properties": {
        "iconType": "default",
        "iconColor": "#e74c3c",
        "iconSize": 1,
        "text": "船形山社区",
        "textColor": "#333333",
        "type": "assistPoint",
        "name": "辅助点_1"
      },
      "id": "assist_point_1773801460104"
    }
  ],
  "properties": {
    "description": "GIS-APP 辅助要素导出",
    "exportTime": "2026/3/18 10:37:50",
    "assistElements": {
      "lines": 0,
      "polygons": 1,
      "texts": 0,
      "points": 1
    }
  }
}