{
  "type": "FeatureCollection",
  "features": [
    {
      "type": "Feature",
      "geometry": {
        "type": "LineString",
        "coordinates": [
          [
            112.8755547659344,
            27.884691202460715
          ],
          [
            112.87937325118128,
            27.885359429510245
          ],
          [
            112.87989861324543,
            27.88574450763194
          ],
          [
            112.88513942017822,
            27.88845134166202
          ]
        ]
      },
      "properties": {
        "assistFileId": "assist_file_default_1774016939137",
        "sourceFileName": "辅助元素_1.geojson",
        "type": "assistLine",
        "name": "辅助线_1",
        "stroke": "#e74c3c",
        "stroke-width": 2,
        "stroke-opacity": 0.8,
        "stroke-dasharray": "5,5"
      },
      "id": "assist_line_1774016947859"
    },
    {
      "type": "Feature",
      "geometry": {
        "type": "Polygon",
        "coordinates": [
          [
            [
              0.0010140182927141157,
              0.0002502706381619646
            ],
            [
              0.0010145572818845874,
              0.0002502706381619646
            ],
            [
              0.0010145572818845874,
              0.00025062996428459883
            ],
            [
              0.0010140182927141157,
              0.00025062996428459883
            ],
            [
              0.0010140182927141157,
              0.0002502706381619646
            ]
          ]
        ]
      },
      "properties": {
        "name": "测试多边形",
        "type": "assistPolygon",
        "fill": "#9b59b6",
        "fill-opacity": 0.2,
        "stroke": "#9b59b6",
        "stroke-width": 2,
        "stroke-opacity": 0.8
      }
    },
    {
      "type": "Feature",
      "geometry": {
        "type": "Polygon",
        "coordinates": [
          [
            [
              112.8790729365681,
              27.88333215822358
            ],
            [
              112.87915556245167,
              27.882930475096202
            ],
            [
              112.87909359303897,
              27.882437498312584
            ],
            [
              112.87921753186438,
              27.881780192443514
            ],
            [
              112.8795273789279,
              27.881396762177474
            ],
            [
              112.88153105660533,
              27.881853226626006
            ],
            [
              112.88179959072706,
              27.881451538012897
            ],
            [
              112.88213009426147,
              27.881469796618546
            ],
            [
              112.88213009426147,
              27.881068106583257
            ],
            [
              112.8826051930922,
              27.880940295805033
            ],
            [
              112.88279110133031,
              27.88041079240267
            ],
            [
              112.88328685663193,
              27.88031949845096
            ],
            [
              112.88351407781187,
              27.879534367289494
            ],
            [
              112.88376195546266,
              27.87942481365168
            ],
            [
              112.88367932957907,
              27.881981036326792
            ],
            [
              112.8840511460553,
              27.88240098142451
            ],
            [
              112.88578628961099,
              27.88276614975102
            ],
            [
              112.88562103784378,
              27.883222608427502
            ],
            [
              112.88407180252618,
              27.883167833487903
            ],
            [
              112.88347276487005,
              27.883167833487903
            ],
            [
              112.88322488721923,
              27.882820924893764
            ],
            [
              112.8828324142721,
              27.883113058520607
            ],
            [
              112.88215075073235,
              27.883131316846132
            ],
            [
              112.88182024719795,
              27.88364254871057
            ],
            [
              112.88140711777991,
              27.88355125748322
            ],
            [
              112.8812831789545,
              27.883058283525614
            ],
            [
              112.88076676718198,
              27.882729632973764
            ],
            [
              112.88008510364223,
              27.88285744164024
            ],
            [
              112.87987853893323,
              27.88342344963563
            ],
            [
              112.8790729365681,
              27.88333215822358
            ]
          ]
        ]
      },
      "properties": {
        "assistFileId": "assist_file_default_1774016939137",
        "sourceFileName": "辅助元素_1.geojson",
        "name": "中心村",
        "type": "assistPolygon",
        "fill": "#9b59b6",
        "fill-opacity": 0.2,
        "stroke": "#9b59b6",
        "stroke-width": 2,
        "stroke-opacity": 0.8
      },
      "id": "assist_polygon_1774017973402"
    },
    {
      "type": "Feature",
      "geometry": {
        "type": "Point",
        "coordinates": [
          112.8825845366213,
          27.882455756751995
        ]
      },
      "properties": {
        "iconType": "default",
        "iconColor": "#e74c3c",
        "iconSize": 1,
        "text": "中心村",
        "textColor": "#333333",
        "assistFileId": "assist_file_default_1774016939137",
        "sourceFileName": "辅助元素_1.geojson",
        "type": "assistPoint",
        "name": "辅助点_1"
      },
      "id": "assist_point_1774017985396"
    }
  ],
  "properties": {
    "description": "GIS-APP 辅助要素导出",
    "exportTime": "2026/3/20 22:46:45",
    "assistElements": {
      "lines": 1,
      "polygons": 2,
      "texts": 0,
      "points": 1
    },
    "fileCount": 1
  }
}