{
  "type": "FeatureCollection",
  "features": [
    {
      "type": "Feature",
      "geometry": {
        "type": "Polygon",
        "coordinates": [
          [
            [
              112.93361007593363,
              27.905753468473335
            ],
            [
              112.9430680132629,
              27.904849114819214
            ],
            [
              112.94308906972682,
              27.902758779463838
            ],
            [
              112.9429666031032,
              27.901580224671108
            ],
            [
              112.94180849758696,
              27.89750484073413
            ],
            [
              112.93994821474719,
              27.89170516679954
            ],
            [
              112.93954965330008,
              27.891799434342246
            ],
            [
              112.93915109082508,
              27.891680359729108
            ],
            [
              112.938797437102,
              27.891223905529216
            ],
            [
              112.9385055317564,
              27.890906371551054
            ],
            [
              112.9384999185479,
              27.890658296943187
            ],
            [
              112.93881852165661,
              27.890161753484904
            ],
            [
              112.93884484139393,
              27.889760476062307
            ],
            [
              112.93841740141492,
              27.889474798981723
            ],
            [
              112.93816061262059,
              27.888885918968768
            ],
            [
              112.93810127606996,
              27.888545321242788
            ],
            [
              112.93761545905413,
              27.888085255056566
            ],
            [
              112.9373447893379,
              27.887551575831367
            ],
            [
              112.93701859720498,
              27.886932014078155
            ],
            [
              112.93655360093656,
              27.887011759498833
            ],
            [
              112.93612330506663,
              27.887404353513205
            ],
            [
              112.93556114488676,
              27.88780921440646
            ],
            [
              112.93506144694909,
              27.887901228034693
            ],
            [
              112.93445764590976,
              27.887987107163298
            ],
            [
              112.93384825473366,
              27.888231023262293
            ],
            [
              112.93364004725963,
              27.88851319722896
            ],
            [
              112.93303624558493,
              27.888899651429227
            ],
            [
              112.93238386131912,
              27.88910207926928
            ],
            [
              112.93174535924594,
              27.889095944910665
            ],
            [
              112.93140202368379,
              27.888960993426096
            ],
            [
              112.93128227401094,
              27.888797035328167
            ],
            [
              112.93106399248263,
              27.888757846350444
            ],
            [
              112.9300693845247,
              27.889032206916724
            ],
            [
              112.92968057018166,
              27.88902014900974
            ],
            [
              112.92919966823104,
              27.88880310314238
            ],
            [
              112.92862326822885,
              27.88849562075214
            ],
            [
              112.92834152243704,
              27.888468489911062
            ],
            [
              112.92808913397111,
              27.88850164973499
            ],
            [
              112.92778217527922,
              27.888697594669495
            ],
            [
              112.92712733006987,
              27.888923684325505
            ],
            [
              112.92854275049652,
              27.893134894310748
            ],
            [
              112.92953297844012,
              27.895556776968704
            ],
            [
              112.93115644843864,
              27.899053355544055
            ],
            [
              112.93250706793195,
              27.90188670770715
            ],
            [
              112.93361007593363,
              27.905753468473335
            ]
          ]
        ]
      },
      "properties": {
        "name": "金井社区",
        "type": "assistPolygon",
        "fill": "#c0392b",
        "fill-opacity": 0.4,
        "stroke": "#c0392b",
        "stroke-opacity": 1,
        "stroke-width": 3
      },
      "id": "assist_polygon_1773803927383"
    },
    {
      "type": "Feature",
      "geometry": {
        "type": "Point",
        "coordinates": [
          112.93502227544523,
          27.895551892388696
        ]
      },
      "properties": {
        "iconType": "default",
        "iconColor": "#e74c3c",
        "iconSize": 1,
        "text": "金井社区",
        "textColor": "#333333",
        "type": "assistPoint",
        "name": "辅助点_1"
      },
      "id": "assist_point_1773803946749"
    }
  ],
  "properties": {
    "description": "GIS-APP 辅助要素导出",
    "exportTime": "2026/3/18 11:19:08",
    "assistElements": {
      "lines": 0,
      "polygons": 1,
      "texts": 0,
      "points": 1
    }
  }
}