{
  "type": "FeatureCollection",
  "features": [
    {
      "type": "Feature",
      "geometry": {
        "type": "Polygon",
        "coordinates": [
          [
            [
              112.90523372424873,
              27.880029975258296
            ],
            [
              112.90940950596718,
              27.878959617931685
            ],
            [
              112.90877102974478,
              27.876578846223495
            ],
            [
              112.90932144028133,
              27.876533435694824
            ],
            [
              112.9103121792471,
              27.876520461509074
            ],
            [
              112.91169921379915,
              27.876669666629866
            ],
            [
              112.91315963597485,
              27.876857794584325
            ],
            [
              112.91385682310238,
              27.87690320497704
            ],
            [
              112.9142898118286,
              27.876786435866393
            ],
            [
              112.91398158192816,
              27.876559384655536
            ],
            [
              112.91284590629934,
              27.875816873896042
            ],
            [
              112.91192855630096,
              27.875310868432848
            ],
            [
              112.91082773522788,
              27.874798373706795
            ],
            [
              112.90938198977067,
              27.874240464472265
            ],
            [
              112.91053511114765,
              27.87204475494184
            ],
            [
              112.91151059822032,
              27.872396223194386
            ],
            [
              112.91344307831952,
              27.873401578861234
            ],
            [
              112.91465896936796,
              27.871537985365634
            ],
            [
              112.9061460695863,
              27.86812492060629
            ],
            [
              112.90515209100711,
              27.86781839579305
            ],
            [
              112.90722556977953,
              27.87691495823006
            ],
            [
              112.90600043213128,
              27.877213283760412
            ],
            [
              112.90643038590035,
              27.878610908850774
            ],
            [
              112.90494589668026,
              27.87900494697371
            ],
            [
              112.90523372424873,
              27.880029975258296
            ]
          ]
        ]
      },
      "properties": {
        "name": "火车站社区",
        "type": "assistPolygon",
        "fill": "#9b59b6",
        "fill-opacity": 0.2,
        "stroke": "#9b59b6",
        "stroke-width": 2,
        "stroke-opacity": 0.8
      },
      "id": "assist_polygon_1773991535439"
    },
    {
      "type": "Feature",
      "geometry": {
        "type": "Point",
        "coordinates": [
          112.9082953231052,
          27.872839665910107
        ]
      },
      "properties": {
        "iconType": "default",
        "iconColor": "#e74c3c",
        "iconSize": 1,
        "text": "火车站社区",
        "textColor": "#333333",
        "type": "assistPoint",
        "name": "辅助点_1"
      },
      "id": "assist_point_1773991551765"
    }
  ],
  "properties": {
    "description": "GIS-APP 辅助要素导出",
    "exportTime": "2026/3/20 15:26:48",
    "assistElements": {
      "lines": 0,
      "polygons": 1,
      "texts": 0,
      "points": 1
    }
  }
}