{
  "type": "FeatureCollection",
  "features": [
    {
      "type": "Feature",
      "geometry": {
        "type": "Polygon",
        "coordinates": [
          [
            [
              112.87255493554777,
              27.920302095581306
            ],
            [
              112.875391044275,
              27.92242019610272
            ],
            [
              112.87528086684813,
              27.92245795759959
            ],
            [
              112.87500068891556,
              27.92254047786041
            ],
            [
              112.8748423274754,
              27.922633761200643
            ],
            [
              112.87464336078563,
              27.922633761200643
            ],
            [
              112.87452560459512,
              27.92268040300482
            ],
            [
              112.87432663790533,
              27.92271269339703
            ],
            [
              112.87459394508997,
              27.923167658619874
            ],
            [
              112.87460929300626,
              27.923330391167696
            ],
            [
              112.87454790134107,
              27.92363325400639
            ],
            [
              112.87462975751919,
              27.923827628059513
            ],
            [
              112.87494865047992,
              27.924097748734127
            ],
            [
              112.8753704774224,
              27.924221985780534
            ],
            [
              112.87584638540226,
              27.924241099832656
            ],
            [
              112.87620331589204,
              27.92426021300645
            ],
            [
              112.8764629017028,
              27.924336666542786
            ],
            [
              112.87667922189144,
              27.924585141693512
            ],
            [
              112.87698207332427,
              27.92476671831757
            ],
            [
              112.87712268164495,
              27.92489095547012
            ],
            [
              112.87720921090872,
              27.92611420279985
            ],
            [
              112.87717676268235,
              27.926467795527984
            ],
            [
              112.8769279922869,
              27.92688828203363
            ],
            [
              112.87675493573988,
              27.927346993475297
            ],
            [
              112.87648453253335,
              27.9277770332737
            ],
            [
              112.87585415510684,
              27.92756121867363
            ],
            [
              112.87569294343082,
              27.927727395086478
            ],
            [
              112.8753526071237,
              27.927901484629302
            ],
            [
              112.87460028596895,
              27.928265488867495
            ],
            [
              112.87457341735627,
              27.928273401501258
            ],
            [
              112.87405395805797,
              27.927759047949067
            ],
            [
              112.87351658580462,
              27.92793313744089
            ],
            [
              112.87334641765106,
              27.927838179702732
            ],
            [
              112.87288965123568,
              27.927529566477574
            ],
            [
              112.8723881040725,
              27.92721303893596
            ],
            [
              112.8714890678763,
              27.92798875399575
            ],
            [
              112.87128053130441,
              27.92794623491062
            ],
            [
              112.87070304676875,
              27.92830055924388
            ],
            [
              112.87070304676875,
              27.928654883713165
            ],
            [
              112.87102387102124,
              27.92890999630039
            ],
            [
              112.87112011844386,
              27.929165108285446
            ],
            [
              112.8708634596293,
              27.929576120340045
            ],
            [
              112.87090172873654,
              27.93028062711089
            ],
            [
              112.87117934748156,
              27.930644078000952
            ],
            [
              112.87157533813688,
              27.930806514796046
            ],
            [
              112.87203208670314,
              27.930934745190115
            ],
            [
              112.8724238913908,
              27.930968951347026
            ],
            [
              112.87288236661846,
              27.931015813530507
            ],
            [
              112.8733997276328,
              27.931168873536677
            ],
            [
              112.87396543152846,
              27.93194356666949
            ],
            [
              112.8743897081554,
              27.932455861133533
            ],
            [
              112.87471498517637,
              27.932505840741968
            ],
            [
              112.87463012985098,
              27.933168071088218
            ],
            [
              112.874729129457,
              27.933955245050683
            ],
            [
              112.87530897245412,
              27.93431759323326
            ],
            [
              112.87583224868709,
              27.934517508655915
            ],
            [
              112.87624238103344,
              27.93457998239991
            ],
            [
              112.87670335677566,
              27.934473426191218
            ],
            [
              112.87693846510531,
              27.93449588201139
            ],
            [
              112.87738326615728,
              27.934428515050868
            ],
            [
              112.87767556309387,
              27.934366762138154
            ],
            [
              112.87775816847163,
              27.9341422050001
            ],
            [
              112.87805046657175,
              27.934136590898618
            ],
            [
              112.87839359821348,
              27.934069223714104
            ],
            [
              112.87864776941207,
              27.93380536867501
            ],
            [
              112.87890194061069,
              27.933462917163496
            ],
            [
              112.87926439700847,
              27.933366710884926
            ],
            [
              112.87952466138537,
              27.933395549558966
            ],
            [
              112.87967081043541,
              27.933333796055962
            ],
            [
              112.8798296672891,
              27.933238358661114
            ],
            [
              112.88014102709468,
              27.933002571371603
            ],
            [
              112.88034963358223,
              27.93291154904351
            ],
            [
              112.88055778755671,
              27.93287618266031
            ],
            [
              112.8805898106813,
              27.933045939121797
            ],
            [
              112.8807098992308,
              27.933102524981393
            ],
            [
              112.88068659060994,
              27.93318491257972
            ],
            [
              112.88086201090489,
              27.93323691482216
            ],
            [
              112.88101651650697,
              27.933489259202148
            ],
            [
              112.88112325684641,
              27.933725020313176
            ],
            [
              112.88116692347006,
              27.933990786488778
            ],
            [
              112.88121059009372,
              27.934295130841477
            ],
            [
              112.88131733043318,
              27.934505171031432
            ],
            [
              112.88147258983558,
              27.934723783720543
            ],
            [
              112.88167151586167,
              27.93501526668345
            ],
            [
              112.88177825620113,
              27.935161007771953
            ],
            [
              112.88191410762302,
              27.935323894776758
            ],
            [
              112.88207300531734,
              27.935414197534968
            ],
            [
              112.88213523948112,
              27.93530923078363
            ],
            [
              112.8822087893241,
              27.935109293794213
            ],
            [
              112.8823304289908,
              27.935104295327548
            ],
            [
              112.88244075349627,
              27.935089300040588
            ],
            [
              112.8825312763401,
              27.935066807106253
            ],
            [
              112.88287073635695,
              27.934956841658405
            ],
            [
              112.88273959231664,
              27.934740404710908
            ],
            [
              112.88268542612963,
              27.934581930388035
            ],
            [
              112.8827585271267,
              27.93445941990919
            ],
            [
              112.88279499700036,
              27.934378868869246
            ],
            [
              112.88283602529526,
              27.934266097902437
            ],
            [
              112.88298646237651,
              27.934125133475277
            ],
            [
              112.883004696896,
              27.934016389552596
            ],
            [
              112.8830274906714,
              27.933883480165164
            ],
            [
              112.88310823658325,
              27.933811380105823
            ],
            [
              112.88320461256798,
              27.93376135683907
            ],
            [
              112.88327455374598,
              27.93372332370356
            ],
            [
              112.88341652489054,
              27.933658196442636
            ],
            [
              112.88349297131445,
              27.933605129903825
            ],
            [
              112.88360964940826,
              27.933562175956737
            ],
            [
              112.88362044982796,
              27.93344130966851
            ],
            [
              112.88364565058758,
              27.933317262448327
            ],
            [
              112.88369245284584,
              27.933225021921217
            ],
            [
              112.88382205788245,
              27.933167769261175
            ],
            [
              112.88396016457405,
              27.933159419209446
            ],
            [
              112.88423247383174,
              27.93304372172699
            ],
            [
              112.88449564917059,
              27.93283784052123
            ],
            [
              112.88458888768247,
              27.9327065663651
            ],
            [
              112.88476889423832,
              27.932617506134193
            ],
            [
              112.88496717308298,
              27.93254295069694
            ],
            [
              112.88524796738254,
              27.93249614257148
            ],
            [
              112.88537511981103,
              27.93234635703368
            ],
            [
              112.88547578279699,
              27.932201251814746
            ],
            [
              112.88559763656093,
              27.9320514658682
            ],
            [
              112.88575127940206,
              27.93168168042827
            ],
            [
              112.88579896156274,
              27.93152253179339
            ],
            [
              112.88593671035031,
              27.931410191540294
            ],
            [
              112.88618273329477,
              27.93137663331656
            ],
            [
              112.88608885463057,
              27.931036568754166
            ],
            [
              112.88592456718304,
              27.9307421219804
            ],
            [
              112.88585352005886,
              27.9306206068771
            ],
            [
              112.88486997066423,
              27.929896453162215
            ],
            [
              112.88526488110321,
              27.92979770460724
            ],
            [
              112.88579391191419,
              27.9294224592754
            ],
            [
              112.88638255086985,
              27.92936979336055
            ],
            [
              112.88688177624417,
              27.929172295197944
            ],
            [
              112.88733334149806,
              27.92915591140695
            ],
            [
              112.88749076570038,
              27.928690496377712
            ],
            [
              112.88766635542768,
              27.928428365273277
            ],
            [
              112.88802358931821,
              27.928203680893503
            ],
            [
              112.88847164418165,
              27.928465812542882
            ],
            [
              112.88877282041881,
              27.92843010560229
            ],
            [
              112.88922105163152,
              27.928184680131167
            ],
            [
              112.88970084762482,
              27.927810963217226
            ],
            [
              112.8902816541527,
              27.927124882377782
            ],
            [
              112.89046473357917,
              27.926784629374268
            ],
            [
              112.89050261224062,
              27.92628261466463
            ],
            [
              112.89063518755579,
              27.925981404719764
            ],
            [
              112.89097456185637,
              27.925341947980556
            ],
            [
              112.89122782520501,
              27.924821430496166
            ],
            [
              112.89132142298972,
              27.92459765596014
            ],
            [
              112.89138479963009,
              27.924122200654537
            ],
            [
              112.89150868073311,
              27.923597841346393
            ],
            [
              112.8915390757762,
              27.92277262401342
            ],
            [
              112.89148657570722,
              27.92204017725082
            ],
            [
              112.89107825608734,
              27.92192841599031
            ],
            [
              112.89067095995804,
              27.922025540585423
            ],
            [
              112.89058545280862,
              27.921997557943413
            ],
            [
              112.8904366068367,
              27.92186324157079
            ],
            [
              112.8902117550896,
              27.92156102912223
            ],
            [
              112.8898504799991,
              27.921369533334257
            ],
            [
              112.88913285028401,
              27.920747245115322
            ],
            [
              112.88897140295742,
              27.920289247962643
            ],
            [
              112.88917070939566,
              27.91973652689809
            ],
            [
              112.88947274074378,
              27.919388263393685
            ],
            [
              112.88958126315563,
              27.91905668436962
            ],
            [
              112.88977646563184,
              27.918652240552916
            ],
            [
              112.88978675126192,
              27.91846013573307
            ],
            [
              112.88949938849252,
              27.918093229615096
            ],
            [
              112.88921965372211,
              27.91762508703208
            ],
            [
              112.88915183949098,
              27.917168178254087
            ],
            [
              112.88923660708585,
              27.916636363719064
            ],
            [
              112.88947395805886,
              27.91607084010981
            ],
            [
              112.88958839501039,
              27.916022152374538
            ],
            [
              112.8897155471788,
              27.91607458508193
            ],
            [
              112.88985965271092,
              27.91616821517175
            ],
            [
              112.89009700368392,
              27.916048368902864
            ],
            [
              112.89070750219423,
              27.91561227296296
            ],
            [
              112.89152867267133,
              27.91536295025699
            ],
            [
              112.8918897995889,
              27.914555791525757
            ],
            [
              112.8924546074325,
              27.913549557720202
            ],
            [
              112.89256153632766,
              27.9124687764821
            ],
            [
              112.89250540033642,
              27.911436955557193
            ],
            [
              112.89234821503821,
              27.911040098315056
            ],
            [
              112.89178352460195,
              27.909957761842705
            ],
            [
              112.8917494189629,
              27.90968048940718
            ],
            [
              112.89149426108384,
              27.90920107958671
            ],
            [
              112.89231454762415,
              27.908864440088664
            ],
            [
              112.89217212894859,
              27.908316067961806
            ],
            [
              112.89187711564173,
              27.90747103103307
            ],
            [
              112.8915719301045,
              27.907201336831577
            ],
            [
              112.89143017535449,
              27.907037744272785
            ],
            [
              112.89082777841652,
              27.907422844183742
            ],
            [
              112.88982805324216,
              27.90651672468617
            ],
            [
              112.88939227403746,
              27.90607498901629
            ],
            [
              112.88905903270381,
              27.905871110406494
            ],
            [
              112.8888411442749,
              27.90615427538424
            ],
            [
              112.88861043846542,
              27.905769170957484
            ],
            [
              112.88900837159194,
              27.904998808471206
            ],
            [
              112.8894504021916,
              27.904511492803337
            ],
            [
              112.88905476553433,
              27.904204670577144
            ],
            [
              112.88827964258581,
              27.90391211749109
            ],
            [
              112.88785171111029,
              27.903783679492165
            ],
            [
              112.87255493554777,
              27.920302095581306
            ]
          ]
        ]
      },
      "properties": {
        "name": "红星村",
        "type": "assistPolygon",
        "fill": "#9b59b6",
        "fill-opacity": 0.2,
        "stroke": "#9b59b6",
        "stroke-width": 2,
        "stroke-opacity": 0.8
      },
      "id": "assist_polygon_1773889219961"
    },
    {
      "type": "Feature",
      "geometry": {
        "type": "Point",
        "coordinates": [
          112.88307279909611,
          27.924442654932022
        ]
      },
      "properties": {
        "iconType": "default",
        "iconColor": "#e74c3c",
        "iconSize": 1,
        "text": "红星村",
        "textColor": "#333333",
        "type": "assistPoint",
        "name": "辅助点_1"
      },
      "id": "assist_point_1773899383353"
    }
  ],
  "properties": {
    "description": "GIS-APP 辅助要素导出",
    "exportTime": "2026/3/19 13:49:48",
    "assistElements": {
      "lines": 0,
      "polygons": 1,
      "texts": 0,
      "points": 1
    }
  }
}