{
  "type": "FeatureCollection",
  "features": [
    {
      "type": "Feature",
      "geometry": {
        "type": "Polygon",
        "coordinates": [
          [
            [
              112.84848414669823,
              27.916755569595438
            ],
            [
              112.84872869527626,
              27.917004072987623
            ],
            [
              112.84931561186352,
              27.916906832597846
            ],
            [
              112.85045836865852,
              27.917360625701207
            ],
            [
              112.85057941747645,
              27.917773490579833
            ],
            [
              112.85135638361615,
              27.918115425031658
            ],
            [
              112.85194776108065,
              27.91881215819872
            ],
            [
              112.8522763041165,
              27.919644361966192
            ],
            [
              112.8517944423341,
              27.920476557556526
            ],
            [
              112.85175063525917,
              27.921869990743417
            ],
            [
              112.85218869397711,
              27.92237316930583
            ],
            [
              112.85284578004882,
              27.922489287239316
            ],
            [
              112.85433517648148,
              27.92341822621735
            ],
            [
              112.85518938837468,
              27.92407622042127
            ],
            [
              112.85534270712122,
              27.924811619717843
            ],
            [
              112.85591218305355,
              27.925488957588442
            ],
            [
              112.85707303243984,
              27.925392195042235
            ],
            [
              112.85823388583665,
              27.92630175707646
            ],
            [
              112.85908809772985,
              27.92634046195684
            ],
            [
              112.85983279394092,
              27.92711455045273
            ],
            [
              112.86075271444128,
              27.92736612782096
            ],
            [
              112.86105935594492,
              27.929398079792307
            ],
            [
              112.86192764061323,
              27.93019890547231
            ],
            [
              112.85965029380371,
              27.93557455279702
            ],
            [
              112.85907350962322,
              27.935510720268766
            ],
            [
              112.85899499393062,
              27.935988579079336
            ],
            [
              112.85869614478257,
              27.936938356914425
            ],
            [
              112.85790226442322,
              27.93742391621406
            ],
            [
              112.85798950354919,
              27.93816381190308
            ],
            [
              112.8579049679953,
              27.93825681375256
            ],
            [
              112.85759913869373,
              27.93811132866469
            ],
            [
              112.857354474994,
              27.937924276447163
            ],
            [
              112.85692631405792,
              27.937857769167735
            ],
            [
              112.85668635557013,
              27.938078075087645
            ],
            [
              112.85675222638397,
              27.938398141626138
            ],
            [
              112.85724625856466,
              27.938585193213527
            ],
            [
              112.85725216505236,
              27.9389771564216
            ],
            [
              112.8568194203409,
              27.939071423953905
            ],
            [
              112.85643409902342,
              27.939328040388787
            ],
            [
              112.85630749825245,
              27.939477510352404
            ],
            [
              112.85626203034765,
              27.939816065151447
            ],
            [
              112.85611263920136,
              27.94003985514513
            ],
            [
              112.85599572377072,
              27.940229215546907
            ],
            [
              112.85589829424516,
              27.940487433741723
            ],
            [
              112.85520329656656,
              27.9404816953912
            ],
            [
              112.85494348489492,
              27.94059645919154
            ],
            [
              112.85439138345731,
              27.940705484006003
            ],
            [
              112.85394320763984,
              27.94086041431389
            ],
            [
              112.85339595635952,
              27.941229155756233
            ],
            [
              112.85308677531694,
              27.94115329905121
            ],
            [
              112.85285558274353,
              27.940970004688367
            ],
            [
              112.85275308569071,
              27.941027935921767
            ],
            [
              112.85267735499718,
              27.941095240367872
            ],
            [
              112.8522128502538,
              27.9415015740621
            ],
            [
              112.8518510466687,
              27.94166797708766
            ],
            [
              112.85173468360621,
              27.941594105105082
            ],
            [
              112.85159806456406,
              27.94153375870161
            ],
            [
              112.85151465671316,
              27.941399961477657
            ],
            [
              112.85123821711572,
              27.94114215648068
            ],
            [
              112.85032211694704,
              27.940123372119672
            ],
            [
              112.85003896246519,
              27.940425610308623
            ],
            [
              112.84933215010092,
              27.940783735292626
            ],
            [
              112.84894755906112,
              27.94082046627331
            ],
            [
              112.84852139328645,
              27.940747004299425
            ],
            [
              112.8479601001072,
              27.94079291824913
            ],
            [
              112.84742998988234,
              27.94111431114716
            ],
            [
              112.84695184997933,
              27.94153671243606
            ],
            [
              112.84654044146068,
              27.942281296396814
            ],
            [
              112.84634838520107,
              27.942941108278077
            ],
            [
              112.8460816410473,
              27.94313905097023
            ],
            [
              112.84571886876375,
              27.942941108278077
            ],
            [
              112.84565485001055,
              27.94248866647675
            ],
            [
              112.8454094441387,
              27.942055074351202
            ],
            [
              112.84512524802649,
              27.942649627639653
            ],
            [
              112.84409263183227,
              27.942304219728697
            ],
            [
              112.84345100760818,
              27.94218022633528
            ],
            [
              112.84285950910056,
              27.941808246922847
            ],
            [
              112.84176674241365,
              27.941569116624137
            ],
            [
              112.84101483830901,
              27.94148940640696
            ],
            [
              112.84018937281702,
              27.941273406465
            ],
            [
              112.83956819184185,
              27.94051261442341
            ],
            [
              112.83862230873979,
              27.939726873149198
            ],
            [
              112.83802936655356,
              27.93921551502754
            ],
            [
              112.83711171707036,
              27.938891238030635
            ],
            [
              112.83588347968463,
              27.93937765373191
            ],
            [
              112.83490936037867,
              27.940188341319967
            ],
            [
              112.83389288805945,
              27.94146048556088
            ],
            [
              112.83315876743885,
              27.941934417439796
            ],
            [
              112.83272112049643,
              27.94119857473595
            ],
            [
              112.83228347226145,
              27.941348238142226
            ],
            [
              112.83197113087392,
              27.942011707239843
            ],
            [
              112.8316746597808,
              27.942435749065965
            ],
            [
              112.83086995252808,
              27.942398333610498
            ],
            [
              112.829500539293,
              27.942435749065965
            ],
            [
              112.82800638638923,
              27.942435749065965
            ],
            [
              112.82635461887047,
              27.941949347134226
            ],
            [
              112.82495696943151,
              27.941138671619683
            ],
            [
              112.82439226344918,
              27.940153382567274
            ],
            [
              112.82386990918761,
              27.939866523589018
            ],
            [
              112.82310119758097,
              27.939343748955352
            ],
            [
              112.8215857567492,
              27.939196480374093
            ],
            [
              112.82079772518581,
              27.938848389645045
            ],
            [
              112.82011577778275,
              27.938674343247072
            ],
            [
              112.81946413597743,
              27.93829947360132
            ],
            [
              112.81721222362471,
              27.937791395351965
            ],
            [
              112.81619687857267,
              27.936345452167544
            ],
            [
              112.8156664744203,
              27.934551385059393
            ],
            [
              112.81551492978215,
              27.93254306519053
            ],
            [
              112.81511767510456,
              27.936239787277287
            ],
            [
              112.8139148667169,
              27.936006006166565
            ],
            [
              112.81343374468325,
              27.934730824029813
            ],
            [
              112.81345780155578,
              27.932796768420047
            ],
            [
              112.81473277835862,
              27.931223995558824
            ],
            [
              112.8147087192837,
              27.93075640918245
            ],
            [
              112.81480494677379,
              27.929204859579855
            ],
            [
              112.81480494677379,
              27.927568270755614
            ],
            [
              112.8152620119349,
              27.925931657150755
            ],
            [
              112.81566559983796,
              27.925362818797353
            ],
            [
              112.81648846305633,
              27.925287393159635
            ],
            [
              112.81694420988518,
              27.924806773611024
            ],
            [
              112.81691480725473,
              27.92433914211462
            ],
            [
              112.81712062835983,
              27.923702641231216
            ],
            [
              112.81681189602922,
              27.922884276426515
            ],
            [
              112.8169736138616,
              27.922429625843094
            ],
            [
              112.81779689962796,
              27.922351685687048
            ],
            [
              112.81904653093866,
              27.92197497453695
            ],
            [
              112.8181938411959,
              27.92084483202173
            ],
            [
              112.81763518314152,
              27.920325221906836
            ],
            [
              112.81814973657724,
              27.919766639467213
            ],
            [
              112.81910533619957,
              27.919324966564915
            ],
            [
              112.81984041407458,
              27.91870142583811
            ],
            [
              112.82042561873304,
              27.918736694226
            ],
            [
              112.82126688820452,
              27.9187642255162
            ],
            [
              112.82210815767601,
              27.9184613771575
            ],
            [
              112.82227952833402,
              27.917580356063013
            ],
            [
              112.82171867916708,
              27.916892054086617
            ],
            [
              112.82061557486473,
              27.915897998390918
            ],
            [
              112.82077136740934,
              27.91551254317183
            ],
            [
              112.82112095112359,
              27.915107245521426
            ],
            [
              112.82166621932448,
              27.91499711533389
            ],
            [
              112.82244517206338,
              27.91499711533389
            ],
            [
              112.82308391322371,
              27.915217375596825
            ],
            [
              112.82390960458176,
              27.915189843403567
            ],
            [
              112.82473529451352,
              27.91484568472498
            ],
            [
              112.82559214352473,
              27.91422619709975
            ],
            [
              112.82605951545332,
              27.913661772371896
            ],
            [
              112.82665152084708,
              27.913427741988713
            ],
            [
              112.82660287718987,
              27.912982211469625
            ],
            [
              112.82577820627549,
              27.912435663821554
            ],
            [
              112.82488481068765,
              27.91207129718846
            ],
            [
              112.82412886234947,
              27.911889113411604
            ],
            [
              112.82353326738816,
              27.912880997915067
            ],
            [
              112.82282313340168,
              27.912921484089537
            ],
            [
              112.82238788972003,
              27.912293965214587
            ],
            [
              112.822433706169,
              27.911423530018823
            ],
            [
              112.82190683168663,
              27.910229202025292
            ],
            [
              112.82158612703012,
              27.90952069638746
            ],
            [
              112.82080727046743,
              27.90909559040658
            ],
            [
              112.81991387697687,
              27.908690726632187
            ],
            [
              112.8197993379517,
              27.90794172289418
            ],
            [
              112.8190433896135,
              27.90694979309687
            ],
            [
              112.8200284139048,
              27.906727112216103
            ],
            [
              112.82016585905718,
              27.90605907053032
            ],
            [
              112.81975352359999,
              27.905289805915018
            ],
            [
              112.8190433896135,
              27.905310050424816
            ],
            [
              112.81828744127533,
              27.90484443871486
            ],
            [
              112.81741695600923,
              27.90407516546304
            ],
            [
              112.81755440116162,
              27.90348808497413
            ],
            [
              112.81427862572855,
              27.902981977397246
            ],
            [
              112.81313325015765,
              27.902111467272107
            ],
            [
              112.81404955187271,
              27.90069434502719
            ],
            [
              112.81622576608659,
              27.89881156655254
            ],
            [
              112.81650607305544,
              27.8985052950585
            ],
            [
              112.81766970170307,
              27.898424952535464
            ],
            [
              112.81910605773967,
              27.898778461838674
            ],
            [
              112.81986968976791,
              27.898987351886348
            ],
            [
              112.82176058756873,
              27.899035557451043
            ],
            [
              112.82346966932971,
              27.89977470724432
            ],
            [
              112.82408784819317,
              27.89963009147361
            ],
            [
              112.82490602536632,
              27.89988718653383
            ],
            [
              112.82572420253945,
              27.900979831150963
            ],
            [
              112.82565147678935,
              27.902908001484988
            ],
            [
              112.8255605671048,
              27.90457905562819
            ],
            [
              112.82617874430368,
              27.90525389670462
            ],
            [
              112.82661510546271,
              27.906378621497126
            ],
            [
              112.82630411560835,
              27.904806016149877
            ],
            [
              112.82717460087444,
              27.90466430754836
            ],
            [
              112.82801072694969,
              27.904836382122255
            ],
            [
              112.82891557350389,
              27.905919429254766
            ],
            [
              112.82966006877845,
              27.906759542391242
            ],
            [
              112.83015257987546,
              27.90739721450649
            ],
            [
              112.83089707515003,
              27.907528797482428
            ],
            [
              112.83118067776486,
              27.907715920260515
            ],
            [
              112.83183521950338,
              27.90967610540767
            ],
            [
              112.83223521612274,
              27.910816851482807
            ],
            [
              112.83370793503434,
              27.911314920644017
            ],
            [
              112.83492367790883,
              27.911569838335126
            ],
            [
              112.83592367445097,
              27.911859036293805
            ],
            [
              112.83634868035763,
              27.911724746710078
            ],
            [
              112.83816398372136,
              27.91068127811883
            ],
            [
              112.83906282378358,
              27.91124194880561
            ],
            [
              112.8399969135514,
              27.912114098381082
            ],
            [
              112.8403846474045,
              27.912768205234556
            ],
            [
              112.84130111070597,
              27.91340673382429
            ],
            [
              112.84234094636348,
              27.913967390382865
            ],
            [
              112.84283139056818,
              27.914075551913385
            ],
            [
              112.84320636530323,
              27.91395669931768
            ],
            [
              112.84370361395419,
              27.9140251297259
            ],
            [
              112.84426199974963,
              27.914388889948697
            ],
            [
              112.84452285206373,
              27.914471726508893
            ],
            [
              112.84500379735172,
              27.914540156261523
            ],
            [
              112.8449711906259,
              27.914767055334067
            ],
            [
              112.84519943621416,
              27.91505518067416
            ],
            [
              112.84540730250549,
              27.915458554333114
            ],
            [
              112.8458108076592,
              27.915912348148325
            ],
            [
              112.8460961140848,
              27.91607441690654
            ],
            [
              112.84641810354341,
              27.916027597287837
            ],
            [
              112.84667080324316,
              27.91605640938863
            ],
            [
              112.84700870410835,
              27.91611810176059
            ],
            [
              112.84739998183319,
              27.916200936666513
            ],
            [
              112.84886319699417,
              27.916247756539917
            ],
            [
              112.848537132721,
              27.91642783225447
            ],
            [
              112.84848414669823,
              27.916755569595438
            ]
          ]
        ]
      },
      "properties": {
        "type": "assistPolygon",
        "name": "辅助多边形_1",
        "fill": "#9b59b6",
        "fill-opacity": 0.2,
        "stroke": "#9b59b6",
        "stroke-width": 2,
        "stroke-opacity": 0.8
      },
      "id": "assist_polygon_1773906976541"
    },
    {
      "type": "Feature",
      "geometry": {
        "type": "Point",
        "coordinates": [
          112.83790279317073,
          27.92775986216121
        ]
      },
      "properties": {
        "iconType": "default",
        "iconColor": "#e74c3c",
        "iconSize": 1,
        "text": "黄龙村",
        "textColor": "#333333",
        "type": "assistPoint",
        "name": "辅助点_1"
      },
      "id": "assist_point_1773907143728"
    }
  ],
  "properties": {
    "description": "GIS-APP 辅助要素导出",
    "exportTime": "2026/3/19 15:59:36",
    "assistElements": {
      "lines": 0,
      "polygons": 1,
      "texts": 0,
      "points": 1
    }
  }
}