{
  "type": "FeatureCollection",
  "features": [
    {
      "type": "Feature",
      "geometry": {
        "type": "Polygon",
        "coordinates": [
          [
            [
              112.87194706595224,
              27.920924527888474
            ],
            [
              112.86677568023688,
              27.92649260874667
            ],
            [
              112.8633613581976,
              27.930123771002755
            ],
            [
              112.86212813120378,
              27.93028658150621
            ],
            [
              112.86124928151322,
              27.929748053079265
            ],
            [
              112.86102247941618,
              27.929434954003042
            ],
            [
              112.8610508303272,
              27.928658463141616
            ],
            [
              112.86092325512092,
              27.927894492398536
            ],
            [
              112.86086655589442,
              27.927355951479242
            ],
            [
              112.86005744303105,
              27.927144493050548
            ],
            [
              112.85979028600373,
              27.927026470512644
            ],
            [
              112.85935986544267,
              27.92664617519189
            ],
            [
              112.85888491871043,
              27.92627899144675
            ],
            [
              112.85827639618215,
              27.92634456019276
            ],
            [
              112.85704450453909,
              27.925282344851695
            ],
            [
              112.85593135025853,
              27.925452824360136
            ],
            [
              112.85551577220748,
              27.92498072604704
            ],
            [
              112.85532282501259,
              27.924547967448845
            ],
            [
              112.85532282501259,
              27.924010295662143
            ],
            [
              112.85435809175569,
              27.923551304293667
            ],
            [
              112.85324493747514,
              27.92248906150529
            ],
            [
              112.85186462616721,
              27.922016950249116
            ],
            [
              112.85173104765356,
              27.921216980048015
            ],
            [
              112.85164199531111,
              27.920587490508368
            ],
            [
              112.8521911518758,
              27.919564562189677
            ],
            [
              112.8520739640257,
              27.919049807238366
            ],
            [
              112.8516507767717,
              27.918397942346317
            ],
            [
              112.85111315637225,
              27.918013771503936
            ],
            [
              112.85059423636359,
              27.91775765659861
            ],
            [
              112.85049606230791,
              27.91753871952409
            ],
            [
              112.85040723844762,
              27.917311519947575
            ],
            [
              112.84983221897859,
              27.917125629133068
            ],
            [
              112.84929927410482,
              27.916919083534893
            ],
            [
              112.84874295417058,
              27.91702648723468
            ],
            [
              112.84866348007768,
              27.916948000086123
            ],
            [
              112.84848942483191,
              27.916754853764644
            ],
            [
              112.84852436530912,
              27.916439932397537
            ],
            [
              112.84888076035182,
              27.916242333831846
            ],
            [
              112.84878298607043,
              27.916111507755815
            ],
            [
              112.84890854307702,
              27.914558248264157
            ],
            [
              112.84926238488512,
              27.914437214144087
            ],
            [
              112.84947354882287,
              27.91412454219413
            ],
            [
              112.84958769122365,
              27.913711006578993
            ],
            [
              112.84954774167075,
              27.913282340410333
            ],
            [
              112.84930600859045,
              27.913072364947027
            ],
            [
              112.8490663091831,
              27.91281012042542
            ],
            [
              112.848974994949,
              27.912552918601023
            ],
            [
              112.84850701074015,
              27.91229067281992
            ],
            [
              112.84827301811323,
              27.911851914291034
            ],
            [
              112.84805614739506,
              27.91138289458499
            ],
            [
              112.84800478323632,
              27.911070213804976
            ],
            [
              112.84812463294001,
              27.91080292147616
            ],
            [
              112.84839197923876,
              27.91021717162137
            ],
            [
              112.84829232499129,
              27.909944977268097
            ],
            [
              112.84810207544561,
              27.90972081605146
            ],
            [
              112.84761286232816,
              27.909424602381193
            ],
            [
              112.84679750713237,
              27.9090323189762
            ],
            [
              112.8465257220671,
              27.908784138391
            ],
            [
              112.84629017528704,
              27.908543963325442
            ],
            [
              112.84639888931314,
              27.907895487984774
            ],
            [
              112.84656743421704,
              27.907295843928537
            ],
            [
              112.84593441255056,
              27.90675715590838
            ],
            [
              112.84545378534675,
              27.90612523100735
            ],
            [
              112.84512555153232,
              27.905286111069714
            ],
            [
              112.84497315706967,
              27.90479921164804
            ],
            [
              112.84512709260808,
              27.9044715538369
            ],
            [
              112.84537326770061,
              27.904222922585433
            ],
            [
              112.84539671258976,
              27.90382925558488
            ],
            [
              112.84547877131168,
              27.90350810455479
            ],
            [
              112.84525604110831,
              27.90311443495341
            ],
            [
              112.84503929024147,
              27.902289000681165
            ],
            [
              112.84481846798815,
              27.901853206551166
            ],
            [
              112.84478862794134,
              27.901817995579847
            ],
            [
              112.84475582904686,
              27.901789009527306
            ],
            [
              112.84472975984987,
              27.901734389651423
            ],
            [
              112.8444088567352,
              27.901410276482906
            ],
            [
              112.84421020242613,
              27.901284232073337
            ],
            [
              112.8425089068593,
              27.90013182076629
            ],
            [
              112.84134162374207,
              27.89895371578484
            ],
            [
              112.84215288197915,
              27.898733109572973
            ],
            [
              112.84225896937943,
              27.8986614123437
            ],
            [
              112.84268331955182,
              27.89882135221268
            ],
            [
              112.84292045690019,
              27.89900335208266
            ],
            [
              112.84329488369096,
              27.899091594501982
            ],
            [
              112.84356946314706,
              27.898898564652725
            ],
            [
              112.84386276394275,
              27.898584200744295
            ],
            [
              112.84414277533433,
              27.898551824465528
            ],
            [
              112.84451096148815,
              27.89864006725304
            ],
            [
              112.84481674298635,
              27.898436005918626
            ],
            [
              112.84508686546819,
              27.89812321651715
            ],
            [
              112.84550908775195,
              27.897039394032944
            ],
            [
              112.84520954631934,
              27.895914278607677
            ],
            [
              112.84588271738734,
              27.895987303505237
            ],
            [
              112.84561557361175,
              27.895259136641712
            ],
            [
              112.84551189211732,
              27.894709333364062
            ],
            [
              112.84537050904574,
              27.89443443067792
            ],
            [
              112.84540821148579,
              27.894101214110492
            ],
            [
              112.84548361550299,
              27.893876292519167
            ],
            [
              112.84585121148908,
              27.894176187870386
            ],
            [
              112.84613397763226,
              27.89413453604216
            ],
            [
              112.84634133975824,
              27.893976257728568
            ],
            [
              112.84694457448461,
              27.89402624029863
            ],
            [
              112.84735929873654,
              27.89445942186005
            ],
            [
              112.84762321322818,
              27.895009226407183
            ],
            [
              112.84741585196517,
              27.89542574288994
            ],
            [
              112.8475289584224,
              27.895733964497637
            ],
            [
              112.84770804307114,
              27.89577561571032
            ],
            [
              112.84808506402005,
              27.895900570014916
            ],
            [
              112.84841495842903,
              27.895875579165562
            ],
            [
              112.848744852838,
              27.895975542528475
            ],
            [
              112.84915957536406,
              27.895850588310395
            ],
            [
              112.85055455615425,
              27.89575895537969
            ],
            [
              112.85139342789502,
              27.895634000911613
            ],
            [
              112.85178480485719,
              27.89575586793987
            ],
            [
              112.85241321343956,
              27.895769090648315
            ],
            [
              112.8528471155168,
              27.895319491020558
            ],
            [
              112.85384957591351,
              27.895002124883263
            ],
            [
              112.85434332551395,
              27.895240149573482
            ],
            [
              112.85462760741335,
              27.895782314565793
            ],
            [
              112.85498669803184,
              27.896192243099804
            ],
            [
              112.85491518086768,
              27.897030040891295
            ],
            [
              112.85508484055357,
              27.898229582356905
            ],
            [
              112.85519157639693,
              27.898350984597343
            ],
            [
              112.85516121084451,
              27.898664895426023
            ],
            [
              112.85503600190005,
              27.899085385713818
            ],
            [
              112.85498592199043,
              27.900014883269847
            ],
            [
              112.85521129533934,
              27.900789457792385
            ],
            [
              112.8555618730475,
              27.90134272307168
            ],
            [
              112.85596007353016,
              27.90258335537814
            ],
            [
              112.85651098921763,
              27.903911163661206
            ],
            [
              112.85701181582509,
              27.90528321442605
            ],
            [
              112.85761281142219,
              27.90685441460211
            ],
            [
              112.85793835376077,
              27.90793874842798
            ],
            [
              112.85808860266003,
              27.90869113855274
            ],
            [
              112.8582388515593,
              27.909133717461927
            ],
            [
              112.85877658092924,
              27.91151958921604
            ],
            [
              112.85935321758546,
              27.912066754846208
            ],
            [
              112.8595928881022,
              27.912220327503704
            ],
            [
              112.86046485029652,
              27.912671596674087
            ],
            [
              112.86180781501461,
              27.913098817829294
            ],
            [
              112.86223756480635,
              27.913193754185983
            ],
            [
              112.8624682548412,
              27.913270248899735
            ],
            [
              112.86348480229886,
              27.91387101017601
            ],
            [
              112.86393999844184,
              27.914145032376112
            ],
            [
              112.86441518016714,
              27.914215014748564
            ],
            [
              112.8649233610262,
              27.9140750499584
            ],
            [
              112.86527314676836,
              27.914115873218876
            ],
            [
              112.86538534285631,
              27.914529934864092
            ],
            [
              112.86568893077802,
              27.914815695094063
            ],
            [
              112.86638850467925,
              27.914961490926046
            ],
            [
              112.86656009727439,
              27.915048968224085
            ],
            [
              112.86683068727079,
              27.915381381311335
            ],
            [
              112.86717953911287,
              27.915952404030662
            ],
            [
              112.86713925014674,
              27.91696108769679
            ],
            [
              112.86719296794858,
              27.91753069293516
            ],
            [
              112.86795845830508,
              27.91769682686902
            ],
            [
              112.86899254258886,
              27.91800536095083
            ],
            [
              112.86985203971334,
              27.919073357997277
            ],
            [
              112.86971774397927,
              27.920093879376523
            ],
            [
              112.86893882478704,
              27.92080586482686
            ],
            [
              112.86926113651609,
              27.920936394622032
            ],
            [
              112.87084583503098,
              27.920058279980935
            ],
            [
              112.87153074745522,
              27.92054480367733
            ],
            [
              112.87194706595224,
              27.920924527888474
            ]
          ]
        ]
      },
      "properties": {
        "name": "郑家村",
        "type": "assistPolygon",
        "fill": "#9b59b6",
        "fill-opacity": 0.2,
        "stroke": "#9b59b6",
        "stroke-width": 2,
        "stroke-opacity": 0.8,
        "isAssistFeature": true,
        "sourceFileName": "辅助要素_郑家村.geojson"
      },
      "id": "assist_polygon_1773902888283_reimported_1773907285174"
    },
    {
      "type": "Feature",
      "geometry": {
        "type": "Point",
        "coordinates": [
          112.85480701272682,
          27.913040127890824
        ]
      },
      "properties": {
        "iconType": "default",
        "iconColor": "#e74c3c",
        "iconSize": 1,
        "text": "郑家村",
        "textColor": "#333333",
        "type": "assistPoint",
        "name": "辅助点_1",
        "isAssistFeature": true,
        "sourceFileName": "辅助要素_郑家村.geojson"
      },
      "id": "assist_point_1773903084697_reimported_1773907285174"
    }
  ],
  "properties": {
    "description": "GIS-APP 辅助要素导出",
    "exportTime": "2026/3/19 16:07:12",
    "assistElements": {
      "lines": 0,
      "polygons": 1,
      "texts": 0,
      "points": 1
    }
  }
}