{
  "type": "FeatureCollection",
  "features": [
    {
      "type": "Feature",
      "geometry": {
        "type": "Polygon",
        "coordinates": [
          [
            [
              112.875965461985,
              27.935255853688318
            ],
            [
              112.87604267243577,
              27.936169936113856
            ],
            [
              112.87615077159104,
              27.93806174075077
            ],
            [
              112.87661404560615,
              27.93855287749942
            ],
            [
              112.8774324944811,
              27.938580162392554
            ],
            [
              112.8784053699128,
              27.93870294619984
            ],
            [
              112.8795017860244,
              27.939221364764776
            ],
            [
              112.87993562802765,
              27.939669579844505
            ],
            [
              112.8801986356269,
              27.94019424211568
            ],
            [
              112.87975746229107,
              27.940598979664514
            ],
            [
              112.87949985705527,
              27.94106477822838
            ],
            [
              112.87927538229334,
              27.942075199260046
            ],
            [
              112.87862333720878,
              27.94135751899016
            ],
            [
              112.87844161889193,
              27.942367936419046
            ],
            [
              112.87914711100083,
              27.943239619061828
            ],
            [
              112.8797991580427,
              27.943636225840038
            ],
            [
              112.88023741698731,
              27.94393840203189
            ],
            [
              112.88039775610297,
              27.9457022328682
            ],
            [
              112.88040847734739,
              27.945960688096534
            ],
            [
              112.87974574364083,
              27.946461155805835
            ],
            [
              112.87892570548276,
              27.94658507819848
            ],
            [
              112.877593928685,
              27.94671375369164
            ],
            [
              112.8761997228852,
              27.946915960613367
            ],
            [
              112.8752841260986,
              27.946934341818064
            ],
            [
              112.8736818312458,
              27.948074041082307
            ],
            [
              112.87287813551383,
              27.949376712997704
            ],
            [
              112.8722494931494,
              27.948717972398796
            ],
            [
              112.87165204471415,
              27.94936421595395
            ],
            [
              112.87076196699313,
              27.949515006217723
            ],
            [
              112.8701523253454,
              27.951938381721362
            ],
            [
              112.87095705281156,
              27.95278924272229
            ],
            [
              112.87003517010498,
              27.953350846718266
            ],
            [
              112.8689352489114,
              27.953442505798833
            ],
            [
              112.86862395054999,
              27.953369178372753
            ],
            [
              112.86817775591531,
              27.953873305624228
            ],
            [
              112.86784570464648,
              27.95391913495247
            ],
            [
              112.86765892562966,
              27.953744982058936
            ],
            [
              112.86705708181428,
              27.954047457471574
            ],
            [
              112.8663722254192,
              27.95420327836746
            ],
            [
              112.86554209677217,
              27.954569913006637
            ],
            [
              112.86503364246522,
              27.955019039707878
            ],
            [
              112.86511665551991,
              27.9559722811521
            ],
            [
              112.86497138279294,
              27.956348076616493
            ],
            [
              112.86417701785868,
              27.956785728853845
            ],
            [
              112.86383813827737,
              27.957315974461608
            ],
            [
              112.86350894038728,
              27.958154099455385
            ],
            [
              112.86283526124834,
              27.95813957941921
            ],
            [
              112.86309059124022,
              27.958402698037318
            ],
            [
              112.8633459212321,
              27.958772316347563
            ],
            [
              112.86356517600524,
              27.95894976565431
            ],
            [
              112.86369028040731,
              27.95943123869496
            ],
            [
              112.86365453617557,
              27.95984167234684
            ],
            [
              112.8640030397763,
              27.960086353732564
            ],
            [
              112.86433367167024,
              27.960299462664892
            ],
            [
              112.86504855139665,
              27.960275783915392
            ],
            [
              112.86567407013463,
              27.960291569508087
            ],
            [
              112.86628171798385,
              27.96039417761085
            ],
            [
              112.86644670437472,
              27.960490397930357
            ],
            [
              112.86704541514338,
              27.960372004340456
            ],
            [
              112.86725094345334,
              27.960340433176285
            ],
            [
              112.86735382683379,
              27.960808820958164
            ],
            [
              112.86723765869417,
              27.96140078521337
            ],
            [
              112.86755935432564,
              27.96208745968201
            ],
            [
              112.86785424280589,
              27.962379492568232
            ],
            [
              112.86857805797668,
              27.962411063135974
            ],
            [
              112.86883720140709,
              27.9631371952065
            ],
            [
              112.86920357671465,
              27.963555507684745
            ],
            [
              112.8697397361004,
              27.963760716864257
            ],
            [
              112.87020440865888,
              27.964100101059387
            ],
            [
              112.871124815059,
              27.963981711429113
            ],
            [
              112.87156267801195,
              27.963902784695918
            ],
            [
              112.87183969478541,
              27.96437634314543
            ],
            [
              112.87198267007619,
              27.964913039920447
            ],
            [
              112.87207202942841,
              27.9654339488268
            ],
            [
              112.87183075770484,
              27.96585225276384
            ],
            [
              112.87125885654166,
              27.96619162965891
            ],
            [
              112.87087460789104,
              27.96656257592376
            ],
            [
              112.87070113199475,
              27.966920105792497
            ],
            [
              112.87106356213431,
              27.967121674536088
            ],
            [
              112.87135825496951,
              27.96680803201157
            ],
            [
              112.87187488947541,
              27.966764002654074
            ],
            [
              112.87226463115734,
              27.966832047883926
            ],
            [
              112.87253131269037,
              27.967035251538007
            ],
            [
              112.87257647422476,
              27.967480660790727
            ],
            [
              112.87300550880123,
              27.968012489880934
            ],
            [
              112.87412702069743,
              27.96805237697224
            ],
            [
              112.87495498262025,
              27.96845124768305
            ],
            [
              112.87548939456968,
              27.968989719982105
            ],
            [
              112.8755938944942,
              27.969593553792777
            ],
            [
              112.87596271323213,
              27.97011207723162
            ],
            [
              112.87625626320549,
              27.97020514507453
            ],
            [
              112.87641780939347,
              27.97020436835949
            ],
            [
              112.87647279549336,
              27.96999733663594
            ],
            [
              112.8766001305533,
              27.96986698312473
            ],
            [
              112.87705411651993,
              27.969866111092784
            ],
            [
              112.8774831510964,
              27.969826224671962
            ],
            [
              112.87788960490573,
              27.969773042957442
            ],
            [
              112.8779422942813,
              27.969473894183764
            ],
            [
              112.87775412030261,
              27.969114914560507
            ],
            [
              112.87807777888439,
              27.968888889537652
            ],
            [
              112.87808530534737,
              27.968011376925745
            ],
            [
              112.8784970971606,
              27.967221948330277
            ],
            [
              112.8792196817105,
              27.966577100047573
            ],
            [
              112.88017560039519,
              27.966178223017636
            ],
            [
              112.88116162768827,
              27.965726160804195
            ],
            [
              112.88108635892377,
              27.965287392530286
            ],
            [
              112.8810411973894,
              27.9649416948551
            ],
            [
              112.88073259311177,
              27.96492175073638
            ],
            [
              112.88025839562272,
              27.964562755969013
            ],
            [
              112.88053704956187,
              27.964422531171948
            ],
            [
              112.88071769569935,
              27.964442475382924
            ],
            [
              112.88122199972948,
              27.964169904383283
            ],
            [
              112.88304277967192,
              27.961900004078117
            ],
            [
              112.88421370836487,
              27.960918533278928
            ],
            [
              112.88509787918915,
              27.95947269380241
            ],
            [
              112.8851739127345,
              27.95755167108419
            ],
            [
              112.89269104157535,
              27.9505287400266
            ],
            [
              112.89943150122001,
              27.938780556369622
            ],
            [
              112.89939932088897,
              27.937980420694558
            ],
            [
              112.89920084666775,
              27.93687441472632
            ],
            [
              112.89968939494126,
              27.935323291122657
            ],
            [
              112.89994090097878,
              27.935263524520252
            ],
            [
              112.89967327499669,
              27.934986558986836
            ],
            [
              112.90233491689447,
              27.934734827548027
            ],
            [
              112.9037972821198,
              27.933853000449417
            ],
            [
              112.90385531319426,
              27.930335877394626
            ],
            [
              112.9023395768428,
              27.93034133684165
            ],
            [
              112.90215534303897,
              27.931594696698028
            ],
            [
              112.9000182167458,
              27.931513309206665
            ],
            [
              112.89834168002245,
              27.931676082637807
            ],
            [
              112.89793807400855,
              27.93095685607598
            ],
            [
              112.89889609451141,
              27.93043597885311
            ],
            [
              112.89954091788506,
              27.930012764354203
            ],
            [
              112.8991908726457,
              27.929638379483038
            ],
            [
              112.89806703733392,
              27.929670935647835
            ],
            [
              112.89775716931705,
              27.929107298696735
            ],
            [
              112.89781168383935,
              27.927559995627746
            ],
            [
              112.89782531153413,
              27.92736733396785
            ],
            [
              112.89733468457649,
              27.92709640266925
            ],
            [
              112.8968338362239,
              27.92634080105806
            ],
            [
              112.89609789578746,
              27.926232427590904
            ],
            [
              112.89462601491459,
              27.925714642483044
            ],
            [
              112.89383243923292,
              27.925788694556843
            ],
            [
              112.89286801585189,
              27.925229499518565
            ],
            [
              112.89252930572106,
              27.924917342835414
            ],
            [
              112.89230597691257,
              27.924285903066604
            ],
            [
              112.89230137722296,
              27.92404611735998
            ],
            [
              112.89225014624391,
              27.92398004885065
            ],
            [
              112.89214683941508,
              27.923955087426606
            ],
            [
              112.89204381420979,
              27.923848885972276
            ],
            [
              112.89185493519084,
              27.923697168634234
            ],
            [
              112.89164888478032,
              27.923378562503586
            ],
            [
              112.89166605617186,
              27.92299926780362
            ],
            [
              112.89156303096662,
              27.92277169062264
            ],
            [
              112.89153331444447,
              27.922726959458785
            ],
            [
              112.89152315929014,
              27.922409169702618
            ],
            [
              112.89151640771233,
              27.922404773679688
            ],
            [
              112.89152054989181,
              27.922377322318482
            ],
            [
              112.89153090609892,
              27.922326079703083
            ],
            [
              112.89155368960293,
              27.92228032734141
            ],
            [
              112.89155630597034,
              27.922242250812317
            ],
            [
              112.89154436066886,
              27.922198407218943
            ],
            [
              112.8915266016471,
              27.922162784252706
            ],
            [
              112.8915266016471,
              27.92209586455799
            ],
            [
              112.8914956185432,
              27.92205023753297
            ],
            [
              112.89145086538105,
              27.92203807050869
            ],
            [
              112.8913845429581,
              27.922026092258804
            ],
            [
              112.89130257193855,
              27.92196332079675
            ],
            [
              112.89118234811012,
              27.921948835103578
            ],
            [
              112.89101840607105,
              27.921948835103578
            ],
            [
              112.89079069380752,
              27.921997884786705
            ],
            [
              112.89066102916735,
              27.922039546628667
            ],
            [
              112.89044749304573,
              27.92253730373828
            ],
            [
              112.89037004846965,
              27.922960313505257
            ],
            [
              112.88985610138262,
              27.923489073813514
            ],
            [
              112.88880988582704,
              27.9242084628098
            ],
            [
              112.88749707832832,
              27.9244592631987
            ],
            [
              112.88640602907799,
              27.92479627586556
            ],
            [
              112.88574962573468,
              27.925156799864197
            ],
            [
              112.88456108452642,
              27.925632467492605
            ],
            [
              112.88396921074957,
              27.926119730042274
            ],
            [
              112.8836458447073,
              27.926320512607646
            ],
            [
              112.88326806378957,
              27.928026529504635
            ],
            [
              112.88280633155681,
              27.928162514822745
            ],
            [
              112.88245544531377,
              27.92821969401983
            ],
            [
              112.88292230728466,
              27.928819676234014
            ],
            [
              112.8835730863044,
              27.9293571578541
            ],
            [
              112.88435118872576,
              27.929644646340307
            ],
            [
              112.88525661713913,
              27.930207122347824
            ],
            [
              112.88610545708622,
              27.93116957526678
            ],
            [
              112.88582251216417,
              27.931557052822058
            ],
            [
              112.8854971226543,
              27.932119518876277
            ],
            [
              112.88471902023298,
              27.93265698408544
            ],
            [
              112.88411068321057,
              27.933031957963564
            ],
            [
              112.88351649524762,
              27.933244442774324
            ],
            [
              112.88306378233615,
              27.932944463793604
            ],
            [
              112.88201687887126,
              27.932119518876277
            ],
            [
              112.88164904736402,
              27.932431999133996
            ],
            [
              112.88109730139843,
              27.933269441128175
            ],
            [
              112.88064458719174,
              27.933081954763765
            ],
            [
              112.88073390787756,
              27.930430079489483
            ],
            [
              112.88061133042443,
              27.929960781393675
            ],
            [
              112.88021295370179,
              27.929735157267046
            ],
            [
              112.87980436094449,
              27.929753206983136
            ],
            [
              112.87955920603825,
              27.93000590682351
            ],
            [
              112.87847643915919,
              27.930565453482046
            ],
            [
              112.87739367228009,
              27.931260370365663
            ],
            [
              112.87620232523373,
              27.93185703508196
            ],
            [
              112.8757695210263,
              27.932135779403367
            ],
            [
              112.87478890046617,
              27.932695315034337
            ],
            [
              112.87468569852813,
              27.932820234156026
            ],
            [
              112.87467548342862,
              27.933560260486246
            ],
            [
              112.8749921421609,
              27.934128813646822
            ],
            [
              112.87586039943223,
              27.934480773628067
            ],
            [
              112.875965461985,
              27.935255853688318
            ]
          ]
        ]
      },
      "properties": {
        "name": "映山村",
        "type": "assistPolygon",
        "fill": "#9b59b6",
        "fill-opacity": 0.2,
        "stroke": "#9b59b6",
        "stroke-width": 2,
        "stroke-opacity": 0.8
      },
      "id": "assist_polygon_1773910245172"
    },
    {
      "type": "Feature",
      "geometry": {
        "type": "Point",
        "coordinates": [
          112.89009815802675,
          27.931152336476444
        ]
      },
      "properties": {
        "iconType": "default",
        "iconColor": "#e74c3c",
        "iconSize": 1,
        "text": "映山村",
        "textColor": "#333333",
        "type": "assistPoint",
        "name": "辅助点_1"
      },
      "id": "assist_point_1773910253974"
    }
  ],
  "properties": {
    "description": "GIS-APP 辅助要素导出",
    "exportTime": "2026/3/19 17:01:29",
    "assistElements": {
      "lines": 0,
      "polygons": 1,
      "texts": 0,
      "points": 1
    }
  }
}