{
  "type": "FeatureCollection",
  "features": [
    {
      "type": "Feature",
      "geometry": {
        "type": "LineString",
        "coordinates": [
          [
            112.86909047417642,
            27.866781157181507
          ],
          [
            112.8694257586826,
            27.867334854360408
          ],
          [
            112.87003227547494,
            27.867027338136538
          ],
          [
            112.87019282432583,
            27.86709830349642
          ],
          [
            112.8708617778712,
            27.86809969813865
          ],
          [
            112.8712363918566,
            27.867839493996485
          ],
          [
            112.87175371702044,
            27.867752759384175
          ],
          [
            112.87191426587135,
            27.867965653899233
          ],
          [
            112.87192584294465,
            27.868467657232173
          ],
          [
            112.87205092414746,
            27.868790415758056
          ],
          [
            112.87206444625562,
            27.869277540322457
          ],
          [
            112.87245657660492,
            27.87040844627508
          ],
          [
            112.8727544918082,
            27.87054743599751
          ],
          [
            112.87305189515911,
            27.870731894435053
          ],
          [
            112.8732285698215,
            27.87095500946147
          ],
          [
            112.87342687740195,
            27.871614790355125
          ],
          [
            112.87378022606659,
            27.87210882675241
          ],
          [
            112.87457706242486,
            27.872542301920433
          ]
        ]
      },
      "properties": {
        "type": "assistLine",
        "name": "辅助线_1",
        "stroke": "#e74c3c",
        "stroke-width": 2,
        "stroke-opacity": 0.8,
        "stroke-dasharray": "5,5",
        "isAssistFeature": true,
        "sourceFileName": "辅助要素_2026-03-18T10-24-00.geojson"
      },
      "id": "assist_imported_1773829462213_0"
    },
    {
      "type": "Feature",
      "geometry": {
        "type": "LineString",
        "coordinates": [
          [
            112.87452201575958,
            27.872966547826124
          ],
          [
            112.87416825946379,
            27.873518142343812
          ],
          [
            112.87404051383488,
            27.873861258826636
          ],
          [
            112.87409456023549,
            27.874269522567758
          ],
          [
            112.87431074493836,
            27.874907974275388
          ],
          [
            112.8743942710303,
            27.875429156553253
          ],
          [
            112.87440409699433,
            27.875924277394603
          ],
          [
            112.87452692964122,
            27.876197895836057
          ],
          [
            112.87484629236405,
            27.87632384681727
          ],
          [
            112.87523444223278,
            27.87632384681727
          ],
          [
            112.87520496254146,
            27.876501915449666
          ],
          [
            112.87506281455364,
            27.877195127938165
          ],
          [
            112.87475257110002,
            27.877581380570405
          ],
          [
            112.87460837356244,
            27.87837319476165
          ],
          [
            112.87454355872114,
            27.878625151205426
          ],
          [
            112.87468151058232,
            27.87881483732994
          ],
          [
            112.8750033982584,
            27.878963876194717
          ],
          [
            112.874783697458,
            27.879537448232085
          ],
          [
            112.87460487065945,
            27.880282635533263
          ],
          [
            112.87447713776649,
            27.88149298957238
          ],
          [
            112.87427787396702,
            27.881632992253543
          ],
          [
            112.87369590253289,
            27.88192755442911
          ],
          [
            112.87313898607181,
            27.88238820610856
          ],
          [
            112.8723010559365,
            27.883417891012613
          ],
          [
            112.87227039996736,
            27.884312083117663
          ],
          [
            112.87114190214805,
            27.884181745710592
          ],
          [
            112.8609063243354,
            27.88117290491327
          ],
          [
            112.86018896618991,
            27.879826278095123
          ],
          [
            112.85968607517579,
            27.87876726885871
          ],
          [
            112.85886591358059,
            27.877259536552756
          ],
          [
            112.8585093847803,
            27.876720034024956
          ],
          [
            112.85828867055045,
            27.876280897315738
          ],
          [
            112.85789785655155,
            27.874137109381763
          ],
          [
            112.85792462494923,
            27.873545549095738
          ],
          [
            112.8579272162213,
            27.87346857514082
          ],
          [
            112.85782786655537,
            27.87321346882692
          ],
          [
            112.85785152109335,
            27.87307127829665
          ],
          [
            112.85805495150608,
            27.87285799205567
          ],
          [
            112.85797925637812,
            27.87261124856171
          ],
          [
            112.85803129653493,
            27.872347776143016
          ],
          [
            112.85834826985614,
            27.871799918872455
          ],
          [
            112.85832934553275,
            27.87156571918949
          ],
          [
            112.85816811240758,
            27.87137031366578
          ],
          [
            112.85815865111215,
            27.868208566140694
          ],
          [
            112.86576619085037,
            27.86542931249228
          ],
          [
            112.86715014139477,
            27.867227422829885
          ],
          [
            112.8721948177468,
            27.86531825312825
          ]
        ]
      },
      "properties": {
        "type": "assistLine",
        "name": "辅助线_2",
        "stroke": "#e74c3c",
        "stroke-width": 2,
        "stroke-opacity": 0.8,
        "stroke-dasharray": "5,5",
        "isAssistFeature": true,
        "sourceFileName": "辅助要素_2026-03-18T10-24-00.geojson"
      },
      "id": "assist_imported_1773829462214_1"
    },
    {
      "type": "Feature",
      "geometry": {
        "type": "Polygon",
        "coordinates": [
          [
            [
              112.86576358897359,
              27.865403379422517
            ],
            [
              112.86691501779671,
              27.86737214090202
            ],
            [
              112.86895226780814,
              27.866549418770404
            ],
            [
              112.86941758997183,
              27.867330659268745
            ],
            [
              112.86997786562455,
              27.867046261846824
            ],
            [
              112.87014731116115,
              27.867081214175727
            ],
            [
              112.87024144768526,
              27.867211037013078
            ],
            [
              112.87083134345698,
              27.868146646550684
            ],
            [
              112.87098933528355,
              27.868067010825172
            ],
            [
              112.87129052696011,
              27.86782535521401
            ],
            [
              112.87179320538601,
              27.867795385292794
            ],
            [
              112.8718645155201,
              27.867869793436086
            ],
            [
              112.87189491010523,
              27.86846815708769
            ],
            [
              112.87205874052032,
              27.868756046481607
            ],
            [
              112.87206902398071,
              27.868870730801277
            ],
            [
              112.87204984127865,
              27.869277494013573
            ],
            [
              112.87213522893668,
              27.869559447780105
            ],
            [
              112.87225326408658,
              27.869743716604745
            ],
            [
              112.87244413023765,
              27.870463027524465
            ],
            [
              112.8725948137991,
              27.87048522836892
            ],
            [
              112.87291124927809,
              27.87065617501368
            ],
            [
              112.87311198494552,
              27.870775601967665
            ],
            [
              112.87322113675995,
              27.870934019154447
            ],
            [
              112.8734536586932,
              27.87163764330205
            ],
            [
              112.87359213452397,
              27.871892548674055
            ],
            [
              112.87374527281035,
              27.87208552743938
            ],
            [
              112.87397009255585,
              27.87223386170757
            ],
            [
              112.87440998345957,
              27.872486726695925
            ],
            [
              112.87459828111247,
              27.872567224729906
            ],
            [
              112.87463069303597,
              27.872604062755187
            ],
            [
              112.87448715451761,
              27.87301064455177
            ],
            [
              112.8743320403122,
              27.87330671153852
            ],
            [
              112.87406600784315,
              27.873650743992783
            ],
            [
              112.87401222973892,
              27.87380781182192
            ],
            [
              112.87400047541885,
              27.873957897870426
            ],
            [
              112.87402398405897,
              27.874082584554074
            ],
            [
              112.87422602678195,
              27.874616520160643
            ],
            [
              112.87425272262219,
              27.874703047615114
            ],
            [
              112.87432391146157,
              27.874976395131128
            ],
            [
              112.87439510784817,
              27.875226244207497
            ],
            [
              112.87438789915613,
              27.875550321142114
            ],
            [
              112.87437478685345,
              27.875713470731498
            ],
            [
              112.87441874079687,
              27.875970183012242
            ],
            [
              112.87446269474032,
              27.876093682133956
            ],
            [
              112.87455060291467,
              27.87621024301356
            ],
            [
              112.87471857023193,
              27.87629072549484
            ],
            [
              112.87493834023658,
              27.876304601750192
            ],
            [
              112.87528997264646,
              27.87627268629032
            ],
            [
              112.87522404158754,
              27.876461403572577
            ],
            [
              112.87517979327018,
              27.876571327141505
            ],
            [
              112.8750703317117,
              27.877157387350493
            ],
            [
              112.87475465747221,
              27.877571000926665
            ],
            [
              112.8746924273743,
              27.877679183684478
            ],
            [
              112.87464158529467,
              27.877871698957733
            ],
            [
              112.87461705260839,
              27.87835555915703
            ],
            [
              112.87457022255377,
              27.878539386540055
            ],
            [
              112.87456894652304,
              27.878646546882038
            ],
            [
              112.87461871475928,
              27.87875032316272
            ],
            [
              112.87474504951275,
              27.878856355312024
            ],
            [
              112.8749887863373,
              27.87896238740916
            ],
            [
              112.87476771819944,
              27.879577418410065
            ],
            [
              112.87473586247553,
              27.87984404152678
            ],
            [
              112.8745908367088,
              27.880351608649192
            ],
            [
              112.87449565868252,
              27.881112665781203
            ],
            [
              112.87446653253471,
              27.8814936926278
            ],
            [
              112.87439226108438,
              27.881577363899524
            ],
            [
              112.87377132691728,
              27.881870704937597
            ],
            [
              112.87354810882817,
              27.88202690502436
            ],
            [
              112.87338379532335,
              27.882147480417657
            ],
            [
              112.87313368886883,
              27.882397837544687
            ],
            [
              112.87236656791033,
              27.88331348139137
            ],
            [
              112.87231273218764,
              27.8834370873642
            ],
            [
              112.87225407526437,
              27.883628591263275
            ],
            [
              112.8722693793314,
              27.88374672919055
            ],
            [
              112.87230100786115,
              27.884126393070403
            ],
            [
              112.87227827308593,
              27.884303967486105
            ],
            [
              112.87110499297029,
              27.884179599023895
            ],
            [
              112.8609099312976,
              27.881184653834964
            ],
            [
              112.8588698205952,
              27.877273007203527
            ],
            [
              112.85872069912531,
              27.876987745932496
            ],
            [
              112.85856624298812,
              27.876841461661684
            ],
            [
              112.85831801018107,
              27.876329465157937
            ],
            [
              112.8582049264309,
              27.875507827764253
            ],
            [
              112.85799700024468,
              27.874506339786052
            ],
            [
              112.8579470346653,
              27.874156833451863
            ],
            [
              112.85786882756771,
              27.87396479643374
            ],
            [
              112.85787751731152,
              27.873799644434882
            ],
            [
              112.8579361726347,
              27.87353655272939
            ],
            [
              112.85781916129221,
              27.87322449019672
            ],
            [
              112.85785007137741,
              27.87308604814831
            ],
            [
              112.85806648251915,
              27.87286632196995
            ],
            [
              112.85801899776298,
              27.872680555918905
            ],
            [
              112.85796545111911,
              27.872595710781255
            ],
            [
              112.85798060583838,
              27.872489430981872
            ],
            [
              112.8582236548911,
              27.8719390430975
            ],
            [
              112.85837165735838,
              27.871802262461102
            ],
            [
              112.85837614241849,
              27.8716694466128
            ],
            [
              112.85820450418824,
              27.871368277224605
            ],
            [
              112.85822443950511,
              27.868266587949933
            ],
            [
              112.86576358897359,
              27.865403379422517
            ]
          ]
        ]
      },
      "properties": {
        "name": "先锋村",
        "type": "assistPolygon",
        "fill": "#9b59b6",
        "fill-opacity": 0.2,
        "stroke": "#9b59b6",
        "stroke-width": 2,
        "stroke-opacity": 0.8,
        "isAssistFeature": true,
        "sourceFileName": "辅助要素_2026-03-18T10-24-00.geojson"
      },
      "id": "assist_polygon_1773829388502_reimported_1773829462215"
    },
    {
      "type": "Feature",
      "geometry": {
        "type": "Point",
        "coordinates": [
          112.86605085037856,
          27.87552813981219
        ]
      },
      "properties": {
        "iconType": "default",
        "iconColor": "#e74c3c",
        "iconSize": 1,
        "text": "先锋村",
        "textColor": "#333333",
        "type": "assistPoint",
        "name": "辅助点_1",
        "isAssistFeature": true,
        "sourceFileName": "辅助要素_2026-03-18T10-24-00.geojson"
      },
      "id": "assist_point_1773829417600_reimported_1773829462215"
    }
  ],
  "properties": {
    "description": "GIS-APP 辅助要素导出",
    "exportTime": "2026/3/18 18:24:50",
    "assistElements": {
      "lines": 2,
      "polygons": 1,
      "texts": 0,
      "points": 1
    }
  }
}