{
  "type": "FeatureCollection",
  "features": [
    {
      "type": "Feature",
      "geometry": {
        "type": "Polygon",
        "coordinates": [
          [
            [
              112.89383391352409,
              27.968912983735777
            ],
            [
              112.8942364174442,
              27.969392895864942
            ],
            [
              112.8942666051461,
              27.96990835493429
            ],
            [
              112.89424647939734,
              27.970592667662586
            ],
            [
              112.89382385157097,
              27.971117007557893
            ],
            [
              112.89378360191597,
              27.971668006071624
            ],
            [
              112.8941156666367,
              27.97198793996546
            ],
            [
              112.89416597824481,
              27.972432290592394
            ],
            [
              112.89474960837622,
              27.972538934437978
            ],
            [
              112.89541373781766,
              27.972494499379536
            ],
            [
              112.89592692874967,
              27.97274333457615
            ],
            [
              112.89671180899863,
              27.972876638982328
            ],
            [
              112.8973256249894,
              27.973232116864708
            ],
            [
              112.89769793936514,
              27.973845312990903
            ],
            [
              112.89759041332589,
              27.97425837271885
            ],
            [
              112.89767091447841,
              27.97473826107054
            ],
            [
              112.89813379195978,
              27.975564730449577
            ],
            [
              112.89858660748803,
              27.975973519685937
            ],
            [
              112.89858660748803,
              27.976426739609707
            ],
            [
              112.89839541932359,
              27.97679997960067
            ],
            [
              112.89791241609345,
              27.976915506022152
            ],
            [
              112.89740928711457,
              27.97709323804827
            ],
            [
              112.89723822285642,
              27.977537567645854
            ],
            [
              112.89864698289179,
              27.977484248207062
            ],
            [
              112.8983249801242,
              27.978861658723403
            ],
            [
              112.89862685714304,
              27.97950148207815
            ],
            [
              112.89831693851627,
              27.979576177472083
            ],
            [
              112.89788902670469,
              27.97965884203522
            ],
            [
              112.89770181528714,
              27.97980842524926
            ],
            [
              112.89747002917842,
              27.979958008616222
            ],
            [
              112.8971892120521,
              27.980072163900587
            ],
            [
              112.89687719329488,
              27.980083973073476
            ],
            [
              112.89670781126405,
              27.979989499654224
            ],
            [
              112.89627438711533,
              27.980501371424424
            ],
            [
              112.89465744334294,
              27.981995270985877
            ],
            [
              112.89424472424564,
              27.982530707587472
            ],
            [
              112.89396284362992,
              27.98304070293493
            ],
            [
              112.89348512109129,
              27.98343221581257
            ],
            [
              112.89297635965066,
              27.983741853543975
            ],
            [
              112.8921650908631,
              27.983693283163518
            ],
            [
              112.89147487845871,
              27.983897229892293
            ],
            [
              112.89071173535358,
              27.983259740394715
            ],
            [
              112.8907859866291,
              27.983128780321707
            ],
            [
              112.89005722036022,
              27.982752355910165
            ],
            [
              112.8893009513635,
              27.982521643040457
            ],
            [
              112.88884719223145,
              27.982467000534143
            ],
            [
              112.88823530279977,
              27.98247307211038
            ],
            [
              112.88779529188447,
              27.982339501245093
            ],
            [
              112.88727278033876,
              27.981726288457992
            ],
            [
              112.88688089636476,
              27.981076642817797
            ],
            [
              112.88605587747215,
              27.980663782293263
            ],
            [
              112.88561586718626,
              27.980530209186995
            ],
            [
              112.88468689311766,
              27.980440948792847
            ],
            [
              112.88378624770303,
              27.98011308701402
            ],
            [
              112.88250108018806,
              27.97999652632562
            ],
            [
              112.88232232567505,
              27.979711164213356
            ],
            [
              112.88249524025004,
              27.978918657318047
            ],
            [
              112.88279087160025,
              27.978602933944217
            ],
            [
              112.88263961855623,
              27.97832971120816
            ],
            [
              112.88266711876636,
              27.977692188799097
            ],
            [
              112.88273502880408,
              27.977012695941326
            ],
            [
              112.88261497818431,
              27.97641512493479
            ],
            [
              112.8817746278426,
              27.976318741862798
            ],
            [
              112.881141637844,
              27.976434401185912
            ],
            [
              112.8809888463278,
              27.977022334455114
            ],
            [
              112.88030128750232,
              27.977446414973215
            ],
            [
              112.88006118826112,
              27.977292204549926
            ],
            [
              112.88029037453629,
              27.976810293129617
            ],
            [
              112.88023559542889,
              27.97663658804366
            ],
            [
              112.8795132909565,
              27.976488605316547
            ],
            [
              112.87903272518967,
              27.976200328857033
            ],
            [
              112.87868816927563,
              27.97561576564911
            ],
            [
              112.87806252777138,
              27.975183347171892
            ],
            [
              112.87769983676758,
              27.974742918918864
            ],
            [
              112.8774006169177,
              27.97419037941947
            ],
            [
              112.87749128987619,
              27.97370990798902
            ],
            [
              112.87732807904901,
              27.97315736319854
            ],
            [
              112.87690216775032,
              27.972539238348332
            ],
            [
              112.87692936955486,
              27.97189059148397
            ],
            [
              112.87722858940471,
              27.971546246990926
            ],
            [
              112.87706537857751,
              27.97093763432335
            ],
            [
              112.87726485875412,
              27.970401091332093
            ],
            [
              112.87730112727343,
              27.969896578554
            ],
            [
              112.8778814327135,
              27.96969637490558
            ],
            [
              112.87784516336404,
              27.96945045423122
            ],
            [
              112.87779982729988,
              27.968721706129344
            ],
            [
              112.87812624895426,
              27.9681611272607
            ],
            [
              112.87830759404113,
              27.96766461257721
            ],
            [
              112.87877909226306,
              27.96691983590162
            ],
            [
              112.88021172035842,
              27.966463357333822
            ],
            [
              112.88083736186267,
              27.966199079385675
            ],
            [
              112.88116378351705,
              27.965638487411724
            ],
            [
              112.88136326452383,
              27.965190012175725
            ],
            [
              112.8817262677698,
              27.964702007865526
            ],
            [
              112.88267560964724,
              27.964197282816244
            ],
            [
              112.88311802126486,
              27.964115875040648
            ],
            [
              112.88242675311231,
              27.963513457679596
            ],
            [
              112.8818184371381,
              27.962927318399565
            ],
            [
              112.88055572008358,
              27.962805205648877
            ],
            [
              112.8800211399415,
              27.962349317074015
            ],
            [
              112.87966168050218,
              27.961730607485293
            ],
            [
              112.88025156209646,
              27.961513784823353
            ],
            [
              112.88073084163017,
              27.96125327429145
            ],
            [
              112.88127463896221,
              27.961049749558384
            ],
            [
              112.8813115068783,
              27.9607078275603
            ],
            [
              112.88148662842487,
              27.96050430179872
            ],
            [
              112.882067293673,
              27.961106736701197
            ],
            [
              112.88265717526728,
              27.960846224441553
            ],
            [
              112.88311802126486,
              27.960422891982873
            ],
            [
              112.88365260140692,
              27.9598123126804
            ],
            [
              112.88428606843503,
              27.959315042763663
            ],
            [
              112.88485409156671,
              27.958893160067532
            ],
            [
              112.88522636165663,
              27.95834731688352
            ],
            [
              112.88608258361327,
              27.95844596348269
            ],
            [
              112.88613470100323,
              27.95665058126818
            ],
            [
              112.89274243216519,
              27.950558247096524
            ],
            [
              112.89880384449046,
              27.939301852395545
            ],
            [
              112.8987610161465,
              27.938929793397932
            ],
            [
              112.89887522528156,
              27.93854512049228
            ],
            [
              112.89923926620516,
              27.938242426246802
            ],
            [
              112.89935347534019,
              27.93799018020198
            ],
            [
              112.8997532069861,
              27.937920812681767
            ],
            [
              112.90003872884346,
              27.937328032037485
            ],
            [
              112.9002269361854,
              27.936078881681453
            ],
            [
              112.90054482975438,
              27.93474359783457
            ],
            [
              112.90283523747344,
              27.934873073816306
            ],
            [
              112.90285198531558,
              27.930300612058858
            ],
            [
              112.90588353181816,
              27.93037460255634
            ],
            [
              112.90585003306708,
              27.932964205539918
            ],
            [
              112.90702245255346,
              27.93306778885625
            ],
            [
              112.9070392034624,
              27.93414800469465
            ],
            [
              112.90590027966032,
              27.93413320684496
            ],
            [
              112.90568254544526,
              27.93539097890121
            ],
            [
              112.90573279203848,
              27.939223391789113
            ],
            [
              112.90648649093691,
              27.94096938896803
            ],
            [
              112.9075919159879,
              27.941724005938255
            ],
            [
              112.90841270023992,
              27.942811049512656
            ],
            [
              112.9081805742368,
              27.944321045590826
            ],
            [
              112.9072520779522,
              27.944843015202906
            ],
            [
              112.90609145180052,
              27.945309055722092
            ],
            [
              112.90602814506005,
              27.947135920763216
            ],
            [
              112.90693554424973,
              27.947732440490554
            ],
            [
              112.90733648565153,
              27.948757702620213
            ],
            [
              112.90693554424973,
              27.9500439260854
            ],
            [
              112.90769782010894,
              27.951180415131006
            ],
            [
              112.90771892493173,
              27.952410688552575
            ],
            [
              112.90710070452305,
              27.9532024690336
            ],
            [
              112.9067092633114,
              27.95444273289651
            ],
            [
              112.90685392552105,
              27.955412383810952
            ],
            [
              112.90699858928885,
              27.956164045423648
            ],
            [
              112.90731121881979,
              27.95759294672476
            ],
            [
              112.90545612487952,
              27.960907667116203
            ],
            [
              112.90479237585738,
              27.96074230978634
            ],
            [
              112.90426478151956,
              27.96186222780942
            ],
            [
              112.90384159928347,
              27.962429366463738
            ],
            [
              112.90338208072966,
              27.963188494855274
            ],
            [
              112.90276846267207,
              27.96380131921846
            ],
            [
              112.90239321204625,
              27.964757748025775
            ],
            [
              112.90179281340079,
              27.96576151626995
            ],
            [
              112.90143355756868,
              27.96658160976851
            ],
            [
              112.90155268150225,
              27.967288023421958
            ],
            [
              112.90155268150225,
              27.967994432450865
            ],
            [
              112.90136301323862,
              27.96873738686044
            ],
            [
              112.90151524475056,
              27.96924909010076
            ],
            [
              112.9013887332359,
              27.969351886272563
            ],
            [
              112.9010699234406,
              27.969499376456753
            ],
            [
              112.90050821094414,
              27.969530662363866
            ],
            [
              112.89913176199526,
              27.970156375736934
            ],
            [
              112.89860547342712,
              27.969374233146723
            ],
            [
              112.89822593795652,
              27.96949043779985
            ],
            [
              112.8982309981206,
              27.969776478545427
            ],
            [
              112.89801845825707,
              27.96989268276529
            ],
            [
              112.89758325727527,
              27.969991008811533
            ],
            [
              112.89649525574735,
              27.96874851523785
            ],
            [
              112.89585763615676,
              27.968306041001313
            ],
            [
              112.8956166017638,
              27.96864757537496
            ],
            [
              112.89544632331604,
              27.969072696316232
            ],
            [
              112.89544188032042,
              27.969264986465305
            ],
            [
              112.89529525251577,
              27.969469049479812
            ],
            [
              112.89536634451349,
              27.969602475129776
            ],
            [
              112.89542855052,
              27.969731976221894
            ],
            [
              112.89541077731715,
              27.969873249963285
            ],
            [
              112.89519305710797,
              27.96995958358579
            ],
            [
              112.89503754290531,
              27.96987717399172
            ],
            [
              112.89492646109949,
              27.969684884933628
            ],
            [
              112.8948249917185,
              27.96922010664673
            ],
            [
              112.89450507650832,
              27.96878058495234
            ],
            [
              112.8956493497993,
              27.968135908934116
            ],
            [
              112.89543661917313,
              27.967359643433184
            ],
            [
              112.89521829072324,
              27.966993758616482
            ],
            [
              112.8950447479381,
              27.966613039308285
            ],
            [
              112.89491598979262,
              27.966884981614328
            ],
            [
              112.89472005468764,
              27.967300310820008
            ],
            [
              112.89457450204603,
              27.967404142871658
            ],
            [
              112.89419382645839,
              27.96758214044202
            ],
            [
              112.89402588149696,
              27.967443698214453
            ],
            [
              112.89378516072722,
              27.966672372299357
            ],
            [
              112.89352204661259,
              27.96635592915247
            ],
            [
              112.89324213851437,
              27.96647953995911
            ],
            [
              112.89328692366658,
              27.966706982893953
            ],
            [
              112.89338769064342,
              27.96720636775089
            ],
            [
              112.89349011381101,
              27.967739203356956
            ],
            [
              112.89355729179562,
              27.96824352747774
            ],
            [
              112.89361887195649,
              27.968505577164862
            ],
            [
              112.89383391352409,
              27.968912983735777
            ]
          ]
        ]
      },
      "properties": {
        "type": "assistPolygon",
        "name": "辅助多边形_1",
        "fill": "#c0392b",
        "fill-opacity": 0.4,
        "stroke": "#c0392b",
        "stroke-opacity": 1,
        "stroke-width": 3
      },
      "id": "assist_polygon_1773911785732"
    },
    {
      "type": "Feature",
      "geometry": {
        "type": "Point",
        "coordinates": [
          112.89041187015023,
          27.97728687578099
        ]
      },
      "properties": {
        "iconType": "default",
        "iconColor": "#e74c3c",
        "iconSize": 1,
        "text": "毛家村",
        "textColor": "#333333",
        "type": "assistPoint",
        "name": "辅助点_1"
      },
      "id": "assist_point_1773911794670"
    }
  ],
  "properties": {
    "description": "GIS-APP 辅助要素导出",
    "exportTime": "2026/3/19 17:27:06",
    "assistElements": {
      "lines": 0,
      "polygons": 1,
      "texts": 0,
      "points": 1
    }
  }
}