{
  "type": "FeatureCollection",
  "features": [
    {
      "type": "Feature",
      "geometry": {
        "type": "Polygon",
        "coordinates": [
          [
            [
              0.0010140182927141157,
              0.0002502706381619646
            ],
            [
              0.0010145572818845874,
              0.0002502706381619646
            ],
            [
              0.0010145572818845874,
              0.00025062996428459883
            ],
            [
              0.0010140182927141157,
              0.00025062996428459883
            ],
            [
              0.0010140182927141157,
              0.0002502706381619646
            ]
          ]
        ]
      },
      "properties": {
        "name": "测试多边形",
        "type": "assistPolygon",
        "fill": "#9b59b6",
        "fill-opacity": 0.2,
        "stroke": "#9b59b6",
        "stroke-width": 2,
        "stroke-opacity": 0.8
      }
    },
    {
      "type": "Feature",
      "geometry": {
        "type": "Polygon",
        "coordinates": [
          [
            [
              112.8835339416791,
              27.894925436299445
            ],
            [
              112.88320353686005,
              27.894029922641963
            ],
            [
              112.88269691613753,
              27.89352375947128
            ],
            [
              112.88208016047533,
              27.8932122732667
            ],
            [
              112.88214624143913,
              27.89253089406924
            ],
            [
              112.88252070023402,
              27.892375149650434
            ],
            [
              112.88293921300483,
              27.891557487775486
            ],
            [
              112.88368813059466,
              27.890953971477543
            ],
            [
              112.88523001975015,
              27.889182339684396
            ],
            [
              112.88602299131585,
              27.888598278892715
            ],
            [
              112.88941514745801,
              27.890408857090705
            ],
            [
              112.89100109058938,
              27.891148654521928
            ],
            [
              112.89401878793663,
              27.89214153260211
            ],
            [
              112.89536243420073,
              27.89239461771504
            ],
            [
              112.89503202938171,
              27.89330961280193
            ],
            [
              112.89540648817659,
              27.89358216303485
            ],
            [
              112.89507608335758,
              27.89412726144188
            ],
            [
              112.89626554070612,
              27.894789162959952
            ],
            [
              112.89694837733212,
              27.894711292403187
            ],
            [
              112.89789553781338,
              27.894380341912026
            ],
            [
              112.8989528332343,
              27.894244067886262
            ],
            [
              112.89919513010159,
              27.895061709467328
            ],
            [
              112.89835810456002,
              27.89554839795217
            ],
            [
              112.89829202359621,
              27.896093486457033
            ],
            [
              112.89789553781338,
              27.896599637610535
            ],
            [
              112.89716864721149,
              27.896911114066953
            ],
            [
              112.89593513588707,
              27.89696951580271
            ],
            [
              112.89591310889914,
              27.896696974099456
            ],
            [
              112.89523027227311,
              27.897027917506975
            ],
            [
              112.89452540865916,
              27.89696951580271
            ],
            [
              112.89393067998488,
              27.89835168101716
            ],
            [
              112.89326987034681,
              27.899383426642245
            ],
            [
              112.89241081781731,
              27.89971436183461
            ],
            [
              112.89152973829988,
              27.900220496053635
            ],
            [
              112.89084690167385,
              27.900142629404797
            ],
            [
              112.8905164968548,
              27.899928495831574
            ],
            [
              112.89000987613228,
              27.89996742924005
            ],
            [
              112.88930501251834,
              27.899480760627398
            ],
            [
              112.88875433781993,
              27.899247158915912
            ],
            [
              112.88912879661486,
              27.898273813023607
            ],
            [
              112.88974555227703,
              27.897631399938973
            ],
            [
              112.88989974119262,
              27.896872179558912
            ],
            [
              112.8900759570961,
              27.895743072733325
            ],
            [
              112.88710231372474,
              27.895120112201084
            ],
            [
              112.88531812770191,
              27.89515904733939
            ],
            [
              112.88417272432925,
              27.895120112201084
            ],
            [
              112.8835339416791,
              27.894925436299445
            ]
          ]
        ]
      },
      "properties": {
        "assistFileId": "assist_file_default_1774018534496",
        "sourceFileName": "辅助元素_1.geojson",
        "name": "桐梓村",
        "type": "assistPolygon",
        "fill": "#9b59b6",
        "fill-opacity": 0.2,
        "stroke": "#9b59b6",
        "stroke-width": 2,
        "stroke-opacity": 0.8
      },
      "id": "assist_polygon_1774018534496"
    },
    {
      "type": "Feature",
      "geometry": {
        "type": "Point",
        "coordinates": [
          112.89175000817922,
          27.894594486463035
        ]
      },
      "properties": {
        "iconType": "default",
        "iconColor": "#e74c3c",
        "iconSize": 1,
        "text": "桐梓村",
        "textColor": "#333333",
        "assistFileId": "assist_file_default_1774018534496",
        "sourceFileName": "辅助元素_1.geojson",
        "type": "assistPoint",
        "name": "辅助点_1"
      },
      "id": "assist_point_1774018546681"
    }
  ],
  "properties": {
    "description": "GIS-APP 辅助要素导出",
    "exportTime": "2026/3/20 22:55:58",
    "assistElements": {
      "lines": 0,
      "polygons": 2,
      "texts": 0,
      "points": 1
    },
    "fileCount": 1
  }
}