{
  "type": "FeatureCollection",
  "features": [
    {
      "type": "Feature",
      "geometry": {
        "type": "Polygon",
        "coordinates": [
          [
            [
              112.8986436490553,
              27.979499124758902
            ],
            [
              112.89838370514575,
              27.978941618746063
            ],
            [
              112.89866840524034,
              27.97746585494967
            ],
            [
              112.8972325249749,
              27.977586103792973
            ],
            [
              112.89729441600419,
              27.97714883672198
            ],
            [
              112.89785143866749,
              27.97695206611185
            ],
            [
              112.89834657030153,
              27.976875543777354
            ],
            [
              112.8985446231818,
              27.97653666064521
            ],
            [
              112.89860651421107,
              27.975979139819984
            ],
            [
              112.89821040958383,
              27.975509070669176
            ],
            [
              112.89776479145316,
              27.97494061228528
            ],
            [
              112.89762862960217,
              27.974547062649478
            ],
            [
              112.89760387341711,
              27.97419723987926
            ],
            [
              112.89761625207626,
              27.973869279689126
            ],
            [
              112.89749246888444,
              27.97348665854075
            ],
            [
              112.89731917332253,
              27.973235220160703
            ],
            [
              112.8969478248803,
              27.97299471464126
            ],
            [
              112.89666312365244,
              27.972830732842894
            ],
            [
              112.89622988418097,
              27.97281980038052
            ],
            [
              112.89577188739113,
              27.97268861474906
            ],
            [
              112.89546243111147,
              27.972480903506096
            ],
            [
              112.89501681298083,
              27.97244810701018
            ],
            [
              112.89441027681414,
              27.972437175509896
            ],
            [
              112.89415033290459,
              27.972273192864066
            ],
            [
              112.89401417218686,
              27.971923361719334
            ],
            [
              112.8937542282773,
              27.971617259788275
            ],
            [
              112.89384087549168,
              27.97124556227476
            ],
            [
              112.89411319806038,
              27.970731743809992
            ],
            [
              112.89422460259303,
              27.970239787348234
            ],
            [
              112.89427527731641,
              27.969425756737905
            ],
            [
              112.89397819856266,
              27.968944727177487
            ],
            [
              112.89366874114972,
              27.968485560278097
            ],
            [
              112.89353258043201,
              27.968048257319808
            ],
            [
              112.89330977136667,
              27.96711898089731
            ],
            [
              112.89327263652245,
              27.966506747905242
            ],
            [
              112.89350782424695,
              27.966539546207173
            ],
            [
              112.89391630753339,
              27.966987788334194
            ],
            [
              112.89405246825109,
              27.967446961607195
            ],
            [
              112.89437430318992,
              27.96753442262785
            ],
            [
              112.89490656966817,
              27.967108047856158
            ],
            [
              112.89503035285998,
              27.966747267887314
            ],
            [
              112.89552548336076,
              27.96798266162311
            ],
            [
              112.89547597099063,
              27.968266910021384
            ],
            [
              112.89438668184907,
              27.96882447070341
            ],
            [
              112.89474565163212,
              27.96928363616057
            ],
            [
              112.89493132585322,
              27.96969906955684
            ],
            [
              112.89519126976278,
              27.970005177931057
            ],
            [
              112.8955007271757,
              27.969863056115145
            ],
            [
              112.89538932264303,
              27.969382028504327
            ],
            [
              112.8955873755233,
              27.9687479426036
            ],
            [
              112.89587207561789,
              27.968365303292273
            ],
            [
              112.89636720725194,
              27.968715144972933
            ],
            [
              112.89706039063296,
              27.969491353559093
            ],
            [
              112.89760503463711,
              27.969972381683434
            ],
            [
              112.8981620573004,
              27.969884921638027
            ],
            [
              112.89837248770657,
              27.969513219157292
            ],
            [
              112.89862005409023,
              27.969546016545394
            ],
            [
              112.89895426768821,
              27.970005177931057
            ],
            [
              112.89918945654595,
              27.97014730056064
            ],
            [
              112.90010544785905,
              27.96983025982432
            ],
            [
              112.90073674021082,
              27.969513219157292
            ],
            [
              112.90139278988089,
              27.969371096693365
            ],
            [
              112.90147943709522,
              27.96894472917927
            ],
            [
              112.90136803256254,
              27.96825597809746
            ],
            [
              112.90150419441355,
              27.967600020598837
            ],
            [
              112.90135565503667,
              27.96674726988914
            ],
            [
              112.90147943709522,
              27.966255295260467
            ],
            [
              112.9022978712927,
              27.964916058277453
            ],
            [
              112.90285489395602,
              27.963921156716168
            ],
            [
              112.90337478290837,
              27.963221441136398
            ],
            [
              112.90411747979277,
              27.961964126771818
            ],
            [
              112.90469925750787,
              27.960805197924188
            ],
            [
              112.90539244202218,
              27.960859865310482
            ],
            [
              112.90733855832242,
              27.957637718082353
            ],
            [
              112.90809239971557,
              27.957491179288823
            ],
            [
              112.90808125520682,
              27.957528381019344
            ],
            [
              112.90855603387035,
              27.956653315929444
            ],
            [
              112.90932158280886,
              27.956350816404225
            ],
            [
              112.91003564362944,
              27.956428049144606
            ],
            [
              112.91074970578418,
              27.95651815433135
            ],
            [
              112.91107030536403,
              27.956363688924284
            ],
            [
              112.91150748600282,
              27.956440921655442
            ],
            [
              112.9116094939291,
              27.95659538695199
            ],
            [
              112.91162406839594,
              27.95686570068912
            ],
            [
              112.91151928045089,
              27.957041462334757
            ],
            [
              112.91180558675147,
              27.957915094913915
            ],
            [
              112.9127165654601,
              27.958317424353936
            ],
            [
              112.9132608630983,
              27.958196646659857
            ],
            [
              112.91420015676987,
              27.957938085869557
            ],
            [
              112.9144083793173,
              27.95736332734863
            ],
            [
              112.91413508618128,
              27.955696513069213
            ],
            [
              112.91432001388962,
              27.955243808113593
            ],
            [
              112.9152963857618,
              27.954741788806814
            ],
            [
              112.91580642806153,
              27.955153701863225
            ],
            [
              112.91604813813335,
              27.955558568607415
            ],
            [
              112.91616526376306,
              27.95607585943037
            ],
            [
              112.91664677944645,
              27.95665062375356
            ],
            [
              112.91790913504428,
              27.957478279508138
            ],
            [
              112.91872901445231,
              27.956259783757375
            ],
            [
              112.91874202761687,
              27.95575398952549
            ],
            [
              112.91926258517684,
              27.9557309981047
            ],
            [
              112.919613962066,
              27.955891933737604
            ],
            [
              112.91770091011392,
              27.957984065661293
            ],
            [
              112.91805228700309,
              27.958087521699724
            ],
            [
              112.91846873448085,
              27.95811051156622
            ],
            [
              112.919093404506,
              27.957869114040392
            ],
            [
              112.91953587831284,
              27.95755874499976
            ],
            [
              112.91999531087248,
              27.95743945545756
            ],
            [
              112.92025558965247,
              27.957117589618235
            ],
            [
              112.92032065904961,
              27.956680770985386
            ],
            [
              112.92060696654161,
              27.956600303786914
            ],
            [
              112.92106245470448,
              27.956772732672775
            ],
            [
              112.92147890218224,
              27.956864695334218
            ],
            [
              112.92186932094796,
              27.9568072184169
            ],
            [
              112.92198644657768,
              27.95635890288402
            ],
            [
              112.92245494909656,
              27.955945071508935
            ],
            [
              112.92257207472626,
              27.955577220416828
            ],
            [
              112.92288440973886,
              27.95538179917878
            ],
            [
              112.92330085721662,
              27.955105909274664
            ],
            [
              112.92367826043485,
              27.954749550087556
            ],
            [
              112.92395155357087,
              27.954370199066076
            ],
            [
              112.92425087541889,
              27.95420926221722
            ],
            [
              112.92504472611489,
              27.954232252909634
            ],
            [
              112.92651771985842,
              27.953944864166743
            ],
            [
              112.92727253106078,
              27.953887386747354
            ],
            [
              112.92794925374413,
              27.954036829237054
            ],
            [
              112.92853488189273,
              27.954128793176608
            ],
            [
              112.9290033844116,
              27.95441618142989
            ],
            [
              112.92935476130079,
              27.954967965110654
            ],
            [
              112.92966709631338,
              27.955427781111737
            ],
            [
              112.93030478188598,
              27.955347312979313
            ],
            [
              112.93125851587249,
              27.95513037321639
            ],
            [
              112.93196269997317,
              27.95511887849264
            ],
            [
              112.93281386624659,
              27.955437615804442
            ],
            [
              112.93316524313575,
              27.955644532662888
            ],
            [
              112.93317825630031,
              27.956046869512633
            ],
            [
              112.93350086642386,
              27.956107402877635
            ],
            [
              112.93366005686244,
              27.956004792424537
            ],
            [
              112.93381064292348,
              27.95577676884615
            ],
            [
              112.9339913458816,
              27.955734964587194
            ],
            [
              112.93397843852746,
              27.95592118371907
            ],
            [
              112.93384506279716,
              27.955989590751628
            ],
            [
              112.93373319879856,
              27.956160608143435
            ],
            [
              112.93361703261121,
              27.956267018944246
            ],
            [
              112.93330725611155,
              27.956244216663464
            ],
            [
              112.93311794798805,
              27.956111203378924
            ],
            [
              112.93306201638266,
              27.955966788412255
            ],
            [
              112.933027596509,
              27.955799571225683
            ],
            [
              112.93305771419386,
              27.955715962361268
            ],
            [
              112.93288991858991,
              27.955620952573256
            ],
            [
              112.93277169506638,
              27.955578700330065
            ],
            [
              112.93271313633467,
              27.95563617284165
            ],
            [
              112.93266108492293,
              27.95586606416059
            ],
            [
              112.93264156534568,
              27.956026987845206
            ],
            [
              112.9326480714743,
              27.95637182312862
            ],
            [
              112.93251794056222,
              27.956567228949524
            ],
            [
              112.93224466648078,
              27.95660171235484
            ],
            [
              112.93220562732633,
              27.95679711828579
            ],
            [
              112.93223165422354,
              27.95706723724892
            ],
            [
              112.93232938827555,
              27.957312160507186
            ],
            [
              112.93245463929328,
              27.957603830108567
            ],
            [
              112.93252946394226,
              27.957876820986655
            ],
            [
              112.93254573045519,
              27.958057856545608
            ],
            [
              112.93253271760224,
              27.95840555873511
            ],
            [
              112.93247090521052,
              27.958744639389252
            ],
            [
              112.93228872288665,
              27.95890996259581
            ],
            [
              112.9322023656517,
              27.959155381643413
            ],
            [
              112.93190090172283,
              27.959497389241164
            ],
            [
              112.93170453503167,
              27.960025056095546
            ],
            [
              112.93164645479264,
              27.96017651569862
            ],
            [
              112.93169070623452,
              27.9602522451968
            ],
            [
              112.93155144436753,
              27.960363189044998
            ],
            [
              112.93139785973314,
              27.96020040048434
            ],
            [
              112.93105997306873,
              27.96008735259035
            ],
            [
              112.93097806110745,
              27.960182312713357
            ],
            [
              112.93050194874078,
              27.960738506041807
            ],
            [
              112.93051218802889,
              27.960851553253832
            ],
            [
              112.93058898034609,
              27.9609329470738
            ],
            [
              112.93068113112672,
              27.961032428256985
            ],
            [
              112.93084495458054,
              27.961091212521197
            ],
            [
              112.93094734418057,
              27.96112738754853
            ],
            [
              112.93105997306873,
              27.9612178249604
            ],
            [
              112.93107132655591,
              27.961306730445898
            ],
            [
              112.93118662065952,
              27.961417294285425
            ],
            [
              112.93163461962259,
              27.9617955374912
            ],
            [
              112.9316082671327,
              27.961885733718418
            ],
            [
              112.93144356135659,
              27.961859547711825
            ],
            [
              112.93137109050147,
              27.961853728554004
            ],
            [
              112.93129532603749,
              27.961938105712477
            ],
            [
              112.9311536791424,
              27.961946834375695
            ],
            [
              112.9310342384543,
              27.96187170346471
            ],
            [
              112.93084647409876,
              27.961851336746193
            ],
            [
              112.93071800375019,
              27.961816422058234
            ],
            [
              112.93074435684329,
              27.961569109272958
            ],
            [
              112.93086494548817,
              27.9612851144272
            ],
            [
              112.93073318122919,
              27.961098901828223
            ],
            [
              112.93050588753563,
              27.961349125350154
            ],
            [
              112.93039388764407,
              27.961637172435246
            ],
            [
              112.930136946947,
              27.961744826021416
            ],
            [
              112.92977788869285,
              27.961963042780695
            ],
            [
              112.929527504632,
              27.96214650562642
            ],
            [
              112.92922113848476,
              27.962832024274903
            ],
            [
              112.9291394402222,
              27.963012422847868
            ],
            [
              112.92885349910809,
              27.962958303225065
            ],
            [
              112.92842458650192,
              27.96293124340349
            ],
            [
              112.92837352485407,
              27.962949283835826
            ],
            [
              112.92826118997678,
              27.96298536303985
            ],
            [
              112.92812639217158,
              27.9630395967431
            ],
            [
              112.92807919501645,
              27.96309795754675
            ],
            [
              112.92792344630585,
              27.96314798117669
            ],
            [
              112.92771578193448,
              27.963193836023194
            ],
            [
              112.92763082809235,
              27.96323135371449
            ],
            [
              112.92757419219757,
              27.963439785349664
            ],
            [
              112.92748923835539,
              27.963518988914373
            ],
            [
              112.92730517169741,
              27.963544000634656
            ],
            [
              112.92716358196047,
              27.963610698654293
            ],
            [
              112.9271507246601,
              27.96370735862591
            ],
            [
              112.92709078965535,
              27.9638661727746
            ],
            [
              112.92703085327881,
              27.964117627830177
            ],
            [
              112.92689599746038,
              27.964422020454705
            ],
            [
              112.92687352149065,
              27.964819052759083
            ],
            [
              112.92631162224728,
              27.96516976321101
            ],
            [
              112.92625917877518,
              27.96544768405174
            ],
            [
              112.92595200673153,
              27.966082929000066
            ],
            [
              112.92570477106447,
              27.966321144891594
            ],
            [
              112.92543505942764,
              27.966671851067687
            ],
            [
              112.92504547640952,
              27.96692991685137
            ],
            [
              112.92455849660801,
              27.96698285314413
            ],
            [
              112.92383826214977,
              27.96633812716307
            ],
            [
              112.92373124111157,
              27.96641987681278
            ],
            [
              112.92369942450419,
              27.966522063963197
            ],
            [
              112.92367917699445,
              27.966662571107804
            ],
            [
              112.92369363942575,
              27.96682096059473
            ],
            [
              112.92370231677859,
              27.96703044328848
            ],
            [
              112.92371967148429,
              27.96712496564311
            ],
            [
              112.92376884332698,
              27.967275690712185
            ],
            [
              112.92368785434729,
              27.967398314215032
            ],
            [
              112.92361554325011,
              27.96738298628479
            ],
            [
              112.92355480178017,
              27.967331893012357
            ],
            [
              112.92351430729035,
              27.96723737083896
            ],
            [
              112.92338414699763,
              27.967168395032886
            ],
            [
              112.92328001876345,
              27.967048325776048
            ],
            [
              112.92325977178334,
              27.966897600623284
            ],
            [
              112.92319035296055,
              27.966810741842167
            ],
            [
              112.92309490207923,
              27.966644688322447
            ],
            [
              112.92297920421778,
              27.9665552748189
            ],
            [
              112.92294999813964,
              27.967651491237348
            ],
            [
              112.92267596964476,
              27.968150359225746
            ],
            [
              112.9222371657225,
              27.968613441102676
            ],
            [
              112.92171707017624,
              27.969235785550083
            ],
            [
              112.92147918996312,
              27.969745734006196
            ],
            [
              112.92113357104351,
              27.969806647376018
            ],
            [
              112.92071081018757,
              27.970509844306832
            ],
            [
              112.92065889352939,
              27.970942448036567
            ],
            [
              112.92127998595852,
              27.971643357818635
            ],
            [
              112.92207132590558,
              27.97216213096368
            ],
            [
              112.9226374940661,
              27.972529965655085
            ],
            [
              112.92282621718347,
              27.972713882267442
            ],
            [
              112.92291081662636,
              27.97309320965185
            ],
            [
              112.92278717110342,
              27.97330586247442
            ],
            [
              112.92261146374328,
              27.97332310456258
            ],
            [
              112.92234389463721,
              27.973324507079653
            ],
            [
              112.9220448504853,
              27.973365138835476
            ],
            [
              112.92186082274789,
              27.973649560232744
            ],
            [
              112.92176880940568,
              27.973857796639905
            ],
            [
              112.92175155683822,
              27.97407619080633
            ],
            [
              112.92150573542439,
              27.974445555146502
            ],
            [
              112.92102581588874,
              27.974725489971533
            ],
            [
              112.92011902190372,
              27.974794419443015
            ],
            [
              112.91963745437762,
              27.974616253320434
            ],
            [
              112.91890208613974,
              27.97431739347607
            ],
            [
              112.91825210470665,
              27.974161768554552
            ],
            [
              112.91750598137172,
              27.974741060752933
            ],
            [
              112.91721901016538,
              27.97513208092991
            ],
            [
              112.9169976327637,
              27.975581028053057
            ],
            [
              112.91652152891355,
              27.976565277821265
            ],
            [
              112.91597807381481,
              27.977390953768662
            ],
            [
              112.91542173901841,
              27.97768802938846
            ],
            [
              112.91476189913729,
              27.97799653021812
            ],
            [
              112.9148979606734,
              27.978475219283354
            ],
            [
              112.91516965944798,
              27.978755153389713
            ],
            [
              112.91634591321554,
              27.978955502424412
            ],
            [
              112.9164388858983,
              27.979511997710787
            ],
            [
              112.91634591321554,
              27.980086735442498
            ],
            [
              112.9160826540119,
              27.980409545355926
            ],
            [
              112.91548750510484,
              27.98084943366767
            ],
            [
              112.91565037732643,
              27.981029364972514
            ],
            [
              112.9158666741859,
              27.981225683258415
            ],
            [
              112.9161250295015,
              27.98137424776381
            ],
            [
              112.91617309473686,
              27.981591789075495
            ],
            [
              112.91602288895115,
              27.981952587633245
            ],
            [
              112.91573449313847,
              27.98226563244124
            ],
            [
              112.91550017154069,
              27.982488477459356
            ],
            [
              112.91520576784866,
              27.98256275935354
            ],
            [
              112.91488021293434,
              27.98275737225417
            ],
            [
              112.91469853495678,
              27.983051507604102
            ],
            [
              112.91478937394555,
              27.98315178090506
            ],
            [
              112.91479694478534,
              27.98333227261176
            ],
            [
              112.91482722398625,
              27.983472654841435
            ],
            [
              112.91473638499747,
              27.98357961281208
            ],
            [
              112.91487264348063,
              27.983773473595647
            ],
            [
              112.9150603347624,
              27.983991846256217
            ],
            [
              112.91429660789642,
              27.984475745640594
            ],
            [
              112.9138080031877,
              27.98473188606279
            ],
            [
              112.9132712901483,
              27.984715256258596
            ],
            [
              112.9126180079875,
              27.983936715416817
            ],
            [
              112.91219835757367,
              27.983574553658613
            ],
            [
              112.91233188310225,
              27.983347148819462
            ],
            [
              112.91218882065964,
              27.982909182335874
            ],
            [
              112.91219835757367,
              27.98245436937171
            ],
            [
              112.9118645463718,
              27.982386989767207
            ],
            [
              112.91173102084323,
              27.98245436937171
            ],
            [
              112.91148304536055,
              27.98286707036199
            ],
            [
              112.91120645913574,
              27.98297656161408
            ],
            [
              112.91089745201154,
              27.983317299003375
            ],
            [
              112.9096877447731,
              27.98362007140706
            ],
            [
              112.90935782483253,
              27.98351724325731
            ],
            [
              112.9091896311427,
              27.983163056308882
            ],
            [
              112.90910553311326,
              27.982820293975664
            ],
            [
              112.90908612605794,
              27.98250038165604
            ],
            [
              112.90945486010916,
              27.981854841229605
            ],
            [
              112.90931254209826,
              27.98104362526368
            ],
            [
              112.90870445416722,
              27.980752271623828
            ],
            [
              112.90820633994457,
              27.98100363542069
            ],
            [
              112.90781172962215,
              27.981517787173303
            ],
            [
              112.90706132368022,
              27.981946245094633
            ],
            [
              112.90653733318636,
              27.981997659930784
            ],
            [
              112.90633679341724,
              27.981626330182053
            ],
            [
              112.9065114569152,
              27.981146455772205
            ],
            [
              112.90684553237934,
              27.98008627829087
            ],
            [
              112.90496620408784,
              27.98008627829087
            ],
            [
              112.90415737883998,
              27.979918211581236
            ],
            [
              112.90415737883998,
              27.98017030529654
            ],
            [
              112.90320582094195,
              27.980096776981966
            ],
            [
              112.90208773962226,
              27.980359379523875
            ],
            [
              112.90156438294167,
              27.98060097452864
            ],
            [
              112.9007912422176,
              27.980674502499483
            ],
            [
              112.90042251302846,
              27.980590470116567
            ],
            [
              112.90000620665225,
              27.98069551130625
            ],
            [
              112.89961368886955,
              27.980685006903386
            ],
            [
              112.89941148201312,
              27.980222825627934
            ],
            [
              112.89892568897088,
              27.97978331275084
            ],
            [
              112.8986436490553,
              27.979499124758902
            ]
          ]
        ]
      },
      "properties": {
        "name": "塘高村",
        "type": "assistPolygon",
        "fill": "#9b59b6",
        "fill-opacity": 0.2,
        "stroke": "#9b59b6",
        "stroke-width": 2,
        "stroke-opacity": 0.8
      },
      "id": "assist_polygon_1773913211090"
    },
    {
      "type": "Feature",
      "geometry": {
        "type": "Point",
        "coordinates": [
          112.91622591457359,
          27.968273850078177
        ]
      },
      "properties": {
        "iconType": "default",
        "iconColor": "#e74c3c",
        "iconSize": 1,
        "text": "塘高村",
        "textColor": "#333333",
        "type": "assistPoint",
        "name": "辅助点_1"
      },
      "id": "assist_point_1773913344538"
    }
  ],
  "properties": {
    "description": "GIS-APP 辅助要素导出",
    "exportTime": "2026/3/20 10:42:38",
    "assistElements": {
      "lines": 0,
      "polygons": 1,
      "texts": 0,
      "points": 1
    }
  }
}