{
  "type": "FeatureCollection",
  "features": [
    {
      "type": "Feature",
      "geometry": {
        "type": "Polygon",
        "coordinates": [
          [
            [
              112.88074717807706,
              27.911309771642806
            ],
            [
              112.88782890815337,
              27.903779679242902
            ],
            [
              112.88769267148909,
              27.903664754381595
            ],
            [
              112.88761526370075,
              27.903582665120226
            ],
            [
              112.88753785647938,
              27.90339385958268
            ],
            [
              112.88755333815045,
              27.90307918287114
            ],
            [
              112.88753665542066,
              27.90268140841731
            ],
            [
              112.88747028462349,
              27.9025018664303
            ],
            [
              112.8871389812851,
              27.9023376860807
            ],
            [
              112.88673026987495,
              27.90216256001638
            ],
            [
              112.88663223834807,
              27.90194957839074
            ],
            [
              112.88668655016475,
              27.90173092029545
            ],
            [
              112.88687664152317,
              27.901512261880384
            ],
            [
              112.88709992306791,
              27.901197606294687
            ],
            [
              112.88753481506502,
              27.900358128870337
            ],
            [
              112.88796983716082,
              27.898604760736717
            ],
            [
              112.88781164730783,
              27.898464956088787
            ],
            [
              112.88750185844334,
              27.898237773150683
            ],
            [
              112.8870734271891,
              27.89817952139397
            ],
            [
              112.88673068290984,
              27.89821447266509
            ],
            [
              112.88634839116735,
              27.89838340347184
            ],
            [
              112.88613088011944,
              27.89837757809211
            ],
            [
              112.88599905483962,
              27.89801641513516
            ],
            [
              112.88585076015192,
              27.897726707330207
            ],
            [
              112.88557632156618,
              27.89741365549736
            ],
            [
              112.88540080883647,
              27.897283921953886
            ],
            [
              112.88506748427825,
              27.897214387455037
            ],
            [
              112.88488795727525,
              27.89687875240773
            ],
            [
              112.8848346698127,
              27.89676514368861
            ],
            [
              112.88472948612151,
              27.896475932512047
            ],
            [
              112.88418019333363,
              27.896424287949273
            ],
            [
              112.883560778085,
              27.896677347300766
            ],
            [
              112.88266671724486,
              27.8968529390596
            ],
            [
              112.88129813391106,
              27.89791443511271
            ],
            [
              112.88021123576878,
              27.89695384911606
            ],
            [
              112.8796035074186,
              27.895311537179353
            ],
            [
              112.87961097071202,
              27.89515397450606
            ],
            [
              112.8793342997919,
              27.895104241014096
            ],
            [
              112.87836360790679,
              27.896069895437634
            ],
            [
              112.87808693698666,
              27.896256394440485
            ],
            [
              112.87789467491518,
              27.896235672302765
            ],
            [
              112.87723347856414,
              27.89565959691754
            ],
            [
              112.87659104011661,
              27.89497990718415
            ],
            [
              112.87695680807333,
              27.89471880567642
            ],
            [
              112.87672234114821,
              27.89442869202483
            ],
            [
              112.87641284518482,
              27.894565459926397
            ],
            [
              112.87634396010185,
              27.892908441308435
            ],
            [
              112.87627362011015,
              27.89264319012453
            ],
            [
              112.8760954256077,
              27.89234478190805
            ],
            [
              112.87581406564101,
              27.892216300212752
            ],
            [
              112.87573316141717,
              27.892206201349012
            ],
            [
              112.87575810358969,
              27.892012698082198
            ],
            [
              112.87558905125628,
              27.891978406679954
            ],
            [
              112.87522600390955,
              27.89204943917865
            ],
            [
              112.87498212480492,
              27.891963710233227
            ],
            [
              112.87513101919875,
              27.891384178879676
            ],
            [
              112.87504940214356,
              27.890820904720712
            ],
            [
              112.87528576718044,
              27.890580123036173
            ],
            [
              112.87527638822867,
              27.890401903973412
            ],
            [
              112.87506067920708,
              27.890364602219037
            ],
            [
              112.87478379539833,
              27.89039576951579
            ],
            [
              112.87453903949127,
              27.890506705981167
            ],
            [
              112.87425662882927,
              27.890534439889308
            ],
            [
              112.87398363185602,
              27.890534439889308
            ],
            [
              112.87346587897571,
              27.89038190254483
            ],
            [
              112.87255423452574,
              27.89026117401852
            ],
            [
              112.871951521298,
              27.89015551346492
            ],
            [
              112.87123294634512,
              27.890284498942407
            ],
            [
              112.87117198530521,
              27.891229473457656
            ],
            [
              112.87099379037343,
              27.89130822070858
            ],
            [
              112.87037010940013,
              27.89127920872994
            ],
            [
              112.8694885145516,
              27.8912460516313
            ],
            [
              112.86923529058159,
              27.891175593047592
            ],
            [
              112.86917586648302,
              27.891097332755507
            ],
            [
              112.86879134062275,
              27.89081135414726
            ],
            [
              112.86845839770928,
              27.890587544654167
            ],
            [
              112.8681347612971,
              27.890363602851906
            ],
            [
              112.86787684742185,
              27.890309722010883
            ],
            [
              112.86790029437196,
              27.890591557565955
            ],
            [
              112.86744073947347,
              27.89085681339762
            ],
            [
              112.86713124351013,
              27.89093556129913
            ],
            [
              112.86682643702265,
              27.891229828667008
            ],
            [
              112.86661541704764,
              27.891694023778157
            ],
            [
              112.8662600720675,
              27.89186410244824
            ],
            [
              112.86588492558833,
              27.892000873590263
            ],
            [
              112.86580932357856,
              27.892632734206472
            ],
            [
              112.86583277009935,
              27.893009888021666
            ],
            [
              112.86626418900114,
              27.89366472304637
            ],
            [
              112.86644707297951,
              27.89436099911468
            ],
            [
              112.86684566640875,
              27.894850047611328
            ],
            [
              112.86699070523775,
              27.8954664566169
            ],
            [
              112.86674468165943,
              27.895906903252126
            ],
            [
              112.86721149543607,
              27.897423365545208
            ],
            [
              112.86773508446215,
              27.898504946579777
            ],
            [
              112.8687948783381,
              27.89934678830174
            ],
            [
              112.87046853686904,
              27.899079856837247
            ],
            [
              112.87054423643161,
              27.89952028927749
            ],
            [
              112.8703423705464,
              27.900328672871836
            ],
            [
              112.8698061656966,
              27.900902900283697
            ],
            [
              112.86951685790483,
              27.902348962349706
            ],
            [
              112.86910681880013,
              27.904049304487998
            ],
            [
              112.86841106057675,
              27.904470170390937
            ],
            [
              112.86817765397721,
              27.904498044345488
            ],
            [
              112.86774238149245,
              27.904392122463435
            ],
            [
              112.86708001031997,
              27.904269476481403
            ],
            [
              112.86686552861107,
              27.904347523987
            ],
            [
              112.86687814558988,
              27.90522276923612
            ],
            [
              112.86713047708004,
              27.9065607098119
            ],
            [
              112.8676856068205,
              27.907385765089103
            ],
            [
              112.86845521942494,
              27.908004552289995
            ],
            [
              112.869136900877,
              27.908979118920556
            ],
            [
              112.87009576238785,
              27.90953100224948
            ],
            [
              112.87086537383719,
              27.910160926074255
            ],
            [
              112.87159713666037,
              27.910121904680707
            ],
            [
              112.87211441661954,
              27.910272417004975
            ],
            [
              112.87265062262442,
              27.91006615915215
            ],
            [
              112.87289664620276,
              27.910272417004975
            ],
            [
              112.87309851093288,
              27.910233395141248
            ],
            [
              112.87341392616194,
              27.910032711923293
            ],
            [
              112.87380504095354,
              27.910015988305005
            ],
            [
              112.87420877156886,
              27.910038286632272
            ],
            [
              112.87441694536592,
              27.910172075478712
            ],
            [
              112.87517307756298,
              27.90993403319341
            ],
            [
              112.8758985313192,
              27.910697743377696
            ],
            [
              112.87710972432023,
              27.910502635195954
            ],
            [
              112.8777594785139,
              27.910251781739746
            ],
            [
              112.87888235612868,
              27.910017651322406
            ],
            [
              112.87941225306663,
              27.910357697884564
            ],
            [
              112.88074717807706,
              27.911309771642806
            ]
          ]
        ]
      },
      "properties": {
        "name": "狮山村",
        "type": "assistPolygon",
        "fill": "#9b59b6",
        "fill-opacity": 0.2,
        "stroke": "#9b59b6",
        "stroke-width": 2,
        "stroke-opacity": 0.8
      },
      "id": "assist_polygon_1773908610082"
    },
    {
      "type": "Feature",
      "geometry": {
        "type": "Point",
        "coordinates": [
          112.87752904062134,
          27.906820630607356
        ]
      },
      "properties": {
        "iconType": "default",
        "iconColor": "#e74c3c",
        "iconSize": 1,
        "text": "狮山村",
        "textColor": "#333333",
        "type": "assistPoint",
        "name": "辅助点_1"
      },
      "id": "assist_point_1773908717303"
    }
  ],
  "properties": {
    "description": "GIS-APP 辅助要素导出",
    "exportTime": "2026/3/19 16:25:27",
    "assistElements": {
      "lines": 0,
      "polygons": 1,
      "texts": 0,
      "points": 1
    }
  }
}