{
  "type": "FeatureCollection",
  "features": [
    {
      "type": "Feature",
      "geometry": {
        "type": "Polygon",
        "coordinates": [
          [
            [
              112.96809721561586,
              27.983589395595033
            ],
            [
              112.96836213780423,
              27.983493689676365
            ],
            [
              112.96914185070703,
              27.98377549015312
            ],
            [
              112.96958138027547,
              27.984126410522535
            ],
            [
              112.96980415507555,
              27.984472012881525
            ],
            [
              112.97046043886108,
              27.983812709074897
            ],
            [
              112.97015638067832,
              27.983685101428748
            ],
            [
              112.96937365748407,
              27.983086938452743
            ],
            [
              112.96882575080707,
              27.982956671597847
            ],
            [
              112.9685578183272,
              27.982650941941557
            ],
            [
              112.96852470346707,
              27.98214316356504
            ],
            [
              112.96814526483006,
              27.98146255753481
            ],
            [
              112.96798570945874,
              27.980484207148393
            ],
            [
              112.96770573526165,
              27.980048200114368
            ],
            [
              112.96779303922729,
              27.97924796356581
            ],
            [
              112.96749844229637,
              27.97887750335606
            ],
            [
              112.9670348287423,
              27.97859037280024
            ],
            [
              112.96671270825938,
              27.978465417678535
            ],
            [
              112.9665350900366,
              27.977827346300728
            ],
            [
              112.9662490947053,
              27.977654534490696
            ],
            [
              112.96586977482536,
              27.97761465484035
            ],
            [
              112.96451205067697,
              27.977582751109452
            ],
            [
              112.9641561897588,
              27.977691987302492
            ],
            [
              112.96347582226322,
              27.977718573799777
            ],
            [
              112.9628014759019,
              27.97751385830759
            ],
            [
              112.96254558541483,
              27.977317118137307
            ],
            [
              112.96242817688056,
              27.976902367755585
            ],
            [
              112.96263757528894,
              27.97652378318506
            ],
            [
              112.96268875355172,
              27.976156885999472
            ],
            [
              112.96258037644317,
              27.975922921844003
            ],
            [
              112.9625352193146,
              27.975508166101406
            ],
            [
              112.96235760109184,
              27.9748434902736
            ],
            [
              112.9623395382404,
              27.97446499889243
            ],
            [
              112.96232749624755,
              27.974276229583296
            ],
            [
              112.9625051141947,
              27.973986427964448
            ],
            [
              112.96246898849186,
              27.97389868973066
            ],
            [
              112.96231846482185,
              27.9739624993623
            ],
            [
              112.96219202486188,
              27.97409543613594
            ],
            [
              112.9619361343748,
              27.97420178514477
            ],
            [
              112.96164712875199,
              27.974236348683917
            ],
            [
              112.96140026996626,
              27.974148610653444
            ],
            [
              112.96086042491052,
              27.97381050074361
            ],
            [
              112.96068550525092,
              27.97358442851514
            ],
            [
              112.96065564076639,
              27.97331314121554
            ],
            [
              112.96074523382943,
              27.973053156913252
            ],
            [
              112.96040392705277,
              27.972985334818333
            ],
            [
              112.9601863438996,
              27.97287229789866
            ],
            [
              112.96005408734298,
              27.9727328857646
            ],
            [
              112.96011808238802,
              27.972555793893534
            ],
            [
              112.96037406256819,
              27.972506811277853
            ],
            [
              112.96103107849414,
              27.971888871700145
            ],
            [
              112.96171369204754,
              27.971564829035216
            ],
            [
              112.96198673770326,
              27.97130860858867
            ],
            [
              112.96241337146708,
              27.97113905052953
            ],
            [
              112.96266081871418,
              27.97134628789121
            ],
            [
              112.96284427169743,
              27.971587436702606
            ],
            [
              112.96318984494067,
              27.971790905495936
            ],
            [
              112.96335623205776,
              27.971843656486968
            ],
            [
              112.96350555330876,
              27.971843656486968
            ],
            [
              112.96364207633192,
              27.971843656486968
            ],
            [
              112.96397911664208,
              27.971662795444715
            ],
            [
              112.9640644436292,
              27.97163265202319
            ],
            [
              112.96439721786342,
              27.97165149161951
            ],
            [
              112.96457640398954,
              27.971802209306546
            ],
            [
              112.9647854542096,
              27.97191147929965
            ],
            [
              112.96507720022662,
              27.970536307372384
            ],
            [
              112.96535877842481,
              27.970362979997674
            ],
            [
              112.96575554809466,
              27.96960184383734
            ],
            [
              112.96585794016673,
              27.969537787703572
            ],
            [
              112.96627177453095,
              27.96950010742448
            ],
            [
              112.96642109656312,
              27.9690780889175
            ],
            [
              112.96628423238512,
              27.968595779083927
            ],
            [
              112.96607518216503,
              27.968305639062862
            ],
            [
              112.96616904130404,
              27.96803057030624
            ],
            [
              112.96650181553828,
              27.96781955838526
            ],
            [
              112.9672270929758,
              27.967163911211856
            ],
            [
              112.96776465135416,
              27.967001882733243
            ],
            [
              112.96850272701955,
              27.966998114513856
            ],
            [
              112.96871604409677,
              27.96734477979554
            ],
            [
              112.96919814036315,
              27.96769897966371
            ],
            [
              112.96964610567844,
              27.9678421668374
            ],
            [
              112.97030046849261,
              27.967843258009125
            ],
            [
              112.97198140474866,
              27.968204992595872
            ],
            [
              112.97268535024416,
              27.968634550842538
            ],
            [
              112.97347037560435,
              27.968842077615932
            ],
            [
              112.97369222483346,
              27.96898903107771
            ],
            [
              112.97426818023884,
              27.968898598201847
            ],
            [
              112.97450709533405,
              27.968947582800695
            ],
            [
              112.9752195737626,
              27.968887294087025
            ],
            [
              112.97547128708564,
              27.968450200854306
            ],
            [
              112.97537915301191,
              27.96800731512465
            ],
            [
              112.97538341908785,
              27.966873120219987
            ],
            [
              112.97509757481372,
              27.966081814469533
            ],
            [
              112.97535695694938,
              27.96533504115567
            ],
            [
              112.97615049550794,
              27.964653001470552
            ],
            [
              112.97653873185412,
              27.964042553558897
            ],
            [
              112.97689283803042,
              27.96391443465299
            ],
            [
              112.97705922514754,
              27.963646891031104
            ],
            [
              112.97703362712953,
              27.963330359964473
            ],
            [
              112.97674778285541,
              27.96309296105524
            ],
            [
              112.97709552598268,
              27.962293357372246
            ],
            [
              112.97730457620274,
              27.962052188134905
            ],
            [
              112.97766721531211,
              27.96156607928954
            ],
            [
              112.97767148138804,
              27.961234468783573
            ],
            [
              112.97740696827482,
              27.96077096618893
            ],
            [
              112.97748802918599,
              27.960593855030808
            ],
            [
              112.97757335539191,
              27.960054982544193
            ],
            [
              112.97770561233914,
              27.959678147429884
            ],
            [
              112.97806825066732,
              27.959572632837748
            ],
            [
              112.97866127115765,
              27.959617853192697
            ],
            [
              112.97922016147807,
              27.95992309009334
            ],
            [
              112.97983451391049,
              27.96080864951604
            ],
            [
              112.97989850895553,
              27.961166639259886
            ],
            [
              112.9802952782348,
              27.961287224935276
            ],
            [
              112.97902892780787,
              27.95901681971158
            ],
            [
              112.97581223218883,
              27.95887069804901
            ],
            [
              112.97549032420186,
              27.953700416794845
            ],
            [
              112.9746447923685,
              27.953684180512525
            ],
            [
              112.97467236404043,
              27.953278266714648
            ],
            [
              112.97476426905259,
              27.952604445534234
            ],
            [
              112.97473271382714,
              27.95070306848261
            ],
            [
              112.97403423203261,
              27.950776134866032
            ],
            [
              112.97236155004141,
              27.951571743148705
            ],
            [
              112.97230640669758,
              27.951945190276888
            ],
            [
              112.97141132271673,
              27.951601316216355
            ],
            [
              112.96976621323891,
              27.950773233970622
            ],
            [
              112.96874606137764,
              27.949474269130278
            ],
            [
              112.96815786627081,
              27.949173880924135
            ],
            [
              112.96805647096586,
              27.95143087794095
            ],
            [
              112.96806566180364,
              27.9518367986839
            ],
            [
              112.9658966897178,
              27.9518367986839
            ],
            [
              112.96292095316724,
              27.951416182111686
            ],
            [
              112.9619927063181,
              27.95157855046544
            ],
            [
              112.96136774870158,
              27.951343116161368
            ],
            [
              112.96098174529459,
              27.95152983991062
            ],
            [
              112.96065088523146,
              27.951862695426072
            ],
            [
              112.96032002516834,
              27.95249592897264
            ],
            [
              112.96011783262708,
              27.953039856891806
            ],
            [
              112.95989725925166,
              27.953616256149758
            ],
            [
              112.95936005188138,
              27.953788924160676
            ],
            [
              112.95910959076028,
              27.954333924726456
            ],
            [
              112.95855979887381,
              27.95448501371547
            ],
            [
              112.95794891937284,
              27.954118083511375
            ],
            [
              112.9569651596852,
              27.95364145610108
            ],
            [
              112.95656197896847,
              27.953198977468034
            ],
            [
              112.95628708302526,
              27.95255684102038
            ],
            [
              112.95712398826596,
              27.951461422856028
            ],
            [
              112.95814415802812,
              27.95079229469792
            ],
            [
              112.95826393230753,
              27.950103700787736
            ],
            [
              112.95820895311891,
              27.949736755200334
            ],
            [
              112.95802568859747,
              27.94935361952092
            ],
            [
              112.9576102904697,
              27.949164750140667
            ],
            [
              112.95701773680565,
              27.949305052971013
            ],
            [
              112.95673222128947,
              27.94939963698195
            ],
            [
              112.95643288996486,
              27.94907585970796
            ],
            [
              112.9561885378289,
              27.948768270398574
            ],
            [
              112.95571845603575,
              27.94892917760866
            ],
            [
              112.95434803271856,
              27.94976894916512
            ],
            [
              112.95354553182435,
              27.950325158119995
            ],
            [
              112.95261957012355,
              27.950695963829546
            ],
            [
              112.9503674809978,
              27.948750708979333
            ],
            [
              112.94805946053322,
              27.94895623622726
            ],
            [
              112.94717533996595,
              27.948783593576053
            ],
            [
              112.94701712829823,
              27.949408393742075
            ],
            [
              112.94728788085612,
              27.956419082080643
            ],
            [
              112.93873604877501,
              27.95269666402092
            ],
            [
              112.93865228995753,
              27.953502298671282
            ],
            [
              112.9390245516526,
              27.955401269665117
            ],
            [
              112.93875867982172,
              27.9572072752551
            ],
            [
              112.94082699651412,
              27.957844919550126
            ],
            [
              112.94201200359544,
              27.95939231003655
            ],
            [
              112.94328173954511,
              27.959778532372923
            ],
            [
              112.94402171700037,
              27.960885199384393
            ],
            [
              112.94402763354708,
              27.961224436282578
            ],
            [
              112.93943056345472,
              27.971455015537686
            ],
            [
              112.93997444589512,
              27.9718897726805
            ],
            [
              112.94036921494298,
              27.972023869568417
            ],
            [
              112.94079435035951,
              27.971816019750776
            ],
            [
              112.94133336209111,
              27.97174226677066
            ],
            [
              112.94156111333125,
              27.97213114622211
            ],
            [
              112.9416673970116,
              27.97312345420187
            ],
            [
              112.94200143193207,
              27.97342516759427
            ],
            [
              112.94305667957624,
              27.97337152992411
            ],
            [
              112.94377030036026,
              27.973733585061126
            ],
            [
              112.94380066672892,
              27.97461860361389
            ],
            [
              112.94322369738401,
              27.975858958101128
            ],
            [
              112.94347422374813,
              27.975858958101128
            ],
            [
              112.9444231870169,
              27.975342704301866
            ],
            [
              112.94470402108708,
              27.975432595128666
            ],
            [
              112.94342209094772,
              27.978966409191514
            ],
            [
              112.94344619275049,
              27.9801690116213
            ],
            [
              112.94369255695968,
              27.985385922495112
            ],
            [
              112.9438686585852,
              27.984888289666586
            ],
            [
              112.94425608248382,
              27.980502803160533
            ],
            [
              112.9449428798713,
              27.979149797921465
            ],
            [
              112.94665015350293,
              27.978103844638227
            ],
            [
              112.94724889967462,
              27.978158276976345
            ],
            [
              112.95163745699551,
              27.978379946952415
            ],
            [
              112.95644561780253,
              27.978947751452438
            ],
            [
              112.96154196097712,
              27.98039914432688
            ],
            [
              112.96530183181814,
              27.982213607960347
            ],
            [
              112.96809721561586,
              27.983589395595033
            ]
          ]
        ]
      },
      "properties": {
        "name": "冯家村",
        "type": "assistPolygon",
        "fill": "#9b59b6",
        "fill-opacity": 0.2,
        "stroke": "#9b59b6",
        "stroke-width": 2,
        "stroke-opacity": 0.8
      },
      "id": "assist_polygon_1773978372149"
    },
    {
      "type": "Feature",
      "geometry": {
        "type": "Point",
        "coordinates": [
          112.95853247098736,
          27.9608921689192
        ]
      },
      "properties": {
        "iconType": "default",
        "iconColor": "#e74c3c",
        "iconSize": 1,
        "text": "冯家村",
        "textColor": "#333333",
        "type": "assistPoint",
        "name": "辅助点_1"
      },
      "id": "assist_point_1773978438562"
    }
  ],
  "properties": {
    "description": "GIS-APP 辅助要素导出",
    "exportTime": "2026/3/20 11:47:24",
    "assistElements": {
      "lines": 0,
      "polygons": 1,
      "texts": 0,
      "points": 1
    }
  }
}