{
  "type": "FeatureCollection",
  "features": [
    {
      "type": "Feature",
      "geometry": {
        "type": "Polygon",
        "coordinates": [
          [
            [
              112.94799655866306,
              27.936132377370313
            ],
            [
              112.95070266671941,
              27.936311648451337
            ],
            [
              112.9569347641771,
              27.937247706327767
            ],
            [
              112.95787656875156,
              27.937308375936823
            ],
            [
              112.96331419946699,
              27.937012300076105
            ],
            [
              112.97314396347517,
              27.937402445986038
            ],
            [
              112.97487986592697,
              27.938856384105677
            ],
            [
              112.97628420929797,
              27.93972669650485
            ],
            [
              112.97867368797517,
              27.940559968728593
            ],
            [
              112.9825618315501,
              27.940893275648904
            ],
            [
              112.98520457204432,
              27.9410670316649
            ],
            [
              112.98914869955411,
              27.941876774232412
            ],
            [
              112.99020416922167,
              27.94089526712243
            ],
            [
              112.99121797557943,
              27.939472066618563
            ],
            [
              112.99007299316837,
              27.93888628190878
            ],
            [
              112.98647834275316,
              27.93827954381139
            ],
            [
              112.98511938954742,
              27.938124631310103
            ],
            [
              112.97778396293265,
              27.934587401699304
            ],
            [
              112.97491993341241,
              27.934393754420853
            ],
            [
              112.97332718135974,
              27.933980639460927
            ],
            [
              112.96986404254508,
              27.9319537689789
            ],
            [
              112.96938183334305,
              27.93146318363729
            ],
            [
              112.96751488477788,
              27.930019583309843
            ],
            [
              112.96670928703496,
              27.92898910099568
            ],
            [
              112.96599689955106,
              27.92776213548609
            ],
            [
              112.96406714458266,
              27.92396164057051
            ],
            [
              112.96236013974149,
              27.91913602741029
            ],
            [
              112.96120589289947,
              27.91598862568631
            ],
            [
              112.95795533195324,
              27.907264792798486
            ],
            [
              112.95738726334032,
              27.905045899263087
            ],
            [
              112.95663741094053,
              27.9029374059337
            ],
            [
              112.95611400743527,
              27.90205807905403
            ],
            [
              112.95604086775721,
              27.90033227567403
            ],
            [
              112.95573368485918,
              27.90017068199073
            ],
            [
              112.95453420967385,
              27.90002201596768
            ],
            [
              112.95326159481051,
              27.900125436165908
            ],
            [
              112.95298366698016,
              27.900034943275955
            ],
            [
              112.9527130539211,
              27.89958248005827
            ],
            [
              112.95228884807385,
              27.899323928376035
            ],
            [
              112.95185733013368,
              27.898974882891466
            ],
            [
              112.95146238069331,
              27.89893609999035
            ],
            [
              112.95083338669377,
              27.899020129789108
            ],
            [
              112.95049694805842,
              27.898864998166133
            ],
            [
              112.95035798414324,
              27.89854180617614
            ],
            [
              112.95033604250766,
              27.898309107629743
            ],
            [
              112.94997766290635,
              27.898179830640572
            ],
            [
              112.94972899081328,
              27.89819275816889
            ],
            [
              112.94901223094104,
              27.898651691821414
            ],
            [
              112.94841980678049,
              27.89873572124924
            ],
            [
              112.94793709079782,
              27.898541806176098
            ],
            [
              112.94745437481518,
              27.89796652235357
            ],
            [
              112.94741780497615,
              27.897662719364277
            ],
            [
              112.94761527969632,
              27.897552833898374
            ],
            [
              112.94836860940761,
              27.897630400678153
            ],
            [
              112.94896834766988,
              27.897662719364277
            ],
            [
              112.9492389607289,
              27.897507585795438
            ],
            [
              112.94928284400005,
              27.897255493271857
            ],
            [
              112.94915908280257,
              27.89677812645465
            ],
            [
              112.94885001913063,
              27.89566636082681
            ],
            [
              112.94862228800393,
              27.895565726279003
            ],
            [
              112.94801500483395,
              27.895551349907407
            ],
            [
              112.9471583021895,
              27.895752618936186
            ],
            [
              112.94652390833654,
              27.89587242145933
            ],
            [
              112.94598711353792,
              27.895743034412718
            ],
            [
              112.94574311565397,
              27.89548905212878
            ],
            [
              112.94564551659967,
              27.895177563575217
            ],
            [
              112.94574311565397,
              27.894837320755514
            ],
            [
              112.94594915818465,
              27.89472230895514
            ],
            [
              112.94621484466461,
              27.894784606736366
            ],
            [
              112.9465184860014,
              27.894933164121625
            ],
            [
              112.94670283993608,
              27.89494274827807
            ],
            [
              112.94686008269144,
              27.894822944287156
            ],
            [
              112.94701732544677,
              27.894664803009107
            ],
            [
              112.94723421239958,
              27.894578544032825
            ],
            [
              112.9476734081439,
              27.89454499914926
            ],
            [
              112.9480963373792,
              27.894511453377888
            ],
            [
              112.94830986739288,
              27.894302604366644
            ],
            [
              112.94843966621006,
              27.89375316591824
            ],
            [
              112.94838501437278,
              27.89311315775933
            ],
            [
              112.94819422279784,
              27.892427700898324
            ],
            [
              112.94794806346867,
              27.89197193250918
            ],
            [
              112.94734686038784,
              27.891567371769895
            ],
            [
              112.94682184380031,
              27.89129740960911
            ],
            [
              112.9463245465092,
              27.891222913516174
            ],
            [
              112.94600846780422,
              27.891282510531042
            ],
            [
              112.94583567824078,
              27.891476201114216
            ],
            [
              112.94559124391364,
              27.891964151654832
            ],
            [
              112.94541423983885,
              27.892262135724593
            ],
            [
              112.94511080428208,
              27.892358980183104
            ],
            [
              112.94487058446627,
              27.892228612583253
            ],
            [
              112.94476522476934,
              27.891938078256942
            ],
            [
              112.94461350699093,
              27.891643818223073
            ],
            [
              112.94392358476718,
              27.89149091050743
            ],
            [
              112.9436580949672,
              27.891054462634514
            ],
            [
              112.94333419813071,
              27.890312966658357
            ],
            [
              112.9428987952282,
              27.890378668478363
            ],
            [
              112.94267578406848,
              27.89078696102588
            ],
            [
              112.94250056101438,
              27.891373586269765
            ],
            [
              112.9410681761216,
              27.891315810573317
            ],
            [
              112.94080268680776,
              27.891207871554812
            ],
            [
              112.94043631133104,
              27.891184406742056
            ],
            [
              112.94023984895682,
              27.891282959523053
            ],
            [
              112.94019823319009,
              27.891378689554912
            ],
            [
              112.94024266945738,
              27.891590166342823
            ],
            [
              112.9401196154676,
              27.89167777790354
            ],
            [
              112.9398837619872,
              27.891729136610124
            ],
            [
              112.94075090257391,
              27.89425349819456
            ],
            [
              112.94230030725775,
              27.899020493749262
            ],
            [
              112.94274392431043,
              27.900806187652805
            ],
            [
              112.94310263904822,
              27.9032270211151
            ],
            [
              112.94269233278318,
              27.91386563041989
            ],
            [
              112.94265173973376,
              27.91528231577756
            ],
            [
              112.9428423809858,
              27.916320012781057
            ],
            [
              112.94325416558746,
              27.917357700443773
            ],
            [
              112.94387946766537,
              27.91834821099991
            ],
            [
              112.94488605224728,
              27.919520640340096
            ],
            [
              112.94663913526398,
              27.920746241308194
            ],
            [
              112.94759134004634,
              27.921544550027335
            ],
            [
              112.94838440645394,
              27.922494594969294
            ],
            [
              112.94898683230765,
              27.923788259763697
            ],
            [
              112.94929185817125,
              27.924852826575446
            ],
            [
              112.94924402428308,
              27.926234068546506
            ],
            [
              112.94887913254979,
              27.929541718900694
            ],
            [
              112.94799655866306,
              27.936132377370313
            ]
          ]
        ]
      },
      "properties": {
        "name": "合山社区",
        "type": "assistPolygon",
        "fill": "#c0392b",
        "fill-opacity": 0.4,
        "stroke": "#c0392b",
        "stroke-opacity": 1,
        "stroke-width": 3
      },
      "id": "assist_polygon_1773803557014"
    },
    {
      "type": "Feature",
      "geometry": {
        "type": "Point",
        "coordinates": [
          112.95178247126645,
          27.916238587584203
        ]
      },
      "properties": {
        "iconType": "default",
        "iconColor": "#e74c3c",
        "iconSize": 1,
        "text": "合山社区",
        "textColor": "#333333",
        "type": "assistPoint",
        "name": "辅助点_1"
      },
      "id": "assist_point_1773803578938"
    }
  ],
  "properties": {
    "description": "GIS-APP 辅助要素导出",
    "exportTime": "2026/3/18 11:13:01",
    "assistElements": {
      "lines": 0,
      "polygons": 1,
      "texts": 0,
      "points": 1
    }
  }
}