{
  "type": "FeatureCollection",
  "features": [
    {
      "type": "Feature",
      "geometry": {
        "type": "Polygon",
        "coordinates": [
          [
            [
              112.90216362134969,
              27.86704626332164
            ],
            [
              112.90158808240001,
              27.868834985067167
            ],
            [
              112.90135427008762,
              27.869037704981523
            ],
            [
              112.90107999021215,
              27.869284148348882
            ],
            [
              112.9007202782657,
              27.869466992959985
            ],
            [
              112.90061236476407,
              27.869610088574845
            ],
            [
              112.9007202782657,
              27.869705485546433
            ],
            [
              112.90098187352076,
              27.871017476604948
            ],
            [
              112.90117521909335,
              27.872269538909663
            ],
            [
              112.9039724563746,
              27.87320841520402
            ],
            [
              112.90653540203778,
              27.87373705492817
            ],
            [
              112.90512689469426,
              27.867821827760352
            ],
            [
              112.90371952222858,
              27.8674760073271
            ],
            [
              112.90216362134969,
              27.86704626332164
            ]
          ]
        ]
      },
      "properties": {
        "name": "万新社区",
        "type": "assistPolygon",
        "fill": "#9b59b6",
        "fill-opacity": 0.2,
        "stroke": "#9b59b6",
        "stroke-width": 2,
        "stroke-opacity": 0.8
      },
      "id": "assist_polygon_1773980250783"
    },
    {
      "type": "Feature",
      "geometry": {
        "type": "Point",
        "coordinates": [
          112.90322267157941,
          27.870610213231714
        ]
      },
      "properties": {
        "iconType": "default",
        "iconColor": "#e74c3c",
        "iconSize": 1,
        "text": "万新社区",
        "textColor": "#333333",
        "type": "assistPoint",
        "name": "辅助点_1"
      },
      "id": "assist_point_1773980267063"
    }
  ],
  "properties": {
    "description": "GIS-APP 辅助要素导出",
    "exportTime": "2026/3/20 12:18:00",
    "assistElements": {
      "lines": 0,
      "polygons": 1,
      "texts": 0,
      "points": 1
    }
  }
}