{
  "type": "FeatureCollection",
  "features": [
    {
      "type": "Feature",
      "geometry": {
        "type": "Polygon",
        "coordinates": [
          [
            [
              112.87200051717625,
              27.920825506794145
            ],
            [
              112.88081246698673,
              27.911395703433442
            ],
            [
              112.87890605091178,
              27.910006655024105
            ],
            [
              112.87773700674701,
              27.91024915075782
            ],
            [
              112.8771231135311,
              27.910482980982465
            ],
            [
              112.87591649646573,
              27.91067939774078
            ],
            [
              112.87524968177173,
              27.90998726119666
            ],
            [
              112.87515091077601,
              27.9099383477041
            ],
            [
              112.87469322690436,
              27.910077188233288
            ],
            [
              112.87451220231307,
              27.910182827484803
            ],
            [
              112.87428644685208,
              27.91018059359004
            ],
            [
              112.87409279705267,
              27.91002087686752
            ],
            [
              112.87384750730672,
              27.91000946852118
            ],
            [
              112.8737915639,
              27.90996383512379
            ],
            [
              112.87348172422092,
              27.91000186307234
            ],
            [
              112.873339714368,
              27.91004369355663
            ],
            [
              112.87316327801538,
              27.9102072131369
            ],
            [
              112.87296102129557,
              27.910306085135147
            ],
            [
              112.87279559109386,
              27.910240117796988
            ],
            [
              112.87268773460269,
              27.910029935806264
            ],
            [
              112.87235086164728,
              27.910236406869885
            ],
            [
              112.87211894287486,
              27.910284628384474
            ],
            [
              112.87187338204215,
              27.910254490009365
            ],
            [
              112.87164828461218,
              27.910121880065773
            ],
            [
              112.87130040676583,
              27.910127907969624
            ],
            [
              112.87089764858709,
              27.910159531317987
            ],
            [
              112.87009814623254,
              27.909529401933383
            ],
            [
              112.86919060264495,
              27.908994744110686
            ],
            [
              112.86844512041232,
              27.907992253024076
            ],
            [
              112.86768883375962,
              27.907381205989466
            ],
            [
              112.86714335850162,
              27.90656802104867
            ],
            [
              112.86684084463184,
              27.90521223915428
            ],
            [
              112.86683004021181,
              27.904372027110412
            ],
            [
              112.86704612168866,
              27.904257452274962
            ],
            [
              112.8672513997346,
              27.904295644191635
            ],
            [
              112.86807251092927,
              27.904467506338634
            ],
            [
              112.86835341694808,
              27.90447705364494
            ],
            [
              112.86905568248967,
              27.904009206673308
            ],
            [
              112.86922841408548,
              27.90324777428752
            ],
            [
              112.86952961969723,
              27.90224307088681
            ],
            [
              112.86979972327431,
              27.90092542702797
            ],
            [
              112.87032912304097,
              27.900314340954793
            ],
            [
              112.87057761777793,
              27.89955047719917
            ],
            [
              112.87045877212489,
              27.89907306026946
            ],
            [
              112.86963622932524,
              27.89926842568501
            ],
            [
              112.8688043146997,
              27.89936390941672
            ],
            [
              112.86772390533716,
              27.898475910169964
            ],
            [
              112.86721611342143,
              27.89738738502392
            ],
            [
              112.86678749627475,
              27.8959239119026
            ],
            [
              112.86592446543928,
              27.896068062547258
            ],
            [
              112.86494437977957,
              27.89549059601282
            ],
            [
              112.86350147672246,
              27.895274045268067
            ],
            [
              112.86279363541769,
              27.894792820573954
            ],
            [
              112.86113293637816,
              27.894287531571408
            ],
            [
              112.86039787213338,
              27.894311593740298
            ],
            [
              112.85993505224351,
              27.893397253998174
            ],
            [
              112.85930888723617,
              27.893734117834555
            ],
            [
              112.85914553962623,
              27.89481688263048
            ],
            [
              112.85881884440631,
              27.895057494090054
            ],
            [
              112.85792043255157,
              27.89553871981026
            ],
            [
              112.85726704211177,
              27.89568308666854
            ],
            [
              112.85590581285966,
              27.895851512957904
            ],
            [
              112.85503462394492,
              27.896308673428223
            ],
            [
              112.85525242241987,
              27.898281657188193
            ],
            [
              112.85495295013993,
              27.90030272445543
            ],
            [
              112.85631418188454,
              27.903358312535246
            ],
            [
              112.85753928895917,
              27.906413816527802
            ],
            [
              112.85805467895308,
              27.90809242808082
            ],
            [
              112.85862639558792,
              27.910859105721258
            ],
            [
              112.85930701146023,
              27.912134158347868
            ],
            [
              112.86200224702445,
              27.913216739024833
            ],
            [
              112.86371739692895,
              27.91391439565176
            ],
            [
              112.86395897408151,
              27.914114180079366
            ],
            [
              112.86443505114855,
              27.914178901158564
            ],
            [
              112.86493310101362,
              27.914133596347952
            ],
            [
              112.86522607187749,
              27.91414006863421
            ],
            [
              112.86540917875121,
              27.914515449316454
            ],
            [
              112.86570947343405,
              27.91489082810321
            ],
            [
              112.86673487045174,
              27.915305038299493
            ],
            [
              112.86720362369981,
              27.916004014074957
            ],
            [
              112.86726221760435,
              27.916787120654533
            ],
            [
              112.86724024480633,
              27.9172401544201
            ],
            [
              112.86725489378537,
              27.917544333829355
            ],
            [
              112.86793605052416,
              27.91767377125069
            ],
            [
              112.86904201424444,
              27.91803619556177
            ],
            [
              112.8699136023465,
              27.91913640577374
            ],
            [
              112.87036020056455,
              27.919615771606487
            ],
            [
              112.87083645986358,
              27.920120113109462
            ],
            [
              112.87200051717625,
              27.920825506794145
            ]
          ]
        ]
      },
      "properties": {
        "name": "响水村",
        "type": "assistPolygon",
        "fill": "#c0392b",
        "fill-opacity": 0.4,
        "stroke": "#c0392b",
        "stroke-opacity": 1,
        "stroke-width": 3
      },
      "id": "assist_polygon_1773907767168"
    },
    {
      "type": "Feature",
      "geometry": {
        "type": "Point",
        "coordinates": [
          112.86400284913324,
          27.907660877477284
        ]
      },
      "properties": {
        "iconType": "default",
        "iconColor": "#e74c3c",
        "iconSize": 1,
        "text": "响水村",
        "textColor": "#333333",
        "type": "assistPoint",
        "name": "辅助点_1"
      },
      "id": "assist_point_1773908145836"
    }
  ],
  "properties": {
    "description": "GIS-APP 辅助要素导出",
    "exportTime": "2026/3/19 16:15:47",
    "assistElements": {
      "lines": 0,
      "polygons": 1,
      "texts": 0,
      "points": 1
    }
  }
}