{
  "type": "FeatureCollection",
  "features": [
    {
      "type": "Feature",
      "geometry": {
        "type": "Polygon",
        "coordinates": [
          [
            [
              112.97063075109207,
              27.98545579315089
            ],
            [
              112.96936385620246,
              27.98443317886617
            ],
            [
              112.96349457191631,
              27.98049995662052
            ],
            [
              112.95805486680312,
              27.977560440363206
            ],
            [
              112.95476947792739,
              27.97601394000648
            ],
            [
              112.94661636560302,
              27.97266758786141
            ],
            [
              112.94584664420081,
              27.97479890973662
            ],
            [
              112.94429851299678,
              27.980840450595764
            ],
            [
              112.94408930752677,
              27.984184400135575
            ],
            [
              112.94369181406918,
              27.98782382839444
            ],
            [
              112.94120925411266,
              27.995360474409082
            ],
            [
              112.9387107001625,
              28.001920778689453
            ],
            [
              112.94484750201381,
              28.00211429251597
            ],
            [
              112.94848574590179,
              28.003681736918466
            ],
            [
              112.95383352670302,
              27.99905674245835
            ],
            [
              112.96047442009693,
              27.992999441815144
            ],
            [
              112.96562495065209,
              27.988586880504016
            ],
            [
              112.96777282768824,
              27.987251464506514
            ],
            [
              112.97063075109207,
              27.98545579315089
            ]
          ]
        ]
      },
      "properties": {
        "name": "船形山社区",
        "type": "assistPolygon",
        "fill": "#9b59b6",
        "fill-opacity": 0.2,
        "stroke": "#9b59b6",
        "stroke-width": 2,
        "stroke-opacity": 0.8,
        "isAssistFeature": true,
        "sourceFileName": "辅助要素_将军渡社区.geojson",
        "assistFileId": "assist_file_1774020088176_1"
      },
      "id": "assist_polygon_1773801433849_reimported_1774020088176"
    },
    {
      "type": "Feature",
      "geometry": {
        "type": "Polygon",
        "coordinates": [
          [
            [
              112.94795387235689,
              27.936089272687965
            ],
            [
              112.9503745053704,
              27.936218114781724
            ],
            [
              112.95760807393192,
              27.937322790841932
            ],
            [
              112.96288946925719,
              27.937026599278738
            ],
            [
              112.97311391103158,
              27.937358219929607
            ],
            [
              112.97545764131651,
              27.939347275434613
            ],
            [
              112.9778382818839,
              27.940407004428806
            ],
            [
              112.98529518403959,
              27.941095574325388
            ],
            [
              112.98917805898765,
              27.941888417565295
            ],
            [
              112.99112485428726,
              27.93939339830473
            ],
            [
              112.99537490934455,
              27.942445549013556
            ],
            [
              112.99764993390498,
              27.945103492399753
            ],
            [
              113.00051166847943,
              27.948628113275944
            ],
            [
              113.00199756825182,
              27.952104008974516
            ],
            [
              113.00241031818861,
              27.95480200357369
            ],
            [
              113.00133716835298,
              27.96005196197133
            ],
            [
              112.99971225822343,
              27.96251782358
            ],
            [
              112.99711427015166,
              27.966227501292096
            ],
            [
              112.99421318215012,
              27.96991792808656
            ],
            [
              112.99189187231731,
              27.97228189664338
            ],
            [
              112.99056903449024,
              27.973480929484126
            ],
            [
              112.98879364973178,
              27.970744655792828
            ],
            [
              112.98884586693055,
              27.97040646004922
            ],
            [
              112.98813926296611,
              27.969831878946252
            ],
            [
              112.98753524981778,
              27.969522127148508
            ],
            [
              112.98695072153998,
              27.969350042300874
            ],
            [
              112.98691175358275,
              27.969040288726035
            ],
            [
              112.98677536305665,
              27.968567053507584
            ],
            [
              112.98642464608997,
              27.968136836868936
            ],
            [
              112.98628825645578,
              27.967956145589795
            ],
            [
              112.98630141554554,
              27.967666974923688
            ],
            [
              112.98631792969735,
              27.967426310177046
            ],
            [
              112.98663996057181,
              27.96722940225783
            ],
            [
              112.98680510511396,
              27.967003322797012
            ],
            [
              112.98700327795974,
              27.966091705022322
            ],
            [
              112.98709410692875,
              27.964961289060795
            ],
            [
              112.98705926568265,
              27.964753787244263
            ],
            [
              112.98673480680684,
              27.96463915765007
            ],
            [
              112.98655094710726,
              27.96434303121785
            ],
            [
              112.98625893411902,
              27.96424750590934
            ],
            [
              112.98604262853188,
              27.964113771035073
            ],
            [
              112.98504762065255,
              27.964123322969385
            ],
            [
              112.98438788826518,
              27.963827195121723
            ],
            [
              112.98369570900003,
              27.963273145906626
            ],
            [
              112.98324146657392,
              27.963110752009143
            ],
            [
              112.98292782332398,
              27.962852831324327
            ],
            [
              112.98216109409984,
              27.962703287822606
            ],
            [
              112.98164403802475,
              27.962736501967683
            ],
            [
              112.98127739846589,
              27.962595342350767
            ],
            [
              112.98074154064905,
              27.96207222168583
            ],
            [
              112.98045951021916,
              27.961457759507297
            ],
            [
              112.98024328717645,
              27.96121695596169
            ],
            [
              112.97990485066055,
              27.961158830572842
            ],
            [
              112.97958521588643,
              27.960436415563294
            ],
            [
              112.97866391676897,
              27.960037839695204
            ],
            [
              112.9780528511244,
              27.95996310655609
            ],
            [
              112.97811554826887,
              27.959023181738843
            ],
            [
              112.97561178541663,
              27.959005488941386
            ],
            [
              112.97553037468442,
              27.95615180527733
            ],
            [
              112.97500686712586,
              27.949202098447955
            ],
            [
              112.97496786180074,
              27.94854685094259
            ],
            [
              112.9736825952161,
              27.94919968729309
            ],
            [
              112.97294253733949,
              27.95024771373329
            ],
            [
              112.9722422418611,
              27.950463735717562
            ],
            [
              112.97223112572061,
              27.951057794507832
            ],
            [
              112.97164754615528,
              27.950601204273156
            ],
            [
              112.97113066139742,
              27.950458825978572
            ],
            [
              112.97050736789969,
              27.95046796800095
            ],
            [
              112.96846778873132,
              27.94987718329442
            ],
            [
              112.96810646555126,
              27.949717594324213
            ],
            [
              112.96745909508334,
              27.949777440215684
            ],
            [
              112.96673644872322,
              27.950336000269957
            ],
            [
              112.96663859013222,
              27.95066182583696
            ],
            [
              112.9663977082419,
              27.95118048459247
            ],
            [
              112.96617188125435,
              27.951479709664326
            ],
            [
              112.96599121966433,
              27.951725738140837
            ],
            [
              112.96572022727926,
              27.95229758729667
            ],
            [
              112.9656073137855,
              27.95268990018225
            ],
            [
              112.96588583396652,
              27.953029017127093
            ],
            [
              112.96603638506184,
              27.95364740410804
            ],
            [
              112.96620308856272,
              27.95362315564219
            ],
            [
              112.96628992999128,
              27.953642016503636
            ],
            [
              112.9663014924987,
              27.953673549673923
            ],
            [
              112.96623795604378,
              27.953732791182233
            ],
            [
              112.96601987245631,
              27.953996701035692
            ],
            [
              112.96596616099346,
              27.954172423811485
            ],
            [
              112.96598433810782,
              27.95429174763325
            ],
            [
              112.96617622124731,
              27.954787675090884
            ],
            [
              112.96637807149747,
              27.955307764818784
            ],
            [
              112.9640209253763,
              27.95574287628159
            ],
            [
              112.96366706803487,
              27.956245698056236
            ],
            [
              112.96322089855158,
              27.95670774960992
            ],
            [
              112.96272857511019,
              27.95719697807209
            ],
            [
              112.96209778556889,
              27.95808030120969
            ],
            [
              112.96165161608558,
              27.958270555396638
            ],
            [
              112.96150707255937,
              27.958303756662545
            ],
            [
              112.96143816101566,
              27.958295456347017
            ],
            [
              112.96142563151373,
              27.958157117492206
            ],
            [
              112.9613473226285,
              27.95808794825163
            ],
            [
              112.96120666712498,
              27.958001942968636
            ],
            [
              112.9610343876922,
              27.957783367084858
            ],
            [
              112.96096547586171,
              27.95753158926533
            ],
            [
              112.9610124611355,
              27.957337913853763
            ],
            [
              112.96152929914712,
              27.956369530570655
            ],
            [
              112.96157261042943,
              27.956101285700797
            ],
            [
              112.96168375665151,
              27.9555504061738
            ],
            [
              112.96157878484267,
              27.9551958786396
            ],
            [
              112.9615602610376,
              27.955004978293374
            ],
            [
              112.96144647770866,
              27.954749175009624
            ],
            [
              112.96130796925104,
              27.954961482169608
            ],
            [
              112.96121416240847,
              27.955052514472683
            ],
            [
              112.96072320406925,
              27.955522323329234
            ],
            [
              112.96044704000343,
              27.955712053472126
            ],
            [
              112.95988448419735,
              27.955558462705483
            ],
            [
              112.9596083182587,
              27.955251280516677
            ],
            [
              112.95948780449329,
              27.955113738770834
            ],
            [
              112.95930156073612,
              27.955065589
            ],
            [
              112.95918345525334,
              27.95508163904843
            ],
            [
              112.95909260491398,
              27.955222075676673
            ],
            [
              112.95899801518343,
              27.95546679409175
            ],
            [
              112.95858987224334,
              27.955621301737025
            ],
            [
              112.95829001175056,
              27.95561394401058
            ],
            [
              112.95805678666866,
              27.955474151828184
            ],
            [
              112.9585315762132,
              27.954342548595136
            ],
            [
              112.95869649056652,
              27.95362185217563
            ],
            [
              112.95783169195114,
              27.953575814188824
            ],
            [
              112.95763086287586,
              27.954925568914703
            ],
            [
              112.95729032752138,
              27.955172379104084
            ],
            [
              112.95689740211243,
              27.955743126521085
            ],
            [
              112.9567227680644,
              27.956097913524886
            ],
            [
              112.95660052487031,
              27.956452699362686
            ],
            [
              112.95620759946132,
              27.95700030160127
            ],
            [
              112.95602423427047,
              27.957139129866604
            ],
            [
              112.95590585000264,
              27.957373428350067
            ],
            [
              112.95557296295671,
              27.957420207252284
            ],
            [
              112.95536112650126,
              27.957393476366093
            ],
            [
              112.95539895359866,
              27.957172947985
            ],
            [
              112.9552627727233,
              27.956738572787458
            ],
            [
              112.95496014901764,
              27.95656482234142
            ],
            [
              112.95466509045438,
              27.956497994889943
            ],
            [
              112.9541279320954,
              27.956290829955748
            ],
            [
              112.9539690544075,
              27.956250733510444
            ],
            [
              112.95380261157716,
              27.956070299322178
            ],
            [
              112.95365886417409,
              27.95587649950656
            ],
            [
              112.95362049405976,
              27.955791188909615
            ],
            [
              112.953387845546,
              27.95560366903142
            ],
            [
              112.95328024508925,
              27.95548293701154
            ],
            [
              112.95315810416692,
              27.95540844274916
            ],
            [
              112.95301851484568,
              27.955457249470413
            ],
            [
              112.95293409224861,
              27.955880687933643
            ],
            [
              112.9528714844124,
              27.95680911220147
            ],
            [
              112.95275775479577,
              27.95753927332275
            ],
            [
              112.9520032462125,
              27.958431140316918
            ],
            [
              112.95133107536533,
              27.958933619244576
            ],
            [
              112.95044984690514,
              27.959509212783104
            ],
            [
              112.94870782197576,
              27.960263856385154
            ],
            [
              112.94746510273305,
              27.960401063949888
            ],
            [
              112.94687036002077,
              27.95665139703179
            ],
            [
              112.946572753098,
              27.94653017273633
            ],
            [
              112.94725387937471,
              27.94133634275397
            ],
            [
              112.94795387235689,
              27.936089272687965
            ]
          ]
        ]
      },
      "properties": {
        "name": "将军渡社区",
        "type": "assistPolygon",
        "fill": "#9b59b6",
        "fill-opacity": 0.2,
        "stroke": "#9b59b6",
        "stroke-width": 2,
        "stroke-opacity": 0.8,
        "isAssistFeature": true,
        "sourceFileName": "辅助要素_将军渡社区.geojson",
        "assistFileId": "assist_file_1774020088176_1"
      },
      "id": "assist_polygon_1773802624040_reimported_1774020088177"
    },
    {
      "type": "Feature",
      "geometry": {
        "type": "Point",
        "coordinates": [
          112.95286917522225,
          27.989341673533488
        ]
      },
      "properties": {
        "iconType": "default",
        "iconColor": "#e74c3c",
        "iconSize": 1,
        "text": "船形山社区",
        "textColor": "#333333",
        "type": "assistPoint",
        "name": "辅助点_1",
        "isAssistFeature": true,
        "sourceFileName": "辅助要素_将军渡社区.geojson",
        "assistFileId": "assist_file_1774020088176_1"
      },
      "id": "assist_point_1773801460104_reimported_1774020088178"
    },
    {
      "type": "Feature",
      "geometry": {
        "type": "Point",
        "coordinates": [
          112.97257215964198,
          27.947253569951485
        ]
      },
      "properties": {
        "iconType": "default",
        "iconColor": "#e74c3c",
        "iconSize": 1,
        "text": "将军渡社区",
        "textColor": "#333333",
        "type": "assistPoint",
        "name": "辅助点_2",
        "isAssistFeature": true,
        "sourceFileName": "辅助要素_将军渡社区.geojson",
        "assistFileId": "assist_file_1774020088176_1"
      },
      "id": "assist_point_1773802641062_reimported_1774020088178"
    }
  ],
  "properties": {
    "fileName": "辅助要素_将军渡社区.geojson",
    "exportTime": "2026/3/20 23:21:39",
    "source": "GIS-APP 辅助元素导出"
  }
}