{
  "type": "FeatureCollection",
  "features": [
    {
      "type": "Feature",
      "geometry": {
        "type": "Polygon",
        "coordinates": [
          [
            [
              112.93361077661179,
              27.922156523601302
            ],
            [
              112.93629488671648,
              27.922000580168756
            ],
            [
              112.94020706801264,
              27.92155873882507
            ],
            [
              112.9435657755266,
              27.920980379330118
            ],
            [
              112.94549091646735,
              27.920619714927184
            ],
            [
              112.94625853565985,
              27.92043669040912
            ],
            [
              112.94481468051205,
              27.91931700509997
            ],
            [
              112.94392521663143,
              27.918369570315946
            ],
            [
              112.94333427206936,
              27.917454426568753
            ],
            [
              112.94285389384791,
              27.916265228381903
            ],
            [
              112.942610496317,
              27.915225698900173
            ],
            [
              112.94274571634219,
              27.913062966155152
            ],
            [
              112.94305602833774,
              27.904857423597463
            ],
            [
              112.93360409088774,
              27.905801454335716
            ],
            [
              112.93388805467379,
              27.90764169489337
            ],
            [
              112.93403679719667,
              27.91043784409635
            ],
            [
              112.93394140286624,
              27.913084909453815
            ],
            [
              112.93361077661179,
              27.922156523601302
            ]
          ]
        ]
      },
      "properties": {
        "name": "红旗社区",
        "type": "assistPolygon",
        "fill": "#c0392b",
        "fill-opacity": 0.4,
        "stroke": "#c0392b",
        "stroke-opacity": 1,
        "stroke-width": 3
      },
      "id": "assist_polygon_1773803688614"
    },
    {
      "type": "Feature",
      "geometry": {
        "type": "Point",
        "coordinates": [
          112.93801252953892,
          27.913355397785537
        ]
      },
      "properties": {
        "iconType": "default",
        "iconColor": "#e74c3c",
        "iconSize": 1,
        "text": "红旗社区",
        "textColor": "#333333",
        "type": "assistPoint",
        "name": "辅助点_1"
      },
      "id": "assist_point_1773803708696"
    }
  ],
  "properties": {
    "description": "GIS-APP 辅助要素导出",
    "exportTime": "2026/3/18 11:15:13",
    "assistElements": {
      "lines": 0,
      "polygons": 1,
      "texts": 0,
      "points": 1
    }
  }
}