{
  "type": "FeatureCollection",
  "features": [
    {
      "type": "Feature",
      "geometry": {
        "type": "LineString",
        "coordinates": [
          [
            112.87342963852477,
            27.857769436563117
          ],
          [
            112.87404286846407,
            27.85726662303432
          ],
          [
            112.87319225919343,
            27.856361552805524
          ],
          [
            112.87264826489243,
            27.8567769241385
          ],
          [
            112.87259386546232,
            27.857043635418577
          ]
        ]
      },
      "properties": {
        "assistFileId": "assist_layer_default",
        "sourceFileName": "辅助元素图层",
        "type": "assistLine",
        "stroke": "#e74c3c",
        "stroke-width": 2,
        "stroke-opacity": 0.8,
        "stroke-dasharray": "5,5"
      },
      "id": "assist_line_1775115069822"
    },
    {
      "type": "Feature",
      "geometry": {
        "type": "LineString",
        "coordinates": [
          [
            112.87324923936899,
            27.85630359013018
          ],
          [
            112.87352351837518,
            27.85627813729097
          ]
        ]
      },
      "properties": {
        "assistFileId": "assist_layer_default",
        "sourceFileName": "辅助元素图层",
        "type": "assistLine",
        "stroke": "#e74c3c",
        "stroke-width": 2,
        "stroke-opacity": 0.8,
        "stroke-dasharray": "5,5"
      },
      "id": "assist_line_1775115079822"
    },
    {
      "type": "Feature",
      "geometry": {
        "type": "LineString",
        "coordinates": [
          [
            112.87324269652645,
            27.85633856960594
          ],
          [
            112.87201229733012,
            27.854591639869085
          ],
          [
            112.87122339431603,
            27.854322878949688
          ]
        ]
      },
      "properties": {
        "assistFileId": "assist_layer_default",
        "sourceFileName": "辅助元素图层",
        "type": "assistLine",
        "stroke": "#e74c3c",
        "stroke-width": 2,
        "stroke-opacity": 0.8,
        "stroke-dasharray": "5,5"
      },
      "id": "assist_line_1775115114806"
    },
    {
      "type": "Feature",
      "geometry": {
        "type": "LineString",
        "coordinates": [
          [
            112.87123380624358,
            27.854347416223774
          ],
          [
            112.871633390407,
            27.853094843793556
          ],
          [
            112.87070102735908,
            27.850343415945346
          ],
          [
            112.86997451069834,
            27.848758904416698
          ]
        ]
      },
      "properties": {
        "assistFileId": "assist_layer_default",
        "sourceFileName": "辅助元素图层",
        "type": "assistLine",
        "stroke": "#e74c3c",
        "stroke-width": 2,
        "stroke-opacity": 0.8,
        "stroke-dasharray": "5,5"
      },
      "id": "assist_line_1775115168406"
    },
    {
      "type": "Feature",
      "geometry": {
        "type": "LineString",
        "coordinates": [
          [
            112.86997963159591,
            27.848806367601796
          ],
          [
            112.86880492776567,
            27.84923801498917
          ],
          [
            112.869964375702,
            27.851652510876974
          ],
          [
            112.87037628483728,
            27.85390509264188
          ],
          [
            112.87084921754817,
            27.855065086553324
          ]
        ]
      },
      "properties": {
        "assistFileId": "assist_layer_default",
        "sourceFileName": "辅助元素图层",
        "type": "assistLine",
        "stroke": "#e74c3c",
        "stroke-width": 2,
        "stroke-opacity": 0.8,
        "stroke-dasharray": "5,5"
      },
      "id": "assist_line_1775115176638"
    },
    {
      "type": "Feature",
      "geometry": {
        "type": "LineString",
        "coordinates": [
          [
            112.87017547632223,
            27.8486596727806
          ],
          [
            112.87888268982405,
            27.8446147617113
          ],
          [
            112.88268849175203,
            27.848353760409935
          ]
        ]
      },
      "properties": {
        "assistFileId": "assist_layer_default",
        "sourceFileName": "辅助元素图层",
        "type": "assistLine",
        "stroke": "#e74c3c",
        "stroke-width": 2,
        "stroke-opacity": 0.8,
        "stroke-dasharray": "5,5"
      },
      "id": "assist_line_1775115191085"
    },
    {
      "type": "Feature",
      "geometry": {
        "type": "LineString",
        "coordinates": [
          [
            112.88786952418315,
            27.865529471768582
          ],
          [
            112.88821756228145,
            27.86513895156213
          ],
          [
            112.88851205605695,
            27.864641923809558
          ],
          [
            112.88886009415525,
            27.863920046109413
          ]
        ]
      },
      "properties": {
        "assistFileId": "assist_layer_default",
        "sourceFileName": "辅助元素图层",
        "type": "assistLine",
        "stroke": "#e74c3c",
        "stroke-width": 2,
        "stroke-opacity": 0.8,
        "stroke-dasharray": "5,5"
      },
      "id": "assist_line_1775115802782"
    },
    {
      "type": "Feature",
      "geometry": {
        "type": "LineString",
        "coordinates": [
          [
            112.87107150104124,
            27.876232219025567
          ],
          [
            112.8710544700756,
            27.875569810787056
          ],
          [
            112.8711225939382,
            27.875283769613617
          ],
          [
            112.87033916951842,
            27.870661841747122
          ]
        ]
      },
      "properties": {
        "assistFileId": "assist_layer_default",
        "sourceFileName": "辅助元素图层",
        "type": "assistLine",
        "stroke": "#e74c3c",
        "stroke-width": 2,
        "stroke-opacity": 0.8,
        "stroke-dasharray": "5,5"
      },
      "id": "assist_line_1775116851533"
    },
    {
      "type": "Feature",
      "geometry": {
        "type": "LineString",
        "coordinates": [
          [
            112.87036037696167,
            27.87067463907833
          ],
          [
            112.87098427284914,
            27.870659318880257
          ],
          [
            112.87249202124384,
            27.870506116780405
          ],
          [
            112.87207609065219,
            27.869403055266773
          ]
        ]
      },
      "properties": {
        "assistFileId": "assist_layer_default",
        "sourceFileName": "辅助元素图层",
        "type": "assistLine",
        "stroke": "#e74c3c",
        "stroke-width": 2,
        "stroke-opacity": 0.8,
        "stroke-dasharray": "5,5"
      },
      "id": "assist_line_1775116966733"
    },
    {
      "type": "Feature",
      "geometry": {
        "type": "LineString",
        "coordinates": [
          [
            112.9143650655705,
            27.921153981445713
          ],
          [
            112.93186199064392,
            27.922188485152603
          ],
          [
            112.94994431469752,
            27.91965968083818
          ],
          [
            112.95521290551889,
            27.918337782316357
          ]
        ]
      },
      "properties": {
        "assistFileId": "assist_layer_default",
        "sourceFileName": "辅助元素图层",
        "type": "assistLine",
        "stroke": "#e74c3c",
        "stroke-width": 2,
        "stroke-opacity": 0.8,
        "stroke-dasharray": "5,5"
      },
      "id": "assist_line_1775117503453"
    },
    {
      "type": "Feature",
      "geometry": {
        "type": "LineString",
        "coordinates": [
          [
            112.96276942396118,
            27.978826857875262
          ],
          [
            112.97795387673362,
            27.97263758363927
          ]
        ]
      },
      "properties": {
        "assistFileId": "assist_layer_default",
        "sourceFileName": "辅助元素图层",
        "type": "assistLine",
        "stroke": "#e74c3c",
        "stroke-width": 2,
        "stroke-opacity": 0.8,
        "stroke-dasharray": "5,5"
      },
      "id": "assist_line_1775118049573"
    },
    {
      "type": "Feature",
      "geometry": {
        "type": "LineString",
        "coordinates": [
          [
            112.91271078844758,
            27.961584425020973
          ],
          [
            112.92739465486491,
            27.946992522295645
          ],
          [
            112.93473658807356,
            27.917213029547426
          ]
        ]
      },
      "properties": {
        "assistFileId": "assist_layer_default",
        "sourceFileName": "辅助元素图层",
        "type": "assistLine",
        "stroke": "#e74c3c",
        "stroke-width": 2,
        "stroke-opacity": 0.8,
        "stroke-dasharray": "5,5"
      },
      "id": "assist_line_1775118052661"
    },
    {
      "type": "Feature",
      "geometry": {
        "type": "LineString",
        "coordinates": [
          [
            112.8989135422497,
            27.954633989564798
          ],
          [
            112.94222094846722,
            27.97054284424307
          ],
          [
            112.97069523695889,
            27.98539678931735
          ]
        ]
      },
      "properties": {
        "assistFileId": "assist_layer_default",
        "sourceFileName": "辅助元素图层",
        "type": "assistLine",
        "stroke": "#e74c3c",
        "stroke-width": 2,
        "stroke-opacity": 0.8,
        "stroke-dasharray": "5,5"
      },
      "id": "assist_line_1775118059436"
    },
    {
      "type": "Feature",
      "geometry": {
        "type": "Polygon",
        "coordinates": [
          [
            [
              112.93095278665075,
              27.98955049981778
            ],
            [
              112.92962338285295,
              27.987629542848936
            ],
            [
              112.92744799482018,
              27.98805642513328
            ],
            [
              112.92563517145955,
              27.98709593761663
            ],
            [
              112.9239432029896,
              27.987416101072938
            ],
            [
              112.92213037962898,
              27.98752282201376
            ],
            [
              112.92152610517542,
              27.984321147837477
            ],
            [
              112.92491004211529,
              27.98464131953328
            ],
            [
              112.92563517145955,
              27.98197319302045
            ],
            [
              112.9239432029896,
              27.980692468845376
            ],
            [
              112.92080097583117,
              27.97877135406506
            ],
            [
              112.91838387801698,
              27.978237704997483
            ],
            [
              112.9162084899842,
              27.978664624462766
            ],
            [
              112.91669190954705,
              27.977170398941283
            ],
            [
              112.91790045845414,
              27.974608821316792
            ],
            [
              112.92188866984756,
              27.974822288442212
            ],
            [
              112.92164696006613,
              27.973328009693333
            ],
            [
              112.91959242692408,
              27.97226065505741
            ],
            [
              112.92055926604975,
              27.970446127941187
            ],
            [
              112.92273465408252,
              27.967777650273902
            ],
            [
              112.92527260678742,
              27.967030464700883
            ],
            [
              112.92829397905514,
              27.963187714316888
            ],
            [
              112.9276897046016,
              27.960412309498565
            ],
            [
              112.92829397905514,
              27.958597583146258
            ],
            [
              112.92926081818084,
              27.95582206030211
            ],
            [
              112.92877739861798,
              27.954327518444444
            ],
            [
              112.92442662255246,
              27.954434272120395
            ],
            [
              112.92213037962898,
              27.95699632867587
            ],
            [
              112.9197132818148,
              27.957636833314268
            ],
            [
              112.91777960356343,
              27.958277334152342
            ],
            [
              112.91451652151427,
              27.956569323472365
            ],
            [
              112.91330797260719,
              27.957636833314268
            ],
            [
              112.91161600413727,
              27.95849083358719
            ],
            [
              112.9094406161045,
              27.957423332190388
            ],
            [
              112.90678180850887,
              27.961373034627485
            ],
            [
              112.90496898514824,
              27.96126628781323
            ],
            [
              112.90714437318101,
              27.957850334015887
            ],
            [
              112.90641924383677,
              27.955074791959447
            ],
            [
              112.9083529220881,
              27.95133837266299
            ],
            [
              112.90883634165095,
              27.94792210472953
            ],
            [
              112.90629838894606,
              27.946213930234947
            ],
            [
              112.90726522807172,
              27.94503954459782
            ],
            [
              112.90907805143235,
              27.944292201634724
            ],
            [
              112.91113258457443,
              27.94450572872327
            ],
            [
              112.91137429435582,
              27.943224559860184
            ],
            [
              112.9136705372793,
              27.94311779510231
            ],
            [
              112.91415395684217,
              27.94023510675133
            ],
            [
              112.91910900736123,
              27.940448641859845
            ],
            [
              112.92261379919181,
              27.941729843647153
            ],
            [
              112.92454747744317,
              27.943651617836338
            ],
            [
              112.92551431656884,
              27.94503954459782
            ],
            [
              112.92781055949231,
              27.946854498836558
            ],
            [
              112.92877739861798,
              27.94898970006855
            ],
            [
              112.93131535132288,
              27.94973701052608
            ],
            [
              112.93361159424636,
              27.95272620063855
            ],
            [
              112.93627040184198,
              27.953473485236813
            ],
            [
              112.93602869206055,
              27.956569323472365
            ],
            [
              112.93735809585836,
              27.95923807828379
            ],
            [
              112.93832493498402,
              27.961373034627485
            ],
            [
              112.93844578987473,
              27.96382818221656
            ],
            [
              112.93844578987473,
              27.965749563110208
            ],
            [
              112.93820408009331,
              27.969272005898233
            ],
            [
              112.93880835454685,
              27.971940446607434
            ],
            [
              112.94146716214246,
              27.972794333695404
            ],
            [
              112.94376340506594,
              27.973861683051183
            ],
            [
              112.94460938930092,
              27.975996350081147
            ],
            [
              112.9431591306124,
              27.978451164941376
            ],
            [
              112.94400511484739,
              27.98197319302045
            ],
            [
              112.94279656594027,
              27.983467352001014
            ],
            [
              112.94146716214246,
              27.9848547668023
            ],
            [
              112.9392917741097,
              27.983787526231907
            ],
            [
              112.93687467629552,
              27.983574076850275
            ],
            [
              112.93602869206055,
              27.98517493691361
            ],
            [
              112.93373244913707,
              27.985281660072772
            ],
            [
              112.93228219044856,
              27.985921996809523
            ],
            [
              112.93252390022998,
              27.988163145440282
            ],
            [
              112.9327656100114,
              27.98976393736814
            ],
            [
              112.93095278665075,
              27.98955049981778
            ]
          ]
        ]
      },
      "properties": {
        "assistFileId": "assist_layer_default",
        "sourceFileName": "辅助元素图层",
        "name": "红砂村",
        "type": "assistPolygon",
        "fill": "#9b59b6",
        "fill-opacity": 0.2,
        "stroke": "#9b59b6",
        "stroke-width": 2,
        "stroke-opacity": 0.8
      },
      "id": "assist_polygon_1775118354421"
    }
  ],
  "properties": {
    "fileName": "辅助元素图层",
    "exportTime": "2026/4/2 16:27:46",
    "source": "GIS-APP 辅助元素导出"
  }
}