{
  "type": "FeatureCollection",
  "features": [
    {
      "type": "Feature",
      "geometry": {
        "type": "Polygon",
        "coordinates": [
          [
            [
              112.92993086070473,
              27.873722703688543
            ],
            [
              112.92931292611121,
              27.873173539487595
            ],
            [
              112.92890978228355,
              27.872936930726127
            ],
            [
              112.92753182208406,
              27.872621451573664
            ],
            [
              112.9267519691076,
              27.8724607907194
            ],
            [
              112.92614370634818,
              27.872218193200553
            ],
            [
              112.9251744180626,
              27.871956275683786
            ],
            [
              112.9199210236668,
              27.869914450126515
            ],
            [
              112.91900323420691,
              27.871781730254128
            ],
            [
              112.9183158903963,
              27.87298861857367
            ],
            [
              112.92251527919967,
              27.874694886449007
            ],
            [
              112.922862151491,
              27.875679179280397
            ],
            [
              112.92993086070473,
              27.873722703688543
            ]
          ]
        ]
      },
      "properties": {
        "name": "雪园社区",
        "type": "assistPolygon",
        "fill": "#c0392b",
        "fill-opacity": 0.4,
        "stroke": "#c0392b",
        "stroke-opacity": 1,
        "stroke-width": 3
      },
      "id": "assist_polygon_1773980034634"
    },
    {
      "type": "Feature",
      "geometry": {
        "type": "Point",
        "coordinates": [
          112.92201474113638,
          27.872766049554116
        ]
      },
      "properties": {
        "iconType": "default",
        "iconColor": "#e74c3c",
        "iconSize": 1,
        "text": "雪园社区",
        "textColor": "#333333",
        "type": "assistPoint",
        "name": "辅助点_1"
      },
      "id": "assist_point_1773980043811"
    }
  ],
  "properties": {
    "description": "GIS-APP 辅助要素导出",
    "exportTime": "2026/3/20 12:14:07",
    "assistElements": {
      "lines": 0,
      "polygons": 1,
      "texts": 0,
      "points": 1
    }
  }
}