{
  "type": "FeatureCollection",
  "features": [
    {
      "type": "Feature",
      "geometry": {
        "type": "Polygon",
        "coordinates": [
          [
            [
              112.89395791303502,
              27.894387492454
            ],
            [
              112.8952749191073,
              27.895424093003456
            ],
            [
              112.89641798069803,
              27.8963157372378
            ],
            [
              112.89717836524844,
              27.89558221762806
            ],
            [
              112.89607506217531,
              27.894651035890703
            ],
            [
              112.89708393871216,
              27.89368031452851
            ],
            [
              112.89759086174577,
              27.893012663653565
            ],
            [
              112.89588123866245,
              27.89255145523738
            ],
            [
              112.89395791303502,
              27.894387492454
            ]
          ]
        ]
      },
      "properties": {
        "name": "金塘村",
        "type": "assistPolygon",
        "fill": "#9b59b6",
        "fill-opacity": 0.2,
        "stroke": "#9b59b6",
        "stroke-width": 2,
        "stroke-opacity": 0.8
      },
      "id": "assist_polygon_1773828027071"
    },
    {
      "type": "Feature",
      "geometry": {
        "type": "Polygon",
        "coordinates": [
          [
            [
              112.89602604847569,
              27.892494332670054
            ],
            [
              112.8994183692434,
              27.89333104334611
            ],
            [
              112.90270642296737,
              27.890112221420978
            ],
            [
              112.90465388682433,
              27.886760984771385
            ],
            [
              112.9057265242493,
              27.884612261284843
            ],
            [
              112.90607583177432,
              27.88275876551309
            ],
            [
              112.90628871945657,
              27.882216385385902
            ],
            [
              112.90640397230308,
              27.880342631148736
            ],
            [
              112.90037566872317,
              27.881482068350238
            ],
            [
              112.90093615477328,
              27.883428489401183
            ],
            [
              112.90102936200448,
              27.88389926359011
            ],
            [
              112.90100415652903,
              27.884136416476068
            ],
            [
              112.90028859109903,
              27.88427696856597
            ],
            [
              112.90013566832609,
              27.88432223122949
            ],
            [
              112.90017595600207,
              27.88465762938128
            ],
            [
              112.89981817328707,
              27.88532524696997
            ],
            [
              112.89954570932561,
              27.885672414957767
            ],
            [
              112.89939081105571,
              27.886150361387124
            ],
            [
              112.89914898730012,
              27.886332522035985
            ],
            [
              112.89894156426651,
              27.886663215574444
            ],
            [
              112.89794492997498,
              27.886509407502245
            ],
            [
              112.8977487671316,
              27.887510553839036
            ],
            [
              112.89771762634267,
              27.887590321133516
            ],
            [
              112.89659782090004,
              27.88801249216442
            ],
            [
              112.89560059309636,
              27.888527964598055
            ],
            [
              112.8954302522436,
              27.888645745624203
            ],
            [
              112.89512348349652,
              27.889129502835942
            ],
            [
              112.89484799182628,
              27.889305449957362
            ],
            [
              112.89462889816303,
              27.88993443735285
            ],
            [
              112.89389495434644,
              27.889998035042268
            ],
            [
              112.89346797894048,
              27.890096009563337
            ],
            [
              112.89263161008401,
              27.88981818101587
            ],
            [
              112.8919678417847,
              27.88989375578302
            ],
            [
              112.89171610533245,
              27.890631791894364
            ],
            [
              112.89156874729952,
              27.891323696256748
            ],
            [
              112.89254505402062,
              27.891604014019677
            ],
            [
              112.89602604847569,
              27.892494332670054
            ]
          ]
        ]
      },
      "properties": {
        "name": "金塘村",
        "type": "assistPolygon",
        "fill": "#9b59b6",
        "fill-opacity": 0.2,
        "stroke": "#9b59b6",
        "stroke-width": 2,
        "stroke-opacity": 0.8
      },
      "id": "assist_polygon_1773828239713"
    },
    {
      "type": "Feature",
      "geometry": {
        "type": "Polygon",
        "coordinates": [
          [
            [
              112.89771143093608,
              27.87872774135043
            ],
            [
              112.8984716485001,
              27.879326566301174
            ],
            [
              112.89863717982537,
              27.87921547239702
            ],
            [
              112.89973607395426,
              27.88028162631184
            ],
            [
              112.90017686794666,
              27.881481067709004
            ],
            [
              112.89815350317468,
              27.882012685099625
            ],
            [
              112.89764484294601,
              27.8807353724183
            ],
            [
              112.89754773650404,
              27.879361392808875
            ],
            [
              112.89771143093608,
              27.87872774135043
            ]
          ]
        ]
      },
      "properties": {
        "name": "金塘村",
        "type": "assistPolygon",
        "fill": "#9b59b6",
        "fill-opacity": 0.2,
        "stroke": "#9b59b6",
        "stroke-width": 2,
        "stroke-opacity": 0.8
      },
      "id": "assist_polygon_1773828297945"
    },
    {
      "type": "Feature",
      "geometry": {
        "type": "Polygon",
        "coordinates": [
          [
            [
              112.89740595024467,
              27.89554261078362
            ],
            [
              112.8978246386047,
              27.895847071782853
            ],
            [
              112.8981426300099,
              27.895692499310016
            ],
            [
              112.89840762317104,
              27.89575807582348
            ],
            [
              112.89860371754743,
              27.895706551362125
            ],
            [
              112.90057526425967,
              27.89373456249939
            ],
            [
              112.89938809699389,
              27.893448831732627
            ],
            [
              112.89740595024467,
              27.89554261078362
            ]
          ]
        ]
      },
      "properties": {
        "name": "金塘村",
        "type": "assistPolygon",
        "fill": "#9b59b6",
        "fill-opacity": 0.2,
        "stroke": "#9b59b6",
        "stroke-width": 2,
        "stroke-opacity": 0.8
      },
      "id": "assist_polygon_1773828492095"
    },
    {
      "type": "Feature",
      "geometry": {
        "type": "Point",
        "coordinates": [
          112.89795685044176,
          27.890956466770405
        ]
      },
      "properties": {
        "iconType": "default",
        "iconColor": "#e74c3c",
        "iconSize": 1,
        "text": "金塘村",
        "textColor": "#333333",
        "type": "assistPoint",
        "name": "辅助点_1"
      },
      "id": "assist_point_1773828502303"
    }
  ],
  "properties": {
    "description": "GIS-APP 辅助要素导出",
    "exportTime": "2026/3/18 18:08:58",
    "assistElements": {
      "lines": 0,
      "polygons": 4,
      "texts": 0,
      "points": 1
    }
  }
}