{
  "type": "FeatureCollection",
  "features": [
    {
      "type": "Feature",
      "geometry": {
        "type": "Polygon",
        "coordinates": [
          [
            [
              112.88179968431578,
              27.88640949114864
            ],
            [
              112.88285878353722,
              27.88693190986463
            ],
            [
              112.88333582854494,
              27.886186733128596
            ],
            [
              112.88344335392719,
              27.886101732299807
            ],
            [
              112.8847054566937,
              27.88672475241667
            ],
            [
              112.88508249344545,
              27.8861620804132
            ],
            [
              112.88514151931932,
              27.886046557674234
            ],
            [
              112.88633046388112,
              27.88565154412281
            ],
            [
              112.88638527312486,
              27.88554720050614
            ],
            [
              112.88614917117336,
              27.885435403784257
            ],
            [
              112.88618289958244,
              27.88525652878917
            ],
            [
              112.88613652282694,
              27.885103739610557
            ],
            [
              112.88612306610874,
              27.88506596365997
            ],
            [
              112.8868453433172,
              27.88495169156272
            ],
            [
              112.88687098629039,
              27.885057464095226
            ],
            [
              112.88717015405004,
              27.885038576286448
            ],
            [
              112.88743085813248,
              27.885125460594608
            ],
            [
              112.88723115679109,
              27.885010020866957
            ],
            [
              112.8870887037284,
              27.884931036954868
            ],
            [
              112.88696715994772,
              27.884836244704374
            ],
            [
              112.88685991543538,
              27.884747771862408
            ],
            [
              112.88678631634971,
              27.88463774529106
            ],
            [
              112.8867389931566,
              27.8845457217585
            ],
            [
              112.88670586614157,
              27.884432783836488
            ],
            [
              112.88603049592741,
              27.884615247771848
            ],
            [
              112.88554881222358,
              27.88470219812801
            ],
            [
              112.88460918896926,
              27.88493006703311
            ],
            [
              112.88429700512201,
              27.884975288623252
            ],
            [
              112.88396176209356,
              27.885085130553023
            ],
            [
              112.88355715783638,
              27.885156655263984
            ],
            [
              112.88335485570778,
              27.88513111083003
            ],
            [
              112.88307163293943,
              27.884939526213742
            ],
            [
              112.88277395984893,
              27.884648316713992
            ],
            [
              112.88248784696324,
              27.884819466426094
            ],
            [
              112.88240403620611,
              27.884878219064973
            ],
            [
              112.88253986748792,
              27.884993169940486
            ],
            [
              112.88262078839225,
              27.885151546424467
            ],
            [
              112.88267569876969,
              27.885414655439988
            ],
            [
              112.88267858888703,
              27.885718634794856
            ],
            [
              112.88258899789523,
              27.885700753831287
            ],
            [
              112.88253697737055,
              27.88578249598973
            ],
            [
              112.88265546874204,
              27.885874455931926
            ],
            [
              112.8826294584797,
              27.88594598035533
            ],
            [
              112.88251963719566,
              27.885933207998363
            ],
            [
              112.88190406098705,
              27.886094137621896
            ],
            [
              112.88186649078449,
              27.886226968320102
            ],
            [
              112.88184048052216,
              27.886311264590717
            ],
            [
              112.88179968431578,
              27.88640949114864
            ]
          ]
        ]
      },
      "properties": {
        "name": "高岭社区",
        "type": "assistPolygon",
        "fill": "#9b59b6",
        "fill-opacity": 0.2,
        "stroke": "#9b59b6",
        "stroke-width": 2,
        "stroke-opacity": 0.8
      },
      "id": "assist_polygon_1773804987772"
    },
    {
      "type": "Feature",
      "geometry": {
        "type": "Polygon",
        "coordinates": [
          [
            [
              112.88224017504308,
              27.883376200600125
            ],
            [
              112.8820323719312,
              27.882911604275293
            ],
            [
              112.8821118261774,
              27.88267390313976
            ],
            [
              112.88225766881845,
              27.88250402109216
            ],
            [
              112.88236181886235,
              27.88250681084719
            ],
            [
              112.8824975296219,
              27.882208315594
            ],
            [
              112.88282576025587,
              27.881934926937404
            ],
            [
              112.88297725122878,
              27.881597374494547
            ],
            [
              112.88310033764428,
              27.881488576402944
            ],
            [
              112.88325814035582,
              27.881602954051147
            ],
            [
              112.8832297357984,
              27.88183728801893
            ],
            [
              112.88365896060695,
              27.88201024839431
            ],
            [
              112.88361161967791,
              27.88219715705361
            ],
            [
              112.88341909951455,
              27.882339430528162
            ],
            [
              112.88340016314292,
              27.882674190907466
            ],
            [
              112.88351378137263,
              27.88272440487509
            ],
            [
              112.88319817537167,
              27.882830411978503
            ],
            [
              112.8829646265958,
              27.88304242612945
            ],
            [
              112.882756326508,
              27.882886205108846
            ],
            [
              112.88273423426709,
              27.88303126741961
            ],
            [
              112.88275317063871,
              27.883159591619332
            ],
            [
              112.8827626388245,
              27.88322375353441
            ],
            [
              112.88280366743705,
              27.883332549882766
            ],
            [
              112.88263639625076,
              27.88337439460301
            ],
            [
              112.8824975296219,
              27.883346498039487
            ],
            [
              112.88236181886235,
              27.883346498039487
            ],
            [
              112.88224017504308,
              27.883376200600125
            ]
          ]
        ]
      },
      "properties": {
        "name": "高岭社区",
        "type": "assistPolygon",
        "fill": "#9b59b6",
        "fill-opacity": 0.2,
        "stroke": "#9b59b6",
        "stroke-width": 2,
        "stroke-opacity": 0.8
      },
      "id": "assist_polygon_1773806172761"
    },
    {
      "type": "Feature",
      "geometry": {
        "type": "Polygon",
        "coordinates": [
          [
            [
              112.8834119940831,
              27.884770572085273
            ],
            [
              112.88392140912289,
              27.883747560505796
            ],
            [
              112.88441452349926,
              27.883228846828075
            ],
            [
              112.88506249958809,
              27.883333310418948
            ],
            [
              112.88635437594692,
              27.88340175166337
            ],
            [
              112.88645218365846,
              27.883491806265724
            ],
            [
              112.88834720806912,
              27.8838412170971
            ],
            [
              112.8881773737678,
              27.884004420320792
            ],
            [
              112.88805883242495,
              27.884081463353752
            ],
            [
              112.8876299909147,
              27.884204731753854
            ],
            [
              112.88674372521596,
              27.884420235171234
            ],
            [
              112.88602270666769,
              27.884617680690084
            ],
            [
              112.88552762155975,
              27.884703968101164
            ],
            [
              112.88458947165265,
              27.884925171669238
            ],
            [
              112.88426874236107,
              27.88479123824105
            ],
            [
              112.88386760492084,
              27.884716593719375
            ],
            [
              112.8837077533977,
              27.884911202412397
            ],
            [
              112.8834785321216,
              27.884815231085966
            ],
            [
              112.8834119940831,
              27.884770572085273
            ]
          ]
        ]
      },
      "properties": {
        "name": "高岭社区",
        "type": "assistPolygon",
        "fill": "#9b59b6",
        "fill-opacity": 0.2,
        "stroke": "#9b59b6",
        "stroke-width": 2,
        "stroke-opacity": 0.8
      },
      "id": "assist_polygon_1773804618686"
    },
    {
      "type": "Feature",
      "geometry": {
        "type": "Polygon",
        "coordinates": [
          [
            [
              112.89473422588067,
              27.8889926404577
            ],
            [
              112.89477562748236,
              27.88866574227012
            ],
            [
              112.89473422588067,
              27.88820222804263
            ],
            [
              112.8945962203732,
              27.8876069753032
            ],
            [
              112.89478429337065,
              27.886800747820644
            ],
            [
              112.8949164497568,
              27.886586882619113
            ],
            [
              112.89503683424485,
              27.886330935162988
            ],
            [
              112.89518324805296,
              27.886132503241456
            ],
            [
              112.89532315497785,
              27.886037601015474
            ],
            [
              112.89540449578375,
              27.886028973536256
            ],
            [
              112.8947404629769,
              27.884541212201285
            ],
            [
              112.89430317982989,
              27.8831679180759
            ],
            [
              112.89169817768052,
              27.88391094151949
            ],
            [
              112.89011414399101,
              27.884584416126188
            ],
            [
              112.88909577859184,
              27.885214642730645
            ],
            [
              112.88817477609126,
              27.886140781426462
            ],
            [
              112.88778768788009,
              27.886683482937684
            ],
            [
              112.88815812418915,
              27.88725558106846
            ],
            [
              112.88866700121537,
              27.88744752569778
            ],
            [
              112.89011421862772,
              27.88751432118528
            ],
            [
              112.89036332557531,
              27.887564853667428
            ],
            [
              112.89076353082932,
              27.887593729313693
            ],
            [
              112.89097115365614,
              27.887987136027476
            ],
            [
              112.89105791435392,
              27.888553423725696
            ],
            [
              112.89146843402513,
              27.888673424532257
            ],
            [
              112.89177114457402,
              27.888851793168968
            ],
            [
              112.89202760742134,
              27.889141641576856
            ],
            [
              112.89236395273231,
              27.889186233570697
            ],
            [
              112.8927339320355,
              27.889045025640485
            ],
            [
              112.89325947143949,
              27.88885922524581
            ],
            [
              112.89388591358998,
              27.888781188838664
            ],
            [
              112.89423907589705,
              27.88881463294713
            ],
            [
              112.89455019532893,
              27.88891496538068
            ],
            [
              112.89473422588067,
              27.8889926404577
            ]
          ]
        ]
      },
      "properties": {
        "name": "高岭社区",
        "type": "assistPolygon",
        "fill": "#9b59b6",
        "fill-opacity": 0.2,
        "stroke": "#9b59b6",
        "stroke-width": 2,
        "stroke-opacity": 0.8
      },
      "id": "assist_polygon_1773805565607"
    },
    {
      "type": "Feature",
      "geometry": {
        "type": "Polygon",
        "coordinates": [
          [
            [
              112.88834650971103,
              27.88384713712307
            ],
            [
              112.8893514182556,
              27.88397302875947
            ],
            [
              112.89025741801966,
              27.884238799617975
            ],
            [
              112.88947406430309,
              27.884735369324332
            ],
            [
              112.88898347938871,
              27.88513052566377
            ],
            [
              112.88886142316592,
              27.88500917726175
            ],
            [
              112.88873179748893,
              27.884970985810256
            ],
            [
              112.88861451749128,
              27.88491097043088
            ],
            [
              112.88854970465277,
              27.884856411125128
            ],
            [
              112.88853735897347,
              27.884692732793226
            ],
            [
              112.88853427283621,
              27.884406295117103
            ],
            [
              112.88848797795157,
              27.884207152202976
            ],
            [
              112.88842316511307,
              27.88404074506552
            ],
            [
              112.88834650971103,
              27.88384713712307
            ]
          ]
        ]
      },
      "properties": {
        "name": "高岭社区",
        "type": "assistPolygon",
        "fill": "#9b59b6",
        "fill-opacity": 0.2,
        "stroke": "#9b59b6",
        "stroke-width": 2,
        "stroke-opacity": 0.8
      },
      "id": "assist_polygon_1773805198698"
    },
    {
      "type": "Feature",
      "geometry": {
        "type": "Polygon",
        "coordinates": [
          [
            [
              112.89713278350595,
              27.88640361446329
            ],
            [
              112.89692423215186,
              27.887071309675093
            ],
            [
              112.89685471503384,
              27.887558765974802
            ],
            [
              112.8966229918728,
              27.8877471935256
            ],
            [
              112.89614564042995,
              27.887665268560113
            ],
            [
              112.89545046924965,
              27.887091791315896
            ],
            [
              112.89526045635944,
              27.886764088348258
            ],
            [
              112.89542729744271,
              27.886559273771084
            ],
            [
              112.89561267614123,
              27.886219280635075
            ],
            [
              112.89585490379885,
              27.88632017024767
            ],
            [
              112.8962304875374,
              27.88638656421746
            ],
            [
              112.89671874639745,
              27.886394863460836
            ],
            [
              112.89713278350595,
              27.88640361446329
            ]
          ]
        ]
      },
      "properties": {
        "name": "高岭社区",
        "type": "assistPolygon",
        "fill": "#9b59b6",
        "fill-opacity": 0.2,
        "stroke": "#9b59b6",
        "stroke-width": 2,
        "stroke-opacity": 0.8
      },
      "id": "assist_polygon_1773805747461"
    },
    {
      "type": "Feature",
      "geometry": {
        "type": "Polygon",
        "coordinates": [
          [
            [
              112.88351854023558,
              27.892032057264686
            ],
            [
              112.8860352438494,
              27.892200666414894
            ],
            [
              112.88587382304547,
              27.889470469083975
            ],
            [
              112.8857417511122,
              27.889262945543933
            ],
            [
              112.8854629321386,
              27.889074876417013
            ],
            [
              112.88376067211323,
              27.888147498439253
            ],
            [
              112.88349652824671,
              27.88825126162493
            ],
            [
              112.88317368529533,
              27.889029480863258
            ],
            [
              112.8843843446836,
              27.88972338810177
            ],
            [
              112.8844797308644,
              27.889917940790284
            ],
            [
              112.8844797308644,
              27.89061832757399
            ],
            [
              112.88353321534268,
              27.8908906989884
            ],
            [
              112.88351854023558,
              27.892032057264686
            ]
          ]
        ]
      },
      "properties": {
        "name": "高岭社区",
        "type": "assistPolygon",
        "fill": "#9b59b6",
        "fill-opacity": 0.2,
        "stroke": "#9b59b6",
        "stroke-width": 2,
        "stroke-opacity": 0.8
      },
      "id": "assist_polygon_1773825643717"
    },
    {
      "type": "Feature",
      "geometry": {
        "type": "Polygon",
        "coordinates": [
          [
            [
              112.87501791985636,
              27.884590417562364
            ],
            [
              112.87619432791924,
              27.884747271743237
            ],
            [
              112.87667038382929,
              27.883275684213757
            ],
            [
              112.87573089925498,
              27.88289724386344
            ],
            [
              112.87618057300399,
              27.881666887105553
            ],
            [
              112.87475292227633,
              27.881352873328055
            ],
            [
              112.87474296192525,
              27.88154656406641
            ],
            [
              112.87467987990433,
              27.881910467299335
            ],
            [
              112.87339362647438,
              27.882542783376195
            ],
            [
              112.87299299144539,
              27.88378699773176
            ],
            [
              112.8731758668903,
              27.884214178808065
            ],
            [
              112.8731758668903,
              27.884360910415495
            ],
            [
              112.87464425718551,
              27.884533519307908
            ],
            [
              112.87501791985636,
              27.884590417562364
            ]
          ]
        ]
      },
      "properties": {
        "name": "高岭社区",
        "type": "assistPolygon",
        "fill": "#9b59b6",
        "fill-opacity": 0.2,
        "stroke": "#9b59b6",
        "stroke-width": 2,
        "stroke-opacity": 0.8
      },
      "id": "assist_polygon_1773823074583"
    },
    {
      "type": "Feature",
      "geometry": {
        "type": "Polygon",
        "coordinates": [
          [
            [
              112.87926503040207,
              27.887943530295544
            ],
            [
              112.880348940681,
              27.88711595237436
            ],
            [
              112.88100389996569,
              27.886361750588677
            ],
            [
              112.87950948710785,
              27.88558715925035
            ],
            [
              112.87823185579909,
              27.885179477687217
            ],
            [
              112.8771387204679,
              27.884996020371048
            ],
            [
              112.87709720899963,
              27.885607543549497
            ],
            [
              112.87702802321917,
              27.886015223500934
            ],
            [
              112.8767328308374,
              27.8859948396518
            ],
            [
              112.87640996372119,
              27.8862802150568
            ],
            [
              112.8764844192983,
              27.88646323006337
            ],
            [
              112.87648376202777,
              27.886634894714348
            ],
            [
              112.8765289769751,
              27.88677829915352
            ],
            [
              112.87665442000471,
              27.886932498339235
            ],
            [
              112.8769726745948,
              27.886887654096654
            ],
            [
              112.87754922304678,
              27.88679388866646
            ],
            [
              112.87818573222697,
              27.886899884380412
            ],
            [
              112.87875252958382,
              27.887441210741827
            ],
            [
              112.87926503040207,
              27.887943530295544
            ]
          ]
        ]
      },
      "properties": {
        "name": "高岭社区",
        "type": "assistPolygon",
        "fill": "#9b59b6",
        "fill-opacity": 0.2,
        "stroke": "#9b59b6",
        "stroke-width": 2,
        "stroke-opacity": 0.8
      },
      "id": "assist_polygon_1773823230599"
    },
    {
      "type": "Feature",
      "geometry": {
        "type": "Polygon",
        "coordinates": [
          [
            [
              112.88183629223548,
              27.88543596117067
            ],
            [
              112.88152673548979,
              27.885682699676934
            ],
            [
              112.88108970905911,
              27.88631324346298
            ],
            [
              112.87958582331396,
              27.885569087706884
            ],
            [
              112.87972078741929,
              27.88521120949501
            ],
            [
              112.87998052384786,
              27.88397215041067
            ],
            [
              112.88044202340096,
              27.88247444425373
            ],
            [
              112.88065546677973,
              27.88252589811468
            ],
            [
              112.88134430552327,
              27.882727425763107
            ],
            [
              112.88180951722863,
              27.882882131831337
            ],
            [
              112.88176452958578,
              27.883484288570003
            ],
            [
              112.88128894139378,
              27.88371151624567
            ],
            [
              112.88125566660109,
              27.885076716159716
            ],
            [
              112.88166812665341,
              27.88533050236373
            ],
            [
              112.88183629223548,
              27.88543596117067
            ]
          ]
        ]
      },
      "properties": {
        "name": "高岭社区",
        "type": "assistPolygon",
        "fill": "#9b59b6",
        "fill-opacity": 0.2,
        "stroke": "#9b59b6",
        "stroke-width": 2,
        "stroke-opacity": 0.8
      },
      "id": "assist_polygon_1773805923963"
    },
    {
      "type": "Feature",
      "geometry": {
        "type": "Polygon",
        "coordinates": [
          [
            [
              112.87922831972433,
              27.8778258182208
            ],
            [
              112.87925264755788,
              27.877841946846075
            ],
            [
              112.87936820727299,
              27.878556980317796
            ],
            [
              112.87867485343699,
              27.878723641702322
            ],
            [
              112.8772638168178,
              27.87815376662698
            ],
            [
              112.87640674418532,
              27.8776235763809
            ],
            [
              112.87655773424365,
              27.87745128201378
            ],
            [
              112.87638800144602,
              27.877051641382693
            ],
            [
              112.87640948954136,
              27.876946530775427
            ],
            [
              112.87655498888759,
              27.87627433461536
            ],
            [
              112.87791389865824,
              27.876451484079624
            ],
            [
              112.87762564507054,
              27.877545922595203
            ],
            [
              112.87790851442988,
              27.877621522256675
            ],
            [
              112.878328176519,
              27.87789570907708
            ],
            [
              112.87856537651552,
              27.877884956829902
            ],
            [
              112.87922831972433,
              27.8778258182208
            ]
          ]
        ]
      },
      "properties": {
        "name": "高岭社区",
        "type": "assistPolygon",
        "fill": "#9b59b6",
        "fill-opacity": 0.2,
        "stroke": "#9b59b6",
        "stroke-width": 2,
        "stroke-opacity": 0.8
      },
      "id": "assist_polygon_1773823616785"
    },
    {
      "type": "Feature",
      "geometry": {
        "type": "Polygon",
        "coordinates": [
          [
            [
              112.87485897531064,
              27.88921611853715
            ],
            [
              112.87566664651152,
              27.888864076001894
            ],
            [
              112.87556707065168,
              27.888668496171803
            ],
            [
              112.87614880195781,
              27.88819004860062
            ],
            [
              112.87646556657704,
              27.888223162402298
            ],
            [
              112.87719939221711,
              27.888350988634997
            ],
            [
              112.87739757828864,
              27.88848828316496
            ],
            [
              112.87817425536882,
              27.88884808921638
            ],
            [
              112.87787429724965,
              27.889226830840002
            ],
            [
              112.87783680285257,
              27.889383061433335
            ],
            [
              112.87857062751185,
              27.88941620137166
            ],
            [
              112.8782813824979,
              27.890003247177916
            ],
            [
              112.87793321785722,
              27.89127201349183
            ],
            [
              112.87789162154893,
              27.8918242938083
            ],
            [
              112.87805301657387,
              27.89305554017885
            ],
            [
              112.87823989330468,
              27.893543530840887
            ],
            [
              112.87846924265604,
              27.893746233817296
            ],
            [
              112.87889396419557,
              27.89364112815946
            ],
            [
              112.87953953962914,
              27.893400887549006
            ],
            [
              112.87989630528682,
              27.893686173257507
            ],
            [
              112.88009167747498,
              27.894024010895407
            ],
            [
              112.87997275507061,
              27.894534519561418
            ],
            [
              112.87797656679007,
              27.89626872799016
            ],
            [
              112.87775571134067,
              27.896088551784572
            ],
            [
              112.87733098980115,
              27.89570567635181
            ],
            [
              112.87705067392723,
              27.895608080207538
            ],
            [
              112.87673638089011,
              27.895052532781676
            ],
            [
              112.87712712371103,
              27.894699683007858
            ],
            [
              112.87648154827747,
              27.89424923540156
            ],
            [
              112.87629467154666,
              27.8938213084392
            ],
            [
              112.87607381609725,
              27.89330328932651
            ],
            [
              112.87601435567277,
              27.893130615967138
            ],
            [
              112.87602284957472,
              27.892807790464175
            ],
            [
              112.87622671566483,
              27.89265763907507
            ],
            [
              112.87620123240357,
              27.892454934060112
            ],
            [
              112.87600586021541,
              27.892289766501108
            ],
            [
              112.87570006108025,
              27.892214690816985
            ],
            [
              112.87579758552994,
              27.891885649999722
            ],
            [
              112.87554245230332,
              27.89199266447305
            ],
            [
              112.87536515625175,
              27.89204234944083
            ],
            [
              112.87517921215307,
              27.89204999354915
            ],
            [
              112.87509786757524,
              27.892015867214738
            ],
            [
              112.87498894323899,
              27.891923869541614
            ],
            [
              112.87498894323899,
              27.89180921122542
            ],
            [
              112.87504083468903,
              27.891625757666887
            ],
            [
              112.87515326642806,
              27.89146905727283
            ],
            [
              112.87551218255474,
              27.891243561638092
            ],
            [
              112.87528299505314,
              27.890918693935177
            ],
            [
              112.87529232890002,
              27.890690633412007
            ],
            [
              112.87526684563876,
              27.890420355063284
            ],
            [
              112.8750714742283,
              27.89039032455223
            ],
            [
              112.87492544405518,
              27.890387000983836
            ],
            [
              112.87455385875612,
              27.89053367550396
            ],
            [
              112.87427287577772,
              27.890699284493593
            ],
            [
              112.87338949687265,
              27.89039662709429
            ],
            [
              112.87212655066979,
              27.890160573474745
            ],
            [
              112.8719889907295,
              27.890132940830085
            ],
            [
              112.87179742961348,
              27.890159477802584
            ],
            [
              112.87174397353775,
              27.890232496452043
            ],
            [
              112.87166146743427,
              27.89039256084631
            ],
            [
              112.87152528716476,
              27.89121180239583
            ],
            [
              112.87106857192974,
              27.891301167671344
            ],
            [
              112.87071406367814,
              27.891322056161982
            ],
            [
              112.8700759488253,
              27.89125939067796
            ],
            [
              112.86954024842905,
              27.891301167671344
            ],
            [
              112.86915422737121,
              27.891106208018456
            ],
            [
              112.86864955713028,
              27.890752746270067
            ],
            [
              112.86825294148831,
              27.890439099980327
            ],
            [
              112.86808072666336,
              27.890268438900065
            ],
            [
              112.86790329352586,
              27.89011161495607
            ],
            [
              112.86789782344853,
              27.890007464259327
            ],
            [
              112.86796357428042,
              27.889841840620733
            ],
            [
              112.86785508573887,
              27.88974014159237
            ],
            [
              112.86761838346644,
              27.889530932227032
            ],
            [
              112.867569070493,
              27.88934496818466
            ],
            [
              112.86755591996545,
              27.888885867472155
            ],
            [
              112.86720579785415,
              27.888833217319004
            ],
            [
              112.86723867357108,
              27.88851358914785
            ],
            [
              112.86719264792858,
              27.887572133154066
            ],
            [
              112.86748195050535,
              27.887031663977353
            ],
            [
              112.86841075882806,
              27.886656060167113
            ],
            [
              112.8689652620948,
              27.886009527016824
            ],
            [
              112.86882150969716,
              27.88500508383099
            ],
            [
              112.86903704560211,
              27.883638664106712
            ],
            [
              112.87089374596184,
              27.884163590586013
            ],
            [
              112.87251784546264,
              27.884395808421672
            ],
            [
              112.87200434391302,
              27.885588559773524
            ],
            [
              112.87149084017676,
              27.8863907557551
            ],
            [
              112.87088180259065,
              27.886728521621635
            ],
            [
              112.87097733862716,
              27.887108506237254
            ],
            [
              112.87113258277317,
              27.888459551525884
            ],
            [
              112.87122811880967,
              27.888596766474734
            ],
            [
              112.87165802769397,
              27.888839530066235
            ],
            [
              112.87184909758037,
              27.889061183598926
            ],
            [
              112.87212748070566,
              27.88914980950041
            ],
            [
              112.87283693687333,
              27.888669956693676
            ],
            [
              112.87389352049102,
              27.88786309589581
            ],
            [
              112.87431684074899,
              27.887876394851148
            ],
            [
              112.87485897531064,
              27.88921611853715
            ]
          ]
        ]
      },
      "properties": {
        "name": "高岭社区",
        "type": "assistPolygon",
        "fill": "#9b59b6",
        "fill-opacity": 0.2,
        "stroke": "#9b59b6",
        "stroke-width": 2,
        "stroke-opacity": 0.8
      },
      "id": "assist_polygon_1773824116543"
    },
    {
      "type": "Feature",
      "geometry": {
        "type": "Point",
        "coordinates": [
          112.87908906902595,
          27.886783507065445
        ]
      },
      "properties": {
        "iconType": "default",
        "iconColor": "#e74c3c",
        "iconSize": 1,
        "text": "高岭社区",
        "textColor": "#333333",
        "type": "assistPoint",
        "name": "辅助点_1"
      },
      "id": "assist_point_1773825894421"
    }
  ],
  "properties": {
    "description": "GIS-APP 辅助要素导出",
    "exportTime": "2026/3/18 17:24:57",
    "assistElements": {
      "lines": 0,
      "polygons": 12,
      "texts": 0,
      "points": 1
    }
  }
}