{
  "type": "FeatureCollection",
  "features": [
    {
      "type": "Feature",
      "geometry": {
        "type": "Polygon",
        "coordinates": [
          [
            [
              112.90937823309918,
              27.874258870475344
            ],
            [
              112.9096991064919,
              27.874378479260614
            ],
            [
              112.91018621513952,
              27.87452200975379
            ],
            [
              112.91196841447508,
              27.875325093632412
            ],
            [
              112.91330989575495,
              27.876104250072075
            ],
            [
              112.91429184516943,
              27.8767193696183
            ],
            [
              112.91488396059906,
              27.876842532379058
            ],
            [
              112.91541746054645,
              27.876931382486163
            ],
            [
              112.91643420272788,
              27.8770065634816
            ],
            [
              112.91701022826938,
              27.876849366909
            ],
            [
              112.919758846832,
              27.876071873824003
            ],
            [
              112.92041992285378,
              27.8757403912399
            ],
            [
              112.92252017287025,
              27.87470056880403
            ],
            [
              112.91462471894083,
              27.871556974374315
            ],
            [
              112.91345749568175,
              27.873389460073383
            ],
            [
              112.91218307338555,
              27.87274632188158
            ],
            [
              112.91148482683586,
              27.872366479989495
            ],
            [
              112.91056685185706,
              27.872008219058714
            ],
            [
              112.9098368669701,
              27.873393775962725
            ],
            [
              112.90937823309918,
              27.874258870475344
            ]
          ]
        ]
      },
      "properties": {
        "name": "繁城社区",
        "type": "assistPolygon",
        "fill": "#9b59b6",
        "fill-opacity": 0.2,
        "stroke": "#9b59b6",
        "stroke-width": 2,
        "stroke-opacity": 0.8
      },
      "id": "assist_polygon_1773991842522"
    },
    {
      "type": "Feature",
      "geometry": {
        "type": "Point",
        "coordinates": [
          112.91526658984813,
          27.875068507452127
        ]
      },
      "properties": {
        "iconType": "default",
        "iconColor": "#e74c3c",
        "iconSize": 1,
        "text": "繁城社区",
        "textColor": "#333333",
        "type": "assistPoint",
        "name": "辅助点_1"
      },
      "id": "assist_point_1773991851086"
    }
  ],
  "properties": {
    "description": "GIS-APP 辅助要素导出",
    "exportTime": "2026/3/20 15:31:13",
    "assistElements": {
      "lines": 0,
      "polygons": 1,
      "texts": 0,
      "points": 1
    }
  }
}