{
  "type": "FeatureCollection",
  "features": [
    {
      "type": "Feature",
      "geometry": {
        "type": "Polygon",
        "coordinates": [
          [
            [
              112.85459565993996,
              27.95422586174257
            ],
            [
              112.85488409297686,
              27.95372160943316
            ],
            [
              112.85462779406474,
              27.952896918952092
            ],
            [
              112.85465640516735,
              27.952239835025907
            ],
            [
              112.8551570837469,
              27.95206292762127
            ],
            [
              112.85561484698223,
              27.951721747492954
            ],
            [
              112.85591525701123,
              27.95108992882247
            ],
            [
              112.85572501161796,
              27.95050613391811
            ],
            [
              112.85556765448264,
              27.949571030815903
            ],
            [
              112.8555819613436,
              27.94900238354728
            ],
            [
              112.85526724707297,
              27.948168362136798
            ],
            [
              112.8547522629421,
              27.947435429684575
            ],
            [
              112.85466643225364,
              27.94706896043617
            ],
            [
              112.85506830080799,
              27.94659962284034
            ],
            [
              112.85511121615222,
              27.946169966306627
            ],
            [
              112.85475358784701,
              27.945891953365432
            ],
            [
              112.85481080874256,
              27.945234826814527
            ],
            [
              112.85512552170353,
              27.944716705674026
            ],
            [
              112.85505399525668,
              27.94397111102778
            ],
            [
              112.8551970468407,
              27.943389797749674
            ],
            [
              112.85515413149646,
              27.942972766178258
            ],
            [
              112.85509691060092,
              27.94237880857112
            ],
            [
              112.85544023335481,
              27.941696386047127
            ],
            [
              112.85585508255559,
              27.941203522654178
            ],
            [
              112.85655603230502,
              27.941089784628772
            ],
            [
              112.85625562489535,
              27.940672744177732
            ],
            [
              112.85625562489535,
              27.940154601154205
            ],
            [
              112.85642728627231,
              27.939333149578587
            ],
            [
              112.8568850508173,
              27.939130943518165
            ],
            [
              112.85728559315707,
              27.938916102346127
            ],
            [
              112.85733512789734,
              27.93875156249557
            ],
            [
              112.85702873208916,
              27.93851272204911
            ],
            [
              112.8567583823613,
              27.938297765195856
            ],
            [
              112.85671332352331,
              27.93805096211247
            ],
            [
              112.85701972015654,
              27.937851926910128
            ],
            [
              112.85738018673537,
              27.93795542537771
            ],
            [
              112.8578127462999,
              27.938194267056204
            ],
            [
              112.85797495613663,
              27.938130576236517
            ],
            [
              112.85789385121828,
              27.937732505758447
            ],
            [
              112.85791999395485,
              27.937536040711294
            ],
            [
              112.85837415338527,
              27.936994377667247
            ],
            [
              112.85865800211974,
              27.936633267462568
            ],
            [
              112.85897591486446,
              27.935850857878762
            ],
            [
              112.85970256870576,
              27.935650239430274
            ],
            [
              112.85939601132411,
              27.936944223850432
            ],
            [
              112.85967986005858,
              27.93722508694505
            ],
            [
              112.86013402052848,
              27.937014439922123
            ],
            [
              112.86055411698813,
              27.93722508694505
            ],
            [
              112.86111046117296,
              27.93747585698108
            ],
            [
              112.86209274663588,
              27.937465825896894
            ],
            [
              112.86280804719307,
              27.93739561103692
            ],
            [
              112.86369365740674,
              27.936984347456743
            ],
            [
              112.86419323309204,
              27.936763669733494
            ],
            [
              112.8644089579639,
              27.936282188164284
            ],
            [
              112.86422729502334,
              27.935379404439004
            ],
            [
              112.86423864830745,
              27.935028319229872
            ],
            [
              112.86476093263994,
              27.935208877165053
            ],
            [
              112.86531727682477,
              27.935690363517097
            ],
            [
              112.86614611645996,
              27.936121693524953
            ],
            [
              112.86615747182303,
              27.937024471048147
            ],
            [
              112.86624830225385,
              27.93719499453833
            ],
            [
              112.86681600180174,
              27.937174933235312
            ],
            [
              112.86682735508583,
              27.936813823634125
            ],
            [
              112.86696360281104,
              27.93624206429722
            ],
            [
              112.86725880690855,
              27.934917978427094
            ],
            [
              112.86757671757434,
              27.93426596078959
            ],
            [
              112.86815577040633,
              27.9335035951339
            ],
            [
              112.86879159381681,
              27.933573814359832
            ],
            [
              112.86958637152071,
              27.93333306673638
            ],
            [
              112.87014271778452,
              27.933423347158026
            ],
            [
              112.87055146096004,
              27.93438633362912
            ],
            [
              112.87069111019645,
              27.934741565592475
            ],
            [
              112.87081358159648,
              27.934781428598058
            ],
            [
              112.87106496864462,
              27.93480990276032
            ],
            [
              112.87144527134085,
              27.9347301757127
            ],
            [
              112.87166443006709,
              27.934798512887753
            ],
            [
              112.8718449126826,
              27.93516297726525
            ],
            [
              112.87212852923288,
              27.935572998024952
            ],
            [
              112.87239280713767,
              27.936017185425513
            ],
            [
              112.87247660360721,
              27.93625636250023
            ],
            [
              112.87248304903555,
              27.936455676150942
            ],
            [
              112.87285690630347,
              27.937201676406715
            ],
            [
              112.87321787271469,
              27.937566132156675
            ],
            [
              112.87345636772594,
              27.93821531679572
            ],
            [
              112.8736304049131,
              27.938551296739575
            ],
            [
              112.87365618898693,
              27.938773384545996
            ],
            [
              112.87356594708905,
              27.939035333592713
            ],
            [
              112.87315341489065,
              27.939023944426268
            ],
            [
              112.872740881512,
              27.939160613301738
            ],
            [
              112.87248949446388,
              27.939200475198263
            ],
            [
              112.87201250444144,
              27.939228947674593
            ],
            [
              112.87183846725425,
              27.939479506758985
            ],
            [
              112.87181912978903,
              27.93978131577579
            ],
            [
              112.87161930852804,
              27.940214096833998
            ],
            [
              112.87135503062323,
              27.940436181222154
            ],
            [
              112.87099588766574,
              27.940444051931763
            ],
            [
              112.8704995589978,
              27.939777797446126
            ],
            [
              112.87032552181064,
              27.94017071725527
            ],
            [
              112.87019015955393,
              27.940757246978137
            ],
            [
              112.86996455657966,
              27.94116155216713
            ],
            [
              112.86992488386234,
              27.941682743449803
            ],
            [
              112.87000138921752,
              27.942273453289175
            ],
            [
              112.87048521296192,
              27.942545447264862
            ],
            [
              112.87090306074114,
              27.942746204481452
            ],
            [
              112.87096170649095,
              27.943860074961492
            ],
            [
              112.87062449644986,
              27.94446233786539
            ],
            [
              112.86997206701379,
              27.94525887357547
            ],
            [
              112.8700453731943,
              27.945647425448712
            ],
            [
              112.86961286498432,
              27.945815797591848
            ],
            [
              112.86882096689257,
              27.94608402332301
            ],
            [
              112.868337979451,
              27.94625856875939
            ],
            [
              112.86899660051672,
              27.946820990432514
            ],
            [
              112.86926770942264,
              27.947108901045524
            ],
            [
              112.86951139501093,
              27.947164348909354
            ],
            [
              112.87027700884798,
              27.94795339506949
            ],
            [
              112.8703307365447,
              27.94855852458656
            ],
            [
              112.870651512511,
              27.949588583965067
            ],
            [
              112.87027236591275,
              27.951621969702018
            ],
            [
              112.87015228246496,
              27.951935573489408
            ],
            [
              112.87094399675314,
              27.952781557878907
            ],
            [
              112.86997216696898,
              27.9533164023553
            ],
            [
              112.86885970639757,
              27.95345714917731
            ],
            [
              112.86856968398921,
              27.953340292475204
            ],
            [
              112.86827966158086,
              27.953632433581888
            ],
            [
              112.86812701820804,
              27.95395154021986
            ],
            [
              112.86790314095069,
              27.953924573486617
            ],
            [
              112.86764364721687,
              27.953735806165298
            ],
            [
              112.86727221532024,
              27.953852662027856
            ],
            [
              112.86715518842387,
              27.95394704562763
            ],
            [
              112.86703307372561,
              27.95409985713232
            ],
            [
              112.86633126346393,
              27.954141112684212
            ],
            [
              112.86543041763203,
              27.95462963372107
            ],
            [
              112.86504841388243,
              27.955047645382535
            ],
            [
              112.8650826232046,
              27.955858481915485
            ],
            [
              112.86495770956344,
              27.956373857399043
            ],
            [
              112.86411599889635,
              27.956773580648388
            ],
            [
              112.86386620338448,
              27.95718621235217
            ],
            [
              112.86357074537071,
              27.95798645139631
            ],
            [
              112.86345657432699,
              27.958129759696604
            ],
            [
              112.86277154586432,
              27.958150990458734
            ],
            [
              112.86243504028779,
              27.95788560453859
            ],
            [
              112.86208592882846,
              27.95783568931415
            ],
            [
              112.86144897290536,
              27.9577826118815
            ],
            [
              112.86050555688051,
              27.958127613755295
            ],
            [
              112.85965828483454,
              27.95810638298856
            ],
            [
              112.85924967099882,
              27.95832399881776
            ],
            [
              112.85905176121106,
              27.958463302077888
            ],
            [
              112.85853498608678,
              27.95805460847282
            ],
            [
              112.85855902180641,
              27.957905992674554
            ],
            [
              112.85850494061198,
              27.95776268407721
            ],
            [
              112.85818045344547,
              27.957603452079226
            ],
            [
              112.85772977682527,
              27.957369911066735
            ],
            [
              112.85721300060068,
              27.95690282849789
            ],
            [
              112.85706277542737,
              27.956679901859346
            ],
            [
              112.8565760446776,
              27.95667459391464
            ],
            [
              112.856155412982,
              27.957077984819534
            ],
            [
              112.85590904327968,
              27.957173524511532
            ],
            [
              112.85547038451931,
              27.95709921554554
            ],
            [
              112.8551579152126,
              27.957332757143675
            ],
            [
              112.85464714874315,
              27.957359295730853
            ],
            [
              112.85395870346669,
              27.957277863290614
            ],
            [
              112.85382650535821,
              27.956842626489802
            ],
            [
              112.85375439709898,
              27.955988071560867
            ],
            [
              112.85399475759631,
              27.95555813755989
            ],
            [
              112.85426516356841,
              27.955133509381568
            ],
            [
              112.85434328103264,
              27.954517796188142
            ],
            [
              112.85459565993996,
              27.95422586174257
            ]
          ]
        ]
      },
      "properties": {
        "name": "桐塘村",
        "type": "assistPolygon",
        "fill": "#9b59b6",
        "fill-opacity": 0.2,
        "stroke": "#9b59b6",
        "stroke-width": 2,
        "stroke-opacity": 0.8
      },
      "id": "assist_polygon_1773909014256"
    },
    {
      "type": "Feature",
      "geometry": {
        "type": "Point",
        "coordinates": [
          112.86459241861127,
          27.9473597270713
        ]
      },
      "properties": {
        "iconType": "default",
        "iconColor": "#e74c3c",
        "iconSize": 1,
        "text": "桐塘村",
        "textColor": "#333333",
        "type": "assistPoint",
        "name": "辅助点_1"
      },
      "id": "assist_point_1773909583386"
    }
  ],
  "properties": {
    "description": "GIS-APP 辅助要素导出",
    "exportTime": "2026/3/19 16:39:46",
    "assistElements": {
      "lines": 0,
      "polygons": 1,
      "texts": 0,
      "points": 1
    }
  }
}