{
  "type": "FeatureCollection",
  "features": [
    {
      "type": "Feature",
      "geometry": {
        "type": "Polygon",
        "coordinates": [
          [
            [
              112.8750569694509,
              27.976081936546294
            ],
            [
              112.87362636833652,
              27.975269731014905
            ],
            [
              112.87240013880991,
              27.97542013990804
            ],
            [
              112.87096953769553,
              27.97542013990804
            ],
            [
              112.87079922803905,
              27.97454776540853
            ],
            [
              112.87011798941316,
              27.973916041539226
            ],
            [
              112.86940268885597,
              27.97364530160563
            ],
            [
              112.8685511405736,
              27.972923325127496
            ],
            [
              112.86759740649734,
              27.972472087375024
            ],
            [
              112.86677992014629,
              27.9725924176269
            ],
            [
              112.8659283718639,
              27.97238183959803
            ],
            [
              112.86524713323803,
              27.972201343817602
            ],
            [
              112.86449777074952,
              27.972291591745574
            ],
            [
              112.86156844465819,
              27.970877698867213
            ],
            [
              112.86122782534524,
              27.971689937466408
            ],
            [
              112.86047846285676,
              27.971449274815257
            ],
            [
              112.86030815320028,
              27.97027603670321
            ],
            [
              112.86092126796359,
              27.969794704556264
            ],
            [
              112.86119376341395,
              27.969162952854703
            ],
            [
              112.86112563955136,
              27.968350695231777
            ],
            [
              112.860853144101,
              27.96735792761116
            ],
            [
              112.85986534809345,
              27.96723759152131
            ],
            [
              112.86006971968122,
              27.966756245820022
            ],
            [
              112.85846880891036,
              27.96666599326197
            ],
            [
              112.8575491367654,
              27.966485487919442
            ],
            [
              112.85679977427692,
              27.96597405447595
            ],
            [
              112.85622072144491,
              27.965462618608584
            ],
            [
              112.8562888453075,
              27.96446982441735
            ],
            [
              112.8556076066816,
              27.964168975889578
            ],
            [
              112.85588010213196,
              27.96362744642613
            ],
            [
              112.85567573054419,
              27.96314608462187
            ],
            [
              112.85615259758232,
              27.96284523240398
            ],
            [
              112.85594822599455,
              27.961912585198874
            ],
            [
              112.85451762488017,
              27.961220615935616
            ],
            [
              112.85404075784204,
              27.96040829853112
            ],
            [
              112.85250797093379,
              27.958964163606154
            ],
            [
              112.85254203286507,
              27.95806156946675
            ],
            [
              112.85250797093379,
              27.95736957551553
            ],
            [
              112.85305296183449,
              27.95727931510791
            ],
            [
              112.85329139535358,
              27.95655722913004
            ],
            [
              112.85390451011686,
              27.956075835794877
            ],
            [
              112.85376826239168,
              27.957489922608303
            ],
            [
              112.8543132532924,
              27.95785096308161
            ],
            [
              112.8556416686129,
              27.95773061639133
            ],
            [
              112.85666352655174,
              27.957399662301313
            ],
            [
              112.85727664131505,
              27.957760703076488
            ],
            [
              112.85816225152871,
              27.958121742644167
            ],
            [
              112.85870724242943,
              27.95890399089832
            ],
            [
              112.85996753388733,
              27.958573040405682
            ],
            [
              112.86122782534524,
              27.958332348501003
            ],
            [
              112.86235186907797,
              27.958542953946946
            ],
            [
              112.86368028439844,
              27.95998709450717
            ],
            [
              112.86221562135279,
              27.960197696724578
            ],
            [
              112.86333966508549,
              27.96073924339686
            ],
            [
              112.86442964688695,
              27.961280787351996
            ],
            [
              112.86650742469593,
              27.961912585198874
            ],
            [
              112.86674585821497,
              27.96067907167854
            ],
            [
              112.86729084911569,
              27.960588814038204
            ],
            [
              112.86752928263475,
              27.96155155831066
            ],
            [
              112.86868738829877,
              27.962063012712548
            ],
            [
              112.86831270705453,
              27.96281514713604
            ],
            [
              112.86858520250489,
              27.963687616500692
            ],
            [
              112.86994767975668,
              27.96428931540133
            ],
            [
              112.87090141383294,
              27.96407872116771
            ],
            [
              112.87205951949696,
              27.964048636243646
            ],
            [
              112.8717870240466,
              27.965462618608584
            ],
            [
              112.871139847352,
              27.96603422324216
            ],
            [
              112.87035642293222,
              27.966395235134982
            ],
            [
              112.87056079451999,
              27.96702700304121
            ],
            [
              112.871139847352,
              27.966816414150102
            ],
            [
              112.87226389108473,
              27.966786329989233
            ],
            [
              112.87212764335955,
              27.96735792761116
            ],
            [
              112.87240013880991,
              27.968290527757205
            ],
            [
              112.8737285541304,
              27.96838077895646
            ],
            [
              112.87478447400053,
              27.969614204447552
            ],
            [
              112.87529540296995,
              27.97030611989109
            ],
            [
              112.8756700842142,
              27.96991503779428
            ],
            [
              112.8763172609088,
              27.97006545415313
            ],
            [
              112.87624913704622,
              27.970967947902437
            ],
            [
              112.87648757056527,
              27.971509440528365
            ],
            [
              112.87611288932104,
              27.973133902099406
            ],
            [
              112.87543165069513,
              27.973976205876653
            ],
            [
              112.87560196035162,
              27.97442743733768
            ],
            [
              112.8750569694509,
              27.97505915821219
            ],
            [
              112.8750569694509,
              27.976081936546294
            ]
          ]
        ]
      },
      "properties": {
        "assistFileId": "assist_layer_default",
        "sourceFileName": "辅助元素图层",
        "name": "砂塘村",
        "type": "assistPolygon",
        "fill": "#c0392b",
        "fill-opacity": 0.4,
        "stroke": "#c0392b",
        "stroke-opacity": 1,
        "stroke-width": 3
      },
      "id": "assist_polygon_1774168684841"
    },
    {
      "type": "Feature",
      "geometry": {
        "type": "Point",
        "coordinates": [
          112.86555369061965,
          27.966756245820022
        ]
      },
      "properties": {
        "iconType": "default",
        "iconColor": "#e74c3c",
        "iconSize": 1,
        "assistFileId": "assist_layer_default",
        "sourceFileName": "辅助元素图层",
        "type": "assistPoint"
      },
      "id": "assist_point_1774168693757"
    }
  ],
  "properties": {
    "fileName": "辅助元素图层",
    "exportTime": "2026/3/22 16:38:19",
    "source": "GIS-APP 辅助元素导出"
  }
}