{
  "type": "FeatureCollection",
  "features": [
    {
      "type": "Feature",
      "geometry": {
        "type": "Polygon",
        "coordinates": [
          [
            [
              112.97014511040153,
              27.983660251230077
            ],
            [
              112.96987726172753,
              27.983480232619257
            ],
            [
              112.96934899166827,
              27.983083952452645
            ],
            [
              112.9688264021055,
              27.982938482048
            ],
            [
              112.96857078756071,
              27.982667605741725
            ],
            [
              112.96852534514831,
              27.982115818721766
            ],
            [
              112.96815044381593,
              27.981468719258146
            ],
            [
              112.96807659944072,
              27.981057382543725
            ],
            [
              112.96798788973413,
              27.980474315427685
            ],
            [
              112.96772091471622,
              27.980057958871143
            ],
            [
              112.96774363618245,
              27.979616518523414
            ],
            [
              112.96779674026239,
              27.97925580817116
            ],
            [
              112.96750704377826,
              27.97887957804801
            ],
            [
              112.96704125710102,
              27.978578593004585
            ],
            [
              112.96670043770793,
              27.97846823145845
            ],
            [
              112.96663227382929,
              27.978282623712545
            ],
            [
              112.96653002801138,
              27.977831143333574
            ],
            [
              112.96625169252037,
              27.97764051741106
            ],
            [
              112.96590519263073,
              27.977605401976106
            ],
            [
              112.96528800230116,
              27.97760940792297
            ],
            [
              112.96475405174529,
              27.977579309101998
            ],
            [
              112.96450411769705,
              27.977579309101998
            ],
            [
              112.9641576178074,
              27.977689671098418
            ],
            [
              112.9634702990447,
              27.97772478650593
            ],
            [
              112.96280002073159,
              27.977519111434773
            ],
            [
              112.96255576665988,
              27.977323468784334
            ],
            [
              112.96244742824858,
              27.97691968884746
            ],
            [
              112.96263814810995,
              27.97649860905841
            ],
            [
              112.96269945085568,
              27.976149713099318
            ],
            [
              112.96259727961275,
              27.9759211257836
            ],
            [
              112.96258365636463,
              27.975542150704328
            ],
            [
              112.96247467412124,
              27.97514512776459
            ],
            [
              112.96237931387878,
              27.974850367180622
            ],
            [
              112.96234525638205,
              27.974483419801416
            ],
            [
              112.96235206800613,
              27.97427889082398
            ],
            [
              112.96252235361888,
              27.973984127873052
            ],
            [
              112.96247467349764,
              27.97388787899888
            ],
            [
              112.96233163375754,
              27.973954050177923
            ],
            [
              112.96218178239337,
              27.97409240816691
            ],
            [
              112.96197743990749,
              27.974176626465237
            ],
            [
              112.9616573035542,
              27.974242797467184
            ],
            [
              112.9613848466985,
              27.974134517324288
            ],
            [
              112.96087962837757,
              27.97380405691308
            ],
            [
              112.96069572014031,
              27.973575464626677
            ],
            [
              112.96067528589172,
              27.97326866870833
            ],
            [
              112.96075702288606,
              27.973046090547697
            ],
            [
              112.9603551495384,
              27.972967887732793
            ],
            [
              112.96018486392565,
              27.972865621580496
            ],
            [
              112.9600622584341,
              27.972727262018125
            ],
            [
              112.96010993855536,
              27.972540776678798
            ],
            [
              112.9603892064115,
              27.972498667450054
            ],
            [
              112.96107715923938,
              27.971873036864636
            ],
            [
              112.96171062094554,
              27.971566236104863
            ],
            [
              112.96199670042576,
              27.971313576000526
            ],
            [
              112.96239857439703,
              27.971145135969437
            ],
            [
              112.96262335113147,
              27.97133162317047
            ],
            [
              112.96284812786593,
              27.97159029912467
            ],
            [
              112.96314783059424,
              27.97176475434314
            ],
            [
              112.9633726073287,
              27.971854989785257
            ],
            [
              112.96350202382065,
              27.971836942702865
            ],
            [
              112.96358147862769,
              27.97188482507792
            ],
            [
              112.96365640462156,
              27.97181865262965
            ],
            [
              112.96380625536213,
              27.971758495472756
            ],
            [
              112.96403784372063,
              27.971614118600044
            ],
            [
              112.96413320333951,
              27.971614118600044
            ],
            [
              112.96421494033386,
              27.971620134490507
            ],
            [
              112.96439884857115,
              27.971644197498307
            ],
            [
              112.96455551155937,
              27.971776542568264
            ],
            [
              112.96480753354285,
              27.971908888026647
            ],
            [
              112.96507317877449,
              27.970501207238314
            ],
            [
              112.96534563563016,
              27.970344797311654
            ],
            [
              112.96557041298821,
              27.969923691858128
            ],
            [
              112.965788377475,
              27.969538679703746
            ],
            [
              112.96605402270663,
              27.969502584761045
            ],
            [
              112.96630604593733,
              27.969490553294364
            ],
            [
              112.96645589667789,
              27.969087492052083
            ],
            [
              112.96625431741923,
              27.968520063420286
            ],
            [
              112.96608403243008,
              27.96830349153845
            ],
            [
              112.96617939267254,
              27.96802676053511
            ],
            [
              112.96645865990507,
              27.96785831482198
            ],
            [
              112.96673792838483,
              27.967641741611928
            ],
            [
              112.96696270511927,
              27.967419151842805
            ],
            [
              112.96731008734524,
              27.967106322827192
            ],
            [
              112.96773920656555,
              27.967010067266443
            ],
            [
              112.96848846276276,
              27.967010067266443
            ],
            [
              112.96871323949723,
              27.967340944949314
            ],
            [
              112.96917641496704,
              27.967671821066816
            ],
            [
              112.96961915868269,
              27.96784628262121
            ],
            [
              112.97031392313461,
              27.967876362019098
            ],
            [
              112.97099506433841,
              27.968002696169762
            ],
            [
              112.97194866302151,
              27.968219268655375
            ],
            [
              112.97266386172201,
              27.968634364704428
            ],
            [
              112.97337280749906,
              27.968816328301727
            ],
            [
              112.97359758423353,
              27.968972740444116
            ],
            [
              112.97353628148777,
              27.969002819527987
            ],
            [
              112.97419698844297,
              27.96889453412588
            ],
            [
              112.97451712541988,
              27.96893062927201
            ],
            [
              112.97522551311995,
              27.968876486548297
            ],
            [
              112.97545028985441,
              27.968449359847952
            ],
            [
              112.97538898710863,
              27.968022231456814
            ],
            [
              112.97540260910957,
              27.96758306914475
            ],
            [
              112.97538217486098,
              27.967288287899834
            ],
            [
              112.97539361257914,
              27.966833091359504
            ],
            [
              112.97512115634706,
              27.966069060371893
            ],
            [
              112.97535274408195,
              27.9653531517001
            ],
            [
              112.97582481655888,
              27.964921024940878
            ],
            [
              112.97615176453625,
              27.964638268983762
            ],
            [
              112.97629480427635,
              27.964409656727156
            ],
            [
              112.97655363850751,
              27.96401259282085
            ],
            [
              112.97692145498208,
              27.963904302411024
            ],
            [
              112.97706449472217,
              27.963633575911075
            ],
            [
              112.97705087147405,
              27.96335683293198
            ],
            [
              112.97674435774525,
              27.963122202147744
            ],
            [
              112.97709173997121,
              27.962267900952753
            ],
            [
              112.97728927145663,
              27.96208741340753
            ],
            [
              112.97738404173127,
              27.961934433655088
            ],
            [
              112.97767693345915,
              27.961585490598566
            ],
            [
              112.97763956396369,
              27.961218800691185
            ],
            [
              112.9774420331019,
              27.960761562308704
            ],
            [
              112.97749652422358,
              27.960587088750145
            ],
            [
              112.9775722608924,
              27.960027413642266
            ],
            [
              112.97773573488108,
              27.959660415852454
            ],
            [
              112.97808311710703,
              27.959576186223956
            ],
            [
              112.97864846506698,
              27.95961830104642
            ],
            [
              112.97925468152411,
              27.959925135776373
            ],
            [
              112.9795611952529,
              27.960412459731202
            ],
            [
              112.97984727473312,
              27.960845634732877
            ],
            [
              112.97991693482146,
              27.961165943257043
            ],
            [
              112.98028507726852,
              27.9612700985448
            ],
            [
              112.9805147926888,
              27.961591654455276
            ],
            [
              112.98061870637763,
              27.96189248679964
            ],
            [
              112.98079990140188,
              27.96221257083019
            ],
            [
              112.98115078665334,
              27.96255043635459
            ],
            [
              112.98142976981957,
              27.962738421105314
            ],
            [
              112.98196849209094,
              27.962720294331035
            ],
            [
              112.98247266705879,
              27.96273128956979
            ],
            [
              112.98282745685098,
              27.962775271016923
            ],
            [
              112.98330051066705,
              27.963132621309114
            ],
            [
              112.9836366273123,
              27.963281058635587
            ],
            [
              112.98389182622758,
              27.963753857480313
            ],
            [
              112.98413457713801,
              27.964259640009516
            ],
            [
              112.98456961227329,
              27.964496862308096
            ],
            [
              112.9851733775482,
              27.964326436001414
            ],
            [
              112.98539745531168,
              27.96393610432078
            ],
            [
              112.98545969875497,
              27.96364472908992
            ],
            [
              112.98577091825081,
              27.96356226421163
            ],
            [
              112.98593897657344,
              27.963622738294077
            ],
            [
              112.98592030342647,
              27.963760179813647
            ],
            [
              112.98590785428195,
              27.964139517036415
            ],
            [
              112.98616305433693,
              27.964156009928885
            ],
            [
              112.98644315154128,
              27.964315440925162
            ],
            [
              112.98662988301085,
              27.96454084303572
            ],
            [
              112.98700334595003,
              27.964755249644043
            ],
            [
              112.98715022943031,
              27.964895893127746
            ],
            [
              112.98705686369554,
              27.96534669445336
            ],
            [
              112.98703819054857,
              27.966193317041743
            ],
            [
              112.98698467280306,
              27.96659143255053
            ],
            [
              112.9868576830814,
              27.9669739631659
            ],
            [
              112.98677676649116,
              27.967193862080308
            ],
            [
              112.98660248302642,
              27.96724883699052
            ],
            [
              112.9863970784099,
              27.96736978149312
            ],
            [
              112.98634105896902,
              27.967644654309467
            ],
            [
              112.9863037126751,
              27.968023977877706
            ],
            [
              112.98642820070138,
              27.968144921511467
            ],
            [
              112.98657136187462,
              27.968375813206535
            ],
            [
              112.98678921449599,
              27.9685407355434
            ],
            [
              112.98714400428817,
              27.968683667863658
            ],
            [
              112.98748634607556,
              27.968771626391487
            ],
            [
              112.9877913404293,
              27.96895304028267
            ],
            [
              112.9878660330171,
              27.969057490230952
            ],
            [
              112.98837020798496,
              27.969266390830796
            ],
            [
              112.98855071545213,
              27.969689687326948
            ],
            [
              112.9893287624822,
              27.970398842951354
            ],
            [
              112.98923176324992,
              27.970832287014034
            ],
            [
              112.98895166604557,
              27.971228091187513
            ],
            [
              112.99176936217133,
              27.97539782611979
            ],
            [
              112.97177030954178,
              27.986686184644114
            ],
            [
              112.96967448415559,
              27.984719622023263
            ],
            [
              112.9681026536384,
              27.983581477180863
            ],
            [
              112.9683518087098,
              27.9834945540167
            ],
            [
              112.96873938326526,
              27.98363308790853
            ],
            [
              112.96913618578638,
              27.983785203266606
            ],
            [
              112.9695668243691,
              27.984122029633667
            ],
            [
              112.96980982727565,
              27.984480585489734
            ],
            [
              112.97047424079935,
              27.983801501336814
            ],
            [
              112.97014511040153,
              27.983660251230077
            ]
          ]
        ]
      },
      "properties": {
        "name": "湘江村",
        "type": "assistPolygon",
        "fill": "#9b59b6",
        "fill-opacity": 0.2,
        "stroke": "#9b59b6",
        "stroke-width": 2,
        "stroke-opacity": 0.8
      },
      "id": "assist_polygon_1773976619594"
    },
    {
      "type": "Feature",
      "geometry": {
        "type": "Point",
        "coordinates": [
          112.97722745213503,
          27.974151253186136
        ]
      },
      "properties": {
        "iconType": "default",
        "iconColor": "#e74c3c",
        "iconSize": 1,
        "text": "湘江村",
        "textColor": "#333333",
        "type": "assistPoint",
        "name": "辅助点_1"
      },
      "id": "assist_point_1773977259158"
    }
  ],
  "properties": {
    "description": "GIS-APP 辅助要素导出",
    "exportTime": "2026/3/20 11:27:41",
    "assistElements": {
      "lines": 0,
      "polygons": 1,
      "texts": 0,
      "points": 1
    }
  }
}