{
  "type": "FeatureCollection",
  "features": [
    {
      "type": "Feature",
      "geometry": {
        "type": "Polygon",
        "coordinates": [
          [
            [
              112.87434903068235,
              27.875601700454354
            ],
            [
              112.87439139882768,
              27.875905994652186
            ],
            [
              112.87449202208195,
              27.876154111229226
            ],
            [
              112.874714453148,
              27.87629923530328
            ],
            [
              112.87529701102518,
              27.8762758283045
            ],
            [
              112.87545589035805,
              27.87646308543897
            ],
            [
              112.87581601668431,
              27.876617572213334
            ],
            [
              112.87606492747754,
              27.87698740322186
            ],
            [
              112.8762661749558,
              27.877099756717598
            ],
            [
              112.87643034994319,
              27.876978040353862
            ],
            [
              112.8764833103673,
              27.87607452653461
            ],
            [
              112.87736244235273,
              27.8757327813411
            ],
            [
              112.87818331922924,
              27.87515696117704
            ],
            [
              112.8772300432319,
              27.874716901284415
            ],
            [
              112.8772300432319,
              27.87456241179936
            ],
            [
              112.87731551048117,
              27.87437002427511
            ],
            [
              112.8772760934231,
              27.87395188899947
            ],
            [
              112.87706323611287,
              27.873415279910446
            ],
            [
              112.87682672799039,
              27.87225842462898
            ],
            [
              112.87896318421566,
              27.871749683035645
            ],
            [
              112.87927852789782,
              27.87201450803947
            ],
            [
              112.88020090957554,
              27.873038954918414
            ],
            [
              112.88080006444818,
              27.873471031437262
            ],
            [
              112.88016937564035,
              27.873958858146622
            ],
            [
              112.88019613001043,
              27.87405647667687
            ],
            [
              112.88023762969532,
              27.874206884994138
            ],
            [
              112.880594529417,
              27.874386641247597
            ],
            [
              112.88070657925007,
              27.874760826544602
            ],
            [
              112.88092652917575,
              27.874819522272162
            ],
            [
              112.88108422843426,
              27.874940581878874
            ],
            [
              112.88120457850833,
              27.87508365214876
            ],
            [
              112.88127927839705,
              27.875234059039883
            ],
            [
              112.88149922756284,
              27.875303759887316
            ],
            [
              112.88162372737739,
              27.875307428457774
            ],
            [
              112.88174822719195,
              27.875443161111775
            ],
            [
              112.88211342715456,
              27.87552753574164
            ],
            [
              112.88194765358142,
              27.876513447569295
            ],
            [
              112.88475141336491,
              27.87652122247991
            ],
            [
              112.88489776809664,
              27.874909946119715
            ],
            [
              112.88518470414654,
              27.87384758102779
            ],
            [
              112.88540510455461,
              27.8733549931505
            ],
            [
              112.88577466632293,
              27.873002085886682
            ],
            [
              112.88611539424257,
              27.872790796766537
            ],
            [
              112.88760463079207,
              27.872744473367717
            ],
            [
              112.88764004070833,
              27.871174147564858
            ],
            [
              112.88772266420652,
              27.871090674309073
            ],
            [
              112.88776397541528,
              27.870735913090485
            ],
            [
              112.88752328346858,
              27.870657744070186
            ],
            [
              112.8874064831748,
              27.870573456979074
            ],
            [
              112.88731351990724,
              27.870430168426438
            ],
            [
              112.88739456509812,
              27.87029530868878
            ],
            [
              112.88821263526171,
              27.86946251186913
            ],
            [
              112.8883007303337,
              27.869349970942196
            ],
            [
              112.88842140723126,
              27.869259454494937
            ],
            [
              112.88852014287473,
              27.869126911931673
            ],
            [
              112.88865179039935,
              27.868735749567065
            ],
            [
              112.88891142879606,
              27.86870342192077
            ],
            [
              112.88906867422727,
              27.86861290463743
            ],
            [
              112.8892661455142,
              27.86856764611541
            ],
            [
              112.88936122450517,
              27.86856764611541
            ],
            [
              112.8896221678423,
              27.868414921048284
            ],
            [
              112.8894508527577,
              27.8681646160788
            ],
            [
              112.88935439580413,
              27.867913066684764
            ],
            [
              112.88920006344208,
              27.86772973348269
            ],
            [
              112.88891069081514,
              27.867661516706775
            ],
            [
              112.88865990149948,
              27.86760609020314
            ],
            [
              112.88868401529633,
              27.867333221359274
            ],
            [
              112.88925311538469,
              27.866757636662925
            ],
            [
              112.88669216763635,
              27.864849657860518
            ],
            [
              112.88607483995429,
              27.864295377947286
            ],
            [
              112.88558290648852,
              27.86409072022414
            ],
            [
              112.88458198654669,
              27.867312406562277
            ],
            [
              112.88350465241656,
              27.867071311335877
            ],
            [
              112.88311254245897,
              27.86791864734907
            ],
            [
              112.88249170169276,
              27.868592659960896
            ],
            [
              112.88257643774743,
              27.86917857135984
            ],
            [
              112.88215417811791,
              27.869614877024816
            ],
            [
              112.88051466325179,
              27.870649258066223
            ],
            [
              112.87899328976131,
              27.870065925408426
            ],
            [
              112.87861752866458,
              27.869911990001413
            ],
            [
              112.87833279210038,
              27.870062399290475
            ],
            [
              112.87812836121363,
              27.869966724510164
            ],
            [
              112.87792393032687,
              27.869885223812886
            ],
            [
              112.87772751621533,
              27.869711591349642
            ],
            [
              112.87747097537235,
              27.869513153815404
            ],
            [
              112.8772504108394,
              27.869456412859634
            ],
            [
              112.87624629442504,
              27.869335933035345
            ],
            [
              112.87595304995826,
              27.869221191807753
            ],
            [
              112.87573842206928,
              27.868853220729193
            ],
            [
              112.87554980988045,
              27.868749728687533
            ],
            [
              112.8744766704355,
              27.86949141946843
            ],
            [
              112.87450644843847,
              27.86919403150199
            ],
            [
              112.87426474098444,
              27.868746807248556
            ],
            [
              112.87400617074626,
              27.868607670286053
            ],
            [
              112.87382067445971,
              27.86847847181049
            ],
            [
              112.87382067445971,
              27.86826976555541
            ],
            [
              112.87392747500887,
              27.86808590519918
            ],
            [
              112.87397287365486,
              27.8678814612918
            ],
            [
              112.87379120532856,
              27.86751084561736
            ],
            [
              112.87347445044021,
              27.867222587979626
            ],
            [
              112.87326017483625,
              27.86711552083412
            ],
            [
              112.8729434199479,
              27.86679020027384
            ],
            [
              112.8728129912638,
              27.8667490206537
            ],
            [
              112.87265927191075,
              27.86694256541091
            ],
            [
              112.87252262967516,
              27.86708699598492
            ],
            [
              112.87253787176869,
              27.86707352114246
            ],
            [
              112.87244260746319,
              27.867130788979978
            ],
            [
              112.87225969955006,
              27.867262167550592
            ],
            [
              112.87230542652834,
              27.867390177183864
            ],
            [
              112.87223302501425,
              27.86753839869185
            ],
            [
              112.87225969955006,
              27.867996537037016
            ],
            [
              112.87212251861523,
              27.86809759668266
            ],
            [
              112.8719815266337,
              27.867858422138355
            ],
            [
              112.87156247308049,
              27.867802214886197
            ],
            [
              112.87130227513221,
              27.86781129471329
            ],
            [
              112.87086062352896,
              27.868144221365753
            ],
            [
              112.87107973760715,
              27.868577024152188
            ],
            [
              112.87144930973247,
              27.86870045807791
            ],
            [
              112.87196182008331,
              27.868606719323452
            ],
            [
              112.87299567825832,
              27.86858328462216
            ],
            [
              112.87312822417819,
              27.869184774160885
            ],
            [
              112.87301335158695,
              27.869715956291756
            ],
            [
              112.87296033321903,
              27.87018464445501
            ],
            [
              112.87289847737776,
              27.87062208503079
            ],
            [
              112.87292922213501,
              27.87064231531197
            ],
            [
              112.87322181751162,
              27.87094695409135
            ],
            [
              112.87349490652977,
              27.87178614312637
            ],
            [
              112.8738467464407,
              27.872189899580192
            ],
            [
              112.87433701617005,
              27.872468184139365
            ],
            [
              112.87464666078161,
              27.87256398695085
            ],
            [
              112.87449699913272,
              27.873065810095838
            ],
            [
              112.874654401885,
              27.873353216690717
            ],
            [
              112.87451213374649,
              27.87353640606719
            ],
            [
              112.87457665021266,
              27.874061093427926
            ],
            [
              112.87432927553898,
              27.8749590299131
            ],
            [
              112.87438088258051,
              27.875296612703536
            ],
            [
              112.87434903068235,
              27.875601700454354
            ]
          ]
        ]
      },
      "properties": {
        "name": "建新村",
        "type": "assistPolygon",
        "fill": "#9b59b6",
        "fill-opacity": 0.2,
        "stroke": "#9b59b6",
        "stroke-width": 2,
        "stroke-opacity": 0.8
      },
      "id": "assist_polygon_1773830206669"
    },
    {
      "type": "Feature",
      "geometry": {
        "type": "Point",
        "coordinates": [
          112.88157446085945,
          27.87208708341086
        ]
      },
      "properties": {
        "iconType": "default",
        "iconColor": "#e74c3c",
        "iconSize": 1,
        "text": "建新村",
        "textColor": "#333333",
        "type": "assistPoint",
        "name": "辅助点_1"
      },
      "id": "assist_point_1773830221386"
    }
  ],
  "properties": {
    "description": "GIS-APP 辅助要素导出",
    "exportTime": "2026/3/18 18:42:07",
    "assistElements": {
      "lines": 0,
      "polygons": 1,
      "texts": 0,
      "points": 1
    }
  }
}