{
  "type": "FeatureCollection",
  "features": [
    {
      "type": "Feature",
      "geometry": {
        "type": "Polygon",
        "coordinates": [
          [
            [
              112.88416017602817,
              28.013281433814413
            ],
            [
              112.88285765040166,
              28.013137693707577
            ],
            [
              112.88261342684669,
              28.011340926185426
            ],
            [
              112.88155512477519,
              28.012490860852736
            ],
            [
              112.87976415203873,
              28.011987765946515
            ],
            [
              112.88163653262683,
              28.009472256165637
            ],
            [
              112.88008978344534,
              28.00868165524406
            ],
            [
              112.87838021856057,
              28.0098316183026
            ],
            [
              112.87642643012083,
              28.010550338979726
            ],
            [
              112.87585657515922,
              28.00889727425269
            ],
            [
              112.87487968093934,
              28.006956687637512
            ],
            [
              112.87137914331811,
              28.00681293909014
            ],
            [
              112.87064647265322,
              28.005303567762056
            ],
            [
              112.86852986851015,
              28.005950443777834
            ],
            [
              112.86747156643862,
              28.006309817663805
            ],
            [
              112.86372680526242,
              28.003866051598692
            ],
            [
              112.86177301682265,
              28.003434793009504
            ],
            [
              112.86022626764121,
              28.002284761665877
            ],
            [
              112.85900514986636,
              28.000631570104446
            ],
            [
              112.85452771802527,
              27.997612633110634
            ],
            [
              112.85501616513521,
              27.99574372497014
            ],
            [
              112.85534179654182,
              27.994234198582134
            ],
            [
              112.8568885457233,
              27.99250899967987
            ],
            [
              112.85631869076171,
              27.99092754309629
            ],
            [
              112.85631869076171,
              27.989274177315693
            ],
            [
              112.85721417712992,
              27.988555314719306
            ],
            [
              112.8570513614266,
              27.987117575146584
            ],
            [
              112.85941218912464,
              27.985104707534887
            ],
            [
              112.85876092631139,
              27.984170149084747
            ],
            [
              112.85957500482795,
              27.982588570178336
            ],
            [
              112.85884233416306,
              27.98158209879672
            ],
            [
              112.85973782053125,
              27.98007237411177
            ],
            [
              112.86120316186107,
              27.980216158325675
            ],
            [
              112.8647036994823,
              27.978993986397384
            ],
            [
              112.86592481725715,
              27.977196649578957
            ],
            [
              112.86909972347175,
              27.975902548524402
            ],
            [
              112.86926253917507,
              27.973961367831947
            ],
            [
              112.86706452718032,
              27.974248952360966
            ],
            [
              112.8664132643671,
              27.973026712817855
            ],
            [
              112.86502933088892,
              27.97166066400017
            ],
            [
              112.86331976600414,
              27.96900041403238
            ],
            [
              112.86462229163064,
              27.96734671207453
            ],
            [
              112.86380821311408,
              27.96662770331818
            ],
            [
              112.8611217540094,
              27.9666996044094
            ],
            [
              112.85941218912464,
              27.965908689770984
            ],
            [
              112.85990063623457,
              27.964326843103777
            ],
            [
              112.86047049119618,
              27.962888780558558
            ],
            [
              112.86796001354857,
              27.963679717329754
            ],
            [
              112.87211181398304,
              27.9666996044094
            ],
            [
              112.87528672019764,
              27.97029459788544
            ],
            [
              112.87447264168107,
              27.972882919020037
            ],
            [
              112.87455404953272,
              27.975758758559962
            ],
            [
              112.87829881070893,
              27.977556119338715
            ],
            [
              112.88017119129701,
              27.97885020055412
            ],
            [
              112.88228779544008,
              27.98172588099777
            ],
            [
              112.88318328180829,
              27.98301991218061
            ],
            [
              112.88619537231958,
              27.982660460631877
            ],
            [
              112.88823056861096,
              27.984601484760574
            ],
            [
              112.89230096119381,
              27.983523142335883
            ],
            [
              112.89425474963355,
              27.98589548143528
            ],
            [
              112.89612713022164,
              27.986614361766584
            ],
            [
              112.89799951080974,
              27.988699087622052
            ],
            [
              112.89213814549049,
              28.00170974139094
            ],
            [
              112.88985872564412,
              28.00357854606439
            ],
            [
              112.88920746283087,
              28.007028561839277
            ],
            [
              112.88774212150105,
              28.008394162561174
            ],
            [
              112.88782352935272,
              28.010334723280153
            ],
            [
              112.88489284669306,
              28.00954412868893
            ],
            [
              112.88643959587455,
              28.011700282087872
            ],
            [
              112.88497425454473,
              28.012059636791292
            ],
            [
              112.88416017602817,
              28.013281433814413
            ]
          ]
        ]
      },
      "properties": {
        "assistFileId": "assist_layer_default",
        "sourceFileName": "辅助元素图层",
        "name": "鹤岭村",
        "type": "assistPolygon",
        "fill": "#9b59b6",
        "fill-opacity": 0.2,
        "stroke": "#9b59b6",
        "stroke-width": 2,
        "stroke-opacity": 0.8
      },
      "id": "assist_polygon_1774169570024"
    },
    {
      "type": "Feature",
      "geometry": {
        "type": "Point",
        "coordinates": [
          112.87544953590094,
          27.992293347875616
        ]
      },
      "properties": {
        "iconType": "default",
        "iconColor": "#e74c3c",
        "iconSize": 1,
        "text": "鹤岭村",
        "textColor": "#333333",
        "assistFileId": "assist_layer_default",
        "sourceFileName": "辅助元素图层",
        "type": "assistPoint"
      },
      "id": "assist_point_1774169580765"
    }
  ],
  "properties": {
    "fileName": "辅助元素图层",
    "exportTime": "2026/3/22 16:53:16",
    "source": "GIS-APP 辅助元素导出"
  }
}