{
  "type": "FeatureCollection",
  "features": [
    {
      "type": "Feature",
      "geometry": {
        "type": "Polygon",
        "coordinates": [
          [
            [
              112.95957607239237,
              27.911448251750144
            ],
            [
              112.95814596232789,
              27.907992900727095
            ],
            [
              112.95610661036368,
              27.901639057040157
            ],
            [
              112.95625546817126,
              27.899757826760464
            ],
            [
              112.9560917245829,
              27.89887639992355
            ],
            [
              112.95585355209074,
              27.898165990979365
            ],
            [
              112.9550943772719,
              27.89767922660303
            ],
            [
              112.95484006915639,
              27.89587334138895
            ],
            [
              112.9495719060525,
              27.897260090883506
            ],
            [
              112.94237789272835,
              27.899101488342552
            ],
            [
              112.94205246094869,
              27.899186906325497
            ],
            [
              112.93922060825379,
              27.89995139712873
            ],
            [
              112.93258351626984,
              27.901743136400313
            ],
            [
              112.93374181118371,
              27.905659182595613
            ],
            [
              112.93375441993702,
              27.905776144902845
            ],
            [
              112.9337582027427,
              27.905811119096114
            ],
            [
              112.93409064946641,
              27.909562563585496
            ],
            [
              112.93409177954706,
              27.909585187738358
            ],
            [
              112.93413648869874,
              27.91281381380533
            ],
            [
              112.95232578138746,
              27.91303288820336
            ],
            [
              112.95957607239237,
              27.911448251750144
            ]
          ]
        ]
      },
      "properties": {
        "name": "九华江声中学",
        "isAssistFeature": false,
        "sourceFileId": "file_1777360798514_1_g1",
        "sourceFileName": "九华江声中学.geojson",
        "sourceGroupId": 1,
        "id": "imported_1777360798514_1_0_g1",
        "sourceFile": "九华江声中学.geojson"
      },
      "id": "imported_1777360798514_1_0_g1"
    }
  ],
  "properties": {
    "fileName": "九华江声中学.geojson",
    "exportTime": "2026/4/28 15:32:24",
    "isStarred": false
  }
}