{
  "type": "FeatureCollection",
  "features": [
    {
      "type": "Feature",
      "geometry": {
        "type": "Polygon",
        "coordinates": [
          [
            [
              112.93413648869874,
              27.91281381380533
            ],
            [
              112.93363628878222,
              27.92018108963032
            ],
            [
              112.93351485092886,
              27.92231876822379
            ],
            [
              112.93647480939855,
              27.921954028485914
            ],
            [
              112.93665718934867,
              27.92193155474682
            ],
            [
              112.9369997083683,
              27.921889347884843
            ],
            [
              112.93774561867505,
              27.9217974331266
            ],
            [
              112.93829201350245,
              27.921730103603224
            ],
            [
              112.93959500304405,
              27.921569542498162
            ],
            [
              112.94284879768514,
              27.921168592065925
            ],
            [
              112.94860940601313,
              27.919833493139805
            ],
            [
              112.95300840719854,
              27.9187199250604
            ],
            [
              112.9615244158108,
              27.916520078023837
            ],
            [
              112.95957607239237,
              27.911448251750144
            ],
            [
              112.95232578138746,
              27.91303288820336
            ],
            [
              112.93413648869874,
              27.91281381380533
            ]
          ]
        ]
      },
      "properties": {
        "name": "九华雅礼中学",
        "isAssistFeature": false,
        "sourceFileId": "file_1779630517436_3_g1",
        "sourceFileName": "九华雅礼中学.geojson",
        "sourceGroupId": 1,
        "id": "imported_1779630517436_3_0_g1",
        "sourceFile": "九华雅礼中学.geojson"
      },
      "id": "imported_1779630517436_3_0_g1"
    },
    {
      "type": "Feature",
      "geometry": {
        "type": "Polygon",
        "coordinates": [
          [
            [
              112.92193074349862,
              27.9113760027099
            ],
            [
              112.92208572680879,
              27.907752923867932
            ],
            [
              112.92211729789516,
              27.907014864778205
            ],
            [
              112.92211724758948,
              27.90695310888846
            ],
            [
              112.92216824674482,
              27.90360601759933
            ],
            [
              112.92050550198486,
              27.90350052522689
            ],
            [
              112.92088033032533,
              27.904337989711934
            ],
            [
              112.92019232412397,
              27.904607587066067
            ],
            [
              112.91990761746771,
              27.906242998167784
            ],
            [
              112.92079984127587,
              27.908495342785983
            ],
            [
              112.9208186798457,
              27.908532532494647
            ],
            [
              112.91874031784144,
              27.90870864918442
            ],
            [
              112.91700360400434,
              27.910369157752783
            ],
            [
              112.9167023647536,
              27.910899019744306
            ],
            [
              112.91401417962207,
              27.91562726671158
            ],
            [
              112.91250823848988,
              27.917719905544544
            ],
            [
              112.91166259502411,
              27.918138352567397
            ],
            [
              112.91002204673649,
              27.91843724196636
            ],
            [
              112.90981909216097,
              27.918691297226573
            ],
            [
              112.90849202087323,
              27.91877407000706
            ],
            [
              112.90838155324612,
              27.91877670767947
            ],
            [
              112.90768807091474,
              27.91876601966854
            ],
            [
              112.9075527684633,
              27.91967762501646
            ],
            [
              112.9033816489523,
              27.91880173817931
            ],
            [
              112.8997781299536,
              27.91806694287763
            ],
            [
              112.88947860116642,
              27.91596673410207
            ],
            [
              112.88937080962054,
              27.91631841988341
            ],
            [
              112.8896712960831,
              27.918708069437542
            ],
            [
              112.88897016100381,
              27.920212635714066
            ],
            [
              112.8902800187741,
              27.92130910544445
            ],
            [
              112.89087324193324,
              27.921805683909383
            ],
            [
              112.89190288462369,
              27.92370793288478
            ],
            [
              112.89197021874413,
              27.923842940860084
            ],
            [
              112.89257599855424,
              27.925168708569174
            ],
            [
              112.89397826871277,
              27.925788201700584
            ],
            [
              112.89636844942692,
              27.926379520258493
            ],
            [
              112.89648232166896,
              27.92640769128164
            ],
            [
              112.89768426751908,
              27.92711567502694
            ],
            [
              112.8980849161358,
              27.92981482051374
            ],
            [
              112.89933694306308,
              27.92981482051374
            ],
            [
              112.89953726737143,
              27.93019092559969
            ],
            [
              112.89798475398165,
              27.93096525547881
            ],
            [
              112.89836036205982,
              27.931783826746994
            ],
            [
              112.90016328083505,
              27.931496221332296
            ],
            [
              112.90036265023427,
              27.933339851031377
            ],
            [
              112.90053888891322,
              27.934969558604536
            ],
            [
              112.90042333502495,
              27.935068087809427
            ],
            [
              112.89960490242746,
              27.935765402300262
            ],
            [
              112.90036673217891,
              27.937757938965248
            ],
            [
              112.90027074000427,
              27.93900881250535
            ],
            [
              112.8997850658459,
              27.939414786470394
            ],
            [
              112.90029921120886,
              27.93934123380093
            ],
            [
              112.91464060631071,
              27.941308323704874
            ],
            [
              112.92112810095207,
              27.942198117560878
            ],
            [
              112.92148856523117,
              27.94114623220807
            ],
            [
              112.92076362210194,
              27.940534865515787
            ],
            [
              112.92075704463744,
              27.940504849874415
            ],
            [
              112.92074954550148,
              27.940470629715662
            ],
            [
              112.92037448359896,
              27.93875905401694
            ],
            [
              112.92054166995483,
              27.935491694589757
            ],
            [
              112.9208102222073,
              27.930243101222487
            ],
            [
              112.92090654316534,
              27.928360536522973
            ],
            [
              112.92107822109762,
              27.927942906886003
            ],
            [
              112.92151319434132,
              27.926884766479247
            ],
            [
              112.92351792593334,
              27.922007812028028
            ],
            [
              112.92189383478168,
              27.918680860830094
            ],
            [
              112.9216489980527,
              27.915949108149036
            ],
            [
              112.9216167368559,
              27.9154811172089
            ],
            [
              112.92167414279584,
              27.914760387561657
            ],
            [
              112.92170960918156,
              27.913083729784432
            ],
            [
              112.921715776116,
              27.913023675307528
            ],
            [
              112.92184610908733,
              27.912325379018483
            ],
            [
              112.92193074349862,
              27.9113760027099
            ]
          ]
        ]
      },
      "properties": {
        "name": "九华雅礼中学",
        "isAssistFeature": false,
        "sourceFileId": "file_1779630517436_3_g1",
        "sourceFileName": "九华雅礼中学.geojson",
        "sourceGroupId": 1,
        "id": "imported_1779630517436_3_1_g1",
        "sourceFile": "九华雅礼中学.geojson"
      },
      "id": "imported_1779630517436_3_1_g1"
    },
    {
      "type": "Feature",
      "geometry": {
        "type": "Polygon",
        "coordinates": [
          [
            [
              112.93933538291289,
              27.970314470723565
            ],
            [
              112.93831992501056,
              27.968798850160937
            ],
            [
              112.93945447711518,
              27.964791405141966
            ],
            [
              112.94206850611369,
              27.96147448038019
            ],
            [
              112.94221577535303,
              27.960954169207383
            ],
            [
              112.94346756388752,
              27.960271256986672
            ],
            [
              112.94626567943521,
              27.960498894873666
            ],
            [
              112.94729656411069,
              27.960206217502233
            ],
            [
              112.95130965088303,
              27.96196226982667
            ],
            [
              112.95451275683894,
              27.960628973450667
            ],
            [
              112.9552491030357,
              27.95776720854498
            ],
            [
              112.95760541086531,
              27.958970459851372
            ],
            [
              112.96202348804589,
              27.955295623253164
            ],
            [
              112.9645638824247,
              27.9559785669519
            ],
            [
              112.96504250745261,
              27.959425740631858
            ],
            [
              112.96669928639528,
              27.95757208544771
            ],
            [
              112.96931331539379,
              27.95604360898359
            ],
            [
              112.97093436157844,
              27.95161653292581
            ],
            [
              112.97387315164966,
              27.951005716665364
            ],
            [
              112.97525611168314,
              27.946119062197
            ],
            [
              112.98925858202239,
              27.942683000881672
            ],
            [
              112.99083872435413,
              27.94047933316014
            ],
            [
              112.99088489147154,
              27.939051836681855
            ],
            [
              112.99460323934996,
              27.942045404108754
            ],
            [
              112.99655136083304,
              27.94384042467378
            ],
            [
              113.00154734979778,
              27.949882207688447
            ],
            [
              113.00248998922517,
              27.953453454924244
            ],
            [
              113.00244809413941,
              27.956358475653545
            ],
            [
              113.00154734979778,
              27.959559458925114
            ],
            [
              112.99989008727995,
              27.962534290641997
            ],
            [
              112.99193806708729,
              27.971847868334834
            ],
            [
              112.98208447684858,
              27.977649362796555
            ],
            [
              112.9738337680069,
              27.983040205928745
            ],
            [
              112.97048911524652,
              27.98560815435573
            ],
            [
              112.96502586350063,
              27.981526144995755
            ],
            [
              112.95805486680312,
              27.977560440363206
            ],
            [
              112.94661636560302,
              27.97266758786141
            ],
            [
              112.93933538291289,
              27.970314470723565
            ]
          ]
        ]
      },
      "properties": {
        "sourceFileId": "file_1779630517436_3_g1",
        "sourceFileName": "九华雅礼中学.geojson",
        "sourceGroupId": 1,
        "name": "九华雅礼中学",
        "id": "imported_1779630517436_3_2_g1",
        "sourceFile": "九华雅礼中学.geojson",
        "isAssistFeature": false
      },
      "id": "imported_1779630517436_3_2_g1"
    }
  ],
  "properties": {
    "fileName": "九华雅礼中学.geojson",
    "exportTime": "2026/5/24 22:06:02",
    "isStarred": false
  }
}