{
  "type": "FeatureCollection",
  "features": [
    {
      "type": "Feature",
      "geometry": {
        "type": "Polygon",
        "coordinates": [
          [
            [
              112.9387107001625,
              28.001920778689453
            ],
            [
              112.94369181406918,
              27.98782382839444
            ],
            [
              112.9442286817689,
              27.9819566475781
            ],
            [
              112.94661636560302,
              27.97266758786141
            ],
            [
              112.95805486680312,
              27.977560440363206
            ],
            [
              112.96502586350063,
              27.981526144995755
            ],
            [
              112.97048911524652,
              27.98560815435573
            ],
            [
              112.96598287206747,
              27.988933969209967
            ],
            [
              112.94888293326386,
              28.003367754666286
            ],
            [
              112.94484750201381,
              28.00211429251597
            ],
            [
              112.9387107001625,
              28.001920778689453
            ]
          ]
        ]
      },
      "properties": {
        "sourceFileId": "file_1778051719134_5_g1",
        "sourceFileName": "保利学校.geojson",
        "sourceGroupId": 1,
        "name": "保利学校",
        "id": "imported_1778051719134_5_1_g1",
        "sourceFile": "保利学校.geojson",
        "isAssistFeature": false
      },
      "id": "imported_1778051719134_5_1_g1"
    }
  ],
  "properties": {
    "fileName": "保利学校.geojson",
    "exportTime": "2026/5/6 15:17:53",
    "isStarred": false
  }
}