{
  "type": "FeatureCollection",
  "features": [
    {
      "type": "Feature",
      "geometry": {
        "type": "Polygon",
        "coordinates": [
          [
            [
              112.91990761746771,
              27.906242998167784
            ],
            [
              112.92019232412397,
              27.904607587066067
            ],
            [
              112.92088033032533,
              27.904337989711934
            ],
            [
              112.92050550198486,
              27.90350052522689
            ],
            [
              112.92216824674482,
              27.90360601759933
            ],
            [
              112.92211724758948,
              27.90695310888846
            ],
            [
              112.92211729789516,
              27.907014864778205
            ],
            [
              112.92541146675441,
              27.906630885829998
            ],
            [
              112.92597646205519,
              27.906564981511934
            ],
            [
              112.92616155038364,
              27.90739514108752
            ],
            [
              112.92707785288142,
              27.907493680990058
            ],
            [
              112.92736874256326,
              27.907699329193193
            ],
            [
              112.92739783153144,
              27.908444800652276
            ],
            [
              112.92759175798601,
              27.90931022659197
            ],
            [
              112.92780621823158,
              27.909661235620774
            ],
            [
              112.92767902489057,
              27.910432699427275
            ],
            [
              112.92866367218873,
              27.91042834706127
            ],
            [
              112.92868694206065,
              27.912595691383345
            ],
            [
              112.93119832329963,
              27.912696211461892
            ],
            [
              112.93413648869874,
              27.91281381380533
            ],
            [
              112.93409064946641,
              27.909562563585496
            ],
            [
              112.93374181118371,
              27.905659182595613
            ],
            [
              112.93258351626984,
              27.901743136400313
            ],
            [
              112.93068816534343,
              27.89774694551774
            ],
            [
              112.9295794421619,
              27.895409226190125
            ],
            [
              112.9289500204901,
              27.893775154288647
            ],
            [
              112.92876191776118,
              27.89327888698442
            ],
            [
              112.92699392458589,
              27.88812840388165
            ],
            [
              112.92670774559086,
              27.887254066353705
            ],
            [
              112.92618913021106,
              27.88573697203229
            ],
            [
              112.92002960688664,
              27.887163030177916
            ],
            [
              112.9054210905486,
              27.890545131183757
            ],
            [
              112.90529153911157,
              27.890505254850837
            ],
            [
              112.90466345682788,
              27.890301277460125
            ],
            [
              112.90457584144328,
              27.890273077183252
            ],
            [
              112.90459582806002,
              27.890238544974324
            ],
            [
              112.90540245859128,
              27.88884488687286
            ],
            [
              112.9057925043927,
              27.887399031237763
            ],
            [
              112.90464372623093,
              27.886745661489357
            ],
            [
              112.90460308734582,
              27.886722548222835
            ],
            [
              112.90453764956897,
              27.886685330374746
            ],
            [
              112.90540563772907,
              27.885237787217022
            ],
            [
              112.9056942978709,
              27.884756385176175
            ],
            [
              112.90580355906059,
              27.88426538928738
            ],
            [
              112.9059506060861,
              27.88362210295061
            ],
            [
              112.90599988496763,
              27.88338313910262
            ],
            [
              112.90611533105805,
              27.88286434290977
            ],
            [
              112.90609945782695,
              27.882821212210885
            ],
            [
              112.90607891335642,
              27.882765389774733
            ],
            [
              112.90582071239096,
              27.88206380705624
            ],
            [
              112.90603432996886,
              27.88111934031754
            ],
            [
              112.90608413256821,
              27.880899084095333
            ],
            [
              112.9067027915246,
              27.880267170718398
            ],
            [
              112.90694645954541,
              27.879772443886722
            ],
            [
              112.90491171164653,
              27.88024722113265
            ],
            [
              112.90474642343086,
              27.88028656367517
            ],
            [
              112.9033020986423,
              27.880630346393446
            ],
            [
              112.90303279270329,
              27.880694447021767
            ],
            [
              112.90032950689186,
              27.881337888118154
            ],
            [
              112.90014100531091,
              27.881382757554206
            ],
            [
              112.90009085236865,
              27.881394692719397
            ],
            [
              112.90012260332237,
              27.88150818510927
            ],
            [
              112.9001554556106,
              27.881625612617427
            ],
            [
              112.90128599707377,
              27.8856665525187
            ],
            [
              112.89935640147043,
              27.88871249108783
            ],
            [
              112.89578129079428,
              27.892636059118047
            ],
            [
              112.9007950965171,
              27.89371965110884
            ],
            [
              112.90308852059027,
              27.8941877512747
            ],
            [
              112.90358938885333,
              27.894289980890576
            ],
            [
              112.91131001615656,
              27.895865786415158
            ],
            [
              112.90825378586324,
              27.896710741119577
            ],
            [
              112.90774929110135,
              27.896644610380633
            ],
            [
              112.9079133504217,
              27.899333569270453
            ],
            [
              112.90947776109908,
              27.899346736979027
            ],
            [
              112.90971825806696,
              27.89970653172965
            ],
            [
              112.90914701488626,
              27.901656345421117
            ],
            [
              112.90847621860904,
              27.903945917272466
            ],
            [
              112.90612754455263,
              27.903537310189037
            ],
            [
              112.90454759122422,
              27.90307569436756
            ],
            [
              112.90614102107854,
              27.904245357938237
            ],
            [
              112.90411333483607,
              27.90384267665239
            ],
            [
              112.89869907812592,
              27.902767443161764
            ],
            [
              112.89869907812592,
              27.900920022096884
            ],
            [
              112.89744481798684,
              27.901141714226554
            ],
            [
              112.89752843497013,
              27.902767443161764
            ],
            [
              112.89652502757755,
              27.903063028049587
            ],
            [
              112.89777928771663,
              27.905871041034075
            ],
            [
              112.90560094853983,
              27.906507517264117
            ],
            [
              112.9078133679306,
              27.906979447212535
            ],
            [
              112.90644085985575,
              27.907409829190044
            ],
            [
              112.90522122977092,
              27.907792270874964
            ],
            [
              112.90461155306907,
              27.90765757786194
            ],
            [
              112.90458456408467,
              27.907651615299585
            ],
            [
              112.90354888381718,
              27.907422806186588
            ],
            [
              112.90247929663931,
              27.909376199923457
            ],
            [
              112.90229462367815,
              27.909713466595377
            ],
            [
              112.90156872833472,
              27.910176744942675
            ],
            [
              112.90078951169097,
              27.910674051659925
            ],
            [
              112.90070589380937,
              27.911782408625015
            ],
            [
              112.90118822892978,
              27.911853446197227
            ],
            [
              112.90221100579654,
              27.912004078496352
            ],
            [
              112.9038833526486,
              27.91311242183214
            ],
            [
              112.9029635622393,
              27.914590195278336
            ],
            [
              112.9029635622393,
              27.916152366448216
            ],
            [
              112.9033816489523,
              27.91880173817931
            ],
            [
              112.9075527684633,
              27.91967762501646
            ],
            [
              112.90768807091474,
              27.91876601966854
            ],
            [
              112.90838155324612,
              27.91877670767947
            ],
            [
              112.90849202087323,
              27.91877407000706
            ],
            [
              112.90981909216097,
              27.918691297226573
            ],
            [
              112.91002204673649,
              27.91843724196636
            ],
            [
              112.91166259502411,
              27.918138352567397
            ],
            [
              112.91250823848988,
              27.917719905544544
            ],
            [
              112.91401417962207,
              27.91562726671158
            ],
            [
              112.9167023647536,
              27.910899019744306
            ],
            [
              112.91700360400434,
              27.910369157752783
            ],
            [
              112.91874031784144,
              27.90870864918442
            ],
            [
              112.9208186798457,
              27.908532532494647
            ],
            [
              112.92079984127587,
              27.908495342785983
            ],
            [
              112.91990761746771,
              27.906242998167784
            ]
          ]
        ]
      },
      "properties": {
        "name": "建元中学",
        "isAssistFeature": false,
        "sourceFileId": "file_1778039439015_5_g1",
        "sourceFileName": "建元中学.geojson",
        "sourceGroupId": 1,
        "id": "imported_1778039439015_5_0_g1",
        "sourceFile": "建元中学.geojson"
      },
      "id": "imported_1778039439015_5_0_g1"
    }
  ],
  "properties": {
    "fileName": "建元中学.geojson",
    "exportTime": "2026/5/6 14:01:36",
    "isStarred": false
  }
}