{
  "type": "FeatureCollection",
  "features": [
    {
      "type": "Feature",
      "properties": {
        "name": "江南学校（中学部）",
        "isAssistFeature": false
      },
      "geometry": {
        "type": "Polygon",
        "coordinates": [
          [
            [
              112.64559371176807,
              27.852481454171475
            ],
            [
              112.6456795422002,
              27.853442691562577
            ],
            [
              112.64563662698413,
              27.85427744328978
            ],
            [
              112.64662367964863,
              27.8547327599937
            ],
            [
              112.6479969710544,
              27.854846589268043
            ],
            [
              112.65112979081053,
              27.85609869783843
            ],
            [
              112.65220267480551,
              27.855339845428386
            ],
            [
              112.65318972747001,
              27.85488453206818
            ],
            [
              112.65387637272376,
              27.85427744328978
            ],
            [
              112.65507800236689,
              27.855529559227403
            ],
            [
              112.65533549456165,
              27.856212525678654
            ],
            [
              112.65662295463694,
              27.855377788850113
            ],
            [
              112.65865512437098,
              27.8552220630028
            ],
            [
              112.65919787568586,
              27.855301902787584
            ],
            [
              112.65992743615566,
              27.85613664020038
            ],
            [
              112.66065699752377,
              27.85659194909635
            ],
            [
              112.66022784356645,
              27.85773021217606
            ],
            [
              112.65979869050744,
              27.85807168940481
            ],
            [
              112.65936953744846,
              27.85875463904689
            ],
            [
              112.65791041561056,
              27.859058170928286
            ],
            [
              112.65782458428012,
              27.86008258524956
            ],
            [
              112.65808207647484,
              27.861486396970243
            ],
            [
              112.66168696540434,
              27.86224520555921
            ],
            [
              112.66233069544201,
              27.860537877572344
            ],
            [
              112.66306025681014,
              27.85924787822038
            ],
            [
              112.66357524030124,
              27.85898228823616
            ],
            [
              112.66473395472835,
              27.85955140872068
            ],
            [
              112.66481978605883,
              27.859058170928286
            ],
            [
              112.66417605512284,
              27.858564931685788
            ],
            [
              112.66400439425857,
              27.85807168940481
            ],
            [
              112.66344649465306,
              27.85754050302221
            ],
            [
              112.66361815641564,
              27.856743718568133
            ],
            [
              112.66361815641564,
              27.855795157670645
            ],
            [
              112.66370398684778,
              27.855150132091598
            ],
            [
              112.66254527242067,
              27.85386006862665
            ],
            [
              112.66220194979381,
              27.853935954904138
            ],
            [
              112.66185862716696,
              27.853822125467982
            ],
            [
              112.65868289129644,
              27.852266439764954
            ],
            [
              112.6588974682751,
              27.85177316882836
            ],
            [
              112.66177279673481,
              27.851735224939414
            ],
            [
              112.66297442547966,
              27.85165933712168
            ],
            [
              112.66327483289045,
              27.851545504501253
            ],
            [
              112.66443354731756,
              27.85150756053264
            ],
            [
              112.66559226174466,
              27.851343135985715
            ],
            [
              112.66726596056121,
              27.849559746219917
            ],
            [
              112.667995521031,
              27.848851441792846
            ],
            [
              112.66790969059885,
              27.848889386690868
            ],
            [
              112.66696555315043,
              27.848687013218523
            ],
            [
              112.66563517696073,
              27.847890163702264
            ],
            [
              112.66447646253363,
              27.84762454589575
            ],
            [
              112.66417605512284,
              27.84663795954907
            ],
            [
              112.66520602390175,
              27.845271902526854
            ],
            [
              112.66534418209747,
              27.844444897461276
            ],
            [
              112.6648982449157,
              27.843218160621323
            ],
            [
              112.6648982449157,
              27.84234191095994
            ],
            [
              112.66494853170703,
              27.84094594165343
            ],
            [
              112.66477686994442,
              27.840186983208024
            ],
            [
              112.6646481242962,
              27.839845450453332
            ],
            [
              112.66413313990677,
              27.839731605433254
            ],
            [
              112.66378981727992,
              27.839465967647676
            ],
            [
              112.66224486500988,
              27.839541864791588
            ],
            [
              112.66181571195088,
              27.840262879053196
            ],
            [
              112.66082865838806,
              27.83965570921641
            ],
            [
              112.66044242054512,
              27.83942801945297
            ],
            [
              112.66057116709163,
              27.83882084494383
            ],
            [
              112.65572173240457,
              27.836126466171013
            ],
            [
              112.65585047895108,
              27.83703724927816
            ],
            [
              112.65516383369737,
              27.83855520492826
            ],
            [
              112.65383345750769,
              27.838972639286848
            ],
            [
              112.65327555790213,
              27.839579812946468
            ],
            [
              112.65267474308058,
              27.83980750239137
            ],
            [
              112.65117270602661,
              27.83912443262316
            ],
            [
              112.64941317767621,
              27.84246384261508
            ],
            [
              112.64821154803307,
              27.842198211519698
            ],
            [
              112.64743907144889,
              27.84382993500295
            ],
            [
              112.64829737846517,
              27.843943774927727
            ],
            [
              112.64949900810836,
              27.84462681435027
            ],
            [
              112.64988524595128,
              27.845385741732546
            ],
            [
              112.64975650030307,
              27.847358927438698
            ],
            [
              112.6491556854815,
              27.84819372599965
            ],
            [
              112.64859778587599,
              27.848345507226863
            ],
            [
              112.64803988627047,
              27.84902851813477
            ],
            [
              112.64773947885968,
              27.84982535928664
            ],
            [
              112.64795405583831,
              27.85103958250424
            ],
            [
              112.6476965636436,
              27.851684632537346
            ],
            [
              112.64709574882203,
              27.85217790387667
            ],
            [
              112.6461086961575,
              27.851912296572344
            ],
            [
              112.64559371176807,
              27.852481454171475
            ]
          ]
        ]
      }
    }
  ]
}