{
  "type": "FeatureCollection",
  "features": [
    {
      "type": "Feature",
      "properties": {
        "name": "泉塘子中学",
        "isAssistFeature": false
      },
      "geometry": {
        "type": "Polygon",
        "coordinates": [
          [
            [
              112.84805804069546,
              27.91710446047015
            ],
            [
              112.84803668235128,
              27.91698751199995
            ],
            [
              112.84792423573556,
              27.916371805572446
            ],
            [
              112.8483181667506,
              27.914912062822093
            ],
            [
              112.84875494470973,
              27.913293526464876
            ],
            [
              112.84811181564501,
              27.912464744927767
            ],
            [
              112.84773665672445,
              27.911043960101942
            ],
            [
              112.84799929985903,
              27.910242188690848
            ],
            [
              112.84803142451189,
              27.910144120297375
            ],
            [
              112.84794319467964,
              27.910076148947145
            ],
            [
              112.84594125415322,
              27.908533862172543
            ],
            [
              112.84626281868557,
              27.90744455596917
            ],
            [
              112.84484257503486,
              27.90531884533039
            ],
            [
              112.8447805742123,
              27.904450890433584
            ],
            [
              112.84527117562997,
              27.903417015155423
            ],
            [
              112.84453527395257,
              27.901816156549508
            ],
            [
              112.84210113777328,
              27.90024862593374
            ],
            [
              112.84115767406131,
              27.898614367490772
            ],
            [
              112.84244078449402,
              27.89834754739355
            ],
            [
              112.84328990174497,
              27.898797805876395
            ],
            [
              112.8448183133357,
              27.89804737429557
            ],
            [
              112.8450824827079,
              27.897196878932878
            ],
            [
              112.84506025479452,
              27.89705374842599
            ],
            [
              112.8448749206733,
              27.895796048331352
            ],
            [
              112.84555421501305,
              27.89562928140572
            ],
            [
              112.84517682916895,
              27.894278460790662
            ],
            [
              112.84519569828147,
              27.89376147618889
            ],
            [
              112.84576856920951,
              27.893774458792084
            ],
            [
              112.84583089612056,
              27.89377587122171
            ],
            [
              112.84666750163623,
              27.893794829852578
            ],
            [
              112.84727482475203,
              27.893658299689402
            ],
            [
              112.84761329647638,
              27.893388397174334
            ],
            [
              112.8476603825703,
              27.89336621504005
            ],
            [
              112.84736309321188,
              27.89030700755098
            ],
            [
              112.84644998986154,
              27.889556268585636
            ],
            [
              112.84541067680706,
              27.892061256987763
            ],
            [
              112.84545431516693,
              27.893350324152937
            ],
            [
              112.84183213456653,
              27.893982011121125
            ],
            [
              112.84102086872838,
              27.894115072931488
            ],
            [
              112.83897570037216,
              27.89137584719754
            ],
            [
              112.83825655496979,
              27.889310105332857
            ],
            [
              112.83824752690118,
              27.88928417319517
            ],
            [
              112.83718849582618,
              27.88624203968244
            ],
            [
              112.83797104342302,
              27.88249197034748
            ],
            [
              112.8298162783093,
              27.88150292462199
            ],
            [
              112.82204144845846,
              27.881209591506607
            ],
            [
              112.82123697388387,
              27.881179239400375
            ],
            [
              112.8189994573607,
              27.881445596013574
            ],
            [
              112.81685904782142,
              27.88170039241971
            ],
            [
              112.8177479029473,
              27.874471961697584
            ],
            [
              112.81797604987663,
              27.872616524911454
            ],
            [
              112.82161044217501,
              27.871454876799763
            ],
            [
              112.82177435866322,
              27.87015690737908
            ],
            [
              112.82186475523194,
              27.869420307083303
            ],
            [
              112.82253868393451,
              27.866508895923673
            ],
            [
              112.82334450777869,
              27.86678089526445
            ],
            [
              112.82809938759554,
              27.868387769697986
            ],
            [
              112.83246718335653,
              27.869285727530627
            ],
            [
              112.83423635062991,
              27.86967720523025
            ],
            [
              112.83720742782081,
              27.870931964758945
            ],
            [
              112.83921630603616,
              27.870794837976874
            ],
            [
              112.84150702887531,
              27.8707126693475
            ],
            [
              112.84430296153528,
              27.87069436102613
            ],
            [
              112.84462441647318,
              27.867859480055614
            ],
            [
              112.84463082056281,
              27.867440897389947
            ],
            [
              112.84463497976259,
              27.867140779172672
            ],
            [
              112.844673730389,
              27.863310970747026
            ],
            [
              112.84472304430484,
              27.862090251988064
            ],
            [
              112.84476064149443,
              27.861545139460638
            ],
            [
              112.84500751470418,
              27.850101050143962
            ],
            [
              112.84550923277352,
              27.84945858477882
            ],
            [
              112.85497993994699,
              27.83743391143818
            ],
            [
              112.85883275311511,
              27.83687401499222
            ],
            [
              112.85604433216754,
              27.835230171966302
            ],
            [
              112.85523942550331,
              27.834755654291214
            ],
            [
              112.85477362387567,
              27.830930731527317
            ],
            [
              112.8571026329122,
              27.829459570818926
            ],
            [
              112.85580980001319,
              27.827673591319183
            ],
            [
              112.84701811948152,
              27.827778463994033
            ],
            [
              112.84101062434088,
              27.826572748630014
            ],
            [
              112.83428428922504,
              27.826593065591084
            ],
            [
              112.82745496316019,
              27.82978375764917
            ],
            [
              112.82244406079238,
              27.832124814575426
            ],
            [
              112.8121676366743,
              27.836668540146317
            ],
            [
              112.80547321959881,
              27.83943020945966
            ],
            [
              112.7996572066492,
              27.839434192300907
            ],
            [
              112.79273179049335,
              27.841607155930678
            ],
            [
              112.78513617184676,
              27.844965286691583
            ],
            [
              112.78299400969438,
              27.846306954817535
            ],
            [
              112.77977455910717,
              27.84832331269174
            ],
            [
              112.77787965823676,
              27.848092216183648
            ],
            [
              112.77329594341408,
              27.847533198420994
            ],
            [
              112.7679343306745,
              27.844570217646815
            ],
            [
              112.76480672384194,
              27.838841558374874
            ],
            [
              112.75757072775305,
              27.833427884906243
            ],
            [
              112.75406773382791,
              27.830806993139483
            ],
            [
              112.75256547578839,
              27.829915721769453
            ],
            [
              112.74948489396432,
              27.828452676648524
            ],
            [
              112.74705085480309,
              27.82478656830155
            ],
            [
              112.74545575677728,
              27.827971473621194
            ],
            [
              112.74503516645954,
              27.828822644254824
            ],
            [
              112.74001897930292,
              27.83397166916711
            ],
            [
              112.73859278431347,
              27.836847144872376
            ],
            [
              112.73845967285295,
              27.837620651506942
            ],
            [
              112.73863081628764,
              27.840008399072392
            ],
            [
              112.73986256644227,
              27.842625708613642
            ],
            [
              112.74227759006558,
              27.84376068289948
            ],
            [
              112.74396709473956,
              27.844615636080718
            ],
            [
              112.74468970045241,
              27.845473157643212
            ],
            [
              112.7452053208491,
              27.84622827443382
            ],
            [
              112.7455942778924,
              27.846348015824745
            ],
            [
              112.7461006680995,
              27.847076593333504
            ],
            [
              112.74614820784267,
              27.847227917820543
            ],
            [
              112.74593903243382,
              27.848505760801523
            ],
            [
              112.72971844170769,
              27.854735027526115
            ],
            [
              112.72838681865638,
              27.86189637863968
            ],
            [
              112.72823759950451,
              27.862698836122597
            ],
            [
              112.72308428182484,
              27.867456362450053
            ],
            [
              112.71983255746441,
              27.871743000782356
            ],
            [
              112.7189346113879,
              27.873062636423988
            ],
            [
              112.71876210161565,
              27.873316157380085
            ],
            [
              112.7165942853754,
              27.877484899336945
            ],
            [
              112.71592872807298,
              27.878980901665244
            ],
            [
              112.71596074941958,
              27.882222090812206
            ],
            [
              112.71598871577102,
              27.88505268860313
            ],
            [
              112.71663525663718,
              27.886212430583928
            ],
            [
              112.71934121224166,
              27.893453315162095
            ],
            [
              112.71937568059913,
              27.893545545703063
            ],
            [
              112.72101105099745,
              27.89428503463144
            ],
            [
              112.72427752838976,
              27.895293860394744
            ],
            [
              112.72454686307488,
              27.895383462239664
            ],
            [
              112.72470014171348,
              27.89623457285627
            ],
            [
              112.72566995480939,
              27.895864835286424
            ],
            [
              112.7263382313122,
              27.89592147903765
            ],
            [
              112.7263981058225,
              27.895926553838667
            ],
            [
              112.72861583695152,
              27.896114530112943
            ],
            [
              112.72989744180782,
              27.8965370978263
            ],
            [
              112.73030704303467,
              27.896672149246264
            ],
            [
              112.73303191715902,
              27.8949037185937
            ],
            [
              112.73411233262931,
              27.893544333345194
            ],
            [
              112.7351327253673,
              27.893431603058577
            ],
            [
              112.73772872358772,
              27.89305362422868
            ],
            [
              112.73808505471823,
              27.892554860598434
            ],
            [
              112.73822206037548,
              27.89236309017713
            ],
            [
              112.73863819954096,
              27.892308126957744
            ],
            [
              112.73930757827658,
              27.891964041500838
            ],
            [
              112.74124332194974,
              27.891964041500838
            ],
            [
              112.74296364692279,
              27.891403897128086
            ],
            [
              112.74298504838612,
              27.89242534505835
            ],
            [
              112.74304101612327,
              27.895096461849267
            ],
            [
              112.74341239044149,
              27.89558879482375
            ],
            [
              112.74695591635228,
              27.89631361310307
            ],
            [
              112.74786887776881,
              27.89422119849225
            ],
            [
              112.74870446908652,
              27.889448154301483
            ],
            [
              112.74973173752969,
              27.889151322996984
            ],
            [
              112.74979023222771,
              27.889134420754775
            ],
            [
              112.75072084284461,
              27.888865518493088
            ],
            [
              112.75272768637586,
              27.88828563309299
            ],
            [
              112.75673702738902,
              27.890524400637396
            ],
            [
              112.75692253937665,
              27.892093754494468
            ],
            [
              112.75673702738902,
              27.89408469347916
            ],
            [
              112.75716105555931,
              27.89612244081801
            ],
            [
              112.7572248071984,
              27.896613432155757
            ],
            [
              112.75734656754693,
              27.897551182948124
            ],
            [
              112.75744924228898,
              27.898482856957205
            ],
            [
              112.7575147429479,
              27.899077207495353
            ],
            [
              112.75844130126457,
              27.90238008307618
            ],
            [
              112.7584861415703,
              27.90253992092153
            ],
            [
              112.75857292511495,
              27.90270353184406
            ],
            [
              112.75954656593224,
              27.90446040811082
            ],
            [
              112.76179919571177,
              27.908011808727125
            ],
            [
              112.76184335599282,
              27.908083392556666
            ],
            [
              112.7618801644616,
              27.908103402107564
            ],
            [
              112.76598613006334,
              27.910455850452795
            ],
            [
              112.77016833658153,
              27.907565491126448
            ],
            [
              112.77334094990815,
              27.909225747339985
            ],
            [
              112.77362272895488,
              27.909373203210006
            ],
            [
              112.77417516410851,
              27.90802024170385
            ],
            [
              112.77439456593856,
              27.906339890431425
            ],
            [
              112.77449318478709,
              27.905584577321612
            ],
            [
              112.7769888537667,
              27.904120318731337
            ],
            [
              112.7787846174607,
              27.90306669576453
            ],
            [
              112.7779873545612,
              27.899273537328646
            ],
            [
              112.78019105670046,
              27.901603085842336
            ],
            [
              112.7833182601894,
              27.901696770191602
            ],
            [
              112.7871467766241,
              27.898878666271013
            ],
            [
              112.79384879254853,
              27.89828635737997
            ],
            [
              112.79440931703132,
              27.899407824773288
            ],
            [
              112.79448419520352,
              27.899557636039834
            ],
            [
              112.79506767254011,
              27.900725013910133
            ],
            [
              112.79511850371047,
              27.900826712587033
            ],
            [
              112.79602953285081,
              27.902649403481327
            ],
            [
              112.79816962258982,
              27.904396307264832
            ],
            [
              112.79985228838954,
              27.906027687978302
            ],
            [
              112.80019535589489,
              27.908077706274426
            ],
            [
              112.80155898052988,
              27.909236829240797
            ],
            [
              112.8018707866633,
              27.909934487386977
            ],
            [
              112.80239085012737,
              27.911099948944848
            ],
            [
              112.80242830089155,
              27.91119008861102
            ],
            [
              112.80310827435765,
              27.911323012570037
            ],
            [
              112.8039452823186,
              27.91149144534216
            ],
            [
              112.80397529862547,
              27.912658522191485
            ],
            [
              112.80595637847438,
              27.91245958914008
            ],
            [
              112.80658262280505,
              27.912698287166293
            ],
            [
              112.80785889166853,
              27.91420199641301
            ],
            [
              112.80791557087139,
              27.914268775271008
            ],
            [
              112.80794435558802,
              27.914302690176953
            ],
            [
              112.80859322758238,
              27.91506718767948
            ],
            [
              112.80883609969582,
              27.91439269143503
            ],
            [
              112.81015703189698,
              27.91072416324022
            ],
            [
              112.81529524350682,
              27.91131640404259
            ],
            [
              112.81766455186535,
              27.913163765853472
            ],
            [
              112.81909305283015,
              27.914277559411254
            ],
            [
              112.81953363335786,
              27.91441297447163
            ],
            [
              112.82423126533834,
              27.915856809388366
            ],
            [
              112.82844898854795,
              27.915718775058476
            ],
            [
              112.83026307967037,
              27.915659404700122
            ],
            [
              112.83054858223394,
              27.91767763330779
            ],
            [
              112.83056405840969,
              27.917787032282586
            ],
            [
              112.83115668149419,
              27.921976183919224
            ],
            [
              112.83249708467908,
              27.927897830552105
            ],
            [
              112.83436931746164,
              27.931389948209613
            ],
            [
              112.83441932757182,
              27.931483226589247
            ],
            [
              112.83450768945642,
              27.931648038196894
            ],
            [
              112.83539644127603,
              27.931206351602146
            ],
            [
              112.83808209765004,
              27.929871640145247
            ],
            [
              112.84053950378845,
              27.927108295987097
            ],
            [
              112.84697983777568,
              27.922178450623154
            ],
            [
              112.84842687817135,
              27.91912401546791
            ],
            [
              112.84805804069546,
              27.91710446047015
            ]
          ]
        ]
      }
    }
  ]
}