{
  "type": "FeatureCollection",
  "features": [
    {
      "type": "Feature",
      "geometry": {
        "type": "Polygon",
        "coordinates": [
          [
            [
              112.87649891908467,
              27.826621344404884
            ],
            [
              112.87602085455507,
              27.825332856261767
            ],
            [
              112.8755427909238,
              27.825775775612243
            ],
            [
              112.87502679592967,
              27.82745308985426
            ],
            [
              112.87470048829259,
              27.828513782966226
            ],
            [
              112.87424145457231,
              27.830688467516595
            ],
            [
              112.87406306891978,
              27.8315335642949
            ],
            [
              112.87419018412578,
              27.83377154854449
            ],
            [
              112.87430431148937,
              27.835780819297653
            ],
            [
              112.87431348328843,
              27.83594229411078
            ],
            [
              112.87462802569021,
              27.83652948976095
            ],
            [
              112.87574767597886,
              27.838619654537254
            ],
            [
              112.8793660441292,
              27.843281340526275
            ],
            [
              112.87998195603748,
              27.84407482346245
            ],
            [
              112.8832373437276,
              27.84636953561477
            ],
            [
              112.88295988018746,
              27.845869429936187
            ],
            [
              112.88264545546497,
              27.845302702350537
            ],
            [
              112.88134785341013,
              27.8428469314688
            ],
            [
              112.88102769923275,
              27.842017630584266
            ],
            [
              112.8810041391178,
              27.841959668662426
            ],
            [
              112.87993642672392,
              27.839203431131878
            ],
            [
              112.8791422171981,
              27.837189300311934
            ],
            [
              112.87752334166501,
              27.833083686349198
            ],
            [
              112.87675670143523,
              27.830193442900196
            ],
            [
              112.87665827392786,
              27.82982236540306
            ],
            [
              112.87649891908467,
              27.826621344404884
            ]
          ]
        ]
      },
      "properties": {
        "name": "湘潭市二中",
        "isAssistFeature": false,
        "sourceFileId": "file_1777360798520_12_g1",
        "sourceFileName": "湘潭市二中.geojson",
        "sourceGroupId": 1,
        "id": "imported_1777360798521_12_0_g1",
        "sourceFile": "湘潭市二中.geojson"
      },
      "id": "imported_1777360798521_12_0_g1"
    },
    {
      "type": "Feature",
      "geometry": {
        "type": "Polygon",
        "coordinates": [
          [
            [
              112.8785676933699,
              27.86370831906605
            ],
            [
              112.87890912773805,
              27.861777195255897
            ],
            [
              112.8789356549884,
              27.86162715699936
            ],
            [
              112.87896474692886,
              27.86146261437709
            ],
            [
              112.88107872803246,
              27.861954001115322
            ],
            [
              112.88631629151615,
              27.86316663278531
            ],
            [
              112.89123989829959,
              27.864302125880897
            ],
            [
              112.89602390688789,
              27.865408751504958
            ],
            [
              112.89641901316607,
              27.865551287862203
            ],
            [
              112.89831109318872,
              27.862567203677855
            ],
            [
              112.89882398102411,
              27.861052546152166
            ],
            [
              112.90096283242265,
              27.86232601759066
            ],
            [
              112.9013524230019,
              27.862536195078633
            ],
            [
              112.9014138618631,
              27.86241138299063
            ],
            [
              112.90443669923056,
              27.856011613984833
            ],
            [
              112.89804035483006,
              27.852902568955926
            ],
            [
              112.89485058405762,
              27.851219408964837
            ],
            [
              112.8932582187069,
              27.85058955199314
            ],
            [
              112.89225251432212,
              27.850626601943844
            ],
            [
              112.89149823580898,
              27.85007084341123
            ],
            [
              112.89124280075629,
              27.850104302663
            ],
            [
              112.88923540026958,
              27.850367248051654
            ],
            [
              112.88874293035606,
              27.850208445173223
            ],
            [
              112.88567352896402,
              27.84921867347221
            ],
            [
              112.88354394681888,
              27.848246832336642
            ],
            [
              112.88307545833024,
              27.848033035109296
            ],
            [
              112.87955549253441,
              27.84532824865937
            ],
            [
              112.87912151372572,
              27.844800629820085
            ],
            [
              112.8751812639377,
              27.840010075923857
            ],
            [
              112.8750692916325,
              27.839873937108578
            ],
            [
              112.87426946224622,
              27.838901478441755
            ],
            [
              112.87319711993537,
              27.83892579184166
            ],
            [
              112.87399349619768,
              27.84013937372187
            ],
            [
              112.87714664932028,
              27.844944267828566
            ],
            [
              112.87741485751803,
              27.845342045665276
            ],
            [
              112.87879158497977,
              27.84738383862883
            ],
            [
              112.8818132750504,
              27.849672902619133
            ],
            [
              112.88320117216438,
              27.850478400476504
            ],
            [
              112.88340325088247,
              27.851072804767952
            ],
            [
              112.8809593760672,
              27.851811327152447
            ],
            [
              112.88068921223706,
              27.852972791076567
            ],
            [
              112.8791186328286,
              27.852623614237828
            ],
            [
              112.8787658383654,
              27.852543270516037
            ],
            [
              112.87869355542605,
              27.852668226315146
            ],
            [
              112.87873727463429,
              27.8535835867321
            ],
            [
              112.8777629591822,
              27.853357183491454
            ],
            [
              112.87751938009461,
              27.85346762438816
            ],
            [
              112.87679488881794,
              27.853616719261453
            ],
            [
              112.87575187021291,
              27.854052957991883
            ],
            [
              112.87511481825108,
              27.853384793726207
            ],
            [
              112.87495243159381,
              27.853406881591226
            ],
            [
              112.87365958971166,
              27.85428488209793
            ],
            [
              112.87433411579384,
              27.855162874700397
            ],
            [
              112.87260300834245,
              27.856951965319723
            ],
            [
              112.87255746375753,
              27.856999104398042
            ],
            [
              112.8721822114122,
              27.856533130853634
            ],
            [
              112.87187534960611,
              27.856152746221852
            ],
            [
              112.87093654635382,
              27.854987879728256
            ],
            [
              112.87005297422016,
              27.851711176514655
            ],
            [
              112.86998693816528,
              27.851466281470053
            ],
            [
              112.86980291648273,
              27.85078382839623
            ],
            [
              112.86933745621486,
              27.85016408942586
            ],
            [
              112.86715742288673,
              27.847261424018043
            ],
            [
              112.86672169505817,
              27.849765644615445
            ],
            [
              112.86616147330764,
              27.850948938443153
            ],
            [
              112.86609922634668,
              27.85356314456962
            ],
            [
              112.86890033689595,
              27.853150379329577
            ],
            [
              112.86954034970496,
              27.856813862228492
            ],
            [
              112.86895368873898,
              27.856813862228492
            ],
            [
              112.86886988041454,
              27.857295490893264
            ],
            [
              112.86966606264073,
              27.85748073144562
            ],
            [
              112.86918044777121,
              27.860057110717236
            ],
            [
              112.86907529098406,
              27.86312830215212
            ],
            [
              112.86946415909411,
              27.86410935005199
            ],
            [
              112.87265242825949,
              27.862908658189767
            ],
            [
              112.87391871684018,
              27.862431330306563
            ],
            [
              112.87415049655651,
              27.86535604747479
            ],
            [
              112.87421604033459,
              27.866294732076184
            ],
            [
              112.87418042213359,
              27.86675579237759
            ],
            [
              112.8742482790735,
              27.86675643722245
            ],
            [
              112.8745767812948,
              27.866759559796364
            ],
            [
              112.87486289111956,
              27.866762279739163
            ],
            [
              112.8754517781108,
              27.8667678776593
            ],
            [
              112.87578670598131,
              27.867281498504127
            ],
            [
              112.87573202373333,
              27.867885755625153
            ],
            [
              112.87595758710792,
              27.868852559057174
            ],
            [
              112.87660009992835,
              27.86929366004891
            ],
            [
              112.87739982421172,
              27.86929366004891
            ],
            [
              112.87795347927755,
              27.869535358972158
            ],
            [
              112.87855306340722,
              27.869267214877894
            ],
            [
              112.87899601099572,
              27.869075423069233
            ],
            [
              112.87949141031534,
              27.868483966037843
            ],
            [
              112.88005834427766,
              27.86826121516438
            ],
            [
              112.88038938873122,
              27.86722692915467
            ],
            [
              112.88098024033798,
              27.86611261329641
            ],
            [
              112.88069942518351,
              27.865633810489086
            ],
            [
              112.88034812102536,
              27.865034818775413
            ],
            [
              112.8797021919119,
              27.86476383395747
            ],
            [
              112.8784367028318,
              27.86444918233127
            ],
            [
              112.8785676933699,
              27.86370831906605
            ]
          ]
        ]
      },
      "properties": {
        "name": "湘潭市二中",
        "isAssistFeature": false,
        "sourceFileId": "file_1777360798520_12_g1",
        "sourceFileName": "湘潭市二中.geojson",
        "sourceGroupId": 1,
        "id": "imported_1777360798521_12_1_g1",
        "sourceFile": "湘潭市二中.geojson"
      },
      "id": "imported_1777360798521_12_1_g1"
    }
  ],
  "properties": {
    "fileName": "湘潭市二中.geojson",
    "exportTime": "2026/4/28 15:28:46",
    "isStarred": false
  }
}