{
  "type": "FeatureCollection",
  "features": [
    {
      "type": "Feature",
      "geometry": {
        "type": "Polygon",
        "coordinates": [
          [
            [
              112.92488006834812,
              27.881124448368055
            ],
            [
              112.93407763197963,
              27.877783338837403
            ],
            [
              112.93561588461431,
              27.87983776626872
            ],
            [
              112.93587636460566,
              27.88018564848042
            ],
            [
              112.93662622161094,
              27.88179245590355
            ],
            [
              112.93702167886366,
              27.882639839807453
            ],
            [
              112.94749239300253,
              27.88004153020084
            ],
            [
              112.94437943604046,
              27.8761679483693
            ],
            [
              112.94258548405917,
              27.8746648269163
            ],
            [
              112.94040043354168,
              27.87345479899375
            ],
            [
              112.93597081751214,
              27.870704002003322
            ],
            [
              112.93253868184559,
              27.868600557276395
            ],
            [
              112.9309649284684,
              27.867824674832804
            ],
            [
              112.92609060409973,
              27.865600353984064
            ],
            [
              112.92314175011991,
              27.86738559830674
            ],
            [
              112.92335658491504,
              27.868382676929528
            ],
            [
              112.92386681631837,
              27.869213567714496
            ],
            [
              112.92432334014572,
              27.870970287867237
            ],
            [
              112.92368752785896,
              27.87123258150079
            ],
            [
              112.92351771033766,
              27.871302637167446
            ],
            [
              112.91999911357436,
              27.869879596695952
            ],
            [
              112.91889862704566,
              27.869435566182716
            ],
            [
              112.91639551732052,
              27.868452386609192
            ],
            [
              112.91573191834543,
              27.868191734866272
            ],
            [
              112.91564421043435,
              27.86813407997117
            ],
            [
              112.91146305853827,
              27.86538738638302
            ],
            [
              112.91141916505687,
              27.86544127209841
            ],
            [
              112.91106223295344,
              27.865880521517226
            ],
            [
              112.91021249047505,
              27.866112875365445
            ],
            [
              112.9102276800882,
              27.86631486450284
            ],
            [
              112.91026477332292,
              27.866437834150915
            ],
            [
              112.91118885049274,
              27.866623498241196
            ],
            [
              112.91166479140497,
              27.867120746167117
            ],
            [
              112.91101578196843,
              27.86803873701531
            ],
            [
              112.91118885049274,
              27.868535978447
            ],
            [
              112.91088597990144,
              27.86899496924552
            ],
            [
              112.91118885049274,
              27.870027689845244
            ],
            [
              112.90525801308685,
              27.867856800641235
            ],
            [
              112.90521038081722,
              27.867840246083688
            ],
            [
              112.9023791982655,
              27.867204138114573
            ],
            [
              112.90175253442162,
              27.869117911234312
            ],
            [
              112.90067011391159,
              27.86947044491025
            ],
            [
              112.90101193096204,
              27.87218995128933
            ],
            [
              112.90524841638467,
              27.873469571825453
            ],
            [
              112.90567721101588,
              27.873599087804024
            ],
            [
              112.90632308443382,
              27.873794171058677
            ],
            [
              112.90699348724887,
              27.876871203442647
            ],
            [
              112.9058718516834,
              27.877327053334866
            ],
            [
              112.90687274469155,
              27.87960522507929
            ],
            [
              112.90688603885941,
              27.879634951915676
            ],
            [
              112.90694645954541,
              27.879772443886722
            ],
            [
              112.9067027915246,
              27.880267170718398
            ],
            [
              112.90608413256821,
              27.880899084095333
            ],
            [
              112.90603432996886,
              27.88111934031754
            ],
            [
              112.90582071239096,
              27.88206380705624
            ],
            [
              112.90607891335642,
              27.882765389774733
            ],
            [
              112.90609945782695,
              27.882821212210885
            ],
            [
              112.90611533105805,
              27.88286434290977
            ],
            [
              112.90599988496763,
              27.88338313910262
            ],
            [
              112.9059506060861,
              27.88362210295061
            ],
            [
              112.90580355906059,
              27.88426538928738
            ],
            [
              112.9056942978709,
              27.884756385176175
            ],
            [
              112.90540563772907,
              27.885237787217022
            ],
            [
              112.90453764956897,
              27.886685330374746
            ],
            [
              112.90460308734582,
              27.886722548222835
            ],
            [
              112.90464372623093,
              27.886745661489357
            ],
            [
              112.9057925043927,
              27.887399031237763
            ],
            [
              112.90540245859128,
              27.88884488687286
            ],
            [
              112.90459582806002,
              27.890238544974324
            ],
            [
              112.90457584144328,
              27.890273077183252
            ],
            [
              112.90466345682788,
              27.890301277460125
            ],
            [
              112.90529153911157,
              27.890505254850837
            ],
            [
              112.9054210905486,
              27.890545131183757
            ],
            [
              112.92002960688664,
              27.887163030177916
            ],
            [
              112.92618913021106,
              27.88573697203229
            ],
            [
              112.92610884867244,
              27.885454083636617
            ],
            [
              112.92582432976404,
              27.884451604043036
            ],
            [
              112.92488006834812,
              27.881124448368055
            ]
          ]
        ]
      },
      "properties": {
        "name": "湘潭市四中",
        "isAssistFeature": false,
        "sourceFileId": "file_1777360798521_14_g1",
        "sourceFileName": "湘潭市四中.geojson",
        "sourceGroupId": 1,
        "id": "imported_1777360798521_14_0_g1",
        "sourceFile": "湘潭市四中.geojson"
      },
      "id": "imported_1777360798521_14_0_g1"
    }
  ],
  "properties": {
    "fileName": "湘潭市四中.geojson",
    "exportTime": "2026/4/28 15:30:58",
    "isStarred": false
  }
}