{
  "type": "FeatureCollection",
  "features": [
    {
      "type": "Feature",
      "geometry": {
        "type": "Polygon",
        "coordinates": [
          [
            [
              112.9337859124325,
              27.919936831257772
            ],
            [
              112.93582612945441,
              27.919777094561823
            ],
            [
              112.94811262626676,
              27.91777466095955
            ],
            [
              112.94837733796896,
              27.91938345669668
            ],
            [
              112.94856457307542,
              27.919868372702723
            ],
            [
              112.95973154612139,
              27.916693767792836
            ],
            [
              112.965601815731,
              27.92960321705999
            ],
            [
              112.97114595925116,
              27.934242173811654
            ],
            [
              112.97346145448608,
              27.937670839938534
            ],
            [
              112.97695100364292,
              27.94011982055737
            ],
            [
              112.99091320152246,
              27.942291301155663
            ],
            [
              112.99521005257114,
              27.94380051346829
            ],
            [
              113.00017990438643,
              27.949517035549988
            ],
            [
              113.00142236734024,
              27.955324712083723
            ],
            [
              112.99210389518655,
              27.968768055845914
            ],
            [
              112.96911833054087,
              27.985135580494386
            ],
            [
              112.96280247719227,
              27.97955809968299
            ],
            [
              112.91501942275998,
              27.960354730623123
            ],
            [
              112.92397550988545,
              27.95139198889096
            ],
            [
              112.92935951601869,
              27.942885841856693
            ],
            [
              112.9330869048801,
              27.93122309993832
            ],
            [
              112.9337859124325,
              27.919936831257772
            ]
          ]
        ]
      },
      "properties": {
        "sourceFileId": "file_1778049586040_1_g1",
        "sourceFileName": "新建学区_组1_2026-05-06T06-39-46.geojson",
        "sourceGroupId": 1,
        "name": "湘江中学",
        "id": "polygon_1778050110250",
        "sourceFile": "新建学区_组1_2026-05-06T06-39-46.geojson"
      },
      "id": "polygon_1778050110250"
    }
  ],
  "properties": {
    "fileName": "新建学区_组1_2026-05-06T06-39-46.geojson",
    "exportTime": "2026/5/6 14:49:32",
    "isStarred": false
  }
}