{
  "type": "FeatureCollection",
  "features": [
    {
      "type": "Feature",
      "geometry": {
        "type": "Polygon",
        "coordinates": [
          [
            [
              112.90774273609473,
              27.89653717166138
            ],
            [
              112.90612029694492,
              27.896470478716694
            ],
            [
              112.9042207239367,
              27.89737278701375
            ],
            [
              112.90504867238799,
              27.897946304169253
            ],
            [
              112.90454759122422,
              27.90307569436756
            ],
            [
              112.90612754455263,
              27.903537310189037
            ],
            [
              112.90847621860904,
              27.903945917272466
            ],
            [
              112.90914701488626,
              27.901656345421117
            ],
            [
              112.91115932963802,
              27.9016651227563
            ],
            [
              112.91121790267727,
              27.899870621073788
            ],
            [
              112.91131001615656,
              27.895865786415158
            ],
            [
              112.90825378586324,
              27.896710741119577
            ],
            [
              112.90774929110135,
              27.896644610380633
            ],
            [
              112.90774273609473,
              27.89653717166138
            ]
          ]
        ]
      },
      "properties": {
        "name": "湘潭大学附属实验学校",
        "isAssistFeature": false,
        "sourceFileId": "file_1778745893574_10_g1",
        "sourceFileName": "湘潭大学附属实验学校.geojson",
        "sourceGroupId": 1,
        "id": "imported_1778745893574_10_0_g1",
        "sourceFile": "湘潭大学附属实验学校.geojson"
      },
      "id": "imported_1778745893574_10_0_g1"
    },
    {
      "type": "Feature",
      "geometry": {
        "type": "Polygon",
        "coordinates": [
          [
            [
              112.87228211754652,
              27.919509313738658
            ],
            [
              112.87277738661045,
              27.918881986713387
            ],
            [
              112.87372205945478,
              27.919186917740802
            ],
            [
              112.88696343784679,
              27.904651704592723
            ],
            [
              112.88718253514799,
              27.904432785489504
            ],
            [
              112.88803583944647,
              27.903575132731845
            ],
            [
              112.88860729103641,
              27.903015234219907
            ],
            [
              112.88926713415526,
              27.90237134719051
            ],
            [
              112.89103224014526,
              27.903492301480725
            ],
            [
              112.89353992858337,
              27.90033982258646
            ],
            [
              112.89423822768131,
              27.900011547779556
            ],
            [
              112.89558949778618,
              27.899365328643924
            ],
            [
              112.89559962269773,
              27.899388181985913
            ],
            [
              112.8957947233027,
              27.899889296623698
            ],
            [
              112.89908760128291,
              27.898844963266384
            ],
            [
              112.8995057104538,
              27.897503292207617
            ],
            [
              112.90147981218955,
              27.896596880405752
            ],
            [
              112.90230081307043,
              27.8953673930135
            ],
            [
              112.90300937991205,
              27.89430970399748
            ],
            [
              112.90303613443618,
              27.894268579386306
            ],
            [
              112.90308852059027,
              27.8941877512747
            ],
            [
              112.89578129079428,
              27.892636059118047
            ],
            [
              112.89935640147043,
              27.88871249108783
            ],
            [
              112.90128599707377,
              27.8856665525187
            ],
            [
              112.9001554556106,
              27.881625612617427
            ],
            [
              112.90012260332237,
              27.88150818510927
            ],
            [
              112.90009085236865,
              27.881394692719397
            ],
            [
              112.89996893661153,
              27.88091239935565
            ],
            [
              112.89974027225259,
              27.880009321006668
            ],
            [
              112.89746897458318,
              27.877640043702783
            ],
            [
              112.89740392038692,
              27.8776401715471
            ],
            [
              112.89543296634791,
              27.877649284227005
            ],
            [
              112.89526754697823,
              27.878534832788773
            ],
            [
              112.8952239768903,
              27.878769763208354
            ],
            [
              112.89666868166621,
              27.879957692072367
            ],
            [
              112.89677196726262,
              27.88004262014755
            ],
            [
              112.89727336463342,
              27.88045489706174
            ],
            [
              112.89788426034912,
              27.880957208620956
            ],
            [
              112.89966685294442,
              27.881512804809446
            ],
            [
              112.89969902700463,
              27.881522291948315
            ],
            [
              112.89562218388609,
              27.882649550763333
            ],
            [
              112.89526303114727,
              27.882744485434984
            ],
            [
              112.89359428923449,
              27.8831629208336
            ],
            [
              112.89288794751984,
              27.883036544747597
            ],
            [
              112.88911227627837,
              27.882649922368145
            ],
            [
              112.88793435856547,
              27.882515560934124
            ],
            [
              112.88731749174805,
              27.88243334561328
            ],
            [
              112.88694675882695,
              27.880896106444283
            ],
            [
              112.88558854743984,
              27.875735214740672
            ],
            [
              112.88164777483236,
              27.876407441075173
            ],
            [
              112.88157670192368,
              27.87641956498399
            ],
            [
              112.87459828157286,
              27.87760995104931
            ],
            [
              112.87319662406532,
              27.875903783894955
            ],
            [
              112.87280599795227,
              27.874624140496167
            ],
            [
              112.8728749319722,
              27.872796052730052
            ],
            [
              112.87355306928185,
              27.872181220114328
            ],
            [
              112.87392071738832,
              27.87112497144895
            ],
            [
              112.87420329503735,
              27.86960118306024
            ],
            [
              112.87421310464028,
              27.869548285714757
            ],
            [
              112.87422668357408,
              27.869475061153196
            ],
            [
              112.87438027662304,
              27.868646808885288
            ],
            [
              112.87418042213359,
              27.86675579237759
            ],
            [
              112.87421604033459,
              27.866294732076184
            ],
            [
              112.87415049655651,
              27.86535604747479
            ],
            [
              112.87391871684018,
              27.862431330306563
            ],
            [
              112.87265242825949,
              27.862908658189767
            ],
            [
              112.86946415909411,
              27.86410935005199
            ],
            [
              112.86758510720026,
              27.864818765095052
            ],
            [
              112.86646117913422,
              27.86524242062758
            ],
            [
              112.86007352235521,
              27.86765016549785
            ],
            [
              112.86206960856094,
              27.87189263036268
            ],
            [
              112.86206960945924,
              27.873581396981393
            ],
            [
              112.86206960856094,
              27.873657146366867
            ],
            [
              112.85722803772585,
              27.87391994409637
            ],
            [
              112.85569912038363,
              27.873694688711808
            ],
            [
              112.85444945063571,
              27.87339090083229
            ],
            [
              112.85281116610261,
              27.87343189043591
            ],
            [
              112.85247140709247,
              27.874483079714437
            ],
            [
              112.85111236925532,
              27.874483079714437
            ],
            [
              112.85026297083168,
              27.873281719819758
            ],
            [
              112.8413895561856,
              27.8729047752428
            ],
            [
              112.84135924253633,
              27.87290348721443
            ],
            [
              112.841380476913,
              27.873973453139797
            ],
            [
              112.8410619522796,
              27.875118493007534
            ],
            [
              112.84318183351796,
              27.875563777109363
            ],
            [
              112.8432066836137,
              27.875568996592946
            ],
            [
              112.84375879267886,
              27.875268661077556
            ],
            [
              112.84495613376488,
              27.876874229642567
            ],
            [
              112.84499042066265,
              27.87692049769595
            ],
            [
              112.84505412558931,
              27.878647391188537
            ],
            [
              112.845861053463,
              27.878440916379972
            ],
            [
              112.84587534565915,
              27.878473464824154
            ],
            [
              112.84766602578692,
              27.882551570116547
            ],
            [
              112.8471837131244,
              27.883293903691893
            ],
            [
              112.84781467001699,
              27.88365898042295
            ],
            [
              112.84763914729531,
              27.886496953430694
            ],
            [
              112.84706580385344,
              27.887416634052315
            ],
            [
              112.84696677537316,
              27.88837206797315
            ],
            [
              112.84695559763608,
              27.88840725263931
            ],
            [
              112.84644998986154,
              27.889556268585636
            ],
            [
              112.84736309321187,
              27.890307007550945
            ],
            [
              112.8476603825703,
              27.893366215040047
            ],
            [
              112.8485658771902,
              27.893850113070997
            ],
            [
              112.84909578529144,
              27.89360248601639
            ],
            [
              112.8497671573887,
              27.893680083202653
            ],
            [
              112.84980511390442,
              27.89368526846735
            ],
            [
              112.85037948232406,
              27.8929823520063
            ],
            [
              112.85039694467486,
              27.892953159988025
            ],
            [
              112.85050643493491,
              27.891619913664186
            ],
            [
              112.85086706989394,
              27.89107656306102
            ],
            [
              112.85093511548007,
              27.89021687192455
            ],
            [
              112.85095379235317,
              27.890005659304336
            ],
            [
              112.85175873045847,
              27.891076509865314
            ],
            [
              112.85262936325876,
              27.891677093178814
            ],
            [
              112.85311188522878,
              27.892512256976147
            ],
            [
              112.85314550377998,
              27.89255956795627
            ],
            [
              112.85371330641318,
              27.89249328779927
            ],
            [
              112.85377605104087,
              27.89248412158564
            ],
            [
              112.85479532896953,
              27.89289701725518
            ],
            [
              112.85517991301404,
              27.89292791787338
            ],
            [
              112.85543557084894,
              27.892948458998944
            ],
            [
              112.85549608316313,
              27.892953321160235
            ],
            [
              112.85553891393756,
              27.893027453214444
            ],
            [
              112.855988748011,
              27.893806031631783
            ],
            [
              112.85600309500441,
              27.89383583872771
            ],
            [
              112.8562485479777,
              27.8950986443797
            ],
            [
              112.856261324716,
              27.895181581297734
            ],
            [
              112.85604871055624,
              27.895437821301854
            ],
            [
              112.85602414163324,
              27.895469670739104
            ],
            [
              112.8557941549542,
              27.895744607147023
            ],
            [
              112.85575029111716,
              27.895762677817885
            ],
            [
              112.85531335146129,
              27.895910434675557
            ],
            [
              112.85492352215388,
              27.896044885873096
            ],
            [
              112.85490078130246,
              27.896104622676575
            ],
            [
              112.85456252786874,
              27.896945717846677
            ],
            [
              112.8545123102477,
              27.897367347077548
            ],
            [
              112.85443511801537,
              27.898015446225415
            ],
            [
              112.85443471557012,
              27.89923094111441
            ],
            [
              112.85443624450272,
              27.899253653169552
            ],
            [
              112.8546714530885,
              27.899843805293784
            ],
            [
              112.85479611230048,
              27.900154871261506
            ],
            [
              112.85472401710905,
              27.900968501981822
            ],
            [
              112.8546495413821,
              27.901772788883946
            ],
            [
              112.8546474671721,
              27.901806329023756
            ],
            [
              112.85616048613042,
              27.90422250085885
            ],
            [
              112.85695245974954,
              27.905487198539205
            ],
            [
              112.85785394608659,
              27.90692675785637
            ],
            [
              112.85816926193783,
              27.90812035378086
            ],
            [
              112.85789641663658,
              27.90930995388122
            ],
            [
              112.85791767616612,
              27.90933672665119
            ],
            [
              112.8582998805734,
              27.909779080503128
            ],
            [
              112.8585334650052,
              27.911786919868277
            ],
            [
              112.86033095975269,
              27.912796797775457
            ],
            [
              112.86026761505043,
              27.91370172361181
            ],
            [
              112.86038374655544,
              27.914224151255837
            ],
            [
              112.86127056879383,
              27.91471858964958
            ],
            [
              112.86131284261276,
              27.915486521307727
            ],
            [
              112.86183429936384,
              27.916064605914457
            ],
            [
              112.86220942684334,
              27.915988744114898
            ],
            [
              112.86257092149009,
              27.916499828721143
            ],
            [
              112.86357395518348,
              27.916877986005886
            ],
            [
              112.86391232899146,
              27.917002635803684
            ],
            [
              112.86586051882286,
              27.917713646666854
            ],
            [
              112.86643890989833,
              27.918576087227933
            ],
            [
              112.86763184025628,
              27.918384434364356
            ],
            [
              112.86900551883592,
              27.919725998069268
            ],
            [
              112.86965620812207,
              27.919885707095517
            ],
            [
              112.86987923285767,
              27.920340471752652
            ],
            [
              112.87007447719311,
              27.920738589481545
            ],
            [
              112.87012615098315,
              27.920843955504864
            ],
            [
              112.87160827687889,
              27.921418899997718
            ],
            [
              112.87222252690383,
              27.92085827708469
            ],
            [
              112.87247702231882,
              27.92062600024167
            ],
            [
              112.8723408179588,
              27.920528378620247
            ],
            [
              112.87178952276722,
              27.920133249388954
            ],
            [
              112.87228211754652,
              27.919509313738658
            ]
          ]
        ]
      },
      "properties": {
        "name": "湘潭大学附属实验学校",
        "isAssistFeature": false,
        "sourceFileId": "file_1778745893574_10_g1",
        "sourceFileName": "湘潭大学附属实验学校.geojson",
        "sourceGroupId": 1,
        "id": "imported_1778745893574_10_1_g1",
        "sourceFile": "湘潭大学附属实验学校.geojson"
      },
      "id": "imported_1778745893574_10_1_g1"
    }
  ],
  "properties": {
    "fileName": "湘潭大学附属实验学校.geojson",
    "exportTime": "2026/5/14 16:16:14",
    "isStarred": false
  }
}