{
  "type": "FeatureCollection",
  "features": [
    {
      "type": "Feature",
      "geometry": {
        "type": "Polygon",
        "coordinates": [
          [
            [
              112.89740392038692,
              27.8776401715471
            ],
            [
              112.89746897458318,
              27.877640043702783
            ],
            [
              112.89974027225259,
              27.880009321006668
            ],
            [
              112.89996893661153,
              27.88091239935565
            ],
            [
              112.90009085236865,
              27.881394692719397
            ],
            [
              112.90014100531091,
              27.881382757554206
            ],
            [
              112.90032950689186,
              27.881337888118154
            ],
            [
              112.90303279270329,
              27.880694447021767
            ],
            [
              112.9033020986423,
              27.880630346393446
            ],
            [
              112.90474642343086,
              27.88028656367517
            ],
            [
              112.90491171164653,
              27.88024722113265
            ],
            [
              112.90694645954541,
              27.879772443886722
            ],
            [
              112.90688603885941,
              27.879634951915676
            ],
            [
              112.90687274469155,
              27.87960522507929
            ],
            [
              112.9058718516834,
              27.877327053334866
            ],
            [
              112.90699348724887,
              27.876871203442647
            ],
            [
              112.90632308443382,
              27.873794171058677
            ],
            [
              112.90567721101588,
              27.873599087804024
            ],
            [
              112.90524841638467,
              27.873469571825453
            ],
            [
              112.90101193096204,
              27.87218995128933
            ],
            [
              112.90067011391159,
              27.86947044491025
            ],
            [
              112.90175253442162,
              27.869117911234312
            ],
            [
              112.9023791982655,
              27.867204138114573
            ],
            [
              112.90024062292231,
              27.866583094390236
            ],
            [
              112.90143833429711,
              27.862587669315843
            ],
            [
              112.9013524230019,
              27.862536195078633
            ],
            [
              112.90096283242265,
              27.86232601759066
            ],
            [
              112.89882398102411,
              27.861052546152166
            ],
            [
              112.89831109318872,
              27.862567203677855
            ],
            [
              112.89641901316607,
              27.865551287862203
            ],
            [
              112.88631629151615,
              27.86316663278531
            ],
            [
              112.88107872803246,
              27.861954001115322
            ],
            [
              112.87896474692886,
              27.86146261437709
            ],
            [
              112.8789356549884,
              27.86162715699936
            ],
            [
              112.87890912773805,
              27.861777195255897
            ],
            [
              112.8785676933699,
              27.86370831906605
            ],
            [
              112.8784367028318,
              27.86444918233127
            ],
            [
              112.8797021919119,
              27.86476383395747
            ],
            [
              112.88034812102536,
              27.865034818775413
            ],
            [
              112.88069942518351,
              27.865633810489086
            ],
            [
              112.88098024033798,
              27.86611261329641
            ],
            [
              112.88038938873122,
              27.86722692915467
            ],
            [
              112.88005834427766,
              27.86826121516438
            ],
            [
              112.87949141031534,
              27.868483966037843
            ],
            [
              112.87899601099572,
              27.869075423069233
            ],
            [
              112.87855306340722,
              27.869267214877894
            ],
            [
              112.87795347927755,
              27.869535358972158
            ],
            [
              112.87739982421172,
              27.86929366004891
            ],
            [
              112.87660009992835,
              27.86929366004891
            ],
            [
              112.87595758710792,
              27.868852559057174
            ],
            [
              112.87573202373333,
              27.867885755625153
            ],
            [
              112.87578670598131,
              27.867281498504127
            ],
            [
              112.8754517781108,
              27.8667678776593
            ],
            [
              112.87486289111956,
              27.866762279739163
            ],
            [
              112.8745767812948,
              27.866759559796364
            ],
            [
              112.8742482790735,
              27.86675643722245
            ],
            [
              112.87418042213359,
              27.86675579237759
            ],
            [
              112.87438027662304,
              27.868646808885288
            ],
            [
              112.87422668357408,
              27.869475061153196
            ],
            [
              112.87421310464028,
              27.869548285714757
            ],
            [
              112.87420329503735,
              27.86960118306024
            ],
            [
              112.87392071738832,
              27.87112497144895
            ],
            [
              112.87355306928185,
              27.872181220114328
            ],
            [
              112.8728749319722,
              27.872796052730052
            ],
            [
              112.87280599795227,
              27.874624140496167
            ],
            [
              112.87319662406532,
              27.875903783894955
            ],
            [
              112.87459828157286,
              27.87760995104931
            ],
            [
              112.88157670192368,
              27.87641956498399
            ],
            [
              112.88164777483236,
              27.876407441075173
            ],
            [
              112.88558854743984,
              27.875735214740672
            ],
            [
              112.88694675882695,
              27.880896106444283
            ],
            [
              112.88731749174805,
              27.88243334561328
            ],
            [
              112.88793435856547,
              27.882515560934124
            ],
            [
              112.88911227627837,
              27.882649922368145
            ],
            [
              112.89288794751984,
              27.883036544747597
            ],
            [
              112.89359428923449,
              27.8831629208336
            ],
            [
              112.89526303114727,
              27.882744485434984
            ],
            [
              112.89562218388609,
              27.882649550763333
            ],
            [
              112.89969902700463,
              27.881522291948315
            ],
            [
              112.89966685294442,
              27.881512804809446
            ],
            [
              112.89788426034912,
              27.880957208620956
            ],
            [
              112.89727336463342,
              27.88045489706174
            ],
            [
              112.89677196726262,
              27.88004262014755
            ],
            [
              112.89666868166621,
              27.879957692072367
            ],
            [
              112.8952239768903,
              27.878769763208354
            ],
            [
              112.89526754697823,
              27.878534832788773
            ],
            [
              112.89543296634791,
              27.877649284227005
            ],
            [
              112.89740392038692,
              27.8776401715471
            ]
          ]
        ]
      },
      "properties": {
        "name": "湘潭市益智中学",
        "isAssistFeature": false,
        "sourceFileId": "file_1776824046395_15_g1",
        "sourceFileName": "湘潭市益智中学.geojson",
        "sourceGroupId": 1,
        "id": "imported_1776824046395_15_0_g1",
        "sourceFile": "湘潭市益智中学.geojson"
      },
      "id": "imported_1776824046395_15_0_g1"
    }
  ],
  "properties": {
    "fileName": "湘潭市益智中学.geojson",
    "exportTime": "2026/4/22 10:18:41",
    "isStarred": false
  }
}