{
  "type": "FeatureCollection",
  "features": [
    {
      "type": "Feature",
      "geometry": {
        "type": "Polygon",
        "coordinates": [
          [
            [
              112.84644998986154,
              27.889556268585636
            ],
            [
              112.84695559763608,
              27.88840725263931
            ],
            [
              112.84696677537316,
              27.88837206797315
            ],
            [
              112.84706580385344,
              27.887416634052315
            ],
            [
              112.84763914729531,
              27.886496953430694
            ],
            [
              112.84781467001699,
              27.88365898042295
            ],
            [
              112.8471837131244,
              27.883293903691893
            ],
            [
              112.84766602578692,
              27.882551570116547
            ],
            [
              112.84587534565915,
              27.878473464824154
            ],
            [
              112.845861053463,
              27.878440916379972
            ],
            [
              112.84505412558931,
              27.878647391188537
            ],
            [
              112.84499042066265,
              27.87692049769595
            ],
            [
              112.84495613376488,
              27.876874229642567
            ],
            [
              112.84375879267886,
              27.875268661077556
            ],
            [
              112.8432066836137,
              27.875568996592946
            ],
            [
              112.84318183351796,
              27.875563777109363
            ],
            [
              112.8410619522796,
              27.875118493007534
            ],
            [
              112.841380476913,
              27.873973453139797
            ],
            [
              112.84135924253633,
              27.87290348721443
            ],
            [
              112.8413895561856,
              27.8729047752428
            ],
            [
              112.85026297083168,
              27.873281719819758
            ],
            [
              112.85111236925532,
              27.874483079714437
            ],
            [
              112.85247140709247,
              27.874483079714437
            ],
            [
              112.85281116610261,
              27.87343189043591
            ],
            [
              112.85444945063571,
              27.87339090083229
            ],
            [
              112.85569912038363,
              27.873694688711808
            ],
            [
              112.85722803772585,
              27.87391994409637
            ],
            [
              112.86206960856094,
              27.873657146366867
            ],
            [
              112.86206960945924,
              27.873581396981393
            ],
            [
              112.86206960856094,
              27.87189263036268
            ],
            [
              112.86007352235521,
              27.86765016549785
            ],
            [
              112.86646117913422,
              27.86524242062758
            ],
            [
              112.86758510720026,
              27.864818765095052
            ],
            [
              112.86946415909411,
              27.86410935005199
            ],
            [
              112.86907529098406,
              27.86312830215212
            ],
            [
              112.86918044777121,
              27.860057110717236
            ],
            [
              112.86966606264073,
              27.85748073144562
            ],
            [
              112.86886988041454,
              27.857295490893264
            ],
            [
              112.86895368873898,
              27.856813862228492
            ],
            [
              112.86954034970496,
              27.856813862228492
            ],
            [
              112.86890033689595,
              27.853150379329577
            ],
            [
              112.86609922634668,
              27.85356314456962
            ],
            [
              112.86616147330764,
              27.850948938443153
            ],
            [
              112.86672169505817,
              27.849765644615445
            ],
            [
              112.86715742288673,
              27.847261424018043
            ],
            [
              112.86933745621486,
              27.85016408942586
            ],
            [
              112.86980291648273,
              27.85078382839623
            ],
            [
              112.86998693816528,
              27.851466281470053
            ],
            [
              112.87005297422016,
              27.851711176514655
            ],
            [
              112.87093654635382,
              27.854987879728256
            ],
            [
              112.87187534960611,
              27.856152746221852
            ],
            [
              112.8721822114122,
              27.856533130853634
            ],
            [
              112.87255746375753,
              27.856999104398042
            ],
            [
              112.87260300834245,
              27.856951965319723
            ],
            [
              112.87433411579384,
              27.855162874700397
            ],
            [
              112.87365958971166,
              27.85428488209793
            ],
            [
              112.87299241357607,
              27.851503892965283
            ],
            [
              112.87351780142392,
              27.850950867430086
            ],
            [
              112.87400566112657,
              27.850386779365678
            ],
            [
              112.87570691665488,
              27.850342536873697
            ],
            [
              112.87643245209064,
              27.849955415209962
            ],
            [
              112.87813370693175,
              27.851116774839994
            ],
            [
              112.88087322854491,
              27.851702980689822
            ],
            [
              112.8809593760672,
              27.851811327152447
            ],
            [
              112.88340325088247,
              27.851072804767952
            ],
            [
              112.88320117216438,
              27.850478400476504
            ],
            [
              112.8818132750504,
              27.849672902619133
            ],
            [
              112.87879158497977,
              27.84738383862883
            ],
            [
              112.87741485751803,
              27.845342045665276
            ],
            [
              112.87714664932028,
              27.844944267828566
            ],
            [
              112.87399349619768,
              27.84013937372187
            ],
            [
              112.87319711993537,
              27.83892579184166
            ],
            [
              112.87426946224622,
              27.838901478441755
            ],
            [
              112.8728410295534,
              27.83697486963115
            ],
            [
              112.87274058802316,
              27.835524159372184
            ],
            [
              112.87246365808232,
              27.831524270586613
            ],
            [
              112.87244177063039,
              27.831208129121407
            ],
            [
              112.87251288306493,
              27.831007718210913
            ],
            [
              112.87467001294658,
              27.824928272896727
            ],
            [
              112.87484891243543,
              27.823798162324522
            ],
            [
              112.87560161710017,
              27.819043187394925
            ],
            [
              112.87594975559529,
              27.818366758444682
            ],
            [
              112.87918359629501,
              27.81208675530945
            ],
            [
              112.88118115843272,
              27.808201710268506
            ],
            [
              112.88120837199597,
              27.808095150080987
            ],
            [
              112.88196014870104,
              27.805151334905062
            ],
            [
              112.88156035348386,
              27.80417679480408
            ],
            [
              112.88068321508423,
              27.803877335889155
            ],
            [
              112.8798977290981,
              27.80360916695163
            ],
            [
              112.87859677093734,
              27.803826689391258
            ],
            [
              112.87511403851342,
              27.804409005885333
            ],
            [
              112.87399642650216,
              27.80509671602445
            ],
            [
              112.873139521756,
              27.805623999470967
            ],
            [
              112.8725798668424,
              27.80707041888462
            ],
            [
              112.871363300911,
              27.810214547499612
            ],
            [
              112.8688807626059,
              27.81663020969826
            ],
            [
              112.86749338561647,
              27.81884370582962
            ],
            [
              112.86548706400642,
              27.822044620900044
            ],
            [
              112.86035427193262,
              27.825975048213778
            ],
            [
              112.86003052898573,
              27.826222948974817
            ],
            [
              112.85617102875857,
              27.82781184829527
            ],
            [
              112.8571026329122,
              27.82945957081894
            ],
            [
              112.85477362387566,
              27.830930731527346
            ],
            [
              112.85523942550331,
              27.834755654291214
            ],
            [
              112.85604433216753,
              27.835230171966302
            ],
            [
              112.85883275311511,
              27.836874014992233
            ],
            [
              112.85497993994699,
              27.83743391143821
            ],
            [
              112.84550923277351,
              27.8494585847788
            ],
            [
              112.84500751470419,
              27.85010105014399
            ],
            [
              112.84476064149445,
              27.86154513946066
            ],
            [
              112.84472304430484,
              27.862090251988064
            ],
            [
              112.844673730389,
              27.863310970747023
            ],
            [
              112.84463497976259,
              27.867140779172686
            ],
            [
              112.84463082056281,
              27.867440897389955
            ],
            [
              112.84462441647317,
              27.867859480055614
            ],
            [
              112.84430296153526,
              27.870694361026125
            ],
            [
              112.84150702887531,
              27.870712669347498
            ],
            [
              112.83921630603618,
              27.870794837976874
            ],
            [
              112.83720742782081,
              27.870931964758924
            ],
            [
              112.83423635062991,
              27.869677205230246
            ],
            [
              112.83246718335654,
              27.869285727530638
            ],
            [
              112.82809938759554,
              27.86838776969799
            ],
            [
              112.82334450777869,
              27.866780895264455
            ],
            [
              112.82253868393451,
              27.866508895923687
            ],
            [
              112.82186475523193,
              27.869420307083274
            ],
            [
              112.82177435866323,
              27.870156907379084
            ],
            [
              112.82161044217501,
              27.87145487679976
            ],
            [
              112.81797604987662,
              27.87261652491145
            ],
            [
              112.81774790294729,
              27.874471961697566
            ],
            [
              112.81685904782141,
              27.881700392419717
            ],
            [
              112.8189994573607,
              27.88144559601359
            ],
            [
              112.82123697388387,
              27.88117923940038
            ],
            [
              112.82204144845845,
              27.88120959150659
            ],
            [
              112.8298162783093,
              27.881502924622012
            ],
            [
              112.83797104342302,
              27.882491970347502
            ],
            [
              112.83718849582618,
              27.88624203968243
            ],
            [
              112.83824752690118,
              27.889284173195165
            ],
            [
              112.8382565549698,
              27.889310105332825
            ],
            [
              112.83897570037216,
              27.89137584719755
            ],
            [
              112.84102086872838,
              27.89411507293147
            ],
            [
              112.84183213456653,
              27.893982011121125
            ],
            [
              112.84545431516693,
              27.893350324152934
            ],
            [
              112.84541067680706,
              27.89206125698776
            ],
            [
              112.84644998986154,
              27.889556268585636
            ]
          ]
        ]
      },
      "properties": {
        "name": "长城中学（中学部）",
        "isAssistFeature": false,
        "sourceFileId": "file_1780972388204_16_g1",
        "sourceFileName": "长城中学（中学部）.geojson",
        "sourceGroupId": 1,
        "id": "imported_1780972388204_16_0_g1",
        "sourceFile": "长城中学（中学部）.geojson"
      },
      "id": "imported_1780972388204_16_0_g1"
    }
  ],
  "properties": {
    "fileName": "长城中学（中学部）.geojson",
    "exportTime": "2026/6/9 10:37:27",
    "isStarred": false
  }
}