{
  "type": "FeatureCollection",
  "features": [
    {
      "type": "Feature",
      "geometry": {
        "type": "Polygon",
        "coordinates": [
          [
            [
              112.94237789272835,
              27.899101488342552
            ],
            [
              112.9495719060525,
              27.897260090883506
            ],
            [
              112.95484006915639,
              27.89587334138895
            ],
            [
              112.94926073334393,
              27.882959724522564
            ],
            [
              112.94749239300253,
              27.88004153020084
            ],
            [
              112.93702167886366,
              27.882639839807453
            ],
            [
              112.93662622161094,
              27.88179245590355
            ],
            [
              112.93587636460566,
              27.88018564848042
            ],
            [
              112.93561588461431,
              27.87983776626872
            ],
            [
              112.93407763197963,
              27.877783338837403
            ],
            [
              112.92488006834812,
              27.881124448368055
            ],
            [
              112.92582432976404,
              27.884451604043036
            ],
            [
              112.92610884867244,
              27.885454083636617
            ],
            [
              112.92618913021106,
              27.88573697203229
            ],
            [
              112.92670774559086,
              27.887254066353705
            ],
            [
              112.92699392458589,
              27.88812840388165
            ],
            [
              112.92876191776118,
              27.89327888698442
            ],
            [
              112.9289500204901,
              27.893775154288647
            ],
            [
              112.9295794421619,
              27.895409226190125
            ],
            [
              112.93068816534343,
              27.89774694551774
            ],
            [
              112.93258351626984,
              27.901743136400313
            ],
            [
              112.93922060825379,
              27.89995139712873
            ],
            [
              112.94205246094869,
              27.899186906325497
            ],
            [
              112.94237789272835,
              27.899101488342552
            ]
          ]
        ]
      },
      "properties": {
        "name": "风车坪东校区（中学部）",
        "isAssistFeature": false,
        "sourceFileId": "file_1777360798526_25_g1",
        "sourceFileName": "风车坪东校区（中学部）.geojson",
        "sourceGroupId": 1,
        "id": "imported_1777360798526_25_0_g1",
        "sourceFile": "风车坪东校区（中学部）.geojson"
      },
      "id": "imported_1777360798526_25_0_g1"
    }
  ],
  "properties": {
    "fileName": "风车坪东校区（中学部）.geojson",
    "exportTime": "2026/4/28 15:31:38",
    "isStarred": false
  }
}