{
  "type": "FeatureCollection",
  "features": [
    {
      "type": "Feature",
      "geometry": {
        "type": "Polygon",
        "coordinates": [
          [
            [
              112.94237789272835,
              27.899101488342552
            ],
            [
              112.9495719060525,
              27.897260090883506
            ],
            [
              112.95484006915639,
              27.89587334138895
            ],
            [
              112.94926073334393,
              27.882959724522564
            ],
            [
              112.94749239300253,
              27.88004153020084
            ],
            [
              112.94230629157616,
              27.88132846999912
            ],
            [
              112.94160568362054,
              27.880267316533207
            ],
            [
              112.94106752004664,
              27.879505318831576
            ],
            [
              112.94132513645147,
              27.878557008778614
            ],
            [
              112.94130478560471,
              27.877381724889446
            ],
            [
              112.93997409448005,
              27.876342495666933
            ],
            [
              112.93606562771058,
              27.877469062903955
            ],
            [
              112.93404216448309,
              27.878117085076838
            ],
            [
              112.92497554038667,
              27.88120006580141
            ],
            [
              112.92582432976404,
              27.884451604043036
            ],
            [
              112.92610884867244,
              27.885454083636617
            ],
            [
              112.92618913021106,
              27.88573697203229
            ],
            [
              112.92670774559086,
              27.887254066353705
            ],
            [
              112.92699392458589,
              27.88812840388165
            ],
            [
              112.92876191776118,
              27.89327888698442
            ],
            [
              112.9289500204901,
              27.893775154288647
            ],
            [
              112.9295794421619,
              27.895409226190125
            ],
            [
              112.93068816534343,
              27.89774694551774
            ],
            [
              112.93258351626984,
              27.901743136400313
            ],
            [
              112.93922060825379,
              27.89995139712873
            ],
            [
              112.94205246094869,
              27.899186906325497
            ],
            [
              112.94237789272835,
              27.899101488342552
            ]
          ]
        ]
      },
      "properties": {
        "name": "风车坪万楼学校（中学部）",
        "isAssistFeature": false,
        "sourceFileId": "file_1778292154676_18_g1",
        "sourceFileName": "风车坪万楼学校（中学部）.geojson",
        "sourceGroupId": 1,
        "id": "imported_1778292154676_18_0_g1",
        "sourceFile": "风车坪万楼学校（中学部）.geojson"
      },
      "id": "imported_1778292154676_18_0_g1"
    }
  ],
  "properties": {
    "fileName": "风车坪万楼学校（中学部）.geojson",
    "exportTime": "2026/5/9 10:09:53",
    "isStarred": false
  }
}