{
  "type": "FeatureCollection",
  "features": [
    {
      "type": "Feature",
      "geometry": {
        "type": "LineString",
        "coordinates": [
          [
            112.89665883901006,
            27.85578685181943
          ],
          [
            112.8947343398919,
            27.854589771795787
          ],
          [
            112.89331225426038,
            27.85383688450733
          ]
        ]
      },
      "properties": {
        "type": "assistLine",
        "name": "辅助线_1",
        "stroke": "#e74c3c",
        "stroke-width": 2,
        "stroke-opacity": 0.8,
        "stroke-dasharray": "5,5"
      }
    },
    {
      "type": "Feature",
      "geometry": {
        "type": "Polygon",
        "coordinates": [
          [
            [
              112.89470769220645,
              27.859005323441124
            ],
            [
              112.89582725534201,
              27.859580479453754
            ],
            [
              112.89643998922024,
              27.859888119789176
            ],
            [
              112.8974006954244,
              27.860349578655217
            ],
            [
              112.8983840954759,
              27.860851162150993
            ],
            [
              112.89881527857541,
              27.861058482651288
            ],
            [
              112.8988531016543,
              27.860249261677524
            ],
            [
              112.89889092473322,
              27.859660733538462
            ],
            [
              112.89892874781212,
              27.85948684961312
            ],
            [
              112.89902708781727,
              27.859312965408876
            ],
            [
              112.89917081551711,
              27.859165832402795
            ],
            [
              112.89948673053816,
              27.858810205738052
            ],
            [
              112.89963683152622,
              27.858619111013184
            ],
            [
              112.89984771234802,
              27.858446161942084
            ],
            [
              112.90010800350504,
              27.858183926556265
            ],
            [
              112.90027749542124,
              27.858028725723017
            ],
            [
              112.9000111509815,
              27.85784141407663
            ],
            [
              112.89976296638993,
              27.857659453881638
            ],
            [
              112.89947846210204,
              27.8574721415972
            ],
            [
              112.89923343292433,
              27.857306480627827
            ],
            [
              112.8989547722909,
              27.857128076223844
            ],
            [
              112.89860884874594,
              27.85691144191
            ],
            [
              112.89837342855563,
              27.856792505239923
            ],
            [
              112.89796024209913,
              27.856567374757134
            ],
            [
              112.89756627361737,
              27.85636348259567
            ],
            [
              112.89722515456613,
              27.85617658111083
            ],
            [
              112.89700895235052,
              27.856070386941795
            ],
            [
              112.89672548722342,
              27.85591321938074
            ],
            [
              112.89650448051414,
              27.856219058749332
            ],
            [
              112.89624503785544,
              27.856631090978937
            ],
            [
              112.89590391880415,
              27.85715356258524
            ],
            [
              112.89555799525914,
              27.857676031673535
            ],
            [
              112.8952841391194,
              27.85810080143426
            ],
            [
              112.89486614816924,
              27.858737952954556
            ],
            [
              112.89470769220645,
              27.859005323441124
            ]
          ]
        ]
      },
      "properties": {
        "name": "龙子巷社区",
        "type": "assistPolygon",
        "fill": "#9b59b6",
        "fill-opacity": 0.2,
        "stroke": "#9b59b6",
        "stroke-width": 2,
        "stroke-opacity": 0.8
      },
      "id": "assist_polygon_1773806290744"
    },
    {
      "type": "Feature",
      "geometry": {
        "type": "Point",
        "coordinates": [
          112.89753570822202,
          27.85844654027811
        ]
      },
      "properties": {
        "iconType": "default",
        "iconColor": "#e74c3c",
        "iconSize": 1,
        "text": "龙子巷社区中心点",
        "textColor": "#333333",
        "type": "assistPoint",
        "name": "辅助点_1"
      },
      "id": "assist_point_1773806312167"
    }
  ],
  "properties": {
    "description": "GIS-APP 辅助要素导出",
    "exportTime": "2026/3/18 11:58:54",
    "assistElements": {
      "lines": 1,
      "polygons": 1,
      "texts": 0,
      "points": 1
    }
  }
}