{
  "type": "FeatureCollection",
  "features": [
    {
      "type": "Feature",
      "geometry": {
        "type": "Polygon",
        "coordinates": [
          [
            [
              113.01259795561509,
              27.877083453451007
            ],
            [
              113.01354071459211,
              27.876250095886164
            ],
            [
              113.01456917893066,
              27.87568189387055
            ],
            [
              113.01564049595,
              27.875416731909965
            ],
            [
              113.01654040224624,
              27.875719774097675
            ],
            [
              113.01795454071173,
              27.87522733011214
            ],
            [
              113.01996861670806,
              27.875454612229788
            ],
            [
              113.02056855423889,
              27.876060695545476
            ],
            [
              113.02266833559678,
              27.876060695545476
            ],
            [
              113.02331112580836,
              27.875492492536367
            ],
            [
              113.02373965261609,
              27.874545480897993
            ],
            [
              113.02373965261609,
              27.873560580011898
            ],
            [
              113.02446814818923,
              27.873068126211052
            ],
            [
              113.02541090716625,
              27.873522699029763
            ],
            [
              113.02635366614324,
              27.873522699029763
            ],
            [
              113.02725357243948,
              27.873333293920425
            ],
            [
              113.02763924656644,
              27.872916601514277
            ],
            [
              113.0283677421396,
              27.87276507660556
            ],
            [
              113.02879626894732,
              27.872045330395068
            ],
            [
              113.029610469882,
              27.87208321189378
            ],
            [
              113.0310246083475,
              27.870302767136508
            ],
            [
              113.03205307268607,
              27.869734533927414
            ],
            [
              113.03299583166307,
              27.86962088692799
            ],
            [
              113.03342435847081,
              27.867764635730765
            ],
            [
              113.03432426476704,
              27.866779673202927
            ],
            [
              113.03445282280936,
              27.86583258540638
            ],
            [
              113.03295297898231,
              27.86465818504344
            ],
            [
              113.03205307268607,
              27.861816841202554
            ],
            [
              113.03106746102829,
              27.860756053739877
            ],
            [
              113.03059608153978,
              27.86014988481439
            ],
            [
              113.03068178690133,
              27.858937536793874
            ],
            [
              113.03115316638983,
              27.858672333856987
            ],
            [
              113.03059608153978,
              27.85745996931152
            ],
            [
              113.0291390903935,
              27.85624759120755
            ],
            [
              113.02909623771272,
              27.855338298732008
            ],
            [
              113.02888197430886,
              27.85465632437061
            ],
            [
              113.02781065728952,
              27.85420167241317
            ],
            [
              113.02759639388564,
              27.85378490644402
            ],
            [
              113.02682504563174,
              27.854239560149097
            ],
            [
              113.02553946520855,
              27.85386068219394
            ],
            [
              113.02506808572005,
              27.853368138872867
            ],
            [
              113.02429673746613,
              27.85488364963436
            ],
            [
              113.0238682106584,
              27.855414073396275
            ],
            [
              113.02352538921222,
              27.855755058729954
            ],
            [
              113.02313971508526,
              27.85567928430403
            ],
            [
              113.02275404095832,
              27.85511097442152
            ],
            [
              113.02228266146982,
              27.854807874599445
            ],
            [
              113.02193984002363,
              27.85450477392996
            ],
            [
              113.021297049812,
              27.85351969090226
            ],
            [
              113.02091137568506,
              27.853557578876547
            ],
            [
              113.02078281764275,
              27.853709130641178
            ],
            [
              113.0210399337274,
              27.854694211947674
            ],
            [
              113.02052570155811,
              27.854845762123517
            ],
            [
              113.02031143815425,
              27.8544668862867
            ],
            [
              113.01992576402728,
              27.854239560149097
            ],
            [
              113.01932582649647,
              27.85393645789088
            ],
            [
              113.01834021483869,
              27.854921537132014
            ],
            [
              113.01774027730788,
              27.855565622565877
            ],
            [
              113.01726889781935,
              27.855717171523636
            ],
            [
              113.01666896028854,
              27.854694211947674
            ],
            [
              113.01705463441549,
              27.853443914914067
            ],
            [
              113.01714033977704,
              27.85253459892469
            ],
            [
              113.01748316122321,
              27.852307268735842
            ],
            [
              113.01654040224624,
              27.852231491900312
            ],
            [
              113.0160690227577,
              27.851852606928276
            ],
            [
              113.01585475935386,
              27.8511706106424
            ],
            [
              113.01538337986533,
              27.85041283196071
            ],
            [
              113.01474058965375,
              27.85010971900533
            ],
            [
              113.01422635748447,
              27.849730826619606
            ],
            [
              113.01379783067674,
              27.84957926929465
            ],
            [
              113.01349786191133,
              27.85010971900533
            ],
            [
              113.01315504046514,
              27.851360054485397
            ],
            [
              113.01354071459211,
              27.851663163945787
            ],
            [
              113.01311218778439,
              27.851928384028582
            ],
            [
              113.01392638871907,
              27.85245882224804
            ],
            [
              113.01396924139983,
              27.853330250832443
            ],
            [
              113.01345500923054,
              27.854580549176774
            ],
            [
              113.0140120940806,
              27.855565622565877
            ],
            [
              113.01495485305762,
              27.856929555559347
            ],
            [
              113.01431206284602,
              27.857573629063637
            ],
            [
              113.01452632624988,
              27.857687288696567
            ],
            [
              113.01568334863076,
              27.859240625070186
            ],
            [
              113.01444062088835,
              27.860301427363567
            ],
            [
              113.01315504046514,
              27.859657370066373
            ],
            [
              113.01255510293433,
              27.85977102751454
            ],
            [
              113.01259795561509,
              27.860490855252095
            ],
            [
              113.012426544892,
              27.861097022270798
            ],
            [
              113.01204087076505,
              27.861286448768936
            ],
            [
              113.01169804931885,
              27.864165690781164
            ],
            [
              113.01049817425722,
              27.86613565440183
            ],
            [
              113.01058387961876,
              27.86655237288663
            ],
            [
              113.0110124064265,
              27.867044856302655
            ],
            [
              113.00998394208793,
              27.868029816420105
            ],
            [
              113.00891262506862,
              27.868143465088323
            ],
            [
              113.00835554021857,
              27.869052650142876
            ],
            [
              113.00874121434553,
              27.869734533927414
            ],
            [
              113.00891262506862,
              27.870075474210452
            ],
            [
              113.00895547774938,
              27.870530059585718
            ],
            [
              113.00951256259943,
              27.87083311544295
            ],
            [
              113.01002679476872,
              27.871287697639403
            ],
            [
              113.00994108940716,
              27.871704396310662
            ],
            [
              113.01032676353412,
              27.871969567357922
            ],
            [
              113.00972682600332,
              27.87242414478611
            ],
            [
              113.00912688847248,
              27.8734848180344
            ],
            [
              113.00994108940716,
              27.874583361522483
            ],
            [
              113.01079814302263,
              27.87496216703883
            ],
            [
              113.01114096446881,
              27.875947055182095
            ],
            [
              113.01259795561509,
              27.877083453451007
            ]
          ]
        ]
      },
      "properties": {
        "type": "assistPolygon",
        "name": "法华村",
        "fill": "#9b59b6",
        "fill-opacity": 0.2,
        "stroke": "#9b59b6",
        "stroke-width": 2,
        "stroke-opacity": 0.8,
        "isAssistFeature": true,
        "sourceFileName": "辅助要素_2026-03-19T06-51-57.geojson"
      },
      "id": "assist_polygon_1773902804808_reimported_1773903163146"
    },
    {
      "type": "Feature",
      "geometry": {
        "type": "Point",
        "coordinates": [
          113.021232520137,
          27.8652102451082
        ]
      },
      "properties": {
        "iconType": "default",
        "iconColor": "#e74c3c",
        "iconSize": 1,
        "text": "法华村中心点",
        "textColor": "#333333",
        "type": "assistPoint",
        "name": "辅助点_1"
      },
      "id": "assist_point_1773903183375"
    }
  ],
  "properties": {
    "description": "GIS-APP 辅助要素导出",
    "exportTime": "2026/3/19 14:54:46",
    "assistElements": {
      "lines": 0,
      "polygons": 1,
      "texts": 0,
      "points": 1
    }
  }
}