{
  "type": "FeatureCollection",
  "features": [
    {
      "type": "Feature",
      "geometry": {
        "type": "LineString",
        "coordinates": [
          [
            112.92036864810177,
            27.827870753808043
          ],
          [
            112.92405936770626,
            27.822898881250268
          ]
        ]
      },
      "properties": {
        "type": "assistLine",
        "name": "辅助线_1",
        "stroke": "#e74c3c",
        "stroke-width": 2,
        "stroke-opacity": 0.8,
        "stroke-dasharray": "5,5",
        "isAssistFeature": true,
        "sourceFileName": "辅助要素_新塘里社区.geojson"
      },
      "id": "assist_imported_1773908204683_1"
    },
    {
      "type": "Feature",
      "geometry": {
        "type": "Polygon",
        "coordinates": [
          [
            [
              113.02888395887695,
              27.906813962802943
            ],
            [
              113.03144586357938,
              27.908071722568977
            ],
            [
              113.03391288292245,
              27.90731706846418
            ],
            [
              113.0345770804379,
              27.906310854801973
            ],
            [
              113.03656967298424,
              27.9074847698313
            ],
            [
              113.03837249481188,
              27.90647855772893
            ],
            [
              113.03884692160862,
              27.905388484056814
            ],
            [
              113.03979577520211,
              27.90480151676094
            ],
            [
              113.04121905559234,
              27.90530463178095
            ],
            [
              113.04245256526387,
              27.905807744461285
            ],
            [
              113.04378096029477,
              27.9055561884136
            ],
            [
              113.04615309427851,
              27.904549958373607
            ],
            [
              113.04814568682484,
              27.903795279702138
            ],
            [
              113.04776614538744,
              27.902202051886803
            ],
            [
              113.04738660395005,
              27.900524944631584
            ],
            [
              113.04833545754356,
              27.899267097132125
            ],
            [
              113.04748148930939,
              27.89758994438958
            ],
            [
              113.04643775035656,
              27.896499781169013
            ],
            [
              113.04567866748177,
              27.89515802674606
            ],
            [
              113.04681729179396,
              27.893816255689586
            ],
            [
              113.04700706251265,
              27.892306743369502
            ],
            [
              113.04767126002811,
              27.890881073516297
            ],
            [
              113.04482469924763,
              27.888281274271804
            ],
            [
              113.04178836774844,
              27.887442616036395
            ],
            [
              113.04283210670127,
              27.886352350618495
            ],
            [
              113.04235767990455,
              27.884758866028847
            ],
            [
              113.04283210670127,
              27.883668573587656
            ],
            [
              113.04406561637283,
              27.883165357989157
            ],
            [
              113.04340141885739,
              27.881823438294305
            ],
            [
              113.04368607493544,
              27.880733116298387
            ],
            [
              113.04178836774844,
              27.87846856630979
            ],
            [
              113.04008043128016,
              27.87762983207614
            ],
            [
              113.03846738017123,
              27.87628784379322
            ],
            [
              113.03713898514032,
              27.875868469045145
            ],
            [
              113.03647478762487,
              27.874861963025424
            ],
            [
              113.03543104867204,
              27.873184432210806
            ],
            [
              113.03562081939073,
              27.871255239660883
            ],
            [
              113.0341975390005,
              27.870248690780414
            ],
            [
              113.03192029037614,
              27.870835845430406
            ],
            [
              113.03040212462655,
              27.872094023251464
            ],
            [
              113.02907372959567,
              27.872094023251464
            ],
            [
              113.02850441743955,
              27.873100554988184
            ],
            [
              113.02708113704931,
              27.87351994045187
            ],
            [
              113.02432946162817,
              27.873016677700633
            ],
            [
              113.02347549339403,
              27.875616843416964
            ],
            [
              113.02091358869161,
              27.875616843416964
            ],
            [
              113.01816191327049,
              27.874274830195162
            ],
            [
              113.01578977928675,
              27.875029714678163
            ],
            [
              113.01673863288023,
              27.876958840012975
            ],
            [
              113.01740283039568,
              27.880146015292354
            ],
            [
              113.0168335182396,
              27.88140408497955
            ],
            [
              113.01341764530302,
              27.88392018050999
            ],
            [
              113.0151255817713,
              27.886939417976976
            ],
            [
              113.01626420608349,
              27.888365139738042
            ],
            [
              113.01854145470787,
              27.889958571253246
            ],
            [
              113.01673863288023,
              27.890377891438234
            ],
            [
              113.01578977928675,
              27.891216526935636
            ],
            [
              113.01455626961521,
              27.891216526935636
            ],
            [
              113.01493581105261,
              27.892726054458862
            ],
            [
              113.01626420608349,
              27.89348081032655
            ],
            [
              113.01664374752089,
              27.894738725077673
            ],
            [
              113.01455626961521,
              27.894654864549082
            ],
            [
              113.01360741602173,
              27.895996625209662
            ],
            [
              113.01427161353716,
              27.8970029347892
            ],
            [
              113.0156948939274,
              27.896835217175706
            ],
            [
              113.0155051232087,
              27.898344666340236
            ],
            [
              113.01503069641196,
              27.89935095408697
            ],
            [
              113.01531535249,
              27.901028079537497
            ],
            [
              113.01360741602173,
              27.903543718975186
            ],
            [
              113.01066596988188,
              27.90438225245707
            ],
            [
              113.00810406517947,
              27.90731706846418
            ],
            [
              113.0089580334136,
              27.90832327276732
            ],
            [
              113.00848360661686,
              27.90958101498478
            ],
            [
              113.01170970883473,
              27.9094133168674
            ],
            [
              113.01427161353716,
              27.909748712842173
            ],
            [
              113.01721305967698,
              27.908071722568977
            ],
            [
              113.01806702791113,
              27.90983256167337
            ],
            [
              113.01958519366073,
              27.91067104641047
            ],
            [
              113.02015450581682,
              27.91033565329562
            ],
            [
              113.0222419837225,
              27.910754894526704
            ],
            [
              113.02385503483143,
              27.911341829520282
            ],
            [
              113.0265447707373,
              27.910596149473278
            ],
            [
              113.02869418815824,
              27.910000259140773
            ],
            [
              113.02888395887695,
              27.906813962802943
            ]
          ]
        ]
      },
      "properties": {
        "name": "指方村",
        "type": "assistPolygon",
        "fill": "#9b59b6",
        "fill-opacity": 0.2,
        "stroke": "#9b59b6",
        "stroke-width": 2,
        "stroke-opacity": 0.8
      },
      "id": "assist_polygon_1773913140858"
    },
    {
      "type": "Feature",
      "geometry": {
        "type": "Point",
        "coordinates": [
          113.03087655142329,
          27.89322922562205
        ]
      },
      "properties": {
        "iconType": "default",
        "iconColor": "#e74c3c",
        "iconSize": 1,
        "text": "指方村中心点",
        "textColor": "#333333",
        "type": "assistPoint",
        "name": "辅助点_1"
      },
      "id": "assist_point_1773913204779"
    }
  ],
  "properties": {
    "description": "GIS-APP 辅助要素导出",
    "exportTime": "2026/3/19 17:40:47",
    "assistElements": {
      "lines": 1,
      "polygons": 1,
      "texts": 0,
      "points": 1
    }
  }
}