{
  "type": "FeatureCollection",
  "features": [
    {
      "type": "Feature",
      "geometry": {
        "type": "Polygon",
        "coordinates": [
          [
            [
              112.88400584997193,
              27.857114757204698
            ],
            [
              112.883974666709,
              27.85779480544987
            ],
            [
              112.88390190576213,
              27.858392141605393
            ],
            [
              112.88383953923628,
              27.859393821001476
            ],
            [
              112.88372520060551,
              27.86002790684408
            ],
            [
              112.88367322850063,
              27.860579282822627
            ],
            [
              112.8836316508167,
              27.861534994541287
            ],
            [
              112.88355307391797,
              27.862414921895095
            ],
            [
              112.88420788140758,
              27.862565435069072
            ],
            [
              112.88583180398173,
              27.862970661806315
            ],
            [
              112.88638184227301,
              27.86011088645111
            ],
            [
              112.88732476505801,
              27.86042349714687
            ],
            [
              112.88909274527992,
              27.860875044338
            ],
            [
              112.89012734111348,
              27.861083450099457
            ],
            [
              112.89110955234787,
              27.861245543192453
            ],
            [
              112.89107026389848,
              27.860990825366045
            ],
            [
              112.89017972571264,
              27.8607824194265
            ],
            [
              112.89016662956284,
              27.86040034082994
            ],
            [
              112.89006186036453,
              27.860191933755075
            ],
            [
              112.89016662956284,
              27.85967091431486
            ],
            [
              112.89028449491099,
              27.85932356663008
            ],
            [
              112.8905464179068,
              27.859034109375884
            ],
            [
              112.89067737940475,
              27.858872012975908
            ],
            [
              112.8904154564089,
              27.858756229684673
            ],
            [
              112.88999637961557,
              27.858675181307206
            ],
            [
              112.8897606489193,
              27.858570976161445
            ],
            [
              112.88959127234138,
              27.858542456925335
            ],
            [
              112.88957541262037,
              27.858573771929457
            ],
            [
              112.88912717685223,
              27.858470392685817
            ],
            [
              112.88891457116141,
              27.859243135201552
            ],
            [
              112.88809950627797,
              27.859075243294797
            ],
            [
              112.88803396497806,
              27.8592832509284
            ],
            [
              112.88732309395601,
              27.859099015615982
            ],
            [
              112.8873852741636,
              27.858858320623185
            ],
            [
              112.88678277294554,
              27.858749574307623
            ],
            [
              112.88696288754522,
              27.857829941133645
            ],
            [
              112.8864080345726,
              27.85766786070218
            ],
            [
              112.88605443852822,
              27.857528919194507
            ],
            [
              112.88563536173487,
              27.857366820543774
            ],
            [
              112.88501984269465,
              27.857193143149075
            ],
            [
              112.88443051595401,
              27.85712367211329
            ],
            [
              112.88422097755735,
              27.857077358064686
            ],
            [
              112.88400584997193,
              27.857114757204698
            ]
          ]
        ]
      },
      "properties": {
        "name": "富民城社区",
        "type": "assistPolygon",
        "fill": "#9b59b6",
        "fill-opacity": 0.2,
        "stroke": "#9b59b6",
        "stroke-width": 2,
        "stroke-opacity": 0.8,
        "isAssistFeature": true,
        "sourceFileName": "辅助要素_富民城社区.geojson"
      },
      "id": "assist_polygon_1773738891577_reimported_1773797815896_reimported_1773798075684"
    },
    {
      "type": "Feature",
      "geometry": {
        "type": "Point",
        "coordinates": [
          112.88597586162948,
          27.859092000888538
        ]
      },
      "properties": {
        "iconType": "default",
        "iconColor": "#e74c3c",
        "iconSize": 1,
        "text": "富民城社区中心点",
        "textColor": "#333333",
        "type": "assistPoint",
        "name": "辅助点_1",
        "isAssistFeature": true,
        "sourceFileName": "辅助要素_富民城社区.geojson"
      },
      "id": "assist_point_1773738921400_reimported_1773797815896_reimported_1773798075685"
    }
  ],
  "properties": {
    "description": "GIS-APP 辅助要素导出",
    "exportTime": "2026/3/18 09:41:45",
    "assistElements": {
      "lines": 0,
      "polygons": 1,
      "texts": 0,
      "points": 1
    }
  }
}