{
  "type": "FeatureCollection",
  "features": [
    {
      "type": "Feature",
      "geometry": {
        "type": "Polygon",
        "coordinates": [
          [
            [
              112.91853949881542,
              27.817934944625122
            ],
            [
              112.9191209586955,
              27.818235310463848
            ],
            [
              112.9193628048403,
              27.81825806541778
            ],
            [
              112.9196612532743,
              27.818066923656573
            ],
            [
              112.91987737110584,
              27.8178666795459
            ],
            [
              112.92008834327473,
              27.817470741240115
            ],
            [
              112.92023756749174,
              27.817070250450683
            ],
            [
              112.92031475243155,
              27.81687910659869
            ],
            [
              112.91999572134692,
              27.816824494007733
            ],
            [
              112.91968183592492,
              27.81674257506984
            ],
            [
              112.91946057243075,
              27.816637900781473
            ],
            [
              112.91938338749092,
              27.816601492309687
            ],
            [
              112.91907464773158,
              27.817029291082164
            ],
            [
              112.91885852990006,
              27.817375169708654
            ],
            [
              112.91853949881542,
              27.817934944625122
            ]
          ]
        ]
      },
      "properties": {
        "name": "禾花塘社区",
        "type": "assistPolygon",
        "fill": "#9b59b6",
        "fill-opacity": 0.2,
        "stroke": "#9b59b6",
        "stroke-width": 2,
        "stroke-opacity": 0.8
      },
      "id": "assist_polygon_1773975707811"
    },
    {
      "type": "Feature",
      "geometry": {
        "type": "Polygon",
        "coordinates": [
          [
            [
              112.9197691438632,
              27.816084807929613
            ],
            [
              112.92058861352947,
              27.816084807929613
            ],
            [
              112.9205510231778,
              27.81758755230061
            ],
            [
              112.9205735773888,
              27.818830957805574
            ],
            [
              112.92141560126605,
              27.818811010236047
            ],
            [
              112.92192683004863,
              27.818777764278707
            ],
            [
              112.92194186618931,
              27.81831231980705
            ],
            [
              112.92307709480951,
              27.818292372142267
            ],
            [
              112.92319738393483,
              27.818465251782115
            ],
            [
              112.92507690151795,
              27.81841870729076
            ],
            [
              112.92494157625197,
              27.818245827576803
            ],
            [
              112.92470099800133,
              27.818106193760784
            ],
            [
              112.92427998606271,
              27.817886768829936
            ],
            [
              112.92411458851538,
              27.817487813274255
            ],
            [
              112.92411458851538,
              27.81714869989952
            ],
            [
              112.92412210658573,
              27.81653696329036
            ],
            [
              112.92413714272638,
              27.81607150921404
            ],
            [
              112.92506938344764,
              27.816131353421312
            ],
            [
              112.92513704608062,
              27.815725742037344
            ],
            [
              112.92422735957037,
              27.815719092657773
            ],
            [
              112.92324249235683,
              27.815772287682947
            ],
            [
              112.92185164934531,
              27.815672546989376
            ],
            [
              112.92201704689263,
              27.815459766536904
            ],
            [
              112.92197945654098,
              27.81525363507602
            ],
            [
              112.9214757458287,
              27.815213738619008
            ],
            [
              112.92143815547705,
              27.814794824935888
            ],
            [
              112.9209945893274,
              27.814874618142966
            ],
            [
              112.92065627616243,
              27.814768227187173
            ],
            [
              112.92036307141949,
              27.8152070892081
            ],
            [
              112.91995709562154,
              27.815872028284915
            ],
            [
              112.9197691438632,
              27.816084807929613
            ]
          ]
        ]
      },
      "properties": {
        "name": "禾花塘社区",
        "type": "assistPolygon",
        "fill": "#9b59b6",
        "fill-opacity": 0.2,
        "stroke": "#9b59b6",
        "stroke-width": 2,
        "stroke-opacity": 0.8
      },
      "id": "assist_polygon_1773975862272"
    },
    {
      "type": "Feature",
      "geometry": {
        "type": "Polygon",
        "coordinates": [
          [
            [
              112.92487906818992,
              27.81812651278385
            ],
            [
              112.92433915421114,
              27.81782492208339
            ],
            [
              112.92432509448471,
              27.8161579508362
            ],
            [
              112.92503179309595,
              27.816164600188912
            ],
            [
              112.92518967257294,
              27.816091457286817
            ],
            [
              112.92519719064329,
              27.81573904079528
            ],
            [
              112.92524229906529,
              27.815665897606536
            ],
            [
              112.92562572065223,
              27.815665897606536
            ],
            [
              112.92663314207678,
              27.815745690173586
            ],
            [
              112.92654617100163,
              27.81861240715051
            ],
            [
              112.92593995179739,
              27.818620784620535
            ],
            [
              112.92564631437033,
              27.818604029679832
            ],
            [
              112.92516323344194,
              27.81862916208989
            ],
            [
              112.92512534474164,
              27.818419725161817
            ],
            [
              112.92487906818992,
              27.81812651278385
            ]
          ]
        ]
      },
      "properties": {
        "name": "禾花塘社区",
        "type": "assistPolygon",
        "fill": "#9b59b6",
        "fill-opacity": 0.2,
        "stroke": "#9b59b6",
        "stroke-width": 2,
        "stroke-opacity": 0.8
      },
      "id": "assist_polygon_1773976002271"
    },
    {
      "type": "Feature",
      "geometry": {
        "type": "Polygon",
        "coordinates": [
          [
            [
              112.925598953495,
              27.819734982372864
            ],
            [
              112.92622411704937,
              27.819726604988816
            ],
            [
              112.92648933795122,
              27.81951717017749
            ],
            [
              112.9263851440255,
              27.818863730969767
            ],
            [
              112.92575050829605,
              27.818897240768393
            ],
            [
              112.92570314742072,
              27.81941664132455
            ],
            [
              112.925598953495,
              27.819734982372864
            ]
          ]
        ]
      },
      "properties": {
        "name": "禾花塘社区",
        "type": "assistPolygon",
        "fill": "#9b59b6",
        "fill-opacity": 0.2,
        "stroke": "#9b59b6",
        "stroke-width": 2,
        "stroke-opacity": 0.8
      },
      "id": "assist_polygon_1773976092394"
    },
    {
      "type": "Feature",
      "geometry": {
        "type": "Polygon",
        "coordinates": [
          [
            [
              112.92400742151823,
              27.81569878638247
            ],
            [
              112.92405232700828,
              27.814755508230576
            ],
            [
              112.9247034566143,
              27.814775366802408
            ],
            [
              112.92495043680967,
              27.81464628602056
            ],
            [
              112.92524232249514,
              27.81438812399665
            ],
            [
              112.92552298180807,
              27.814298760076156
            ],
            [
              112.92578118837595,
              27.814080314627617
            ],
            [
              112.92607307406142,
              27.813891656841193
            ],
            [
              112.92623024327666,
              27.813742716252023
            ],
            [
              112.92623024327666,
              27.813285963838254
            ],
            [
              112.92625269602169,
              27.81296822189576
            ],
            [
              112.92670175092238,
              27.81296822189576
            ],
            [
              112.92672420366742,
              27.813236316721003
            ],
            [
              112.92672420366742,
              27.813554057879173
            ],
            [
              112.9267129772949,
              27.813941303658865
            ],
            [
              112.92669052454985,
              27.814348406707722
            ],
            [
              112.92669052454985,
              27.814745578943302
            ],
            [
              112.92667929817736,
              27.81531154686934
            ],
            [
              112.92665684543232,
              27.81569878638247
            ],
            [
              112.92609552680646,
              27.81566899877663
            ],
            [
              112.92547807631802,
              27.815659069572888
            ],
            [
              112.92510760602492,
              27.81562928195615
            ],
            [
              112.92481572033948,
              27.81566899877663
            ],
            [
              112.92400742151823,
              27.81569878638247
            ]
          ]
        ]
      },
      "properties": {
        "name": "禾花塘社区",
        "type": "assistPolygon",
        "fill": "#9b59b6",
        "fill-opacity": 0.2,
        "stroke": "#9b59b6",
        "stroke-width": 2,
        "stroke-opacity": 0.8
      },
      "id": "assist_polygon_1773976161176"
    },
    {
      "type": "Feature",
      "geometry": {
        "type": "Point",
        "coordinates": [
          112.9231818257312,
          27.817016055555285
        ]
      },
      "properties": {
        "iconType": "default",
        "iconColor": "#e74c3c",
        "iconSize": 1,
        "text": "禾花塘社区中心点",
        "textColor": "#333333",
        "type": "assistPoint",
        "name": "辅助点_1"
      },
      "id": "assist_point_1773976175333"
    }
  ],
  "properties": {
    "description": "GIS-APP 辅助要素导出",
    "exportTime": "2026/3/20 11:09:41",
    "assistElements": {
      "lines": 0,
      "polygons": 5,
      "texts": 0,
      "points": 1
    }
  }
}