{
  "type": "FeatureCollection",
  "features": [
    {
      "type": "Feature",
      "geometry": {
        "type": "Polygon",
        "coordinates": [
          [
            [
              112.9116594670881,
              27.819503407996905
            ],
            [
              112.91082888643587,
              27.819195356230267
            ],
            [
              112.91053416426894,
              27.81900578547794
            ],
            [
              112.91015906332922,
              27.818792517985997
            ],
            [
              112.90903376051006,
              27.818626642980405
            ],
            [
              112.90750656382694,
              27.818437071235195
            ],
            [
              112.90646163978059,
              27.818365981745416
            ],
            [
              112.90563105912834,
              27.818508160678448
            ],
            [
              112.90493444309745,
              27.818745125153086
            ],
            [
              112.90445217046069,
              27.819124267236916
            ],
            [
              112.9044253775364,
              27.822275834567762
            ],
            [
              112.90439858461214,
              27.823934517471173
            ],
            [
              112.90386272612682,
              27.824621678678398
            ],
            [
              112.90300535255035,
              27.82502449529487
            ],
            [
              112.90284459500474,
              27.825332530522445
            ],
            [
              112.9027910091562,
              27.826375104806928
            ],
            [
              112.90123701954883,
              27.826825304243314
            ],
            [
              112.90080833276056,
              27.827322890921707
            ],
            [
              112.90126381247309,
              27.82753614165705
            ],
            [
              112.90185325680692,
              27.827630919627182
            ],
            [
              112.90273872833691,
              27.827340424778512
            ],
            [
              112.9035144181114,
              27.827085945168847
            ],
            [
              112.90437179168786,
              27.826943777468884
            ],
            [
              112.90493444309745,
              27.827085945168847
            ],
            [
              112.90557747327982,
              27.82739397454671
            ],
            [
              112.90579181667394,
              27.82734658546856
            ],
            [
              112.90622050346221,
              27.82739397454671
            ],
            [
              112.90689032656883,
              27.82720441810993
            ],
            [
              112.90782807891813,
              27.827133334360823
            ],
            [
              112.90796204353944,
              27.82706225056512
            ],
            [
              112.90852469494901,
              27.825782734282768
            ],
            [
              112.9090873463586,
              27.825142970485842
            ],
            [
              112.90959641191965,
              27.82445581257835
            ],
            [
              112.91029302795053,
              27.823910822179556
            ],
            [
              112.9112575732241,
              27.8234606106561
            ],
            [
              112.91206136095205,
              27.82291561526131
            ],
            [
              112.9126508052859,
              27.822323225859535
            ],
            [
              112.91249004774032,
              27.821091045550205
            ],
            [
              112.91206136095205,
              27.82011950890829
            ],
            [
              112.9116594670881,
              27.819503407996905
            ]
          ]
        ]
      },
      "properties": {
        "type": "assistPolygon",
        "name": "辅助多边形_1",
        "fill": "#9b59b6",
        "fill-opacity": 0.2,
        "stroke": "#9b59b6",
        "stroke-width": 2,
        "stroke-opacity": 0.8
      },
      "id": "assist_polygon_1773974177976"
    },
    {
      "type": "Feature",
      "geometry": {
        "type": "Polygon",
        "coordinates": [
          [
            [
              112.90956961899539,
              27.827299196369722
            ],
            [
              112.90997151285936,
              27.82734658546856
            ],
            [
              112.91115040152705,
              27.82604337771167
            ],
            [
              112.91168626001236,
              27.82497710518227
            ],
            [
              112.91107002275425,
              27.824811239625262
            ],
            [
              112.91058775011749,
              27.82504819034341
            ],
            [
              112.9101054774807,
              27.825593175032324
            ],
            [
              112.90964999776817,
              27.826422494309213
            ],
            [
              112.90956961899539,
              27.827299196369722
            ]
          ]
        ]
      },
      "properties": {
        "name": "岳塘村",
        "type": "assistPolygon",
        "fill": "#9b59b6",
        "fill-opacity": 0.2,
        "stroke": "#9b59b6",
        "stroke-width": 2,
        "stroke-opacity": 0.8
      },
      "id": "assist_polygon_1773974573817"
    },
    {
      "type": "Feature",
      "geometry": {
        "type": "Polygon",
        "coordinates": [
          [
            [
              112.90938206852553,
              27.81827119568669
            ],
            [
              112.9102662350263,
              27.81843707123521
            ],
            [
              112.91101643690573,
              27.814053132311386
            ],
            [
              112.90983754823803,
              27.814053132311386
            ],
            [
              112.90938206852553,
              27.81827119568669
            ]
          ]
        ]
      },
      "properties": {
        "name": "岳塘村",
        "type": "assistPolygon",
        "fill": "#9b59b6",
        "fill-opacity": 0.2,
        "stroke": "#9b59b6",
        "stroke-width": 2,
        "stroke-opacity": 0.8
      },
      "id": "assist_polygon_1773974610948"
    },
    {
      "type": "Feature",
      "geometry": {
        "type": "Polygon",
        "coordinates": [
          [
            [
              112.90600616006806,
              27.81725224032948
            ],
            [
              112.90707787703867,
              27.81663612314948
            ],
            [
              112.90747977090268,
              27.81571194082524
            ],
            [
              112.90820317985784,
              27.815237998120963
            ],
            [
              112.90868545249462,
              27.815237998120963
            ],
            [
              112.908926588813,
              27.816020002473877
            ],
            [
              112.90780128599387,
              27.816967878988464
            ],
            [
              112.90766732137253,
              27.818105319884722
            ],
            [
              112.90584540252249,
              27.818129016443393
            ],
            [
              112.90600616006806,
              27.81725224032948
            ]
          ]
        ]
      },
      "properties": {
        "name": "岳塘村",
        "type": "assistPolygon",
        "fill": "#9b59b6",
        "fill-opacity": 0.2,
        "stroke": "#9b59b6",
        "stroke-width": 2,
        "stroke-opacity": 0.8
      },
      "id": "assist_polygon_1773974598228"
    },
    {
      "type": "Feature",
      "geometry": {
        "type": "Polygon",
        "coordinates": [
          [
            [
              112.91117719445131,
              27.818413374743784
            ],
            [
              112.91147191661823,
              27.817015272597033
            ],
            [
              112.91321345669547,
              27.816565032480696
            ],
            [
              112.91439234536317,
              27.816754607494047
            ],
            [
              112.91476744630289,
              27.816754607494047
            ],
            [
              112.91559802695512,
              27.817181150064044
            ],
            [
              112.91608029959191,
              27.81744181414315
            ],
            [
              112.91637502175881,
              27.817749870884512
            ],
            [
              112.91533009771246,
              27.818365981745416
            ],
            [
              112.9145263099845,
              27.818460767721433
            ],
            [
              112.91326704254402,
              27.818626642980405
            ],
            [
              112.91117719445131,
              27.818413374743784
            ]
          ]
        ]
      },
      "properties": {
        "name": "岳塘村",
        "type": "assistPolygon",
        "fill": "#9b59b6",
        "fill-opacity": 0.2,
        "stroke": "#9b59b6",
        "stroke-width": 2,
        "stroke-opacity": 0.8
      },
      "id": "assist_polygon_1773974622038"
    },
    {
      "type": "Feature",
      "geometry": {
        "type": "Polygon",
        "coordinates": [
          [
            [
              112.91664295100148,
              27.81767878094486
            ],
            [
              112.91808976891181,
              27.8183896782472
            ],
            [
              112.91838449107871,
              27.818484464202555
            ],
            [
              112.92004565238321,
              27.81848446420254
            ],
            [
              112.92060830379276,
              27.818318588726427
            ],
            [
              112.9205815108685,
              27.816849394876613
            ],
            [
              112.92052792501997,
              27.81673091063547
            ],
            [
              112.9194026222008,
              27.817062666184896
            ],
            [
              112.9182505264574,
              27.816707213771735
            ],
            [
              112.91782183966916,
              27.816825698038713
            ],
            [
              112.91664295100148,
              27.81767878094486
            ]
          ]
        ]
      },
      "properties": {
        "name": "岳塘村",
        "type": "assistPolygon",
        "fill": "#9b59b6",
        "fill-opacity": 0.2,
        "stroke": "#9b59b6",
        "stroke-width": 2,
        "stroke-opacity": 0.8
      },
      "id": "assist_polygon_1773974631574"
    },
    {
      "type": "Feature",
      "geometry": {
        "type": "Polygon",
        "coordinates": [
          [
            [
              112.9132938354683,
              27.822062573498812
            ],
            [
              112.91393686565067,
              27.822275834567762
            ],
            [
              112.91490141092422,
              27.82144648361303
            ],
            [
              112.91650898638015,
              27.82033277379388
            ],
            [
              112.91581237034924,
              27.819835155075893
            ],
            [
              112.91492820384848,
              27.81990624360381
            ],
            [
              112.91396365857493,
              27.819787762698084
            ],
            [
              112.91270439113445,
              27.820001028235296
            ],
            [
              112.9132938354683,
              27.822062573498812
            ]
          ]
        ]
      },
      "properties": {
        "name": "岳塘村",
        "type": "assistPolygon",
        "fill": "#9b59b6",
        "fill-opacity": 0.2,
        "stroke": "#9b59b6",
        "stroke-width": 2,
        "stroke-opacity": 0.8
      },
      "id": "assist_polygon_1773974587116"
    },
    {
      "type": "Feature",
      "geometry": {
        "type": "Point",
        "coordinates": [
          112.90764052844827,
          27.822583877594568
        ]
      },
      "properties": {
        "iconType": "default",
        "iconColor": "#e74c3c",
        "iconSize": 1,
        "text": "岳塘村中心点",
        "textColor": "#333333",
        "type": "assistPoint",
        "name": "辅助点_1"
      },
      "id": "assist_point_1773974883598"
    }
  ],
  "properties": {
    "description": "GIS-APP 辅助要素导出",
    "exportTime": "2026/3/20 10:50:07",
    "assistElements": {
      "lines": 0,
      "polygons": 7,
      "texts": 0,
      "points": 1
    }
  }
}