{
  "type": "FeatureCollection",
  "features": [
    {
      "type": "Feature",
      "geometry": {
        "type": "Polygon",
        "coordinates": [
          [
            [
              112.96922461471473,
              27.914762921877553
            ],
            [
              112.97126833059241,
              27.9178630390512
            ],
            [
              112.9733120464701,
              27.920451418315906
            ],
            [
              112.97573044359203,
              27.923641660991095
            ],
            [
              112.97784228333231,
              27.926049328974813
            ],
            [
              112.97961350375964,
              27.928005519724806
            ],
            [
              112.98179346736248,
              27.929149122533758
            ],
            [
              112.98635776615598,
              27.930864504058803
            ],
            [
              112.98891241100308,
              27.93188770112728
            ],
            [
              112.99160330357537,
              27.93288079489983
            ],
            [
              112.99351077172786,
              27.933693319380055
            ],
            [
              112.99419201035377,
              27.931977982756436
            ],
            [
              112.99436232001025,
              27.931045068951306
            ],
            [
              112.99371514331564,
              27.93044318480311
            ],
            [
              112.9932382762775,
              27.929781108368516
            ],
            [
              112.99317015241493,
              27.929028743860528
            ],
            [
              112.99364701945305,
              27.928667607036402
            ],
            [
              112.99357889559045,
              27.927794854729683
            ],
            [
              112.9927273473081,
              27.927162857280734
            ],
            [
              112.99163736550666,
              27.92674152359514
            ],
            [
              112.99119456039983,
              27.926380379128872
            ],
            [
              112.99047925984264,
              27.925387225625087
            ],
            [
              112.99003645473582,
              27.924875597531738
            ],
            [
              112.98925303031604,
              27.92511636399496
            ],
            [
              112.98863991555272,
              27.924123198877865
            ],
            [
              112.98833335817108,
              27.923641660991095
            ],
            [
              112.98673244740021,
              27.923310602449746
            ],
            [
              112.98601714684303,
              27.92207664804579
            ],
            [
              112.98410967869052,
              27.920782485612705
            ],
            [
              112.98472279345383,
              27.919157236428845
            ],
            [
              112.98339437813333,
              27.918555286087056
            ],
            [
              112.98148690998084,
              27.91741157120545
            ],
            [
              112.98039692817942,
              27.917200885565677
            ],
            [
              112.97964756569091,
              27.91858538368372
            ],
            [
              112.97688854925605,
              27.917592158569946
            ],
            [
              112.97654792994311,
              27.916749414955348
            ],
            [
              112.97368672771434,
              27.914552231077465
            ],
            [
              112.97297142715715,
              27.91392015621433
            ],
            [
              112.97041678231004,
              27.914251243508147
            ],
            [
              112.96922461471473,
              27.914762921877553
            ]
          ]
        ]
      },
      "properties": {
        "name": "正江村",
        "type": "assistPolygon",
        "fill": "#9b59b6",
        "fill-opacity": 0.2,
        "stroke": "#9b59b6",
        "stroke-width": 2,
        "stroke-opacity": 0.8
      },
      "id": "assist_polygon_1773993827640"
    },
    {
      "type": "Feature",
      "geometry": {
        "type": "Point",
        "coordinates": [
          112.98203190088157,
          27.924664926436506
        ]
      },
      "properties": {
        "iconType": "default",
        "iconColor": "#e74c3c",
        "iconSize": 1,
        "text": "正江村中心点",
        "textColor": "#333333",
        "type": "assistPoint",
        "name": "辅助点_1"
      },
      "id": "assist_point_1773993837369"
    }
  ],
  "properties": {
    "description": "GIS-APP 辅助要素导出",
    "exportTime": "2026/3/20 16:04:01",
    "assistElements": {
      "lines": 0,
      "polygons": 1,
      "texts": 0,
      "points": 1
    }
  }
}