{
  "type": "FeatureCollection",
  "features": [
    {
      "type": "Feature",
      "geometry": {
        "type": "Polygon",
        "coordinates": [
          [
            [
              113.0091151189879,
              27.834102961885208
            ],
            [
              113.00864305020127,
              27.834653238058536
            ],
            [
              113.0079134893492,
              27.835013762314233
            ],
            [
              113.007334132202,
              27.835564033868778
            ],
            [
              113.00681914807114,
              27.83664559396388
            ],
            [
              113.00666894436631,
              27.837878938810235
            ],
            [
              113.00696935177598,
              27.839358934119574
            ],
            [
              113.00696935177598,
              27.840800961411716
            ],
            [
              113.00643290997301,
              27.842755257281212
            ],
            [
              113.00621833325181,
              27.84370393190251
            ],
            [
              113.00690497875964,
              27.84461465173321
            ],
            [
              113.00757016659533,
              27.84596174412887
            ],
            [
              113.00817098141466,
              27.846910390705688
            ],
            [
              113.01003779888903,
              27.848219509355346
            ],
            [
              113.01132525921618,
              27.847062173387982
            ],
            [
              113.01143254757676,
              27.845601256254056
            ],
            [
              113.01143254757676,
              27.844519785440937
            ],
            [
              113.01175441265856,
              27.84368495849141
            ],
            [
              113.0124625158385,
              27.84353317108301
            ],
            [
              113.01297749996934,
              27.843343436523796
            ],
            [
              113.0133851957396,
              27.842698336540096
            ],
            [
              113.01387872219834,
              27.842015285316947
            ],
            [
              113.01486577511581,
              27.841635810556753
            ],
            [
              113.01565970898423,
              27.841711705614983
            ],
            [
              113.01608886242663,
              27.84203425902011
            ],
            [
              113.01628198147567,
              27.842337837819414
            ],
            [
              113.01604594708238,
              27.84336240999464
            ],
            [
              113.0159386587218,
              27.84412134610743
            ],
            [
              113.01643218518053,
              27.844386972492416
            ],
            [
              113.01703299999984,
              27.84421621274818
            ],
            [
              113.01765527249133,
              27.843817772299516
            ],
            [
              113.01821317196641,
              27.84376085211595
            ],
            [
              113.01898564816273,
              27.84412134610743
            ],
            [
              113.01975812435897,
              27.843950585945024
            ],
            [
              113.0205520582274,
              27.84324856911971
            ],
            [
              113.02237596035754,
              27.8416168367839
            ],
            [
              113.02265491009507,
              27.841294282137625
            ],
            [
              113.02304114819323,
              27.840781987492846
            ],
            [
              113.02323426724227,
              27.840212768383537
            ],
            [
              113.02018727780137,
              27.838562016077077
            ],
            [
              113.0188783598021,
              27.837822015510568
            ],
            [
              113.01756944180283,
              27.837290729939937
            ],
            [
              113.01701154232774,
              27.836721492513078
            ],
            [
              113.01643218518053,
              27.836304049835363
            ],
            [
              113.0148014020995,
              27.83526043611478
            ],
            [
              113.01362123013293,
              27.8346911880366
            ],
            [
              113.0133637380675,
              27.83446348796916
            ],
            [
              113.01263417721543,
              27.834121936972124
            ],
            [
              113.01177587033067,
              27.83398911129406
            ],
            [
              113.01010217190537,
              27.83292650001664
            ],
            [
              113.0091151189879,
              27.834102961885208
            ]
          ]
        ]
      },
      "properties": {
        "name": "马家河社区",
        "type": "assistPolygon",
        "fill": "#9b59b6",
        "fill-opacity": 0.2,
        "stroke": "#9b59b6",
        "stroke-width": 2,
        "stroke-opacity": 0.8
      },
      "id": "assist_polygon_1773906290115"
    },
    {
      "type": "Feature",
      "geometry": {
        "type": "Point",
        "coordinates": [
          113.01266504631963,
          27.8395168260585
        ]
      },
      "properties": {
        "iconType": "default",
        "iconColor": "#e74c3c",
        "iconSize": 1,
        "text": "马家河社区中心点",
        "textColor": "#333333",
        "type": "assistPoint",
        "name": "辅助点_1"
      },
      "id": "assist_point_1773906371579"
    }
  ],
  "properties": {
    "description": "GIS-APP 辅助要素导出",
    "exportTime": "2026/3/19 15:46:29",
    "assistElements": {
      "lines": 0,
      "polygons": 1,
      "texts": 0,
      "points": 1
    }
  }
}