{
  "type": "FeatureCollection",
  "features": [
    {
      "type": "Feature",
      "geometry": {
        "type": "Polygon",
        "coordinates": [
          [
            [
              112.9415625026741,
              27.822403495698467
            ],
            [
              112.94445524476205,
              27.822403495698467
            ],
            [
              112.94759130160507,
              27.822236127735565
            ],
            [
              112.9477535114418,
              27.821686202612327
            ],
            [
              112.94802386116964,
              27.82139928405094
            ],
            [
              112.94842938576141,
              27.821160184670617
            ],
            [
              112.94886194532597,
              27.820992814791097
            ],
            [
              112.94911333337471,
              27.82066770408467
            ],
            [
              112.94924113871795,
              27.820021801212064
            ],
            [
              112.94922288081177,
              27.81940818992416
            ],
            [
              112.94924113871795,
              27.81797103412576
            ],
            [
              112.9432160296796,
              27.818180956945497
            ],
            [
              112.94104333884457,
              27.8182616963835
            ],
            [
              112.9410068230322,
              27.82040934339672
            ],
            [
              112.94115288628163,
              27.820635409032306
            ],
            [
              112.94148152859282,
              27.820813031701476
            ],
            [
              112.94159107602988,
              27.82131360311496
            ],
            [
              112.94151804440516,
              27.821830319572626
            ],
            [
              112.9415625026741,
              27.822403495698467
            ]
          ]
        ]
      },
      "properties": {
        "name": "向家塘社区",
        "type": "assistPolygon",
        "fill": "#9b59b6",
        "fill-opacity": 0.2,
        "stroke": "#9b59b6",
        "stroke-width": 2,
        "stroke-opacity": 0.8
      },
      "id": "assist_polygon_1773972498734"
    },
    {
      "type": "Feature",
      "geometry": {
        "type": "Polygon",
        "coordinates": [
          [
            [
              112.94571736282583,
              27.817712667021283
            ],
            [
              112.94599123141847,
              27.816953710096783
            ],
            [
              112.94571736282583,
              27.81598482120853
            ],
            [
              112.9455165258579,
              27.81556496667241
            ],
            [
              112.94506007820347,
              27.815306593843403
            ],
            [
              112.94420195661316,
              27.815290445521157
            ],
            [
              112.94389157220814,
              27.815758745890776
            ],
            [
              112.94305170852402,
              27.815387335418478
            ],
            [
              112.94023999097278,
              27.815258148869503
            ],
            [
              112.93971051169366,
              27.817308967189874
            ],
            [
              112.93971051169366,
              27.817954886199743
            ],
            [
              112.93934535357013,
              27.817825702705136
            ],
            [
              112.93938186938247,
              27.817228227043486
            ],
            [
              112.9391445166022,
              27.817325115211958
            ],
            [
              112.93901671125896,
              27.817018302381967
            ],
            [
              112.93790297898217,
              27.81705059851015
            ],
            [
              112.93768388410805,
              27.81698600624418
            ],
            [
              112.93777517363893,
              27.818116365351884
            ],
            [
              112.94571736282583,
              27.817712667021283
            ]
          ]
        ]
      },
      "properties": {
        "name": "向家塘社区",
        "type": "assistPolygon",
        "fill": "#9b59b6",
        "fill-opacity": 0.2,
        "stroke": "#9b59b6",
        "stroke-width": 2,
        "stroke-opacity": 0.8
      },
      "id": "assist_polygon_1773972548918"
    },
    {
      "type": "Feature",
      "geometry": {
        "type": "Polygon",
        "coordinates": [
          [
            [
              112.95161047725907,
              27.8116751574627
            ],
            [
              112.95043067206944,
              27.810457709379847
            ],
            [
              112.95083906617354,
              27.809882426967008
            ],
            [
              112.95118695744739,
              27.809360656562475
            ],
            [
              112.95154997442881,
              27.80906632343377
            ],
            [
              112.95186761428755,
              27.809454307845286
            ],
            [
              112.95233651122189,
              27.80956133778389
            ],
            [
              112.95260877395793,
              27.809882426967008
            ],
            [
              112.95217012843872,
              27.811073124401943
            ],
            [
              112.95161047725907,
              27.8116751574627
            ]
          ]
        ]
      },
      "properties": {
        "name": "向家塘社区",
        "type": "assistPolygon",
        "fill": "#9b59b6",
        "fill-opacity": 0.2,
        "stroke": "#9b59b6",
        "stroke-width": 2,
        "stroke-opacity": 0.8
      },
      "id": "assist_polygon_1773972825335"
    },
    {
      "type": "Feature",
      "geometry": {
        "type": "Polygon",
        "coordinates": [
          [
            [
              112.94592321121682,
              27.809240247651672
            ],
            [
              112.94853995862455,
              27.810016213846538
            ],
            [
              112.94894835272864,
              27.80982891216908
            ],
            [
              112.94793493032218,
              27.80930714150749
            ],
            [
              112.94607446829242,
              27.80838400265904
            ],
            [
              112.94592321121682,
              27.809240247651672
            ]
          ]
        ]
      },
      "properties": {
        "name": "向家塘社区",
        "type": "assistPolygon",
        "fill": "#9b59b6",
        "fill-opacity": 0.2,
        "stroke": "#9b59b6",
        "stroke-width": 2,
        "stroke-opacity": 0.8
      },
      "id": "assist_polygon_1773972838963"
    },
    {
      "type": "Feature",
      "geometry": {
        "type": "Point",
        "coordinates": [
          112.94417496730676,
          27.81922228737342
        ]
      },
      "properties": {
        "iconType": "default",
        "iconColor": "#e74c3c",
        "iconSize": 1,
        "text": "向家塘社区中心点",
        "textColor": "#333333",
        "type": "assistPoint",
        "name": "辅助点_1"
      },
      "id": "assist_point_1773972881023"
    }
  ],
  "properties": {
    "description": "GIS-APP 辅助要素导出",
    "exportTime": "2026/3/20 10:14:45",
    "assistElements": {
      "lines": 0,
      "polygons": 4,
      "texts": 0,
      "points": 1
    }
  }
}