{
  "type": "FeatureCollection",
  "features": [
    {
      "type": "Feature",
      "geometry": {
        "type": "Polygon",
        "coordinates": [
          [
            [
              112.89141987945341,
              27.86428264577954
            ],
            [
              112.89287741551044,
              27.864642465347288
            ],
            [
              112.8933889281644,
              27.864773750567807
            ],
            [
              112.89367493523974,
              27.864836961913525
            ],
            [
              112.89410944598879,
              27.864953659685696
            ],
            [
              112.8943624522477,
              27.86502173332812
            ],
            [
              112.89463195891484,
              27.86507521973145
            ],
            [
              112.89510497061636,
              27.865196779640854
            ],
            [
              112.89564398395065,
              27.865328064189853
            ],
            [
              112.89640300272751,
              27.8655176971465
            ],
            [
              112.89657732521123,
              27.865201397396575
            ],
            [
              112.89692001551755,
              27.8647251264306
            ],
            [
              112.89720052245681,
              27.864287508214105
            ],
            [
              112.89740676277978,
              27.86395098209185
            ],
            [
              112.89759653225343,
              27.86371373943082
            ],
            [
              112.89767353415834,
              27.863616490183446
            ],
            [
              112.89785046339918,
              27.863354874930764
            ],
            [
              112.89801546748112,
              27.863102025868855
            ],
            [
              112.89810346965815,
              27.862951288647437
            ],
            [
              112.89827397387613,
              27.86262550103335
            ],
            [
              112.89833447537285,
              27.862513663268402
            ],
            [
              112.89838947673347,
              27.862348337665352
            ],
            [
              112.8985489806794,
              27.8618620844301
            ],
            [
              112.89860948217611,
              27.861672445077048
            ],
            [
              112.8987029844892,
              27.861419592090186
            ],
            [
              112.89875798584984,
              27.861229951962954
            ],
            [
              112.89877184532425,
              27.861133920929703
            ],
            [
              112.89879277203639,
              27.86107180993976
            ],
            [
              112.89859196083557,
              27.860986902418276
            ],
            [
              112.89831257133879,
              27.860859541011365
            ],
            [
              112.89810302921623,
              27.860763054997406
            ],
            [
              112.89777998511057,
              27.86059709885248
            ],
            [
              112.89757917390976,
              27.860485174797333
            ],
            [
              112.89740892093518,
              27.86040798572644
            ],
            [
              112.89728668803039,
              27.860334656058143
            ],
            [
              112.89712953143845,
              27.86024974795926
            ],
            [
              112.89698110576829,
              27.86017641818394
            ],
            [
              112.89674973634128,
              27.860068353161466
            ],
            [
              112.89647034684451,
              27.85993327173192
            ],
            [
              112.89623897741748,
              27.85982134699131
            ],
            [
              112.89599014614693,
              27.859697843695145
            ],
            [
              112.89576750764168,
              27.85959363767958
            ],
            [
              112.89557106190175,
              27.8594894315638
            ],
            [
              112.89537461616183,
              27.859389084839137
            ],
            [
              112.89518690134369,
              27.859284878526722
            ],
            [
              112.89493807007312,
              27.859165234118578
            ],
            [
              112.89476781709853,
              27.85907646560139
            ],
            [
              112.894671776959,
              27.85903015156356
            ],
            [
              112.8946412187328,
              27.859145936621005
            ],
            [
              112.89443604207109,
              27.859497150538772
            ],
            [
              112.89412172888724,
              27.85997186644326
            ],
            [
              112.89385980123396,
              27.860404126271447
            ],
            [
              112.89281691401378,
              27.862036177683322
            ],
            [
              112.89236590285653,
              27.86281904306341
            ],
            [
              112.89173338720914,
              27.86378667630909
            ],
            [
              112.89141987945341,
              27.86428264577954
            ]
          ]
        ]
      },
      "properties": {
        "name": "罗祖殿社区",
        "type": "assistPolygon",
        "fill": "#9b59b6",
        "fill-opacity": 0.2,
        "stroke": "#9b59b6",
        "stroke-width": 2,
        "stroke-opacity": 0.8
      },
      "id": "assist_polygon_1773802416215"
    },
    {
      "type": "Feature",
      "geometry": {
        "type": "Point",
        "coordinates": [
          112.8954334602423,
          27.862706279428764
        ]
      },
      "properties": {
        "iconType": "default",
        "iconColor": "#e74c3c",
        "iconSize": 1,
        "text": "罗祖殿社区中心点",
        "textColor": "#333333",
        "type": "assistPoint",
        "name": "辅助点_1"
      },
      "id": "assist_point_1773802521582"
    }
  ],
  "properties": {
    "description": "GIS-APP 辅助要素导出",
    "exportTime": "2026/3/18 10:55:26",
    "assistElements": {
      "lines": 0,
      "polygons": 1,
      "texts": 0,
      "points": 1
    }
  }
}