{
  "type": "FeatureCollection",
  "features": [
    {
      "type": "Feature",
      "geometry": {
        "type": "Polygon",
        "coordinates": [
          [
            [
              112.93389480402679,
              27.783978475794015
            ],
            [
              112.9346382918184,
              27.783089590955854
            ],
            [
              112.93616545593085,
              27.783907365274345
            ],
            [
              112.94066657120969,
              27.785827332983658
            ],
            [
              112.94086751385608,
              27.78602288334811
            ],
            [
              112.94026468591694,
              27.788049475507563
            ],
            [
              112.94036515724014,
              27.790058253264576
            ],
            [
              112.94032496871085,
              27.79073376310906
            ],
            [
              112.93992308341811,
              27.792600281646187
            ],
            [
              112.93753186592623,
              27.792404743111774
            ],
            [
              112.93447753770128,
              27.791942559723225
            ],
            [
              112.93254848829608,
              27.791693690930842
            ],
            [
              112.93061943889086,
              27.79153370354919
            ],
            [
              112.93031802492128,
              27.791480374369627
            ],
            [
              112.93148349227026,
              27.78906275742223
            ],
            [
              112.93161409597029,
              27.78868271339151
            ],
            [
              112.93196203012069,
              27.788230053660016
            ],
            [
              112.93228949755634,
              27.78775023228708
            ],
            [
              112.93296489914242,
              27.78698975633965
            ],
            [
              112.93394730144941,
              27.786184008163573
            ],
            [
              112.9347045698944,
              27.78530582638517
            ],
            [
              112.93526740454945,
              27.78464492201904
            ],
            [
              112.93472503660914,
              27.784373316320426
            ],
            [
              112.93389480402679,
              27.783978475794015
            ]
          ]
        ]
      },
      "properties": {
        "name": "铁园社区",
        "type": "assistPolygon",
        "fill": "#9b59b6",
        "fill-opacity": 0.2,
        "stroke": "#9b59b6",
        "stroke-width": 2,
        "stroke-opacity": 0.8,
        "isAssistFeature": true,
        "sourceFileName": "辅助要素_铁园社区.geojson"
      },
      "id": "assist_polygon_1773979650928_reimported_1773986403155"
    },
    {
      "type": "Feature",
      "geometry": {
        "type": "Polygon",
        "coordinates": [
          [
            [
              112.91963521433645,
              27.805807489824872
            ],
            [
              112.91957232367409,
              27.805295702646205
            ],
            [
              112.91933333915713,
              27.805284576811175
            ],
            [
              112.9192578703623,
              27.804327750738437
            ],
            [
              112.91918240156745,
              27.80376032664539
            ],
            [
              112.91927044849477,
              27.8033820422704
            ],
            [
              112.9193459172896,
              27.803248529823634
            ],
            [
              112.92044021481469,
              27.803482176497837
            ],
            [
              112.9213584184852,
              27.803682444675843
            ],
            [
              112.92138357475014,
              27.803960594310738
            ],
            [
              112.92168544992948,
              27.803993972219033
            ],
            [
              112.92193701257892,
              27.804872920115002
            ],
            [
              112.92205021577115,
              27.805685106153646
            ],
            [
              112.92283005998448,
              27.805662854562243
            ],
            [
              112.92377341991991,
              27.805807489824872
            ],
            [
              112.92388662311217,
              27.806018879477747
            ],
            [
              112.92371052925755,
              27.80618576575526
            ],
            [
              112.92318224769369,
              27.806119011275015
            ],
            [
              112.92256591920255,
              27.806119011275015
            ],
            [
              112.92202505950624,
              27.80603000523756
            ],
            [
              112.92191185631398,
              27.80582974138663
            ],
            [
              112.92072951186157,
              27.805874244496522
            ],
            [
              112.91969810499883,
              27.805929873358238
            ],
            [
              112.91963521433645,
              27.805807489824872
            ]
          ]
        ]
      },
      "properties": {
        "name": "铁园社区",
        "type": "assistPolygon",
        "fill": "#9b59b6",
        "fill-opacity": 0.2,
        "stroke": "#9b59b6",
        "stroke-width": 2,
        "stroke-opacity": 0.8,
        "isAssistFeature": true,
        "sourceFileName": "辅助要素_铁园社区.geojson"
      },
      "id": "assist_polygon_1773980040888_reimported_1773986403155"
    },
    {
      "type": "Feature",
      "geometry": {
        "type": "Point",
        "coordinates": [
          112.92056261250295,
          27.804833838743107
        ]
      },
      "properties": {
        "iconType": "default",
        "iconColor": "#e74c3c",
        "iconSize": 1,
        "text": "铁园社区中心点",
        "textColor": "#333333",
        "type": "assistPoint",
        "name": "辅助点_1",
        "isAssistFeature": true,
        "sourceFileName": "辅助要素_铁园社区.geojson"
      },
      "id": "assist_point_1773980076264_reimported_1773986403155"
    }
  ],
  "properties": {
    "description": "GIS-APP 辅助要素导出",
    "exportTime": "2026/3/20 14:00:47",
    "assistElements": {
      "lines": 0,
      "polygons": 2,
      "texts": 0,
      "points": 1
    }
  }
}