{
  "type": "FeatureCollection",
  "features": [
    {
      "type": "Feature",
      "geometry": {
        "type": "Polygon",
        "coordinates": [
          [
            [
              112.88590009892417,
              27.863018459409474
            ],
            [
              112.88656820003409,
              27.863183065674605
            ],
            [
              112.8866612960904,
              27.863212113813077
            ],
            [
              112.88682558324858,
              27.863236320589223
            ],
            [
              112.88736773087055,
              27.86336703708686
            ],
            [
              112.88801392702607,
              27.86351227745486
            ],
            [
              112.8885122647392,
              27.86362362827188
            ],
            [
              112.8895801312674,
              27.863880218849403
            ],
            [
              112.88966775108509,
              27.863899584151383
            ],
            [
              112.89030847100199,
              27.864030299849034
            ],
            [
              112.89129419395105,
              27.864243317685208
            ],
            [
              112.89178294375705,
              27.863405821763862
            ],
            [
              112.89237112151268,
              27.86253329775535
            ],
            [
              112.89289948458129,
              27.86162551279598
            ],
            [
              112.89305754278217,
              27.86141111450509
            ],
            [
              112.8924309361997,
              27.861440429492532
            ],
            [
              112.89208201719214,
              27.86145805648742
            ],
            [
              112.89175303641356,
              27.861413988994798
            ],
            [
              112.89122467334495,
              27.86133466746294
            ],
            [
              112.89060658824583,
              27.86122890533015
            ],
            [
              112.89002837960469,
              27.861140770140693
            ],
            [
              112.88935047981855,
              27.86102619428719
            ],
            [
              112.88881214763545,
              27.860902804771086
            ],
            [
              112.88830372279584,
              27.860770601562265
            ],
            [
              112.88795184175285,
              27.860654704094898
            ],
            [
              112.88736537334783,
              27.860471707841498
            ],
            [
              112.88689619862386,
              27.860349710167583
            ],
            [
              112.88641322464328,
              27.860197212882113
            ],
            [
              112.886289031334,
              27.860801100875165
            ],
            [
              112.88615793839644,
              27.861569680727698
            ],
            [
              112.88601994583054,
              27.862356554454394
            ],
            [
              112.88590009892417,
              27.863018459409474
            ]
          ]
        ]
      },
      "properties": {
        "name": "广园社区",
        "type": "assistPolygon",
        "fill": "#c0392b",
        "fill-opacity": 0.4,
        "stroke": "#c0392b",
        "stroke-opacity": 1,
        "stroke-width": 3,
        "isAssistFeature": true,
        "sourceFileName": "辅助要素_广园社区.geojson"
      },
      "id": "assist_polygon_1773739827651_reimported_1773798179443_reimported_1773798356813"
    },
    {
      "type": "Feature",
      "geometry": {
        "type": "Polygon",
        "coordinates": [
          [
            [
              112.88694609204943,
              27.86421576087824
            ],
            [
              112.88660706102085,
              27.864699183982168
            ],
            [
              112.88736167847154,
              27.865250283690244
            ],
            [
              112.88789756622639,
              27.8646605102132
            ],
            [
              112.88732886901715,
              27.864399461911773
            ],
            [
              112.88694609204943,
              27.86421576087824
            ]
          ]
        ]
      },
      "properties": {
        "name": "广园社区",
        "type": "assistPolygon",
        "fill": "#9b59b6",
        "fill-opacity": 0.2,
        "stroke": "#9b59b6",
        "stroke-width": 2,
        "stroke-opacity": 0.8,
        "isAssistFeature": true,
        "sourceFileName": "辅助要素_广园社区.geojson"
      },
      "id": "assist_polygon_1773740053442_reimported_1773798179444_reimported_1773798356813"
    },
    {
      "type": "Feature",
      "geometry": {
        "type": "Polygon",
        "coordinates": [
          [
            [
              112.88934761801339,
              27.8667409164332
            ],
            [
              112.8905396948558,
              27.867533710718547
            ],
            [
              112.89096621776274,
              27.867098641402023
            ],
            [
              112.891480232548,
              27.866653902073054
            ],
            [
              112.89097715424754,
              27.866441200009604
            ],
            [
              112.89049594891665,
              27.86622849752868
            ],
            [
              112.89057250431019,
              27.865977121331184
            ],
            [
              112.89018972734245,
              27.866044799595542
            ],
            [
              112.88969758552678,
              27.86602546295289
            ],
            [
              112.88950072880051,
              27.86641219515046
            ],
            [
              112.88934761801339,
              27.8667409164332
            ]
          ]
        ]
      },
      "properties": {
        "name": "广园社区",
        "type": "assistPolygon",
        "fill": "#9b59b6",
        "fill-opacity": 0.2,
        "stroke": "#9b59b6",
        "stroke-width": 2,
        "stroke-opacity": 0.8,
        "isAssistFeature": true,
        "sourceFileName": "辅助要素_广园社区.geojson"
      },
      "id": "assist_polygon_1773740131562_reimported_1773798179444_reimported_1773798356813"
    },
    {
      "type": "Feature",
      "geometry": {
        "type": "Polygon",
        "coordinates": [
          [
            [
              112.89019338700791,
              27.860771080728895
            ],
            [
              112.89019338700791,
              27.860399300230284
            ],
            [
              112.8900816851512,
              27.860190173139443
            ],
            [
              112.89018024561301,
              27.85969059012261
            ],
            [
              112.89029851816711,
              27.85934204246817
            ],
            [
              112.89069933071171,
              27.858894738003045
            ],
            [
              112.89157629956847,
              27.859371931383905
            ],
            [
              112.891707537386,
              27.86001974680238
            ],
            [
              112.89113884017677,
              27.860387162781805
            ],
            [
              112.89133569690303,
              27.860773915098918
            ],
            [
              112.89107386046648,
              27.860968588600088
            ],
            [
              112.89019338700791,
              27.860771080728895
            ]
          ]
        ]
      },
      "properties": {
        "name": "广园社区",
        "type": "assistPolygon",
        "fill": "#9b59b6",
        "fill-opacity": 0.2,
        "stroke": "#9b59b6",
        "stroke-width": 2,
        "stroke-opacity": 0.8,
        "isAssistFeature": true,
        "sourceFileName": "辅助要素_广园社区.geojson"
      },
      "id": "assist_polygon_1773739996530_reimported_1773798179443_reimported_1773798356813"
    },
    {
      "type": "Feature",
      "geometry": {
        "type": "Point",
        "coordinates": [
          112.88924918965027,
          27.86253514243758
        ]
      },
      "properties": {
        "iconType": "default",
        "iconColor": "#e74c3c",
        "iconSize": 1,
        "text": "广园社区中心点",
        "textColor": "#333333",
        "type": "assistPoint",
        "name": "辅助点_1",
        "isAssistFeature": true,
        "sourceFileName": "辅助要素_广园社区.geojson"
      },
      "id": "assist_point_1773740145265_reimported_1773798179444_reimported_1773798356814"
    }
  ],
  "properties": {
    "description": "GIS-APP 辅助要素导出",
    "exportTime": "2026/3/18 09:46:47",
    "assistElements": {
      "lines": 0,
      "polygons": 4,
      "texts": 0,
      "points": 1
    }
  }
}