{
"type": "FeatureCollection",
"name": "丁字社区居委会",
"crs": { "type": "name", "properties": { "name": "urn:ogc:def:crs:OGC:1.3:CRS84" } },
"features": [
{ "type": "Feature", "properties": { "adcode": "430302101203", "fullName": "湖南省湘潭市雨湖区楠竹山镇丁字社区居委会", "level": "居委会/社区", "location": "112.668057,27.847321", "name": "丁字社区居委会", "OBJECTID": 3946, "SHAPE_Leng": 0.095031584653199996, "SHAPE_Area": 0.000186012499 }, "geometry": { "type": "MultiPolygon", "coordinates": [ [ [ [ 112.691718434882816, 27.851149585616952 ], [ 112.692874884484425, 27.852757929985231 ], [ 112.694271783490635, 27.855446089036032 ], [ 112.69454117854194, 27.856115763735168 ], [ 112.695040062644253, 27.857355165423925 ], [ 112.695688621354208, 27.858955394091598 ], [ 112.696137596300588, 27.860483935576241 ], [ 112.696476824514548, 27.861644593297481 ], [ 112.696276984734865, 27.864705418229722 ], [ 112.69588769097335, 27.865685197913841 ], [ 112.695627165940749, 27.866336720924131 ], [ 112.695977353937778, 27.867675388510477 ], [ 112.697863535511374, 27.868462570193778 ], [ 112.698113037325811, 27.868562202642078 ], [ 112.699215858695709, 27.868945585776071 ], [ 112.700149039766231, 27.869270240135414 ], [ 112.700438490641091, 27.869238804864342 ], [ 112.702444749782586, 27.86898583896448 ], [ 112.703030699793956, 27.868638946197496 ], [ 112.704071858147742, 27.868024382215975 ], [ 112.704151718495041, 27.867973262766139 ], [ 112.705689072815844, 27.866911983745624 ], [ 112.705738990108983, 27.866851906537544 ], [ 112.707046857837312, 27.865179891987928 ], [ 112.706418009913108, 27.864289571760931 ], [ 112.702604801531891, 27.864574872424097 ], [ 112.701985974370714, 27.86422570264876 ], [ 112.702035908222669, 27.86388657403851 ], [ 112.702155751038148, 27.86305626298007 ], [ 112.702284549361153, 27.862585999487813 ], [ 112.702614035455682, 27.861384327764036 ], [ 112.702874631179384, 27.860433798629106 ], [ 112.702525378887742, 27.859095074248721 ], [ 112.702904745766901, 27.858274397595569 ], [ 112.70451182214245, 27.858451178350073 ], [ 112.705001945363676, 27.858506515386818 ], [ 112.705220556662042, 27.858530221607392 ], [ 112.708395224316419, 27.856985791251365 ], [ 112.708724692845038, 27.856775339504733 ], [ 112.709962726827257, 27.855984670280264 ], [ 112.710351151772045, 27.855336089725981 ], [ 112.710402076590825, 27.855253014272911 ], [ 112.710541870817522, 27.855022807193745 ], [ 112.710462009664823, 27.854882880618373 ], [ 112.709912940508744, 27.854294452263908 ], [ 112.709843054575856, 27.85428453638286 ], [ 112.70698783656556, 27.85402811870388 ], [ 112.70691795638831, 27.854027210176831 ], [ 112.706545598238876, 27.854011698133601 ], [ 112.705969599557207, 27.853986460327739 ], [ 112.704463265248705, 27.853921496621485 ], [ 112.702655551221824, 27.853853021640852 ], [ 112.701657405316141, 27.853815452059866 ], [ 112.701437817106921, 27.853804769724832 ], [ 112.700636331276357, 27.853765939387898 ], [ 112.700448688251001, 27.853757215574699 ], [ 112.697924580726237, 27.853630011047535 ], [ 112.697707030196014, 27.853362302850169 ], [ 112.697196090635799, 27.852730992038371 ], [ 112.697121318734361, 27.851716941842572 ], [ 112.697016638009998, 27.850300872745134 ], [ 112.697001668258153, 27.850294895150622 ], [ 112.696997676434975, 27.850291900896426 ], [ 112.694980806644253, 27.849413952795533 ], [ 112.692575741843854, 27.849787936393799 ], [ 112.692327231043862, 27.85018241292687 ], [ 112.691718434882816, 27.851149585616952 ] ] ], [ [ [ 112.664995801014811, 27.847741155909524 ], [ 112.664546868336103, 27.847657002148619 ], [ 112.664073985939325, 27.847646906038655 ], [ 112.663667935469832, 27.84776170202597 ], [ 112.663283823774989, 27.847991474483948 ], [ 112.662961544566969, 27.848494173011385 ], [ 112.662651241180853, 27.848939839085638 ], [ 112.662255153291767, 27.849206639459506 ], [ 112.661677499878294, 27.849368768615179 ], [ 112.661012059697313, 27.849418045271847 ], [ 112.659943558334831, 27.849505092395997 ], [ 112.658956861976776, 27.849546971251595 ], [ 112.659069552473625, 27.850143855564944 ], [ 112.65911243088614, 27.850419819560759 ], [ 112.65910044488723, 27.850599871816428 ], [ 112.659026602238782, 27.850794043615004 ], [ 112.658964732921874, 27.850971189912151 ], [ 112.659602229512529, 27.851147009884169 ], [ 112.65983868061754, 27.85109055165427 ], [ 112.660106031058604, 27.851393093352332 ], [ 112.660544969005116, 27.851820328756684 ], [ 112.660672670255693, 27.851810084032945 ], [ 112.660950996409866, 27.852075597708794 ], [ 112.661647317562796, 27.852625360793869 ], [ 112.662321693968266, 27.853097151168537 ], [ 112.664085459626946, 27.854060936762441 ], [ 112.664559418118614, 27.853059864263145 ], [ 112.664968790957914, 27.848690362888807 ], [ 112.664995801014811, 27.847741155909524 ] ] ] ] } }
]
}
