{
"type": "FeatureCollection",
"name": "七亩村村委会",
"crs": { "type": "name", "properties": { "name": "urn:ogc:def:crs:OGC:1.3:CRS84" } },
"features": [
{ "type": "Feature", "properties": { "adcode": "430302100258", "fullName": "湖南省湘潭市雨湖区鹤岭镇七亩村村委会", "level": "居委会/社区", "location": "112.855991,27.946738", "name": "七亩村村委会", "OBJECTID": 3938, "SHAPE_Leng": 0.0552106711142, "SHAPE_Area": 0.0001077578945 }, "geometry": { "type": "Polygon", "coordinates": [ [ [ 112.843547422617945, 27.952495477036361 ], [ 112.84390197545018, 27.952790133662866 ], [ 112.846212563169104, 27.954140263986453 ], [ 112.8474363866884, 27.95527248323663 ], [ 112.847608626540591, 27.955613824019963 ], [ 112.848285640328896, 27.955964990698231 ], [ 112.848705249307059, 27.956364739994481 ], [ 112.848737255882668, 27.956903882799207 ], [ 112.849586561457983, 27.956612202290124 ], [ 112.849382227759676, 27.956952931807756 ], [ 112.849166868940785, 27.957389658870675 ], [ 112.849016613652509, 27.957749477155776 ], [ 112.84907667774533, 27.958092631910262 ], [ 112.849485302047825, 27.957987271685774 ], [ 112.849742689163932, 27.957973681802919 ], [ 112.850060169089545, 27.957898175878476 ], [ 112.850662056307257, 27.957960141294294 ], [ 112.851987996104924, 27.957883204529509 ], [ 112.852371521477124, 27.958212853344541 ], [ 112.852662952041584, 27.958029271016443 ], [ 112.852371672561972, 27.956279527663018 ], [ 112.853756580476386, 27.956923750677387 ], [ 112.85327302365593, 27.955370755432586 ], [ 112.853597415061557, 27.956192386582348 ], [ 112.854390805922932, 27.952491955332764 ], [ 112.854197619103402, 27.951466492378056 ], [ 112.85424081926682, 27.949666252102201 ], [ 112.854305281079746, 27.944886536954968 ], [ 112.854734958878666, 27.943769988251717 ], [ 112.854795115879895, 27.942811914577415 ], [ 112.85489629180357, 27.942327982363217 ], [ 112.855013479648676, 27.941967094548922 ], [ 112.855304912095974, 27.941493444263241 ], [ 112.855647409239083, 27.941039870120964 ], [ 112.855809657931758, 27.940641039477903 ], [ 112.85590180916796, 27.940282112793284 ], [ 112.855786664486459, 27.940161924197909 ], [ 112.855561376831346, 27.939971561877883 ], [ 112.854797333815256, 27.940055448159868 ], [ 112.854389756568636, 27.940282879378316 ], [ 112.854121359859974, 27.940613533480686 ], [ 112.854046182474377, 27.941551580375595 ], [ 112.853905976509495, 27.941694393636293 ], [ 112.853520418801708, 27.941940852793323 ], [ 112.85319697660799, 27.941779333652825 ], [ 112.852746331872794, 27.941862658842847 ], [ 112.852251528817689, 27.943096107050401 ], [ 112.851154937994451, 27.943122403520839 ], [ 112.850801372105423, 27.943727950281517 ], [ 112.850016161406018, 27.944342809844134 ], [ 112.849188856085959, 27.945167624365748 ], [ 112.848501774285296, 27.945668597873048 ], [ 112.847404983631947, 27.947003030752523 ], [ 112.847018316071143, 27.947857537929199 ], [ 112.846901103796654, 27.948235408138714 ], [ 112.846706783061933, 27.948454123172301 ], [ 112.845965575441497, 27.948992979663192 ], [ 112.845675084580733, 27.949389560228738 ], [ 112.845761146883405, 27.950338865546758 ], [ 112.845545769662493, 27.950793581111139 ], [ 112.845191169610089, 27.951247060978357 ], [ 112.84403527930148, 27.951664170658848 ], [ 112.844009236449835, 27.951673127734637 ], [ 112.844007232972444, 27.951676124822857 ], [ 112.843740773872355, 27.952022728158568 ], [ 112.843547422617945, 27.952495477036361 ] ] ] } }
]
}
