{
"type": "FeatureCollection",
"name": "万新社区居委会",
"crs": { "type": "name", "properties": { "name": "urn:ogc:def:crs:OGC:1.3:CRS84" } },
"features": [
{ "type": "Feature", "properties": { "adcode": "430302003001", "fullName": "湖南省湘潭市雨湖区云塘街道万新社区居委会", "level": "居委会/社区", "location": "112.908871,27.866878", "name": "万新社区居委会", "OBJECTID": 3840, "SHAPE_Leng": 0.019723834378700001, "SHAPE_Area": 2.4944418500099999e-05 }, "geometry": { "type": "Polygon", "coordinates": [ [ [ 112.900540193461609, 27.869525773913967 ], [ 112.900583163303978, 27.869625782713705 ], [ 112.900615135550041, 27.869767800539236 ], [ 112.900642110757346, 27.869904818428228 ], [ 112.900750014327556, 27.870412882979043 ], [ 112.900861913070713, 27.870947950788 ], [ 112.90097980529157, 27.871517022569051 ], [ 112.901103697488068, 27.872035083955584 ], [ 112.901145656792934, 27.872262113262902 ], [ 112.901205621603879, 27.872289105047159 ], [ 112.90142749199947, 27.872361068564782 ], [ 112.902161044756355, 27.872612934622687 ], [ 112.902401898424046, 27.872612871486165 ], [ 112.902509830810018, 27.872626844702378 ], [ 112.903593106556585, 27.872934575087289 ], [ 112.904310590583648, 27.873184375224845 ], [ 112.904621359563436, 27.873285280244069 ], [ 112.905231899861718, 27.873375062743193 ], [ 112.905403768622833, 27.873379995065697 ], [ 112.905676564932236, 27.87328886827353 ], [ 112.906073269807322, 27.873055660976892 ], [ 112.906256131200607, 27.872946562765538 ], [ 112.906101310073794, 27.872249513377227 ], [ 112.906015415266495, 27.871779471552014 ], [ 112.905913531578463, 27.87132443875424 ], [ 112.90575870658202, 27.870642389658737 ], [ 112.905750715643407, 27.870606386963178 ], [ 112.905586903174338, 27.86983632574815 ], [ 112.905448061077138, 27.869183272926417 ], [ 112.905222312084575, 27.868168193151739 ], [ 112.905152392460877, 27.867813161213739 ], [ 112.905145400523693, 27.867777157925271 ], [ 112.902812066110585, 27.867163844706933 ], [ 112.902159481337705, 27.867008995820672 ], [ 112.90214848545908, 27.867041003989613 ], [ 112.902063516034744, 27.867302069232526 ], [ 112.901993541014789, 27.867516122570521 ], [ 112.901880587070423, 27.867781194764298 ], [ 112.901848598445582, 27.867876218446334 ], [ 112.901795621316893, 27.867980248644677 ], [ 112.901736647137383, 27.868089280982499 ], [ 112.901660670070839, 27.868359344106345 ], [ 112.901644674849564, 27.868416357390625 ], [ 112.90162367696972, 27.868544383715591 ], [ 112.90159168536708, 27.868672412568408 ], [ 112.901483731043257, 27.868876471434319 ], [ 112.901414762352729, 27.868975503525036 ], [ 112.901269832422145, 27.869118559377089 ], [ 112.90114589409211, 27.869207600820729 ], [ 112.900540193461609, 27.869525773913967 ] ] ] } }
]
}
