{
"type": "FeatureCollection",
"name": "万福社区居委会",
"crs": { "type": "name", "properties": { "name": "urn:ogc:def:crs:OGC:1.3:CRS84" } },
"features": [
{ "type": "Feature", "properties": { "adcode": "430304002003", "fullName": "湖南省湘潭市岳塘区东坪街道万福社区居委会", "level": "居委会/社区", "location": "112.894467,27.839367", "name": "万福社区居委会", "OBJECTID": 4052, "SHAPE_Leng": 0.043810768118700001, "SHAPE_Area": 9.60956644998e-05 }, "geometry": { "type": "Polygon", "coordinates": [ [ [ 112.890208329272582, 27.838489223154046 ], [ 112.888380261793031, 27.838625688506351 ], [ 112.883923589777496, 27.837061499300511 ], [ 112.883911586719492, 27.837057492346087 ], [ 112.881265758212962, 27.836127811947275 ], [ 112.881281760797606, 27.836176829906901 ], [ 112.881491794689254, 27.836807062646464 ], [ 112.882011870112237, 27.838368632099801 ], [ 112.882291921371362, 27.839007902068253 ], [ 112.884472212732561, 27.843819873805227 ], [ 112.886761499527438, 27.846111292431122 ], [ 112.887639579694792, 27.846544707125432 ], [ 112.889882619916733, 27.847653621146566 ], [ 112.892552386437984, 27.848573366922913 ], [ 112.893992101478219, 27.84927767653496 ], [ 112.894513051153325, 27.848531602719696 ], [ 112.896093816638398, 27.846272307997214 ], [ 112.896119811742722, 27.846235302272721 ], [ 112.896826661400098, 27.845286144679029 ], [ 112.896484805966367, 27.844859079377887 ], [ 112.895827978069946, 27.84519112706613 ], [ 112.893037884720457, 27.841295258413002 ], [ 112.890208329272582, 27.838489223154046 ] ] ] } }
]
}
