{
"type": "FeatureCollection",
"name": "三义井社区居委会",
"crs": { "type": "name", "properties": { "name": "urn:ogc:def:crs:OGC:1.3:CRS84" } },
"features": [
{ "type": "Feature", "properties": { "adcode": "430302002004", "fullName": "湖南省湘潭市雨湖区城正街街道三义井社区居委会", "level": "居委会/社区", "location": "112.933202,27.863191", "name": "三义井社区居委会", "OBJECTID": 3836, "SHAPE_Leng": 0.0437846106606, "SHAPE_Area": 8.15593290001e-05 }, "geometry": { "type": "Polygon", "coordinates": [ [ [ 112.931555823226333, 27.869035408079224 ], [ 112.932940851223165, 27.869830340240298 ], [ 112.933179330580288, 27.869965975982488 ], [ 112.933500624915325, 27.87014948166307 ], [ 112.935022463052718, 27.8678895591155 ], [ 112.935129237685715, 27.867725349615732 ], [ 112.93590059427784, 27.866538822576199 ], [ 112.935893610353702, 27.866535834216368 ], [ 112.935100425162389, 27.866153136227627 ], [ 112.932186844845049, 27.864738697657128 ], [ 112.931080177130099, 27.864237344414857 ], [ 112.931002338822381, 27.864204458713097 ], [ 112.928314756885513, 27.86292322434555 ], [ 112.924378054235873, 27.861190206457366 ], [ 112.924006647597011, 27.861744761038928 ], [ 112.922039677639845, 27.864669596166003 ], [ 112.921516384813458, 27.866302464613657 ], [ 112.921856839744819, 27.866349085961122 ], [ 112.92221126563625, 27.86640468750976 ], [ 112.922531738398476, 27.86649032836317 ], [ 112.922617592933491, 27.866556238554004 ], [ 112.923238482952428, 27.867636680329525 ], [ 112.92328140159519, 27.867761649529822 ], [ 112.923336264110333, 27.868348681505157 ], [ 112.923368196562052, 27.868529673194967 ], [ 112.923560848083156, 27.868851493287107 ], [ 112.923774466020177, 27.869125278011037 ], [ 112.923870282821014, 27.869390204600574 ], [ 112.924256509093382, 27.870850970591217 ], [ 112.924373297095457, 27.870992848324565 ], [ 112.924106743570476, 27.871135204682655 ], [ 112.923752333885929, 27.871297669190906 ], [ 112.923605574654033, 27.871388863944613 ], [ 112.924245465887722, 27.871647117911522 ], [ 112.925454321228898, 27.872072649304755 ], [ 112.926086173304029, 27.87227585318513 ], [ 112.926713019206886, 27.872427037840161 ], [ 112.92697353381584, 27.872491694305346 ], [ 112.927189133126944, 27.872500400266585 ], [ 112.927574481416201, 27.871619719314136 ], [ 112.927575482895804, 27.871576710704556 ], [ 112.927585503696974, 27.871069611698669 ], [ 112.92898005718871, 27.868236154030846 ], [ 112.929240589668566, 27.867708686159059 ], [ 112.931118742443161, 27.868785044170149 ], [ 112.931555823226333, 27.869035408079224 ] ] ] } }
]
}
