{
"type": "FeatureCollection",
"name": "三株岭社区居委会",
"crs": { "type": "name", "properties": { "name": "urn:ogc:def:crs:OGC:1.3:CRS84" } },
"features": [
{ "type": "Feature", "properties": { "adcode": "430304001008", "fullName": "湖南省湘潭市岳塘区岳塘街道三株岭社区居委会", "level": "居委会/社区", "location": "112.914663,27.807709", "name": "三株岭社区居委会", "OBJECTID": 4042, "SHAPE_Leng": 0.163733508991, "SHAPE_Area": 0.00052170987300100002 }, "geometry": { "type": "Polygon", "coordinates": [ [ [ 112.893861475076946, 27.831894853872736 ], [ 112.89560126856891, 27.829373578185056 ], [ 112.897097770261212, 27.829803648259315 ], [ 112.897777507253466, 27.829999647712789 ], [ 112.898401262449937, 27.829963595006504 ], [ 112.899523773053218, 27.829898456738619 ], [ 112.899865674351972, 27.829068275002417 ], [ 112.900176579537302, 27.828313105364419 ], [ 112.900180621047042, 27.82775201593682 ], [ 112.900183693770657, 27.826794864238543 ], [ 112.901738879576484, 27.82645249472478 ], [ 112.903809519060658, 27.827121012143294 ], [ 112.904251200769693, 27.827263884348231 ], [ 112.904252200063482, 27.827263883998047 ], [ 112.904652912796124, 27.827263739952304 ], [ 112.904890751409127, 27.827096624661554 ], [ 112.904282253803544, 27.826297720999339 ], [ 112.904179336907163, 27.826162735684747 ], [ 112.90423339789325, 27.824886515960475 ], [ 112.904234399670585, 27.82485451057855 ], [ 112.90424340992314, 27.824640473784747 ], [ 112.905960235477878, 27.823186578375715 ], [ 112.905952260827618, 27.822941543395469 ], [ 112.905946278770799, 27.822771519324135 ], [ 112.905933321106545, 27.822358460203901 ], [ 112.905892456620052, 27.821029269914511 ], [ 112.905890463784459, 27.820957259525198 ], [ 112.905884483414383, 27.820765232109835 ], [ 112.905933444776906, 27.820764211140038 ], [ 112.905978409347838, 27.820761191462061 ], [ 112.907095493720661, 27.820717678195297 ], [ 112.907063572348036, 27.820054590128183 ], [ 112.907321353945477, 27.820025461081968 ], [ 112.90792084581625, 27.819792123583355 ], [ 112.908020759364462, 27.819753065730161 ], [ 112.908301513671745, 27.819643900841239 ], [ 112.909128812171957, 27.818732302588749 ], [ 112.909462489044316, 27.81875511322124 ], [ 112.909382541849212, 27.8190732093144 ], [ 112.90921665037142, 27.819733407912445 ], [ 112.909299570906896, 27.819730359639532 ], [ 112.90942245262346, 27.819724287288622 ], [ 112.909639241792817, 27.819717158537959 ], [ 112.909909975314633, 27.819705994411201 ], [ 112.91009382629656, 27.819259812852827 ], [ 112.910188748897085, 27.819026718115882 ], [ 112.910705215253302, 27.819103404533454 ], [ 112.910854058952211, 27.819125311889572 ], [ 112.910244731903802, 27.818517604354156 ], [ 112.909354621975368, 27.818389119319427 ], [ 112.909377637791565, 27.81789902992902 ], [ 112.909380638384775, 27.81785402120617 ], [ 112.90941160824643, 27.817856003468005 ], [ 112.909695329893339, 27.817873838894251 ], [ 112.909724290128921, 27.818018844088936 ], [ 112.910185821462591, 27.818130580817204 ], [ 112.910409674020698, 27.817106282562815 ], [ 112.910549531214386, 27.817102193580876 ], [ 112.910566513768117, 27.81710218279089 ], [ 112.910572510246126, 27.817068173715594 ], [ 112.910529558783495, 27.817011192170384 ], [ 112.910815363737527, 27.815720809750708 ], [ 112.910904400028329, 27.814058495936802 ], [ 112.911284999352347, 27.814049243496456 ], [ 112.911335115787296, 27.811862874620843 ], [ 112.913038239860441, 27.811671637990997 ], [ 112.914106977019813, 27.811684815414178 ], [ 112.914246844988114, 27.811203630133082 ], [ 112.911868600183126, 27.811080390916597 ], [ 112.91203948654524, 27.810127126130833 ], [ 112.912125428889198, 27.809646992475518 ], [ 112.912002564126354, 27.809652079668862 ], [ 112.911872705859935, 27.809662171800998 ], [ 112.911812773672679, 27.809632208793964 ], [ 112.911803783479641, 27.809632215014322 ], [ 112.911792797012424, 27.809612219565867 ], [ 112.911803788135927, 27.809572205876339 ], [ 112.911830760099662, 27.809554184463135 ], [ 112.910762957926877, 27.808771779476977 ], [ 112.91157925902499, 27.806645916099651 ], [ 112.913078581825317, 27.806670847356639 ], [ 112.913142513292939, 27.806600788774475 ], [ 112.913211440301794, 27.806510723213531 ], [ 112.913282363188756, 27.80644065894937 ], [ 112.913351289708586, 27.806350592958477 ], [ 112.913452181581334, 27.806220496244553 ], [ 112.913531096515925, 27.806120420535294 ], [ 112.913571054827614, 27.806050379170358 ], [ 112.913721878543271, 27.806020257754195 ], [ 112.913951605042598, 27.806010076234845 ], [ 112.914271218987807, 27.806009821827775 ], [ 112.914321161303818, 27.805969775619715 ], [ 112.914380093291498, 27.805919720527442 ], [ 112.914411067090043, 27.805769672839535 ], [ 112.914431062053907, 27.805519618935602 ], [ 112.914441060692695, 27.805379589723199 ], [ 112.914461043206543, 27.805289559946107 ], [ 112.914509986269294, 27.805249514134228 ], [ 112.914619854919962, 27.805199416898525 ], [ 112.914739708250963, 27.805179315410864 ], [ 112.914780657441852, 27.80517928161758 ], [ 112.914949449441508, 27.805149137004136 ], [ 112.914970423981387, 27.805139117999513 ], [ 112.915040337142386, 27.805129058024356 ], [ 112.915060312063929, 27.805129041278793 ], [ 112.915190150114626, 27.805108928980548 ], [ 112.915608617252403, 27.805109571736534 ], [ 112.915889254283442, 27.805118328995047 ], [ 112.916458507205533, 27.805117822976715 ], [ 112.916547389157301, 27.805116742502349 ], [ 112.916717162337974, 27.805117588240197 ], [ 112.916738133451346, 27.805127570582968 ], [ 112.91690790499834, 27.805128414867642 ], [ 112.917017756529376, 27.805127313173493 ], [ 112.917147580966571, 27.805117190962889 ], [ 112.917367280611458, 27.805116984974273 ], [ 112.917585978430537, 27.805126779281167 ], [ 112.917886560243929, 27.805126491004771 ], [ 112.917916519091847, 27.805116460544262 ], [ 112.917976435098836, 27.805116402516912 ], [ 112.918036351702014, 27.805106342821901 ], [ 112.918146199245498, 27.805076231206147 ], [ 112.918294990943195, 27.805046080760498 ], [ 112.9183848638759, 27.805036990782373 ], [ 112.918405834782192, 27.805026968545249 ], [ 112.918415820550351, 27.805026958666726 ], [ 112.918424806960672, 27.805036951278982 ], [ 112.918424806261612, 27.80504595263513 ], [ 112.918435789042363, 27.805065944772899 ], [ 112.918434783709102, 27.805152958873023 ], [ 112.918434781068171, 27.805186963997723 ], [ 112.918424780551348, 27.805377002530243 ], [ 112.918415784120981, 27.805496029372559 ], [ 112.918424769676804, 27.805517023645869 ], [ 112.918434754658634, 27.805527015267383 ], [ 112.918474697642992, 27.805526975674887 ], [ 112.918574554831096, 27.805525876231037 ], [ 112.918968985526348, 27.805525479671999 ], [ 112.919034032475921, 27.803705139796193 ], [ 112.919025045563188, 27.803705148934995 ], [ 112.919013063084421, 27.803704160964273 ], [ 112.918951153716066, 27.803696222588002 ], [ 112.918858289225511, 27.803685314853212 ], [ 112.918864307815241, 27.803334256112876 ], [ 112.917878711057028, 27.803328228328805 ], [ 112.916678354016469, 27.803320353543505 ], [ 112.916710314575383, 27.803277317936825 ], [ 112.91714876907993, 27.802676823388698 ], [ 112.917378479548532, 27.802360560652087 ], [ 112.91362026451371, 27.80260282285278 ], [ 112.91295700324865, 27.803049392959313 ], [ 112.912956004396491, 27.80304939370226 ], [ 112.9120769490697, 27.803640118562889 ], [ 112.910100929183116, 27.804966620642013 ], [ 112.904812251324813, 27.808515774953761 ], [ 112.902368906365908, 27.808380537722023 ], [ 112.901058669707325, 27.808307836440921 ], [ 112.900672901995605, 27.807976862794852 ], [ 112.896321006780198, 27.804245705578573 ], [ 112.895854111606624, 27.804685765797885 ], [ 112.890418548715729, 27.809807776534623 ], [ 112.889420408071828, 27.81160277283454 ], [ 112.887342964438105, 27.815336634348924 ], [ 112.883180543799753, 27.821902693050305 ], [ 112.883577618556117, 27.822501004025906 ], [ 112.884991826496844, 27.824635061494625 ], [ 112.885780510807905, 27.830882417315657 ], [ 112.893861475076946, 27.831894853872736 ] ] ] } }
]
}
