{
"type": "FeatureCollection",
"name": "三角坪社区居委会",
"crs": { "type": "name", "properties": { "name": "urn:ogc:def:crs:OGC:1.3:CRS84" } },
"features": [
{ "type": "Feature", "properties": { "adcode": "430304002001", "fullName": "湖南省湘潭市岳塘区东坪街道三角坪社区居委会", "level": "居委会/社区", "location": "112.913656,27.838779", "name": "三角坪社区居委会", "OBJECTID": 4050, "SHAPE_Leng": 0.046241428761900003, "SHAPE_Area": 5.4829705500099997e-05 }, "geometry": { "type": "Polygon", "coordinates": [ [ [ 112.910796217295953, 27.84359323983476 ], [ 112.912949283340964, 27.838155865055274 ], [ 112.912975256039786, 27.838122840415089 ], [ 112.911141317559853, 27.83765005402898 ], [ 112.911123333455762, 27.837690072357255 ], [ 112.910808607884761, 27.838404393057672 ], [ 112.91145191329197, 27.83859399820523 ], [ 112.91141493815968, 27.838784053772351 ], [ 112.91138996520742, 27.838780069951415 ], [ 112.910782613837171, 27.838675453499615 ], [ 112.910765651362127, 27.838419423215097 ], [ 112.910443988504454, 27.838344616221132 ], [ 112.910583878347552, 27.837916458723292 ], [ 112.910273200605488, 27.837851643864475 ], [ 112.910398100886908, 27.83750150946495 ], [ 112.910412089653462, 27.83746249440243 ], [ 112.908462024228953, 27.836922547675051 ], [ 112.907199170892213, 27.836609143844299 ], [ 112.907191174941758, 27.83664515348886 ], [ 112.9069303098223, 27.837761457333539 ], [ 112.907977395101057, 27.837815947895805 ], [ 112.907398711260441, 27.840311642650835 ], [ 112.90764449141264, 27.840379531223391 ], [ 112.906918912658099, 27.842996308171241 ], [ 112.906896931705603, 27.842989317373998 ], [ 112.905927747686661, 27.842673700263923 ], [ 112.906093783424922, 27.840512279153014 ], [ 112.905702103501952, 27.8403774236874 ], [ 112.90405340577243, 27.839289872422047 ], [ 112.904043409007002, 27.839337883575624 ], [ 112.903682517021636, 27.841140294801058 ], [ 112.904466958524324, 27.841282049076327 ], [ 112.904874566560224, 27.842507096881484 ], [ 112.904265965657004, 27.843034404375508 ], [ 112.904259969510605, 27.843039407291297 ], [ 112.903888204024554, 27.843360586706705 ], [ 112.903890202415525, 27.843363586525733 ], [ 112.904594615834526, 27.844508525902899 ], [ 112.904367745827898, 27.844933676879343 ], [ 112.905217004768687, 27.846444604587571 ], [ 112.905751560802258, 27.846864456017155 ], [ 112.906062320294325, 27.84679631281255 ], [ 112.909108567710319, 27.847862961011575 ], [ 112.910782229113792, 27.843628254551611 ], [ 112.910796217295953, 27.84359323983476 ] ] ] } }
]
}
