{
"type": "FeatureCollection",
"name": "上新村村委会",
"crs": { "type": "name", "properties": { "name": "urn:ogc:def:crs:OGC:1.3:CRS84" } },
"features": [
{ "type": "Feature", "properties": { "adcode": "430302202215", "fullName": "湖南省湘潭市雨湖区长城乡上新村村委会", "level": "居委会/社区", "location": "112.848719,27.88193", "name": "上新村村委会", "OBJECTID": 3994, "SHAPE_Leng": 0.062696248730500004, "SHAPE_Area": 0.0001461515075 }, "geometry": { "type": "Polygon", "coordinates": [ [ [ 112.849743703382899, 27.893680704796481 ], [ 112.84912477826532, 27.89361169893602 ], [ 112.848522844260984, 27.8938757697371 ], [ 112.847789752068991, 27.893473504842671 ], [ 112.847620498247693, 27.893380211250712 ], [ 112.847361333639782, 27.890345267584898 ], [ 112.84654612502041, 27.889547782706178 ], [ 112.84706203135147, 27.888257418251076 ], [ 112.847062090486617, 27.887499289370705 ], [ 112.847621036697717, 27.886477036441981 ], [ 112.847835586101255, 27.883669911584285 ], [ 112.847190618233597, 27.883288786409686 ], [ 112.847621338546233, 27.882606379783862 ], [ 112.846804169855091, 27.881315812720199 ], [ 112.846503767734106, 27.880442165947667 ], [ 112.846244428354339, 27.8795685861263 ], [ 112.845901973965724, 27.878467827675728 ], [ 112.84560249676143, 27.87850533183067 ], [ 112.8450425904621, 27.878694420658103 ], [ 112.844956594739386, 27.876873967707098 ], [ 112.843751783716087, 27.875201636056534 ], [ 112.843150775676136, 27.875579668501683 ], [ 112.841130471735724, 27.875160089780714 ], [ 112.84035610374788, 27.876069882780286 ], [ 112.838980729703763, 27.876674548312049 ], [ 112.839625682478641, 27.878496001752428 ], [ 112.838078063349968, 27.878265204718062 ], [ 112.838250305263514, 27.878948628716184 ], [ 112.83652933208846, 27.879022543907631 ], [ 112.837218453938235, 27.879933942449853 ], [ 112.836615327448698, 27.880995033375328 ], [ 112.837002969125493, 27.881375798116917 ], [ 112.83683162527872, 27.881982591649646 ], [ 112.83731339722182, 27.882762592755853 ], [ 112.838726807377355, 27.88295515874881 ], [ 112.840145137963461, 27.883905837008385 ], [ 112.84057474777623, 27.885348839109845 ], [ 112.840035699324147, 27.88716619770247 ], [ 112.839844325956719, 27.88781196921536 ], [ 112.840001554633304, 27.888283327430123 ], [ 112.840833758881374, 27.890774217469062 ], [ 112.841391485795413, 27.89339164071222 ], [ 112.842509229258653, 27.894758818110432 ], [ 112.843841292600416, 27.896203356356864 ], [ 112.843989534665283, 27.896178605379053 ], [ 112.847151595565052, 27.895640824999198 ], [ 112.848569825564866, 27.895035043918551 ], [ 112.849743703382899, 27.893680704796481 ] ] ] } }
]
}
