{
"type": "FeatureCollection",
"name": "下摄司村村委会_1",
"crs": { "type": "name", "properties": { "name": "urn:ogc:def:crs:OGC:1.3:CRS84" } },
"features": [
{ "type": "Feature", "properties": { "adcode": "430304014206", "fullName": "湖南省湘潭市岳塘区霞城街道下摄司村村委会", "level": "居委会/社区", "location": "112.924207,27.797497", "name": "下摄司村村委会", "OBJECTID": 4098, "SHAPE_Leng": 0.13494781914100001, "SHAPE_Area": 0.0001129684405 }, "geometry": { "type": "MultiPolygon", "coordinates": [ [ [ [ 112.91295700324865, 27.803049392959313 ], [ 112.91362026451371, 27.80260282285278 ], [ 112.912956004396491, 27.80304939370226 ], [ 112.91295700324865, 27.803049392959313 ] ] ], [ [ [ 112.91362026451371, 27.80260282285278 ], [ 112.917378479548532, 27.802360560652087 ], [ 112.91714876907993, 27.802676823388698 ], [ 112.91788575183746, 27.802677123970611 ], [ 112.918306159423906, 27.802675713856217 ], [ 112.918784474511497, 27.802675237807097 ], [ 112.919823946464845, 27.802674168037306 ], [ 112.920282255548528, 27.80267368107695 ], [ 112.92119185322602, 27.802672686972695 ], [ 112.92221023430767, 27.802671530487977 ], [ 112.922718407915482, 27.802661934925627 ], [ 112.922829225929988, 27.802660803683807 ], [ 112.923157681962849, 27.802670413460373 ], [ 112.924102090481085, 27.802669260761267 ], [ 112.924111075129716, 27.802669249607401 ], [ 112.924174985288175, 27.802419132747964 ], [ 112.924186968274824, 27.802374111100235 ], [ 112.926859215506539, 27.802392632170125 ], [ 112.926865204468299, 27.802392624018498 ], [ 112.927015003261829, 27.801424274981709 ], [ 112.925890072002787, 27.801197752213124 ], [ 112.926039944275672, 27.799375282878703 ], [ 112.924401838429134, 27.799301384758763 ], [ 112.924392014228332, 27.79726109501917 ], [ 112.924392018270922, 27.797209087335339 ], [ 112.931860710081381, 27.798398698692708 ], [ 112.931932587777297, 27.798047533567434 ], [ 112.932051389772866, 27.797407251433221 ], [ 112.932201129384723, 27.796726913889898 ], [ 112.93230195355919, 27.796267686021054 ], [ 112.932374826670696, 27.795929520192633 ], [ 112.929949804873601, 27.79578624218227 ], [ 112.927391753883683, 27.795633899019098 ], [ 112.917248213406992, 27.795215623779985 ], [ 112.910755992325207, 27.795541805630521 ], [ 112.908809900945812, 27.795712998644458 ], [ 112.910735785876568, 27.798471251055727 ], [ 112.910925590634662, 27.798441123689109 ], [ 112.911135370835751, 27.798431984601145 ], [ 112.9120433929981, 27.798400360780612 ], [ 112.912083349676124, 27.798390331193659 ], [ 112.912543842576653, 27.798299988740617 ], [ 112.913252047910376, 27.798080431436823 ], [ 112.913982188372174, 27.798028859030119 ], [ 112.915170708498522, 27.798238919333031 ], [ 112.914311724516963, 27.798868720671912 ], [ 112.913722400829187, 27.799289249568506 ], [ 112.913432725746716, 27.799509505831633 ], [ 112.912743481977799, 27.800030099893814 ], [ 112.912413835027266, 27.800280376656829 ], [ 112.91214412005607, 27.800481598936809 ], [ 112.912140124326811, 27.80048360205955 ], [ 112.913297679343401, 27.802141000979084 ], [ 112.913072927876712, 27.802300194257988 ], [ 112.91304296091387, 27.802320219677235 ], [ 112.913032970105576, 27.80235023163425 ], [ 112.91317281147434, 27.802310120709862 ], [ 112.913393556626758, 27.802277948473179 ], [ 112.91362026451371, 27.80260282285278 ] ] ], [ [ [ 112.911835754412309, 27.809557181458587 ], [ 112.912102474098432, 27.80939196986024 ], [ 112.912077500688483, 27.809404989435929 ], [ 112.91206251668946, 27.809412001046059 ], [ 112.912033547555993, 27.809426023534684 ], [ 112.912022559199343, 27.809432032159915 ], [ 112.911963621714477, 27.809462077997551 ], [ 112.911938647585188, 27.809482098482679 ], [ 112.911902684690105, 27.809512128114676 ], [ 112.911849740219026, 27.809543169628714 ], [ 112.911833756982347, 27.809552182081873 ], [ 112.911830760099662, 27.809554184463135 ], [ 112.911835754412309, 27.809557181458587 ] ] ] ] } }
]
}
