{
"type": "FeatureCollection",
"name": "东湖路社区居委会",
"crs": { "type": "name", "properties": { "name": "urn:ogc:def:crs:OGC:1.3:CRS84" } },
"features": [
{ "type": "Feature", "properties": { "adcode": "430304010009", "fullName": "湖南省湘潭市岳塘区宝塔街道东湖路社区居委会", "level": "居委会/社区", "location": "112.93043,27.853435", "name": "东湖路社区居委会", "OBJECTID": 4089, "SHAPE_Leng": 0.14724135306899999, "SHAPE_Area": 0.0002650329225 }, "geometry": { "type": "Polygon", "coordinates": [ [ [ 112.954143853109599, 27.858455537251515 ], [ 112.953657438617441, 27.856820427452035 ], [ 112.953631522924525, 27.856732474551208 ], [ 112.953592638101796, 27.856743568796269 ], [ 112.947218770766341, 27.858591357772614 ], [ 112.946501719192455, 27.858734924792333 ], [ 112.94191074113958, 27.859162438180167 ], [ 112.939955586335401, 27.859442268011033 ], [ 112.939055888968596, 27.857934710338917 ], [ 112.939023967075713, 27.857918767153226 ], [ 112.936148811431536, 27.856560733189042 ], [ 112.936852279037069, 27.855511320371036 ], [ 112.93684130494168, 27.855504338710798 ], [ 112.9378660368412, 27.853936239852448 ], [ 112.937795206337199, 27.85390136267306 ], [ 112.936762490491816, 27.855458470988271 ], [ 112.933648136726973, 27.859536470717781 ], [ 112.933011570073134, 27.858716374896542 ], [ 112.930913041610651, 27.857547491200229 ], [ 112.931816240065842, 27.856800965859488 ], [ 112.933158515824601, 27.855391587089052 ], [ 112.933707378742355, 27.854803591174878 ], [ 112.933341189211376, 27.854553151105254 ], [ 112.932480075362704, 27.85390343609998 ], [ 112.932115817285847, 27.854211066304302 ], [ 112.93182844471923, 27.85385946179202 ], [ 112.931633898546096, 27.853221661852356 ], [ 112.931341550525758, 27.852604015649661 ], [ 112.931106013617935, 27.852864422661689 ], [ 112.929841550359953, 27.853042367428237 ], [ 112.929215769005339, 27.853242323336765 ], [ 112.926971057373649, 27.853047465060882 ], [ 112.921565527609985, 27.850652819412243 ], [ 112.921424593048258, 27.852670309265324 ], [ 112.921314734013237, 27.85308049983864 ], [ 112.926579533633117, 27.856174511564394 ], [ 112.925895668548094, 27.857527647440381 ], [ 112.919837797064559, 27.855692533673121 ], [ 112.921261810015011, 27.853171573949645 ], [ 112.921362692515174, 27.852645374623023 ], [ 112.921177990623676, 27.852539563472142 ], [ 112.919406739234887, 27.851828347525188 ], [ 112.914097024229065, 27.849803873067753 ], [ 112.913487766182726, 27.849605316782405 ], [ 112.9134737829459, 27.849601326862395 ], [ 112.913461797506343, 27.849595335074245 ], [ 112.913448813155313, 27.84959034420876 ], [ 112.912721676136869, 27.849306842945232 ], [ 112.912699701830263, 27.849297857577149 ], [ 112.912686716976452, 27.849292866265071 ], [ 112.909127549050382, 27.847869951329645 ], [ 112.909107565322444, 27.847905968606501 ], [ 112.909093579047166, 27.847900975755248 ], [ 112.905834950105472, 27.853879570661981 ], [ 112.9058159624811, 27.853912584099287 ], [ 112.905736013529562, 27.854062642322599 ], [ 112.905817946615699, 27.854096613568842 ], [ 112.905855915472301, 27.854112600181459 ], [ 112.90898310225613, 27.855382266392599 ], [ 112.910654391572351, 27.856098378510115 ], [ 112.914826500100062, 27.857888611546283 ], [ 112.915395769970985, 27.858057160586291 ], [ 112.915690385533949, 27.858145921723118 ], [ 112.917212329517412, 27.858605625835644 ], [ 112.921317202874988, 27.859841613401681 ], [ 112.924378054235873, 27.861190206457366 ], [ 112.928314756885513, 27.86292322434555 ], [ 112.931002338822381, 27.864204458713097 ], [ 112.931080177130099, 27.864237344414857 ], [ 112.932186844845049, 27.864738697657128 ], [ 112.935100425162389, 27.866153136227627 ], [ 112.935893610353702, 27.866535834216368 ], [ 112.939591364091413, 27.860855190896732 ], [ 112.941081768780563, 27.859875178164394 ], [ 112.94845329157441, 27.859330781219104 ], [ 112.954143853109599, 27.858455537251515 ] ] ] } }
]
}
