{
"type": "FeatureCollection",
"name": "中心村村委会",
"crs": { "type": "name", "properties": { "name": "urn:ogc:def:crs:OGC:1.3:CRS84" } },
"features": [
{ "type": "Feature", "properties": { "adcode": "430302008201", "fullName": "湖南省湘潭市雨湖区先锋街道中心村村委会", "level": "居委会/社区", "location": "112.886283,27.875526", "name": "中心村村委会", "OBJECTID": 3887, "SHAPE_Leng": 0.044978526501400003, "SHAPE_Area": 8.4424754e-05 }, "geometry": { "type": "Polygon", "coordinates": [ [ [ 112.87452283819168, 27.877994606645906 ], [ 112.875661523838531, 27.878881740262418 ], [ 112.878944128553471, 27.88232689094815 ], [ 112.879631332678841, 27.883996660046954 ], [ 112.879975433154101, 27.884756025435703 ], [ 112.879803306970899, 27.885362010521565 ], [ 112.882182230028718, 27.886072656720412 ], [ 112.882913484544432, 27.886018071716805 ], [ 112.882934491456865, 27.886017083423269 ], [ 112.883127632217153, 27.885002019459311 ], [ 112.882698518961078, 27.884659718629781 ], [ 112.883404802490944, 27.883915988113316 ], [ 112.883427811331373, 27.883891996598965 ], [ 112.883954965379075, 27.883882276769327 ], [ 112.88396396788724, 27.883882281486056 ], [ 112.884171047870694, 27.883582338205873 ], [ 112.884180051300632, 27.88356934064041 ], [ 112.884428129350226, 27.883404439196962 ], [ 112.884437132130884, 27.883398442724918 ], [ 112.884579181212771, 27.883230485525257 ], [ 112.884589184647652, 27.883218488480118 ], [ 112.884684216973739, 27.883105516519379 ], [ 112.884995297073687, 27.883029655567835 ], [ 112.885260351902048, 27.883092792600554 ], [ 112.885499400901679, 27.883119908682652 ], [ 112.885507402488884, 27.883120912544257 ], [ 112.885704462137795, 27.882868959933621 ], [ 112.885722467496848, 27.882845964189219 ], [ 112.886098554230685, 27.882646097575293 ], [ 112.886478640748422, 27.882373214487661 ], [ 112.886506646927316, 27.882352222718005 ], [ 112.886441659857226, 27.882049143985384 ], [ 112.886421657018829, 27.882043134499419 ], [ 112.884295253843575, 27.881356024733236 ], [ 112.883921163794653, 27.881205805574449 ], [ 112.884046221335993, 27.880911821208347 ], [ 112.884296334209282, 27.880324850787979 ], [ 112.884280362697581, 27.879903771414519 ], [ 112.884414457888383, 27.879128708537142 ], [ 112.884617641854234, 27.877422522250789 ], [ 112.884559667201756, 27.876909406761303 ], [ 112.884800828839516, 27.875591303822375 ], [ 112.884907941215516, 27.874472167541718 ], [ 112.885454145432945, 27.873410247994684 ], [ 112.885478153964556, 27.87336525153906 ], [ 112.885466151449634, 27.873365245985081 ], [ 112.884784997268056, 27.873372922534006 ], [ 112.884611935689293, 27.87361987857491 ], [ 112.884354876090967, 27.873543736520908 ], [ 112.88257337683504, 27.873066687666338 ], [ 112.881865123974677, 27.873067267592059 ], [ 112.881865059115285, 27.873902408062445 ], [ 112.881092721324521, 27.874375006923991 ], [ 112.880513484086435, 27.874299618418348 ], [ 112.880148349862083, 27.873957317194286 ], [ 112.878816737984195, 27.873652333961672 ], [ 112.87864564037487, 27.873786231839162 ], [ 112.878623596669357, 27.874203285902357 ], [ 112.878021196548559, 27.875266016679603 ], [ 112.876991576857435, 27.875795308145729 ], [ 112.87632615707048, 27.876079819514359 ], [ 112.875145394191463, 27.87623185280205 ], [ 112.875038296746055, 27.876572817790056 ], [ 112.8745859300017, 27.877368556667374 ], [ 112.874558891318586, 27.877628576699248 ], [ 112.87452283819168, 27.877994606645906 ] ] ] } }
]
}
