{
"type": "FeatureCollection",
"name": "中心社区居委会",
"crs": { "type": "name", "properties": { "name": "urn:ogc:def:crs:OGC:1.3:CRS84" } },
"features": [
{ "type": "Feature", "properties": { "adcode": "430302004005", "fullName": "湖南省湘潭市雨湖区广场街道中心社区居委会", "level": "居委会/社区", "location": "112.895511,27.873573", "name": "中心社区居委会", "OBJECTID": 3852, "SHAPE_Leng": 0.068474689655400003, "SHAPE_Area": 0.0001209596605 }, "geometry": { "type": "Polygon", "coordinates": [ [ [ 112.883921163794653, 27.881205805574449 ], [ 112.884295253843575, 27.881356024733236 ], [ 112.886421657018829, 27.882043134499419 ], [ 112.886441659857226, 27.882049143985384 ], [ 112.888659856602004, 27.882744098144816 ], [ 112.890462865935689, 27.883047677994039 ], [ 112.893594543915484, 27.883161286679815 ], [ 112.893582536619419, 27.88328230573239 ], [ 112.894125446398689, 27.883126338882878 ], [ 112.894406394079184, 27.883045350978218 ], [ 112.899755655483744, 27.881494920852095 ], [ 112.899384844641304, 27.881309941889004 ], [ 112.898448272795648, 27.881087009202524 ], [ 112.897799548183869, 27.88087502333488 ], [ 112.897215794596647, 27.880471984277531 ], [ 112.896524077713863, 27.879826890288996 ], [ 112.895247532637327, 27.878706673767024 ], [ 112.895434570568483, 27.877589493592438 ], [ 112.895439571414045, 27.877561489071265 ], [ 112.894986765928806, 27.876544294510339 ], [ 112.894947775556986, 27.876542291776865 ], [ 112.893634058285144, 27.876451157091758 ], [ 112.89363407009337, 27.876299131460833 ], [ 112.89310816048696, 27.876252054817606 ], [ 112.891499345530548, 27.876213764339987 ], [ 112.891520418375336, 27.875255607301664 ], [ 112.891402437185278, 27.875123559974934 ], [ 112.891466465096343, 27.874705503255488 ], [ 112.892121401985904, 27.874771644333041 ], [ 112.891681482209151, 27.874269474530962 ], [ 112.89144450925123, 27.874157406313454 ], [ 112.891460519904385, 27.874005384139302 ], [ 112.892109466151766, 27.873961505757517 ], [ 112.892082484314713, 27.873763467431097 ], [ 112.892935387811676, 27.873654592203888 ], [ 112.892914427248527, 27.873185510166802 ], [ 112.892867441669196, 27.873085486236366 ], [ 112.892687479052896, 27.872919430200344 ], [ 112.89245154404675, 27.872465314899287 ], [ 112.89223557549785, 27.872380262838519 ], [ 112.891678627705019, 27.872399159395364 ], [ 112.891721576171065, 27.873016271820219 ], [ 112.890509661713665, 27.872786957760628 ], [ 112.890380694217157, 27.872407861049325 ], [ 112.891088691885301, 27.87209498090191 ], [ 112.890906734189684, 27.871667866878166 ], [ 112.890660791397352, 27.8710577050506 ], [ 112.892011698456159, 27.871098006229559 ], [ 112.892557603181857, 27.871536176636059 ], [ 112.892430654754151, 27.871072077344301 ], [ 112.892096702293173, 27.870937995294376 ], [ 112.892108743690343, 27.870388905399217 ], [ 112.891913764544128, 27.870368865161865 ], [ 112.891752790901919, 27.870216807988182 ], [ 112.892859664692338, 27.870228005202595 ], [ 112.892998677923103, 27.869800954411065 ], [ 112.892278776313418, 27.869732826214381 ], [ 112.892568776700998, 27.869283800679945 ], [ 112.892342818290587, 27.869098731242612 ], [ 112.891388973278183, 27.868232399836298 ], [ 112.889701031513837, 27.868102953523163 ], [ 112.889642068246431, 27.867619855668554 ], [ 112.889363079586886, 27.867397736028344 ], [ 112.888698071388617, 27.867130481534261 ], [ 112.888215044970863, 27.867031300957077 ], [ 112.888075971311267, 27.867827385100302 ], [ 112.887766912909143, 27.868198335366053 ], [ 112.887739896909508, 27.868368353866668 ], [ 112.887550866035312, 27.868501305566767 ], [ 112.887135772348728, 27.869051237537075 ], [ 112.88816984787789, 27.869521702041421 ], [ 112.887718706468718, 27.870792752422563 ], [ 112.887676556076272, 27.872672052429575 ], [ 112.887651553458369, 27.872671042946632 ], [ 112.886303366320831, 27.872652499361092 ], [ 112.885659218511492, 27.873012275230799 ], [ 112.885654216729407, 27.873022274635836 ], [ 112.885478153964556, 27.87336525153906 ], [ 112.885454145432945, 27.873410247994684 ], [ 112.884907941215516, 27.874472167541718 ], [ 112.884800828839516, 27.875591303822375 ], [ 112.884559667201756, 27.876909406761303 ], [ 112.884617641854234, 27.877422522250789 ], [ 112.884414457888383, 27.879128708537142 ], [ 112.884280362697581, 27.879903771414519 ], [ 112.884296334209282, 27.880324850787979 ], [ 112.884046221335993, 27.880911821208347 ], [ 112.883921163794653, 27.881205805574449 ] ] ] } }
]
}
