{
"type": "FeatureCollection",
"name": "九洲社区居委会",
"crs": { "type": "name", "properties": { "name": "urn:ogc:def:crs:OGC:1.3:CRS84" } },
"features": [
{ "type": "Feature", "properties": { "adcode": "430304005003", "fullName": "湖南省湘潭市岳塘区下摄司街道九洲社区居委会", "level": "居委会/社区", "location": "112.936147,27.798837", "name": "九洲社区居委会", "OBJECTID": 4062, "SHAPE_Leng": 0.048444700269600002, "SHAPE_Area": 6.5613784000099999e-05 }, "geometry": { "type": "Polygon", "coordinates": [ [ [ 112.938141084117532, 27.806714258894772 ], [ 112.937917634155824, 27.806429623177635 ], [ 112.934867918633614, 27.802539398730033 ], [ 112.933833190862245, 27.80254513308881 ], [ 112.932955390381935, 27.798572977976583 ], [ 112.931860710081381, 27.798398698692708 ], [ 112.924392018270922, 27.797209087335339 ], [ 112.924392014228332, 27.79726109501917 ], [ 112.924401838429134, 27.799301384758763 ], [ 112.926039944275672, 27.799375282878703 ], [ 112.925890072002787, 27.801197752213124 ], [ 112.927015003261829, 27.801424274981709 ], [ 112.926865204468299, 27.802392624018498 ], [ 112.930306597612528, 27.802117645737624 ], [ 112.927534707364643, 27.805627188893538 ], [ 112.927467694396839, 27.807404550449078 ], [ 112.929361059514193, 27.807446854184768 ], [ 112.929372047613072, 27.807322819278237 ], [ 112.929379040900145, 27.807232795385332 ], [ 112.929459953676712, 27.806311537167954 ], [ 112.929464948138175, 27.806256521509276 ], [ 112.930662585135082, 27.805893673349306 ], [ 112.932958809878883, 27.805915070072267 ], [ 112.934489462526102, 27.806290601604925 ], [ 112.935523141335921, 27.806543880554329 ], [ 112.936075880272355, 27.806678942506512 ], [ 112.93809619040276, 27.806713340740913 ], [ 112.938141084117532, 27.806714258894772 ] ] ] } }
]
}
