{
"type": "FeatureCollection",
"name": "书院路社区居委会",
"crs": { "type": "name", "properties": { "name": "urn:ogc:def:crs:OGC:1.3:CRS84" } },
"features": [
{ "type": "Feature", "properties": { "adcode": "430304004007", "fullName": "湖南省湘潭市岳塘区书院路街道书院路社区居委会", "level": "居委会/社区", "location": "112.927028,27.81352", "name": "书院路社区居委会", "OBJECTID": 4057, "SHAPE_Leng": 0.020115201237600001, "SHAPE_Area": 2.00440690002e-05 }, "geometry": { "type": "Polygon", "coordinates": [ [ [ 112.920282991686761, 27.818899155758697 ], [ 112.923958079801309, 27.818795898907727 ], [ 112.923975050915246, 27.818795877942023 ], [ 112.924112069833939, 27.815553206523376 ], [ 112.924456478268368, 27.815552776268348 ], [ 112.924498468093859, 27.814752600191966 ], [ 112.923542099670286, 27.814736781274142 ], [ 112.922677535797533, 27.814722814515903 ], [ 112.922243243363255, 27.814714320901757 ], [ 112.922055546203438, 27.814711537319539 ], [ 112.922071539723703, 27.814464480885757 ], [ 112.921627250013458, 27.814456987133504 ], [ 112.921493438156674, 27.814761185056152 ], [ 112.921346643647141, 27.815093401075604 ], [ 112.92073459742673, 27.81508407671916 ], [ 112.920637735480227, 27.815226204248784 ], [ 112.92063773431417, 27.815241206561932 ], [ 112.920628726434956, 27.815520259379799 ], [ 112.920613749597621, 27.815518275363523 ], [ 112.920038630437944, 27.815443881886203 ], [ 112.920012666280783, 27.815485915919698 ], [ 112.919645172198628, 27.816052390077203 ], [ 112.91935356798551, 27.81651276379495 ], [ 112.917896469749635, 27.818967599355354 ], [ 112.917900464158748, 27.818967595495206 ], [ 112.920065320905692, 27.818903388845772 ], [ 112.920282991686761, 27.818899155758697 ] ] ] } }
]
}
