{
"type": "FeatureCollection",
"name": "云峰社区居委会",
"crs": { "type": "name", "properties": { "name": "urn:ogc:def:crs:OGC:1.3:CRS84" } },
"features": [
{ "type": "Feature", "properties": { "adcode": "430304010006", "fullName": "湖南省湘潭市岳塘区宝塔街道云峰社区居委会", "level": "居委会/社区", "location": "112.943329,27.835519", "name": "云峰社区居委会", "OBJECTID": 4086, "SHAPE_Leng": 0.067560455210600001, "SHAPE_Area": 0.000159062638999 }, "geometry": { "type": "Polygon", "coordinates": [ [ [ 112.928669778204153, 27.841111137067156 ], [ 112.930797528649492, 27.841531048230411 ], [ 112.931794500198947, 27.841262460166249 ], [ 112.93291510372211, 27.841740751925517 ], [ 112.937382975314165, 27.843651432160552 ], [ 112.936322306567192, 27.845178564164463 ], [ 112.936541793544322, 27.84530619873059 ], [ 112.938649757990675, 27.846520590109954 ], [ 112.941517595020187, 27.848173403482207 ], [ 112.941731177239362, 27.846641734783198 ], [ 112.942768538296988, 27.846628673657879 ], [ 112.942811458554104, 27.846240524391114 ], [ 112.943176518996339, 27.846229787928404 ], [ 112.943176552971664, 27.845795717213793 ], [ 112.943155657566663, 27.84515065449752 ], [ 112.943357154245376, 27.844922209884707 ], [ 112.943357196518946, 27.844382122073402 ], [ 112.944140156883563, 27.844360521003711 ], [ 112.944193036722382, 27.844123373801864 ], [ 112.944856290985683, 27.844064992217337 ], [ 112.944900269476562, 27.842852704118052 ], [ 112.94684703391961, 27.842754566500194 ], [ 112.946611852727528, 27.840496706529429 ], [ 112.94216364532798, 27.839461717867589 ], [ 112.942248633240041, 27.836860130963171 ], [ 112.942544198352891, 27.832791892102037 ], [ 112.942548193314806, 27.832725873608062 ], [ 112.932574609182183, 27.831730693825296 ], [ 112.931451963192117, 27.831618448845987 ], [ 112.931434994045517, 27.831671483677898 ], [ 112.931243341150747, 27.832275877157766 ], [ 112.930828016256072, 27.834496870499617 ], [ 112.930515530756182, 27.836015589580136 ], [ 112.930548382843199, 27.83705970723241 ], [ 112.933203586327636, 27.840470078519289 ], [ 112.929240781076885, 27.839660074510952 ], [ 112.928669778204153, 27.841111137067156 ] ] ] } }
]
}
