{
"type": "FeatureCollection",
"name": "云和村村委会",
"crs": { "type": "name", "properties": { "name": "urn:ogc:def:crs:OGC:1.3:CRS84" } },
"features": [
{ "type": "Feature", "properties": { "adcode": "430371002211", "fullName": "湖南省湘潭市岳塘区双马街道云和村村委会", "level": "居委会/社区", "location": "113.032402,27.84695", "name": "云和村村委会", "OBJECTID": 4141, "SHAPE_Leng": 0.111458126091, "SHAPE_Area": 0.00039381454299900002 }, "geometry": { "type": "Polygon", "coordinates": [ [ [ 113.035637141615197, 27.869125604647788 ], [ 113.035636444220401, 27.865439990833455 ], [ 113.035637456415358, 27.865253957439215 ], [ 113.036256110302077, 27.859551555987657 ], [ 113.036258104812418, 27.859547550656217 ], [ 113.037711186036034, 27.856118617078977 ], [ 113.039207234568806, 27.852583641254526 ], [ 113.039244135564303, 27.852528549436077 ], [ 113.039268071318048, 27.852493490014009 ], [ 113.039686981218679, 27.851503391461431 ], [ 113.039686008412289, 27.85120334443598 ], [ 113.03939688113519, 27.850402858749213 ], [ 113.039128671308674, 27.849933383184933 ], [ 113.038667035573468, 27.849152296009791 ], [ 113.038552375582483, 27.848959524061996 ], [ 113.038490559174988, 27.848854647041502 ], [ 113.037962107010301, 27.848295758753821 ], [ 113.036984996791986, 27.84725883809908 ], [ 113.034561266953006, 27.84528422635621 ], [ 113.031510714228389, 27.842751258733859 ], [ 113.03041517087415, 27.841992875894075 ], [ 113.030314490502036, 27.841923118123415 ], [ 113.028451460205872, 27.840667657233624 ], [ 113.026257619638187, 27.839273135949114 ], [ 113.026089175433199, 27.839163561380257 ], [ 113.025441320365218, 27.838746204987238 ], [ 113.023507799195613, 27.837411157529168 ], [ 113.022790221841277, 27.83701003341141 ], [ 113.022176305031124, 27.836669648182827 ], [ 113.022662636844586, 27.83715040216256 ], [ 113.021979864811641, 27.83790338220123 ], [ 113.020707049998478, 27.839306101251893 ], [ 113.020682111201367, 27.839595216624787 ], [ 113.020591406728457, 27.839748491664889 ], [ 113.020415004704788, 27.839766982008868 ], [ 113.020162864279229, 27.83974967697873 ], [ 113.020094085251557, 27.839914894177141 ], [ 113.020201702419726, 27.840114628247566 ], [ 113.019800075478315, 27.840073735521365 ], [ 113.019624678401215, 27.840030216001338 ], [ 113.019602722608056, 27.840411338538971 ], [ 113.019774135711742, 27.840423864050916 ], [ 113.019699372348029, 27.840656109286172 ], [ 113.01973622793605, 27.840884043648103 ], [ 113.019506008246523, 27.84096969778194 ], [ 113.019771064359787, 27.841434035689016 ], [ 113.019759083729824, 27.841700111978749 ], [ 113.019418222615968, 27.842033114078728 ], [ 113.019658321180614, 27.843019605563232 ], [ 113.019486723622805, 27.845297452587932 ], [ 113.018439336578126, 27.845110349246273 ], [ 113.017732854127431, 27.844163182085364 ], [ 113.017835519573438, 27.84390585104391 ], [ 113.017727899787062, 27.843811138945391 ], [ 113.018166422670873, 27.843325825957287 ], [ 113.01773791652495, 27.843176007759702 ], [ 113.017695070643867, 27.843105117064102 ], [ 113.017555555905844, 27.843082506958286 ], [ 113.017554571625325, 27.842930485112586 ], [ 113.016678621736929, 27.842865954028376 ], [ 113.016507225066519, 27.842796429571319 ], [ 113.016137505611724, 27.842930503178938 ], [ 113.016074710729512, 27.843109711109836 ], [ 113.015962104733589, 27.843110032154886 ], [ 113.015624323123077, 27.842678926565817 ], [ 113.01514400181351, 27.842780317538434 ], [ 113.014897864485988, 27.842824030539209 ], [ 113.014882906806534, 27.842952094209892 ], [ 113.014791210160098, 27.843195396894565 ], [ 113.014592903607735, 27.843265978179481 ], [ 113.014283959330129, 27.843698937439616 ], [ 113.013599306769009, 27.844641066178255 ], [ 113.013098090677573, 27.844589509050685 ], [ 113.012915708975171, 27.844966099257817 ], [ 113.012531063728431, 27.845156247598723 ], [ 113.012124508455045, 27.845233443671344 ], [ 113.011745866123462, 27.845186540518505 ], [ 113.011632277642335, 27.845125862394323 ], [ 113.011311407077017, 27.845377841442822 ], [ 113.011210755065989, 27.845539162234324 ], [ 113.011024415738731, 27.845639724299627 ], [ 113.010986532542304, 27.845877874033047 ], [ 113.010746389620635, 27.845949589819654 ], [ 113.010580987817121, 27.845908068498094 ], [ 113.010634755730507, 27.846386988583451 ], [ 113.010258068746168, 27.846919181873353 ], [ 113.010232094894704, 27.847754394381958 ], [ 113.010723284902866, 27.848275036514462 ], [ 113.011503470261331, 27.848452780639562 ], [ 113.012465943783866, 27.849514147305229 ], [ 113.013154457550982, 27.849943218169731 ], [ 113.013436438798919, 27.850155436193919 ], [ 113.013276988053804, 27.850364932139762 ], [ 113.013126508627323, 27.850540396914774 ], [ 113.013330741106216, 27.851057889938467 ], [ 113.013822973489383, 27.85132651050737 ], [ 113.013769133893831, 27.851701727523032 ], [ 113.013565806734576, 27.852295412601297 ], [ 113.013511990122453, 27.85238858355245 ], [ 113.013818886701898, 27.852578727706188 ], [ 113.015347432277039, 27.853342458095984 ], [ 113.016780353362762, 27.854155508389102 ], [ 113.017496843090584, 27.854399520820699 ], [ 113.018299068126765, 27.854396261518698 ], [ 113.019059453526324, 27.854365127078569 ], [ 113.01948699565105, 27.854268919102523 ], [ 113.020332088271928, 27.854552620441382 ], [ 113.020748670678245, 27.854578474104255 ], [ 113.021336686893434, 27.854492842271647 ], [ 113.021700460481682, 27.8544828435999 ], [ 113.022385157620874, 27.854508979275256 ], [ 113.023443536274385, 27.855605292374637 ], [ 113.024266813200455, 27.855557072039332 ], [ 113.024231959047128, 27.855178102936005 ], [ 113.024355576186636, 27.854868721080688 ], [ 113.024516063832451, 27.854663258203768 ], [ 113.024675526973184, 27.854809856645055 ], [ 113.02682549072864, 27.855166237468886 ], [ 113.028007681044244, 27.855342194835409 ], [ 113.029183835998737, 27.856710401476278 ], [ 113.030771697316382, 27.858761725128556 ], [ 113.031188363007786, 27.859291770999334 ], [ 113.032305806640451, 27.860789249807965 ], [ 113.029675935794558, 27.861021862945293 ], [ 113.033364140074355, 27.866343584856871 ], [ 113.035296145447418, 27.869130412083759 ], [ 113.035637141615197, 27.869125604647788 ] ] ] } }
]
}
