{
"type": "FeatureCollection",
"name": "云盘社区居委会",
"crs": { "type": "name", "properties": { "name": "urn:ogc:def:crs:OGC:1.3:CRS84" } },
"features": [
{ "type": "Feature", "properties": { "adcode": "430304010003", "fullName": "湖南省湘潭市岳塘区宝塔街道云盘社区居委会", "level": "居委会/社区", "location": "112.953465,27.843654", "name": "云盘社区居委会", "OBJECTID": 4083, "SHAPE_Leng": 0.056917316287299999, "SHAPE_Area": 8.7185175500199998e-05 }, "geometry": { "type": "Polygon", "coordinates": [ [ [ 112.95136821381908, 27.84370664181575 ], [ 112.95121374376869, 27.842666828964948 ], [ 112.951033378800688, 27.841232011172671 ], [ 112.946694626139333, 27.84051053121884 ], [ 112.946611852727528, 27.840496706529429 ], [ 112.94684703391961, 27.842754566500194 ], [ 112.944900269476562, 27.842852704118052 ], [ 112.944856290985683, 27.844064992217337 ], [ 112.944193036722382, 27.844123373801864 ], [ 112.944140156883563, 27.844360521003711 ], [ 112.943357196518946, 27.844382122073402 ], [ 112.943357154245376, 27.844922209884707 ], [ 112.943155657566663, 27.84515065449752 ], [ 112.943176552971664, 27.845795717213793 ], [ 112.943176518996339, 27.846229787928404 ], [ 112.942811458554104, 27.846240524391114 ], [ 112.942768538296988, 27.846628673657879 ], [ 112.941731177239362, 27.846641734783198 ], [ 112.941517595020187, 27.848173403482207 ], [ 112.93890869337028, 27.852189037479949 ], [ 112.937795206337199, 27.85390136267306 ], [ 112.9378660368412, 27.853936239852448 ], [ 112.941606368156968, 27.848218236894777 ], [ 112.94874305172084, 27.852063942138326 ], [ 112.952538966284578, 27.854156628506157 ], [ 112.952971669256996, 27.854394650999598 ], [ 112.952479383469779, 27.85108826417758 ], [ 112.951696085055119, 27.845926244909489 ], [ 112.95136821381908, 27.84370664181575 ] ] ] } }
]
}
