{
"type": "FeatureCollection",
"name": "五一村村委会",
"crs": { "type": "name", "properties": { "name": "urn:ogc:def:crs:OGC:1.3:CRS84" } },
"features": [
{ "type": "Feature", "properties": { "adcode": "430371001201", "fullName": "湖南省湘潭市岳塘区板塘街道五一村村委会", "level": "居委会/社区", "location": "112.973721,27.864345", "name": "五一村村委会", "OBJECTID": 4119, "SHAPE_Leng": 0.059971566854900002, "SHAPE_Area": 0.0001243197565 }, "geometry": { "type": "Polygon", "coordinates": [ [ [ 112.970554197626242, 27.874291226223516 ], [ 112.971612557850818, 27.873729146636137 ], [ 112.971729155375542, 27.87366780616717 ], [ 112.971803897302252, 27.873627587634424 ], [ 112.972866134373461, 27.874098645911335 ], [ 112.972153714999024, 27.873098506231301 ], [ 112.971853775436287, 27.872966335225041 ], [ 112.97180101120118, 27.87232137656326 ], [ 112.970973983593268, 27.871213528262665 ], [ 112.970900282975037, 27.87067164514318 ], [ 112.970943177425852, 27.870122432316037 ], [ 112.971124579377957, 27.869703850764751 ], [ 112.971242216282334, 27.869116420455327 ], [ 112.971114706470473, 27.868536683397419 ], [ 112.971368832711875, 27.868388941153526 ], [ 112.971798349700904, 27.868178690469552 ], [ 112.972534759911667, 27.868300618850615 ], [ 112.973710647319692, 27.867928196063669 ], [ 112.973637012377836, 27.866609186995383 ], [ 112.973968891854838, 27.865944123685562 ], [ 112.974855790111405, 27.865390477259062 ], [ 112.974533982300287, 27.864773302708983 ], [ 112.973647225454769, 27.863475635742905 ], [ 112.971433262401334, 27.860150387847561 ], [ 112.971069549251808, 27.859904374128089 ], [ 112.966475222864347, 27.860895281677855 ], [ 112.967951191522204, 27.8612082881669 ], [ 112.968037886539634, 27.861325068444192 ], [ 112.968244159963206, 27.861605545457138 ], [ 112.968287923463876, 27.862701606530354 ], [ 112.967668042865398, 27.862636305030772 ], [ 112.966710279608805, 27.862781953864847 ], [ 112.965619928479427, 27.863048961174798 ], [ 112.964415906961122, 27.86353328145713 ], [ 112.962331707732176, 27.864286931808859 ], [ 112.962336684216709, 27.864378934062298 ], [ 112.962343652224533, 27.864495935251103 ], [ 112.962466084381191, 27.866620967878017 ], [ 112.961827105029315, 27.86738777002488 ], [ 112.960851168692983, 27.868555501666954 ], [ 112.961138189594053, 27.869235872066188 ], [ 112.962239644459544, 27.868880939893792 ], [ 112.963331051456308, 27.86911010099098 ], [ 112.963228306494742, 27.870157548427287 ], [ 112.964709381501436, 27.870475653770878 ], [ 112.96395275435026, 27.872214968854227 ], [ 112.963901913454322, 27.872329123477854 ], [ 112.963882972668628, 27.872372181156024 ], [ 112.963535057965416, 27.873171240474818 ], [ 112.963527082985564, 27.873187264338092 ], [ 112.964289560143143, 27.873206236162648 ], [ 112.965591217231989, 27.873238741527327 ], [ 112.965580240461847, 27.873409799933391 ], [ 112.966794083969219, 27.874288648436774 ], [ 112.966109330697464, 27.875087647995073 ], [ 112.967486600293967, 27.875997038706323 ], [ 112.967605190834277, 27.876074725864896 ], [ 112.968317750306554, 27.876202782737806 ], [ 112.96846723680008, 27.876229373671837 ], [ 112.968921672461931, 27.876311127391627 ], [ 112.97007174885897, 27.875805834483007 ], [ 112.970087793836782, 27.874540576760378 ], [ 112.970554197626242, 27.874291226223516 ] ] ] } }
]
}
