{
"type": "FeatureCollection",
"name": "五星村村委会",
"crs": { "type": "name", "properties": { "name": "urn:ogc:def:crs:OGC:1.3:CRS84" } },
"features": [
{ "type": "Feature", "properties": { "adcode": "430304014203", "fullName": "湖南省湘潭市岳塘区霞城街道五星村村委会", "level": "居委会/社区", "location": "112.897016,27.803898", "name": "五星村村委会", "OBJECTID": 4095, "SHAPE_Leng": 0.14017116246399999, "SHAPE_Area": 0.00028345184749900001 }, "geometry": { "type": "Polygon", "coordinates": [ [ [ 112.910735785876568, 27.798471251055727 ], [ 112.908809900945812, 27.795712998644458 ], [ 112.907569017220723, 27.795822669955459 ], [ 112.905785461569266, 27.796275556429041 ], [ 112.904451436282073, 27.796614125662884 ], [ 112.902472715377144, 27.797124823850019 ], [ 112.89773495191568, 27.798675833510273 ], [ 112.89526364570753, 27.799861022491378 ], [ 112.893106006041833, 27.80089597012137 ], [ 112.890096128955932, 27.802376568773958 ], [ 112.890087128782611, 27.80237956678301 ], [ 112.889566105808385, 27.802635458038203 ], [ 112.887794834008886, 27.804766192909405 ], [ 112.887035672750855, 27.80567503911573 ], [ 112.885714335240621, 27.807165701660395 ], [ 112.885665320030725, 27.807235690007211 ], [ 112.885205183255962, 27.807745553595044 ], [ 112.881503511160247, 27.814714589961998 ], [ 112.879782320584567, 27.820603375290279 ], [ 112.879671228448629, 27.821123379725346 ], [ 112.881890123558676, 27.821615898556974 ], [ 112.883180543799753, 27.821902693050305 ], [ 112.887342964438105, 27.815336634348924 ], [ 112.889420408071828, 27.81160277283454 ], [ 112.890418548715729, 27.809807776534623 ], [ 112.895854111606624, 27.804685765797885 ], [ 112.896321006780198, 27.804245705578573 ], [ 112.900672901995605, 27.807976862794852 ], [ 112.901058669707325, 27.808307836440921 ], [ 112.902368906365908, 27.808380537722023 ], [ 112.904812251324813, 27.808515774953761 ], [ 112.910100929183116, 27.804966620642013 ], [ 112.9120769490697, 27.803640118562889 ], [ 112.912956004396491, 27.80304939370226 ], [ 112.91362026451371, 27.80260282285278 ], [ 112.913393556626758, 27.802277948473179 ], [ 112.91317281147434, 27.802310120709862 ], [ 112.913032970105576, 27.80235023163425 ], [ 112.91304296091387, 27.802320219677235 ], [ 112.913072927876712, 27.802300194257988 ], [ 112.913297679343401, 27.802141000979084 ], [ 112.912140124326811, 27.80048360205955 ], [ 112.91214412005607, 27.800481598936809 ], [ 112.912413835027266, 27.800280376656829 ], [ 112.912743481977799, 27.800030099893814 ], [ 112.913432725746716, 27.799509505831633 ], [ 112.913722400829187, 27.799289249568506 ], [ 112.914311724516963, 27.798868720671912 ], [ 112.915170708498522, 27.798238919333031 ], [ 112.913982188372174, 27.798028859030119 ], [ 112.913252047910376, 27.798080431436823 ], [ 112.912543842576653, 27.798299988740617 ], [ 112.912083349676124, 27.798390331193659 ], [ 112.9120433929981, 27.798400360780612 ], [ 112.911135370835751, 27.798431984601145 ], [ 112.910925590634662, 27.798441123689109 ], [ 112.910735785876568, 27.798471251055727 ] ] ] } }
]
}
