{
"type": "FeatureCollection",
"name": "五爱村村委会",
"crs": { "type": "name", "properties": { "name": "urn:ogc:def:crs:OGC:1.3:CRS84" } },
"features": [
{ "type": "Feature", "properties": { "adcode": "430304015204", "fullName": "湖南省湘潭市岳塘区荷塘街道五爱村村委会", "level": "居委会/社区", "location": "112.985387,27.878721", "name": "五爱村村委会", "OBJECTID": 4107, "SHAPE_Leng": 0.089460220101899995, "SHAPE_Area": 0.00017036788 }, "geometry": { "type": "Polygon", "coordinates": [ [ [ 112.981832219485085, 27.870199790551844 ], [ 112.981812266128571, 27.870529905293932 ], [ 112.980755049337731, 27.871501212660064 ], [ 112.979774620651085, 27.871457110119728 ], [ 112.979558406491748, 27.871447747605277 ], [ 112.979554421036056, 27.871446759213843 ], [ 112.978696532737672, 27.871408282557141 ], [ 112.978693543550293, 27.871408291356769 ], [ 112.978302956789506, 27.87139043697405 ], [ 112.978289003195854, 27.871440486358985 ], [ 112.978184349485701, 27.871836860201668 ], [ 112.978165412103365, 27.871908927893852 ], [ 112.977764736857978, 27.873419356741568 ], [ 112.976420562503421, 27.873471292138788 ], [ 112.97541604428001, 27.874830437459288 ], [ 112.974363791410866, 27.874762464581281 ], [ 112.973323507155143, 27.874302373224221 ], [ 112.972866134373461, 27.874098645911335 ], [ 112.971803897302252, 27.873627587634424 ], [ 112.971729155375542, 27.87366780616717 ], [ 112.971612557850818, 27.873729146636137 ], [ 112.970554197626242, 27.874291226223516 ], [ 112.975435658794055, 27.87879404806786 ], [ 112.976658147734028, 27.880541790709646 ], [ 112.976145936420338, 27.88112137974877 ], [ 112.974670149319337, 27.881732756772927 ], [ 112.972179939544233, 27.881696880224531 ], [ 112.970998092558887, 27.881372170113021 ], [ 112.969260154093419, 27.88078093979237 ], [ 112.970362223961942, 27.882340122310566 ], [ 112.970931202611212, 27.882915619574369 ], [ 112.972246496385779, 27.884336137555394 ], [ 112.973482070670116, 27.885326779800728 ], [ 112.974800444539028, 27.884769894683945 ], [ 112.976292171874377, 27.884148466348432 ], [ 112.978228275644526, 27.883318665516779 ], [ 112.978393653411487, 27.883630232314282 ], [ 112.978282035412448, 27.883896605397158 ], [ 112.978628713936374, 27.884754731382134 ], [ 112.978356692285772, 27.884817541946397 ], [ 112.977993986527395, 27.885008639370334 ], [ 112.977913256965962, 27.885268920272534 ], [ 112.977806613860693, 27.885615291646776 ], [ 112.977876331981932, 27.885998152121374 ], [ 112.977971936164366, 27.886637980172083 ], [ 112.978249899687967, 27.88705423477651 ], [ 112.978024699169637, 27.887222924555768 ], [ 112.977842299421624, 27.887945582151897 ], [ 112.97834241874817, 27.888894275162883 ], [ 112.978866508995822, 27.889072763513514 ], [ 112.980897043241725, 27.890147939448251 ], [ 112.985184100175857, 27.892683544127038 ], [ 112.985931304375498, 27.893113365295914 ], [ 112.986247116625393, 27.893354453293753 ], [ 112.986472282907712, 27.893356773790821 ], [ 112.987359049305468, 27.892700981414073 ], [ 112.987829279812345, 27.893011610755966 ], [ 112.988332420028712, 27.892907068500541 ], [ 112.99018149913789, 27.89346054984399 ], [ 112.98688313361049, 27.888703741584091 ], [ 112.983057727682393, 27.882720237743118 ], [ 112.982941307406307, 27.880814263967313 ], [ 112.981433063434523, 27.877909274447013 ], [ 112.982192419834604, 27.876226728081104 ], [ 112.982510411938662, 27.874256447312813 ], [ 112.982488604011422, 27.872852276664521 ], [ 112.982862374965094, 27.871075861597763 ], [ 112.982793655219922, 27.870724008155889 ], [ 112.981832219485085, 27.870199790551844 ] ] ] } }
]
}
