{
"type": "FeatureCollection",
"name": "五里堆社区居委会",
"crs": { "type": "name", "properties": { "name": "urn:ogc:def:crs:OGC:1.3:CRS84" } },
"features": [
{ "type": "Feature", "properties": { "adcode": "430304008004", "fullName": "湖南省湘潭市岳塘区五里堆街道五里堆社区居委会", "level": "居委会/社区", "location": "112.949903,27.851253", "name": "五里堆社区居委会", "OBJECTID": 4076, "SHAPE_Leng": 0.044351805805700001, "SHAPE_Area": 0.0001123825355 }, "geometry": { "type": "Polygon", "coordinates": [ [ [ 112.936148811431536, 27.856560733189042 ], [ 112.939023967075713, 27.857918767153226 ], [ 112.939055888968596, 27.857934710338917 ], [ 112.939955586335401, 27.859442268011033 ], [ 112.94191074113958, 27.859162438180167 ], [ 112.946501719192455, 27.858734924792333 ], [ 112.947218770766341, 27.858591357772614 ], [ 112.953592638101796, 27.856743568796269 ], [ 112.953211895213059, 27.855175212536931 ], [ 112.952971669256996, 27.854394650999598 ], [ 112.952538966284578, 27.854156628506157 ], [ 112.94874305172084, 27.852063942138326 ], [ 112.941606368156968, 27.848218236894777 ], [ 112.9378660368412, 27.853936239852448 ], [ 112.93684130494168, 27.855504338710798 ], [ 112.936852279037069, 27.855511320371036 ], [ 112.936148811431536, 27.856560733189042 ] ] ] } }
]
}
