{
"type": "FeatureCollection",
"name": "仁伦村委会",
"crs": { "type": "name", "properties": { "name": "urn:ogc:def:crs:OGC:1.3:CRS84" } },
"features": [
{ "type": "Feature", "properties": { "adcode": "430373200229", "fullName": "湖南省湘潭市雨湖区响水乡仁伦村委会", "level": "居委会/社区", "location": "112.941567,27.991143", "name": "仁伦村委会", "OBJECTID": 4023, "SHAPE_Leng": 0.112301174999, "SHAPE_Area": 0.0002317996465 }, "geometry": { "type": "Polygon", "coordinates": [ [ [ 112.920856997563064, 27.999525602047129 ], [ 112.923073394981557, 28.000053141687353 ], [ 112.925778522404087, 28.002561141612755 ], [ 112.92670676241238, 28.00349004915434 ], [ 112.929211803717493, 28.006005916136257 ], [ 112.930148871679776, 28.00694367442426 ], [ 112.930863623747911, 28.004432195709001 ], [ 112.931204020857905, 28.003237483463323 ], [ 112.93276580480854, 28.002590915783816 ], [ 112.934543928223277, 28.002835024685627 ], [ 112.937070416039091, 28.00008220537778 ], [ 112.93809823219182, 27.997179887233088 ], [ 112.939104855650726, 27.996780965510972 ], [ 112.938975254791188, 27.995682031232885 ], [ 112.940774717606885, 27.997365890063371 ], [ 112.941651515201627, 27.99744019537086 ], [ 112.942165146131444, 27.99829131786214 ], [ 112.943022015495544, 27.997455472394158 ], [ 112.942250996282581, 27.997419008490116 ], [ 112.941587813577939, 27.995695041484979 ], [ 112.941608811450848, 27.995050897166546 ], [ 112.942443706118112, 27.994861216178705 ], [ 112.942465736596588, 27.993760995776622 ], [ 112.943192883562062, 27.993531499539316 ], [ 112.943685650964923, 27.992924401865743 ], [ 112.944991136969733, 27.993851858334285 ], [ 112.944391589621006, 27.995576379029163 ], [ 112.946509826113456, 27.996652097188004 ], [ 112.946474843009526, 27.997643330245158 ], [ 112.94678803861099, 27.997010557581742 ], [ 112.948687079798532, 27.993165795676479 ], [ 112.948708034480177, 27.992994721737542 ], [ 112.94898630240067, 27.992349999893413 ], [ 112.948857691722807, 27.99200823090181 ], [ 112.949628606808432, 27.990793312221605 ], [ 112.945197840063685, 27.990632908190982 ], [ 112.945135045111329, 27.990158963063703 ], [ 112.944985467635178, 27.989856226567841 ], [ 112.944214546388253, 27.989365744618009 ], [ 112.943186226496323, 27.989404847836322 ], [ 112.943273019727314, 27.989176635440337 ], [ 112.943294119037205, 27.987225276543796 ], [ 112.943359000090723, 27.986600043618491 ], [ 112.943637348015457, 27.985689330053617 ], [ 112.943572582487064, 27.984856326305756 ], [ 112.9433004245397, 27.983146599814457 ], [ 112.942058717522812, 27.981803865457522 ], [ 112.941502144331324, 27.981558920556694 ], [ 112.941139022590804, 27.98197669712901 ], [ 112.941673679160999, 27.9819746522871 ], [ 112.942658067655501, 27.983319920867402 ], [ 112.94133130178902, 27.985007817436863 ], [ 112.940089397575463, 27.984859186573505 ], [ 112.939747311521728, 27.983893678072992 ], [ 112.938805590180579, 27.983913444211709 ], [ 112.937990474068073, 27.984655063129896 ], [ 112.938120223669216, 27.98393370881794 ], [ 112.937242290629484, 27.983898291760084 ], [ 112.937049767026551, 27.983538577383733 ], [ 112.936236650012745, 27.983425996955749 ], [ 112.93597919538044, 27.983957533479447 ], [ 112.93625748301443, 27.984942207682188 ], [ 112.935142949455283, 27.985642250529597 ], [ 112.933606257337004, 27.98660798454598 ], [ 112.933704039907724, 27.986675834462638 ], [ 112.93451219707724, 27.987604638753119 ], [ 112.93556974008375, 27.988824034258357 ], [ 112.935360152190242, 27.989584518062543 ], [ 112.935350171544258, 27.989623541507786 ], [ 112.935332207092785, 27.989684582209033 ], [ 112.935150563883894, 27.990324996713753 ], [ 112.93514058306468, 27.99036502022879 ], [ 112.934671492825927, 27.99207609301218 ], [ 112.933047850153741, 27.994362149211767 ], [ 112.932596761175432, 27.994998979104412 ], [ 112.932216521458599, 27.995539672651052 ], [ 112.931777391152806, 27.996163465943173 ], [ 112.931328271310917, 27.996801268834528 ], [ 112.93084021712562, 27.997493131445523 ], [ 112.930380162979617, 27.997323804268497 ], [ 112.926976846675515, 27.996067502108581 ], [ 112.925060236335341, 27.996990189528518 ], [ 112.924271579661891, 27.997361247589911 ], [ 112.92280399620708, 27.998073147389604 ], [ 112.922120071917135, 27.998584028891401 ], [ 112.920856997563064, 27.999525602047129 ] ] ] } }
]
}
