{
"type": "FeatureCollection",
"name": "仁兴村委会",
"crs": { "type": "name", "properties": { "name": "urn:ogc:def:crs:OGC:1.3:CRS84" } },
"features": [
{ "type": "Feature", "properties": { "adcode": "430302100248", "fullName": "湖南省湘潭市雨湖区鹤岭镇仁兴村委会", "level": "居委会/社区", "location": "112.756616,27.934996", "name": "仁兴村委会", "OBJECTID": 3928, "SHAPE_Leng": 0.10259403372299999, "SHAPE_Area": 0.000436713297 }, "geometry": { "type": "Polygon", "coordinates": [ [ [ 112.735846573319705, 27.937777905367863 ], [ 112.735927350990849, 27.939937246630738 ], [ 112.737635088960516, 27.942988250767012 ], [ 112.737894846183053, 27.944228392999314 ], [ 112.737985759817249, 27.944688447770055 ], [ 112.738354424656691, 27.946408648152214 ], [ 112.738373411954711, 27.946441649158103 ], [ 112.739123920204264, 27.947768703577296 ], [ 112.740736944370298, 27.950608889994609 ], [ 112.741360742260269, 27.949866676475384 ], [ 112.743420117651041, 27.948349234371342 ], [ 112.741875695470966, 27.947895280763959 ], [ 112.744106017366519, 27.946985977174361 ], [ 112.747024353075929, 27.946986067499608 ], [ 112.748741130226037, 27.946985271525051 ], [ 112.754405343540569, 27.94607657943985 ], [ 112.756948682870714, 27.948064963667051 ], [ 112.757412858289555, 27.947357060219879 ], [ 112.756726757157438, 27.946446587960381 ], [ 112.757928181228777, 27.945082923606591 ], [ 112.760505056395289, 27.945085318818862 ], [ 112.762392986786722, 27.943569234747414 ], [ 112.763595600430534, 27.943266997218743 ], [ 112.763081413433426, 27.942356487890823 ], [ 112.76153470899358, 27.942203452677358 ], [ 112.761534817151301, 27.940838220078152 ], [ 112.763939031439818, 27.940081696205308 ], [ 112.763595032492759, 27.937806065688584 ], [ 112.766860012891598, 27.936595323827113 ], [ 112.765829445786508, 27.935684350246838 ], [ 112.767203366831268, 27.93492731938559 ], [ 112.766861217778214, 27.934015883939292 ], [ 112.764797170924652, 27.931583866477979 ], [ 112.763079289196554, 27.931280594836554 ], [ 112.760675349101248, 27.929608777216529 ], [ 112.760332310792677, 27.928396367924055 ], [ 112.754665782891735, 27.928392656726608 ], [ 112.752777590711617, 27.928088965080246 ], [ 112.750030469366962, 27.928998428883936 ], [ 112.749343554524629, 27.928391196321634 ], [ 112.748818575790523, 27.928649154259894 ], [ 112.744710143378043, 27.930666185537902 ], [ 112.746082724990515, 27.93188042694899 ], [ 112.744537985089181, 27.933245627651459 ], [ 112.744366056391456, 27.932941577612851 ], [ 112.742136613511775, 27.935065067756149 ], [ 112.739561724119341, 27.934914423715693 ], [ 112.737508771159582, 27.935276969861679 ], [ 112.736255497028168, 27.935499381575493 ], [ 112.736155516620059, 27.936036505685102 ], [ 112.735846573319705, 27.937777905367863 ] ] ] } }
]
}
