{
"type": "FeatureCollection",
"name": "侯田村委会",
"crs": { "type": "name", "properties": { "name": "urn:ogc:def:crs:OGC:1.3:CRS84" } },
"features": [
{ "type": "Feature", "properties": { "adcode": "430302100207", "fullName": "湖南省湘潭市雨湖区鹤岭镇侯田村委会", "level": "居委会/社区", "location": "112.801499,27.91501", "name": "侯田村委会", "OBJECTID": 3900, "SHAPE_Leng": 0.108107301369, "SHAPE_Area": 0.00034007215500100001 }, "geometry": { "type": "Polygon", "coordinates": [ [ [ 112.782496495985015, 27.92265456260612 ], [ 112.783700915036803, 27.922959197584202 ], [ 112.784387733470453, 27.923262169597937 ], [ 112.787310566002688, 27.922054015366832 ], [ 112.784044190687368, 27.924778967902608 ], [ 112.78559107485205, 27.925388176132468 ], [ 112.786279004050584, 27.924783027955794 ], [ 112.787481540784881, 27.925239805466596 ], [ 112.787997263422696, 27.924784467152055 ], [ 112.790232297555974, 27.925090799763677 ], [ 112.789887542161622, 27.928579884070643 ], [ 112.792295935894145, 27.928887581786444 ], [ 112.795388744496947, 27.926161980440174 ], [ 112.797279430574648, 27.929047544430915 ], [ 112.79951405182409, 27.927990076897558 ], [ 112.800374355872222, 27.92905371210994 ], [ 112.803396307595122, 27.929396969142502 ], [ 112.803982484579677, 27.926933571306908 ], [ 112.805014263681201, 27.926480308119721 ], [ 112.805186747491263, 27.924053196746623 ], [ 112.803981733814624, 27.92374802386113 ], [ 112.805358277718241, 27.921019979947548 ], [ 112.803467168822095, 27.919953473620957 ], [ 112.803123761988687, 27.917829511115702 ], [ 112.804155563195209, 27.916920157214914 ], [ 112.804671362358789, 27.917832220210904 ], [ 112.807278899011024, 27.916867690639474 ], [ 112.807938060163735, 27.916623833815883 ], [ 112.807416301893355, 27.914763576215567 ], [ 112.806394531801047, 27.914879767678482 ], [ 112.80493207945814, 27.914328078544745 ], [ 112.804190872120131, 27.913746674641335 ], [ 112.80389942112356, 27.913245077855024 ], [ 112.803309522824378, 27.912096850840644 ], [ 112.803297551328455, 27.91147972412136 ], [ 112.802718603878489, 27.911260680667969 ], [ 112.802073538542274, 27.911222559288724 ], [ 112.801321363111128, 27.910442133579338 ], [ 112.800859643163307, 27.910005270104403 ], [ 112.800557172682375, 27.909730708316928 ], [ 112.799601755599312, 27.908125817299606 ], [ 112.799064993780732, 27.906883703388583 ], [ 112.798292800908627, 27.90645334235813 ], [ 112.798245730687498, 27.906400255135399 ], [ 112.798045424919891, 27.906268900618667 ], [ 112.797895197049101, 27.906158633197805 ], [ 112.797855136413006, 27.906128561841072 ], [ 112.797680872906469, 27.905999252039699 ], [ 112.797586732488995, 27.905908081258463 ], [ 112.797454519394563, 27.905985876966216 ], [ 112.79607831506388, 27.90689478705011 ], [ 112.793844023802947, 27.905830037853292 ], [ 112.79229661040273, 27.907646939863163 ], [ 112.791608475864606, 27.909467197205803 ], [ 112.787998437156844, 27.909917918570386 ], [ 112.786279902712906, 27.913404077218573 ], [ 112.788686124773946, 27.912952435639706 ], [ 112.78971737070998, 27.915077315865449 ], [ 112.786795224609264, 27.917805556112132 ], [ 112.787826549662526, 27.918262102814985 ], [ 112.786965315471079, 27.919474082721905 ], [ 112.786966173107544, 27.921293396034287 ], [ 112.782669772797234, 27.921743631639721 ], [ 112.782496495985015, 27.92265456260612 ] ] ] } }
]
}
