{
"type": "FeatureCollection",
"name": "先锋村村委会",
"crs": { "type": "name", "properties": { "name": "urn:ogc:def:crs:OGC:1.3:CRS84" } },
"features": [
{ "type": "Feature", "properties": { "adcode": "430302008203", "fullName": "湖南省湘潭市雨湖区先锋街道先锋村村委会", "level": "居委会/社区", "location": "112.87318,27.871743", "name": "先锋村村委会", "OBJECTID": 3889, "SHAPE_Leng": 0.081070649897899999, "SHAPE_Area": 0.0002669880265 }, "geometry": { "type": "Polygon", "coordinates": [ [ [ 112.858326922720707, 27.876574693353032 ], [ 112.858800467956272, 27.877220460427115 ], [ 112.859488217266801, 27.87854862974919 ], [ 112.860347101924702, 27.880599138439312 ], [ 112.860725533910284, 27.880864688784001 ], [ 112.861090956179254, 27.880999195738287 ], [ 112.861205067716256, 27.881291395641068 ], [ 112.863740882057726, 27.882044768419647 ], [ 112.86582302797791, 27.88268539738776 ], [ 112.86606026289229, 27.882757688290013 ], [ 112.865987172375611, 27.882971638900585 ], [ 112.865932103836883, 27.883135602050814 ], [ 112.865737861801975, 27.88370647006867 ], [ 112.86530832274056, 27.884957172170349 ], [ 112.865225214974629, 27.885234119826336 ], [ 112.864867747941972, 27.886434893964474 ], [ 112.865297110663164, 27.88753659702984 ], [ 112.865469285742549, 27.887573808588638 ], [ 112.865522318970278, 27.88784891840081 ], [ 112.865458236031998, 27.888066879297664 ], [ 112.865447192930446, 27.888474935570951 ], [ 112.865673412742254, 27.888637231587218 ], [ 112.865804539630275, 27.888727401776407 ], [ 112.866030757278239, 27.888880693732528 ], [ 112.866575273317622, 27.889254390681117 ], [ 112.867007675068606, 27.889556938418096 ], [ 112.867563241076866, 27.8891765024607 ], [ 112.867713472635828, 27.888038477171698 ], [ 112.867734542691679, 27.887394391198136 ], [ 112.868508257191209, 27.887508265284264 ], [ 112.8699044645236, 27.888041848431115 ], [ 112.870441005858041, 27.886998227146012 ], [ 112.871128610397008, 27.88660085805029 ], [ 112.871471907567553, 27.886374162176093 ], [ 112.87211649963487, 27.885349620533066 ], [ 112.872502881469686, 27.88428781244064 ], [ 112.872331814465312, 27.883453506812 ], [ 112.872932327942436, 27.882733956400372 ], [ 112.872889342820443, 27.882126813023284 ], [ 112.873555868842516, 27.881691359793024 ], [ 112.874265380486165, 27.881596986992776 ], [ 112.874522791093938, 27.878600708999933 ], [ 112.875467402717973, 27.878833567754093 ], [ 112.875661523838531, 27.878881740262418 ], [ 112.87452283819168, 27.877994606645906 ], [ 112.874558891318586, 27.877628576699248 ], [ 112.873190058955927, 27.875793024358668 ], [ 112.872803861644456, 27.874616463432915 ], [ 112.872932105386454, 27.872720265290528 ], [ 112.873577637252637, 27.871998744266328 ], [ 112.874007029807132, 27.870899950781606 ], [ 112.874393467854816, 27.868736934324232 ], [ 112.874223495902655, 27.866854467545213 ], [ 112.873816558197177, 27.862348348377019 ], [ 112.869731191777902, 27.863856589987346 ], [ 112.865032540047068, 27.865590578017574 ], [ 112.865045551009587, 27.865624599349854 ], [ 112.865160647242661, 27.865931788880008 ], [ 112.86496944145118, 27.866009572063742 ], [ 112.864215618170888, 27.86631070541938 ], [ 112.863929301091673, 27.86641537009449 ], [ 112.862926168168059, 27.866782175855334 ], [ 112.860425214416352, 27.867490035684561 ], [ 112.860134863361395, 27.867508648945517 ], [ 112.860004685172711, 27.867773517736939 ], [ 112.860219927823493, 27.868000845818383 ], [ 112.860434141124358, 27.868571228715151 ], [ 112.862066808510647, 27.871759911173157 ], [ 112.862195814624201, 27.873581383955706 ], [ 112.861807282827087, 27.874682066700419 ], [ 112.860249378354354, 27.875529150652667 ], [ 112.858326922720707, 27.876574693353032 ] ] ] } }
]
}
