{
"type": "FeatureCollection",
"name": "先锋集团家属村村委会",
"crs": { "type": "name", "properties": { "name": "urn:ogc:def:crs:OGC:1.3:CRS84" } },
"features": [
{ "type": "Feature", "properties": { "adcode": "430302008206", "fullName": "湖南省湘潭市雨湖区先锋街道先锋集团家属村村委会", "level": "居委会/社区", "location": "112.880415,27.882671", "name": "先锋集团家属村村委会", "OBJECTID": 3892, "SHAPE_Leng": 0.058842327070199998, "SHAPE_Area": 8.79763415e-05 }, "geometry": { "type": "Polygon", "coordinates": [ [ [ 112.867007675068606, 27.889556938418096 ], [ 112.867347986472268, 27.889795365351834 ], [ 112.868293823072619, 27.890543546859842 ], [ 112.868501030828412, 27.89033573850211 ], [ 112.869725077628914, 27.891009165383267 ], [ 112.86976511020967, 27.891040212743672 ], [ 112.870090373202331, 27.891285594378026 ], [ 112.870669862702641, 27.891324197540374 ], [ 112.871281451011612, 27.890261633789272 ], [ 112.871300467979992, 27.890242649543428 ], [ 112.871743862023024, 27.889769008059357 ], [ 112.872756606452398, 27.890317078804237 ], [ 112.873096847491624, 27.890500430335681 ], [ 112.873226939440698, 27.890557561455719 ], [ 112.873827354869348, 27.890823159163144 ], [ 112.874099554825989, 27.890732389936304 ], [ 112.875190325820014, 27.890369288066559 ], [ 112.875319392763444, 27.890597437650811 ], [ 112.875319362439683, 27.890987504053527 ], [ 112.875426417454491, 27.891176627656069 ], [ 112.875629536589443, 27.891328825827976 ], [ 112.875930723263835, 27.891385088039463 ], [ 112.876389021469933, 27.89119543374208 ], [ 112.877333654734187, 27.890208020197736 ], [ 112.878020123851897, 27.889071354203974 ], [ 112.879610034513206, 27.88770627516903 ], [ 112.880854691064528, 27.886378884632485 ], [ 112.881670966859005, 27.887025509396583 ], [ 112.883731575208017, 27.888088872994317 ], [ 112.885792011969627, 27.888886021024831 ], [ 112.886446105468394, 27.889195358922009 ], [ 112.884110700681831, 27.887842030210134 ], [ 112.884104699283313, 27.887839026591628 ], [ 112.881840056878289, 27.886688555543369 ], [ 112.882164221078384, 27.886104651438032 ], [ 112.882182230028718, 27.886072656720412 ], [ 112.879803306970899, 27.885362010521565 ], [ 112.879975433154101, 27.884756025435703 ], [ 112.879631332678841, 27.883996660046954 ], [ 112.878944128553471, 27.88232689094815 ], [ 112.875661523838531, 27.878881740262418 ], [ 112.875467402717973, 27.878833567754093 ], [ 112.874522791093938, 27.878600708999933 ], [ 112.874265380486165, 27.881596986992776 ], [ 112.873555868842516, 27.881691359793024 ], [ 112.872889342820443, 27.882126813023284 ], [ 112.872932327942436, 27.882733956400372 ], [ 112.872331814465312, 27.883453506812 ], [ 112.872502881469686, 27.88428781244064 ], [ 112.87211649963487, 27.885349620533066 ], [ 112.871471907567553, 27.886374162176093 ], [ 112.871128610397008, 27.88660085805029 ], [ 112.870441005858041, 27.886998227146012 ], [ 112.8699044645236, 27.888041848431115 ], [ 112.868508257191209, 27.887508265284264 ], [ 112.867734542691679, 27.887394391198136 ], [ 112.867713472635828, 27.888038477171698 ], [ 112.867563241076866, 27.8891765024607 ], [ 112.867007675068606, 27.889556938418096 ] ] ] } }
]
}
