{
"type": "FeatureCollection",
"name": "光华村村委会_1",
"crs": { "type": "name", "properties": { "name": "urn:ogc:def:crs:OGC:1.3:CRS84" } },
"features": [
{ "type": "Feature", "properties": { "adcode": "430371002204", "fullName": "湖南省湘潭市岳塘区双马街道光华村村委会", "level": "居委会/社区", "location": "113.013015,27.844254", "name": "光华村村委会", "OBJECTID": 4134, "SHAPE_Leng": 0.0062055464136499998, "SHAPE_Area": 2.3945765000400001e-06 }, "geometry": { "type": "Polygon", "coordinates": [ [ [ 113.006175836051497, 27.847627401729373 ], [ 113.006831403084831, 27.848094521450946 ], [ 113.007459078593612, 27.848540725261955 ], [ 113.008458534192329, 27.847435577931424 ], [ 113.007836833591782, 27.846930339880824 ], [ 113.007264953077254, 27.846466964774137 ], [ 113.006175836051497, 27.847627401729373 ] ] ] } }
]
}
