{
"type": "FeatureCollection",
"name": "光华村村委会",
"crs": { "type": "name", "properties": { "name": "urn:ogc:def:crs:OGC:1.3:CRS84" } },
"features": [
{ "type": "Feature", "properties": { "adcode": "430371001204", "fullName": "湖南省湘潭市岳塘区板塘街道光华村村委会", "level": "居委会/社区", "location": "112.976058,27.851015", "name": "光华村村委会", "OBJECTID": 4122, "SHAPE_Leng": 0.066194655448999995, "SHAPE_Area": 0.000136761214 }, "geometry": { "type": "Polygon", "coordinates": [ [ [ 112.971069549251808, 27.859904374128089 ], [ 112.971715330627731, 27.859483479179289 ], [ 112.971330835273974, 27.857434227995416 ], [ 112.971949686117568, 27.857281450756759 ], [ 112.974182745211237, 27.858266234143862 ], [ 112.977143240710348, 27.857507524444856 ], [ 112.977753124092416, 27.856529578281446 ], [ 112.978053138531436, 27.855323499607525 ], [ 112.977358749607745, 27.853944307132128 ], [ 112.976706214515062, 27.852419962376874 ], [ 112.976417301996321, 27.851765696801031 ], [ 112.976418407537778, 27.850389468113207 ], [ 112.976264983520082, 27.850053859696942 ], [ 112.976221171244347, 27.849664923521754 ], [ 112.976157434738596, 27.849219035976422 ], [ 112.976318958785185, 27.847936356722798 ], [ 112.975731085050526, 27.847625013988793 ], [ 112.975623502930958, 27.84719825642529 ], [ 112.975270830127343, 27.846318134617821 ], [ 112.974532515111562, 27.84556114360986 ], [ 112.974072147850094, 27.84554746633739 ], [ 112.972923158367465, 27.84610584829424 ], [ 112.972276331991537, 27.847336891332482 ], [ 112.971982360029116, 27.847355729314277 ], [ 112.971248848323086, 27.848272955187351 ], [ 112.96925077053632, 27.848217549197305 ], [ 112.968882932030326, 27.849507782713225 ], [ 112.970556177292366, 27.849270069336562 ], [ 112.970551176543211, 27.849498120668358 ], [ 112.970299004314683, 27.850081924200847 ], [ 112.96980769344691, 27.850206320447558 ], [ 112.969036294157476, 27.85091158636871 ], [ 112.969689034002883, 27.851075794395545 ], [ 112.969314265314921, 27.851832963878881 ], [ 112.969235498307967, 27.852312261857062 ], [ 112.968582728481749, 27.852442096029115 ], [ 112.968480123026595, 27.85189629061934 ], [ 112.968277798331499, 27.852105884649252 ], [ 112.968042482158566, 27.853615782428083 ], [ 112.96676883746413, 27.853245217797618 ], [ 112.966342288515449, 27.853103357376419 ], [ 112.966310415087477, 27.852861404364365 ], [ 112.966123074015329, 27.852505855291081 ], [ 112.966080249597951, 27.852107906292474 ], [ 112.965977628032036, 27.851686115655323 ], [ 112.965503277836362, 27.850947278944485 ], [ 112.965127444839283, 27.852079478477616 ], [ 112.964720773342052, 27.852421627990498 ], [ 112.964335991745799, 27.853181783708006 ], [ 112.964785397488868, 27.854451788175652 ], [ 112.962818938124471, 27.853880927849016 ], [ 112.961722441053027, 27.85479195404228 ], [ 112.962696260418653, 27.854884416307115 ], [ 112.962461858560488, 27.857010383561668 ], [ 112.962686031202921, 27.858204991147907 ], [ 112.963498272606188, 27.859360034711791 ], [ 112.963278874276284, 27.86088386891517 ], [ 112.966475222864347, 27.860895281677855 ], [ 112.971069549251808, 27.859904374128089 ] ] ] } }
]
}
