{
"type": "FeatureCollection",
"name": "公园社区居委会",
"crs": { "type": "name", "properties": { "name": "urn:ogc:def:crs:OGC:1.3:CRS84" } },
"features": [
{ "type": "Feature", "properties": { "adcode": "430302003004", "fullName": "湖南省湘潭市雨湖区云塘街道公园社区居委会", "level": "居委会/社区", "location": "112.905131,27.870661", "name": "公园社区居委会", "OBJECTID": 3843, "SHAPE_Leng": 0.042226276005000001, "SHAPE_Area": 3.4935939499899999e-05 }, "geometry": { "type": "Polygon", "coordinates": [ [ [ 112.901446804064449, 27.881068532377459 ], [ 112.902540176721047, 27.880796213803656 ], [ 112.902396285581347, 27.88053820909121 ], [ 112.90239030698325, 27.880310172128823 ], [ 112.902550223378398, 27.880116096045974 ], [ 112.902534238435862, 27.880050089264341 ], [ 112.902369356298834, 27.879841098415849 ], [ 112.902208458170946, 27.879789131861322 ], [ 112.902138504729123, 27.879732140227052 ], [ 112.90202060690045, 27.879324101112793 ], [ 112.901891697035779, 27.879145102783628 ], [ 112.901881713713976, 27.879006081739657 ], [ 112.901066133222869, 27.879557359189818 ], [ 112.900278615418372, 27.878689362336999 ], [ 112.899837873959783, 27.8781743471441 ], [ 112.899056298681145, 27.877387320351993 ], [ 112.898761464419721, 27.876917274018684 ], [ 112.898712508307952, 27.876623229531404 ], [ 112.89883046698904, 27.876500196319366 ], [ 112.899801078749093, 27.875768947052165 ], [ 112.900040943067054, 27.876005949398838 ], [ 112.9004367063594, 27.876480961844788 ], [ 112.900899464656746, 27.876456869862235 ], [ 112.900764546267624, 27.876334875916573 ], [ 112.900952461502598, 27.876129804052415 ], [ 112.900882505809165, 27.876044803796081 ], [ 112.900904505411134, 27.875897774617997 ], [ 112.901171363336275, 27.875854712257922 ], [ 112.901516213967327, 27.87529054129762 ], [ 112.901375306162848, 27.875129545847052 ], [ 112.901183414925782, 27.875105583503966 ], [ 112.900979544504722, 27.874873586933059 ], [ 112.900764680478545, 27.874607584928739 ], [ 112.900491837841628, 27.874423605313268 ], [ 112.90050786204192, 27.874005532038577 ], [ 112.900631822057804, 27.873688455692935 ], [ 112.900808756848974, 27.873323360269026 ], [ 112.900915732235148, 27.8729022682293 ], [ 112.901205621603879, 27.872289105047159 ], [ 112.901145656792934, 27.872262113262902 ], [ 112.901103697488068, 27.872035083955584 ], [ 112.90097980529157, 27.871517022569051 ], [ 112.900861913070713, 27.870947950788 ], [ 112.900750014327556, 27.870412882979043 ], [ 112.900642110757346, 27.869904818428228 ], [ 112.900615135550041, 27.869767800539236 ], [ 112.900583163303978, 27.869625782713705 ], [ 112.900540193461609, 27.869525773913967 ], [ 112.90114589409211, 27.869207600820729 ], [ 112.901269832422145, 27.869118559377089 ], [ 112.901414762352729, 27.868975503525036 ], [ 112.901483731043257, 27.868876471434319 ], [ 112.90159168536708, 27.868672412568408 ], [ 112.90162367696972, 27.868544383715591 ], [ 112.901644674849564, 27.868416357390625 ], [ 112.901660670070839, 27.868359344106345 ], [ 112.901736647137383, 27.868089280982499 ], [ 112.901795621316893, 27.867980248644677 ], [ 112.901848598445582, 27.867876218446334 ], [ 112.901880587070423, 27.867781194764298 ], [ 112.901993541014789, 27.867516122570521 ], [ 112.902063516034744, 27.867302069232526 ], [ 112.90214848545908, 27.867041003989613 ], [ 112.902159481337705, 27.867008995820672 ], [ 112.901386944997654, 27.866827150308875 ], [ 112.900161618832897, 27.866538340614476 ], [ 112.900025688932786, 27.866506357612295 ], [ 112.900017690395444, 27.866538364248701 ], [ 112.899807727566355, 27.867379537666764 ], [ 112.899485793524732, 27.86849877144218 ], [ 112.899261831258869, 27.869342942462566 ], [ 112.898651951104469, 27.871258333113712 ], [ 112.89838200293849, 27.872045490764133 ], [ 112.897588175716152, 27.873827846658738 ], [ 112.897352104544339, 27.875857199729086 ], [ 112.897309987865427, 27.877553487553271 ], [ 112.897264997963617, 27.877630502356652 ], [ 112.897386953744174, 27.877635498095206 ], [ 112.897412944229984, 27.877636497091281 ], [ 112.898485420760451, 27.878984650348691 ], [ 112.89968480356255, 27.880026682978762 ], [ 112.90013647675579, 27.88139284346261 ], [ 112.900277408478303, 27.881358813821041 ], [ 112.900406345286285, 27.881325785607089 ], [ 112.900821136088297, 27.881222690352047 ], [ 112.90082913197179, 27.881220688438006 ], [ 112.901081000579993, 27.881158626854852 ], [ 112.901091994794797, 27.881155624052528 ], [ 112.901156960351329, 27.881139607675507 ], [ 112.901206933688044, 27.881127595001594 ], [ 112.901215928862968, 27.881125592735533 ], [ 112.901286890827734, 27.881107574356033 ], [ 112.901318873593596, 27.881099566017884 ], [ 112.901321871994668, 27.881098565191536 ], [ 112.90135685310004, 27.881089555972324 ], [ 112.901401828672007, 27.881078544135498 ], [ 112.901412822631656, 27.881076541344878 ], [ 112.901446804064449, 27.881068532377459 ] ] ] } }
]
}
