{
"type": "FeatureCollection",
"name": "公塘村委会",
"crs": { "type": "name", "properties": { "name": "urn:ogc:def:crs:OGC:1.3:CRS84" } },
"features": [
{ "type": "Feature", "properties": { "adcode": "430373200214", "fullName": "湖南省湘潭市雨湖区响水乡公塘村委会", "level": "居委会/社区", "location": "112.898969,27.927714", "name": "公塘村委会", "OBJECTID": 4016, "SHAPE_Leng": 0.050153045056499999, "SHAPE_Area": 0.000119309897 }, "geometry": { "type": "Polygon", "coordinates": [ [ [ 112.884478475763743, 27.930567525790757 ], [ 112.885722713205269, 27.931137217363808 ], [ 112.885636622217135, 27.932085340399617 ], [ 112.884554321249823, 27.932799945520152 ], [ 112.896575646230957, 27.936570579703346 ], [ 112.899020652544124, 27.93729254891138 ], [ 112.901637649124652, 27.933043365075946 ], [ 112.8994080084871, 27.930466334398606 ], [ 112.898572405721694, 27.930116371170893 ], [ 112.897584836531195, 27.929622361031623 ], [ 112.897627994560168, 27.927385976072532 ], [ 112.895569773295307, 27.925943750086411 ], [ 112.893680236784419, 27.925488528379287 ], [ 112.893510331641238, 27.924654365031657 ], [ 112.892264614460686, 27.923288942748869 ], [ 112.891688558534639, 27.92473007989361 ], [ 112.891173565769165, 27.925109034740096 ], [ 112.890487497552286, 27.926360084805427 ], [ 112.890401455252245, 27.926930160401124 ], [ 112.888727292509571, 27.928635962218198 ], [ 112.888126240505358, 27.928749777039577 ], [ 112.887912191619279, 27.929127765196075 ], [ 112.887397127099774, 27.929241592739263 ], [ 112.886925035703271, 27.929620471989612 ], [ 112.884779594655726, 27.929999578189719 ], [ 112.884478475763743, 27.930567525790757 ] ] ] } }
]
}
