{
"type": "FeatureCollection",
"name": "公和村委会",
"crs": { "type": "name", "properties": { "name": "urn:ogc:def:crs:OGC:1.3:CRS84" } },
"features": [
{ "type": "Feature", "properties": { "adcode": "430302100237", "fullName": "湖南省湘潭市雨湖区鹤岭镇公和村委会", "level": "居委会/社区", "location": "112.777305,28.009124", "name": "公和村委会", "OBJECTID": 3917, "SHAPE_Leng": 0.089028651275399995, "SHAPE_Area": 0.0003282218395 }, "geometry": { "type": "Polygon", "coordinates": [ [ [ 112.7614334979788, 28.007371133665998 ], [ 112.761528534241123, 28.00743020214696 ], [ 112.761555544594515, 28.007447221705092 ], [ 112.761588555363758, 28.007492249442326 ], [ 112.761659578666382, 28.007589309277837 ], [ 112.761768617605213, 28.007703396011841 ], [ 112.762438867455131, 28.008402938103025 ], [ 112.763119087434148, 28.009764606187272 ], [ 112.763268933527058, 28.012644156659558 ], [ 112.763408780015183, 28.015465689222065 ], [ 112.763758793190505, 28.017565256206726 ], [ 112.764249890761846, 28.019616919996018 ], [ 112.76426689764746, 28.0196459366936 ], [ 112.765219315019991, 28.021096860953591 ], [ 112.765249330706524, 28.021117886827071 ], [ 112.765339379802782, 28.021157961138471 ], [ 112.767865877086763, 28.022368172663843 ], [ 112.768172074959466, 28.022515455538393 ], [ 112.770062374245782, 28.023422271002861 ], [ 112.771033094695284, 28.023863245532905 ], [ 112.771294325280266, 28.023593454377341 ], [ 112.771369392190266, 28.023513514432643 ], [ 112.772104056737732, 28.022744113679153 ], [ 112.77244537225755, 28.02238439760028 ], [ 112.77292579987467, 28.022174848529012 ], [ 112.774015803048442, 28.02166589373412 ], [ 112.775648294832408, 28.022016697909493 ], [ 112.775537130527141, 28.022746686715625 ], [ 112.7753859088849, 28.023724669500808 ], [ 112.777461976818557, 28.023443955516264 ], [ 112.778665294495156, 28.022612238641688 ], [ 112.77677560887858, 28.019352549469684 ], [ 112.778235184155264, 28.018292072036779 ], [ 112.780211181982224, 28.01996170824242 ], [ 112.781586774414464, 28.019509363086573 ], [ 112.781157480539974, 28.017007436239382 ], [ 112.782952612509803, 28.016550673764485 ], [ 112.78329628899354, 28.013217611262068 ], [ 112.780890754480211, 28.009727973749531 ], [ 112.777970587768849, 28.009724437105653 ], [ 112.777798554143999, 28.007903951860829 ], [ 112.776251010164486, 28.007752164200248 ], [ 112.774704704969679, 28.005628141120521 ], [ 112.774877009308739, 28.003809038812431 ], [ 112.773846150958946, 28.002746780324866 ], [ 112.775049350686047, 28.001535864408396 ], [ 112.773674141629101, 28.000926312891153 ], [ 112.773158891896074, 27.998349372796767 ], [ 112.768858234304943, 28.001383769891994 ], [ 112.767312208866386, 28.000927378511449 ], [ 112.767312124620943, 28.001988546855628 ], [ 112.764906641339806, 28.002138680824523 ], [ 112.764906412690351, 28.005018135750607 ], [ 112.764220033765298, 28.005017633187688 ], [ 112.761454508350454, 28.007354144065072 ], [ 112.7614334979788, 28.007371133665998 ] ] ] } }
]
}
