{
"type": "FeatureCollection",
"name": "关圣殿社区居委会",
"crs": { "type": "name", "properties": { "name": "urn:ogc:def:crs:OGC:1.3:CRS84" } },
"features": [
{ "type": "Feature", "properties": { "adcode": "430302001002", "fullName": "湖南省湘潭市雨湖区雨湖路街道关圣殿社区居委会", "level": "居委会/社区", "location": "112.912038,27.855272", "name": "关圣殿社区居委会", "OBJECTID": 3825, "SHAPE_Leng": 0.0309069939311, "SHAPE_Area": 4.0747471499700002e-05 }, "geometry": { "type": "Polygon", "coordinates": [ [ [ 112.902520809343002, 27.859950724800601 ], [ 112.902585766740884, 27.859979711796409 ], [ 112.902649724551395, 27.860008698881646 ], [ 112.904858091103364, 27.861649246609453 ], [ 112.905576509496129, 27.862143045624332 ], [ 112.906552690261734, 27.862645707278428 ], [ 112.906785488430899, 27.862756618751192 ], [ 112.908311097121228, 27.863487978779425 ], [ 112.909178286498189, 27.863478497306271 ], [ 112.909732747753765, 27.863477172417639 ], [ 112.909960620449937, 27.862208823917356 ], [ 112.909515076403764, 27.861996055125552 ], [ 112.909432158924815, 27.861972099763591 ], [ 112.908293276698046, 27.861388639126279 ], [ 112.908412194348827, 27.861047518770491 ], [ 112.908267333108597, 27.860967583006317 ], [ 112.907601951096837, 27.860672877905845 ], [ 112.907687893166184, 27.860445796933362 ], [ 112.907789800481865, 27.860478750645509 ], [ 112.907864747403664, 27.860304683397068 ], [ 112.907960672851218, 27.860161610187173 ], [ 112.908037613360904, 27.860038549791351 ], [ 112.908084580392156, 27.859918505342687 ], [ 112.907758888625381, 27.859697636821188 ], [ 112.907885788392647, 27.859536545184945 ], [ 112.907929753570201, 27.859479513066002 ], [ 112.908304457012193, 27.85893922682142 ], [ 112.908471299682105, 27.858994146287095 ], [ 112.908551223217685, 27.859028108530474 ], [ 112.908637154222419, 27.858890038690905 ], [ 112.9085412483185, 27.858824080162123 ], [ 112.910654391572351, 27.856098378510115 ], [ 112.90898310225613, 27.855382266392599 ], [ 112.905855915472301, 27.854112600181459 ], [ 112.905817946615699, 27.854096613568842 ], [ 112.904110976413122, 27.857169773777102 ], [ 112.902520809343002, 27.859950724800601 ] ] ] } }
]
}
