{
"type": "FeatureCollection",
"name": "兴隆村委会",
"crs": { "type": "name", "properties": { "name": "urn:ogc:def:crs:OGC:1.3:CRS84" } },
"features": [
{ "type": "Feature", "properties": { "adcode": "430373200236", "fullName": "湖南省湘潭市雨湖区响水乡兴隆村委会", "level": "居委会/社区", "location": "112.952015,27.963666", "name": "兴隆村委会", "OBJECTID": 4027, "SHAPE_Leng": 0.0588303728126, "SHAPE_Area": 0.0001780676915 }, "geometry": { "type": "Polygon", "coordinates": [ [ [ 112.93808329069202, 27.971494729871136 ], [ 112.940353684120353, 27.972965728756204 ], [ 112.940996131748591, 27.972434403574042 ], [ 112.941552733448546, 27.972470324945022 ], [ 112.941638460599279, 27.973190276040089 ], [ 112.942921175416217, 27.97337675890514 ], [ 112.943906523830776, 27.974550954186778 ], [ 112.942921928237112, 27.976486270795451 ], [ 112.944340233238506, 27.97647137992475 ], [ 112.94521110510199, 27.974162188925831 ], [ 112.948133187286928, 27.973454801659933 ], [ 112.948647817074672, 27.972585522679054 ], [ 112.949589185947232, 27.972242366106833 ], [ 112.949589236800293, 27.971597259103767 ], [ 112.950958377323445, 27.970760013323325 ], [ 112.951729205737919, 27.969887092043212 ], [ 112.953182930889952, 27.969769670287402 ], [ 112.955024487203474, 27.968629075443467 ], [ 112.95540841805213, 27.967375935378406 ], [ 112.956597789532168, 27.967091974301272 ], [ 112.955314893496436, 27.96497276199754 ], [ 112.955314995222167, 27.96368454653992 ], [ 112.953603207826916, 27.963080559138159 ], [ 112.953087847810593, 27.961753557682478 ], [ 112.946241418221106, 27.960404721127301 ], [ 112.943543598175594, 27.960258314323234 ], [ 112.942259847306232, 27.960981015262767 ], [ 112.939390673335168, 27.964930217424115 ], [ 112.938319941151065, 27.968798849063319 ], [ 112.939125902645614, 27.970155583184912 ], [ 112.939219663645346, 27.970313434256614 ], [ 112.938763724399749, 27.970788361555943 ], [ 112.938435482528305, 27.971129023891617 ], [ 112.93808329069202, 27.971494729871136 ] ] ] } }
]
}
