{
"type": "FeatureCollection",
"name": "农科村委会",
"crs": { "type": "name", "properties": { "name": "urn:ogc:def:crs:OGC:1.3:CRS84" } },
"features": [
{ "type": "Feature", "properties": { "adcode": "430302100242", "fullName": "湖南省湘潭市雨湖区鹤岭镇农科村委会", "level": "居委会/社区", "location": "112.83284,27.962023", "name": "农科村委会", "OBJECTID": 3922, "SHAPE_Leng": 0.093990990606399996, "SHAPE_Area": 0.0001469136785 }, "geometry": { "type": "Polygon", "coordinates": [ [ [ 112.81665872736771, 27.965687236269339 ], [ 112.818291698490398, 27.965614284781399 ], [ 112.818464137247517, 27.964022342018488 ], [ 112.818980046644597, 27.964402374986026 ], [ 112.819581952733415, 27.966830913101404 ], [ 112.81880847221295, 27.967738610429294 ], [ 112.819410461586514, 27.969104970033339 ], [ 112.821817770613734, 27.970170680546754 ], [ 112.828352592945578, 27.971168139024169 ], [ 112.829298182849868, 27.972686159269962 ], [ 112.830986359740862, 27.970897006539616 ], [ 112.829955638837191, 27.969227810722465 ], [ 112.827548395295025, 27.967858080743238 ], [ 112.826173027586762, 27.966187218985148 ], [ 112.828064568534899, 27.964826541472235 ], [ 112.833052270968693, 27.968020349702776 ], [ 112.834942715009078, 27.966659589897713 ], [ 112.836320014867383, 27.968026322957897 ], [ 112.83803780547224, 27.97030379788696 ], [ 112.838554721207601, 27.969918658478822 ], [ 112.838984573229098, 27.968404172542343 ], [ 112.838210321480091, 27.967491638111497 ], [ 112.839156001361104, 27.966661186581419 ], [ 112.84001645335006, 27.96673672432895 ], [ 112.840360127220805, 27.965525128147611 ], [ 112.838898670032322, 27.965295500233442 ], [ 112.839070003462098, 27.964763716250946 ], [ 112.838470044941715, 27.963929506790034 ], [ 112.837437265017911, 27.964002667263468 ], [ 112.836749015439921, 27.964760553266682 ], [ 112.834857738521748, 27.964453065597343 ], [ 112.835459871137516, 27.963467998483818 ], [ 112.834255911048146, 27.961495468657951 ], [ 112.833396433776798, 27.960963801507173 ], [ 112.832278465362762, 27.96073370123548 ], [ 112.833051751533546, 27.961871319416172 ], [ 112.834428083868261, 27.963163063824346 ], [ 112.834255726659762, 27.963846862840271 ], [ 112.833051608678772, 27.963692624705075 ], [ 112.828493642768748, 27.961029707953081 ], [ 112.829010690100887, 27.959590432894213 ], [ 112.828408643546794, 27.959057217079909 ], [ 112.826172645555701, 27.958295893677249 ], [ 112.825916083624648, 27.959508615469503 ], [ 112.823163970570789, 27.96071663597785 ], [ 112.822131967508142, 27.962229945097327 ], [ 112.821100125246673, 27.961698911558525 ], [ 112.819895850785215, 27.962681808949633 ], [ 112.818520368917447, 27.962375171375591 ], [ 112.817058683204962, 27.962751493039658 ], [ 112.81665872736771, 27.965687236269339 ] ] ] } }
]
}
