{
"type": "FeatureCollection",
"name": "农联村村委会",
"crs": { "type": "name", "properties": { "name": "urn:ogc:def:crs:OGC:1.3:CRS84" } },
"features": [
{ "type": "Feature", "properties": { "adcode": "430371001205", "fullName": "湖南省湘潭市岳塘区板塘街道农联村村委会", "level": "居委会/社区", "location": "112.991979,27.849297", "name": "农联村村委会", "OBJECTID": 4123, "SHAPE_Leng": 0.080912099017600006, "SHAPE_Area": 0.000218762764499 }, "geometry": { "type": "Polygon", "coordinates": [ [ [ 112.976417301996321, 27.851765696801031 ], [ 112.976706214515062, 27.852419962376874 ], [ 112.977155617173068, 27.852219617717736 ], [ 112.977465603842077, 27.850946502476795 ], [ 112.978256669684441, 27.851987353615122 ], [ 112.979881784485869, 27.851974560585713 ], [ 112.980641097804721, 27.851022154780306 ], [ 112.980608043442288, 27.853214612532881 ], [ 112.981785715604076, 27.853581171007246 ], [ 112.981943073636714, 27.854412838739428 ], [ 112.982925282221359, 27.856820302073611 ], [ 112.98330972234082, 27.858677458192808 ], [ 112.98316021303242, 27.859410027086138 ], [ 112.98398319291887, 27.859339548621037 ], [ 112.983920355473728, 27.860199879659749 ], [ 112.984005945031015, 27.861394820933079 ], [ 112.984219144046577, 27.861595214114995 ], [ 112.984603718077352, 27.861707077128933 ], [ 112.984668429498086, 27.862332986483032 ], [ 112.984844770357839, 27.862443474470744 ], [ 112.985042032546531, 27.862568901723836 ], [ 112.985672674278376, 27.862936063044366 ], [ 112.985695553992841, 27.863383068374006 ], [ 112.985891857748086, 27.863015415290999 ], [ 112.98635620931141, 27.862149870137394 ], [ 112.988616750068545, 27.863109188168199 ], [ 112.988900685389567, 27.863230347044702 ], [ 112.98928733016335, 27.862206003440626 ], [ 112.98931124621113, 27.862143920528492 ], [ 112.990423142867897, 27.861726473279013 ], [ 112.991191305417246, 27.861439089427417 ], [ 112.993115307792735, 27.85928187449322 ], [ 112.996433959052766, 27.858995718031707 ], [ 112.997619723908116, 27.856743736992001 ], [ 112.997200299154343, 27.856572984989786 ], [ 112.996331563401924, 27.856220571412468 ], [ 112.994877032114786, 27.855630904540412 ], [ 112.993853880057259, 27.855216953453336 ], [ 112.990995522927051, 27.855343677253092 ], [ 112.990638129315869, 27.85190219852052 ], [ 112.99316894831037, 27.848797987122115 ], [ 112.993786705843306, 27.848041981866452 ], [ 112.993864423729406, 27.847946729561073 ], [ 112.990157406636882, 27.845805664185164 ], [ 112.98688562444319, 27.844946443876182 ], [ 112.986356652965227, 27.844066899259523 ], [ 112.981031245489675, 27.843871830718079 ], [ 112.978138752063231, 27.843738354489659 ], [ 112.977454147608654, 27.844632506267725 ], [ 112.977325471439201, 27.846379166650618 ], [ 112.977677114683431, 27.847526324230305 ], [ 112.978523974647572, 27.848590011943685 ], [ 112.978235893538724, 27.850118108415472 ], [ 112.977690865404597, 27.850035693770646 ], [ 112.976418407537778, 27.850389468113207 ], [ 112.976417301996321, 27.851765696801031 ] ] ] } }
]
}
