{
"type": "FeatureCollection",
"name": "冯家村委会",
"crs": { "type": "name", "properties": { "name": "urn:ogc:def:crs:OGC:1.3:CRS84" } },
"features": [
{ "type": "Feature", "properties": { "adcode": "430373200233", "fullName": "湖南省湘潭市雨湖区响水乡冯家村委会", "level": "居委会/社区", "location": "112.972753,27.961034", "name": "冯家村委会", "OBJECTID": 4026, "SHAPE_Leng": 0.086120073972100003, "SHAPE_Area": 0.0001813936785 }, "geometry": { "type": "Polygon", "coordinates": [ [ [ 112.953087847810593, 27.961753557682478 ], [ 112.953603207826916, 27.963080559138159 ], [ 112.955314995222167, 27.96368454653992 ], [ 112.955314893496436, 27.96497276199754 ], [ 112.956597789532168, 27.967091974301272 ], [ 112.956939737194418, 27.967016116205357 ], [ 112.95728263004554, 27.967546353290334 ], [ 112.958907489655715, 27.968073361532436 ], [ 112.959163630277615, 27.968678812370275 ], [ 112.959677995039485, 27.968676501485348 ], [ 112.959934063499517, 27.970117085708342 ], [ 112.959335873012023, 27.97133181480957 ], [ 112.960447233285763, 27.972466156898285 ], [ 112.962157782230634, 27.97140153597654 ], [ 112.962928183295816, 27.97238467235908 ], [ 112.964382428321656, 27.971773705544951 ], [ 112.964809993162717, 27.971923584048206 ], [ 112.965494806167598, 27.970633525151506 ], [ 112.966349978304564, 27.970025104849917 ], [ 112.966264429796425, 27.967977997404205 ], [ 112.967119591509501, 27.967292549082732 ], [ 112.96797564758154, 27.967669258943125 ], [ 112.970969257249109, 27.968495047914598 ], [ 112.972595554792136, 27.968642463713461 ], [ 112.9755879553786, 27.968558848290858 ], [ 112.97558719449033, 27.965600357846569 ], [ 112.976442201444016, 27.964764734204618 ], [ 112.977127751548494, 27.964611708909871 ], [ 112.977127775690562, 27.964308658236948 ], [ 112.980676768971037, 27.966153511593582 ], [ 112.974903918263351, 27.96199973330156 ], [ 112.976357997260891, 27.958583944481486 ], [ 112.972766820682395, 27.957760156237683 ], [ 112.968660319170226, 27.954927231591686 ], [ 112.966734578078743, 27.958724169097717 ], [ 112.966391387764673, 27.963123842165814 ], [ 112.959034418911259, 27.963900343828261 ], [ 112.953087847810593, 27.961753557682478 ] ] ] } }
]
}
