{
"type": "FeatureCollection",
"name": "匣锦村委会",
"crs": { "type": "name", "properties": { "name": "urn:ogc:def:crs:OGC:1.3:CRS84" } },
"features": [
{ "type": "Feature", "properties": { "adcode": "430302100216", "fullName": "湖南省湘潭市雨湖区鹤岭镇匣锦村委会", "level": "居委会/社区", "location": "112.847782,27.973137", "name": "匣锦村委会", "OBJECTID": 3905, "SHAPE_Leng": 0.101913816285, "SHAPE_Area": 0.0002131008635 }, "geometry": { "type": "Polygon", "coordinates": [ [ [ 112.826173027586762, 27.966187218985148 ], [ 112.827548395295025, 27.967858080743238 ], [ 112.829955638837191, 27.969227810722465 ], [ 112.830986359740862, 27.970897006539616 ], [ 112.829298182849868, 27.972686159269962 ], [ 112.831361885970452, 27.972766014134912 ], [ 112.831119279213311, 27.974964928323168 ], [ 112.83163516087896, 27.97549597309316 ], [ 112.833097783799005, 27.975271638446916 ], [ 112.834129561892169, 27.975880635159335 ], [ 112.835151368751255, 27.975757483040077 ], [ 112.836614823779001, 27.977011347900135 ], [ 112.838549204000316, 27.97640772487334 ], [ 112.83975224727061, 27.976446870484125 ], [ 112.839967522066758, 27.977585439198108 ], [ 112.840698690262869, 27.97838185907964 ], [ 112.840999318168514, 27.976791124372308 ], [ 112.842030767122893, 27.98020448709298 ], [ 112.843319867858909, 27.980434752467882 ], [ 112.843535126951892, 27.981608314530195 ], [ 112.843105351372245, 27.982556731708893 ], [ 112.843578063376896, 27.983314667670598 ], [ 112.844050895891712, 27.982481339688611 ], [ 112.844780989210633, 27.983544754773483 ], [ 112.845941838076129, 27.98354670937751 ], [ 112.847359967258072, 27.984723256050962 ], [ 112.848649949726948, 27.984725364852867 ], [ 112.849681451533058, 27.98544714477665 ], [ 112.850240199131207, 27.986548215408611 ], [ 112.851787435329157, 27.986966716580145 ], [ 112.852861990314835, 27.986779344712435 ], [ 112.854176655006299, 27.989067709593019 ], [ 112.854322837262615, 27.989321969917444 ], [ 112.85410953326236, 27.989435668476318 ], [ 112.854183632946018, 27.989473785897474 ], [ 112.854254727388792, 27.989523900627578 ], [ 112.854294781174602, 27.989543963887574 ], [ 112.857593307282912, 27.987980516111378 ], [ 112.857222846836208, 27.987742951513962 ], [ 112.857072732905934, 27.986701567990874 ], [ 112.857266035955121, 27.98603873570999 ], [ 112.856589191955948, 27.985517681341175 ], [ 112.855644993691669, 27.984775188353016 ], [ 112.855000165686874, 27.984206145754161 ], [ 112.853935784154018, 27.983134380801175 ], [ 112.85362441411381, 27.982309775617715 ], [ 112.853034632332609, 27.981692777701717 ], [ 112.852269636843474, 27.980481403742015 ], [ 112.851818938083895, 27.981114809206492 ], [ 112.851445400876045, 27.981053216728785 ], [ 112.850562116992165, 27.980904803141932 ], [ 112.84961672879389, 27.980657257157116 ], [ 112.849457543100797, 27.979973889569624 ], [ 112.849455540793258, 27.979964884874736 ], [ 112.849714960423213, 27.979577236936702 ], [ 112.849649882133562, 27.979331092267032 ], [ 112.850132609236383, 27.979252850051342 ], [ 112.850100646062387, 27.978172621297009 ], [ 112.850007522820164, 27.977974440283631 ], [ 112.849661063384374, 27.977225763293987 ], [ 112.849585002366126, 27.976546529322849 ], [ 112.849552976798122, 27.976258430395703 ], [ 112.848993214211973, 27.97521435701173 ], [ 112.848735847369326, 27.974910890505463 ], [ 112.848767974027737, 27.973914777601454 ], [ 112.848249193437482, 27.973775911759695 ], [ 112.8477814845658, 27.97365012651214 ], [ 112.847555139659462, 27.973590745218608 ], [ 112.845931612992615, 27.973427025452072 ], [ 112.845522996439172, 27.973027273876994 ], [ 112.845060290003815, 27.972628428144912 ], [ 112.844179898731198, 27.972323884140824 ], [ 112.842452157180446, 27.97132775069354 ], [ 112.84240808119219, 27.971370681496687 ], [ 112.84230790740304, 27.971480526157006 ], [ 112.842267838073042, 27.971521463479217 ], [ 112.842138614467004, 27.971651260804737 ], [ 112.842107561569421, 27.971671210195353 ], [ 112.842017407749552, 27.971731063503057 ], [ 112.841947288537114, 27.971770948216935 ], [ 112.841907220679829, 27.971789881665448 ], [ 112.841756970768586, 27.971799621714304 ], [ 112.841616737823969, 27.971800377406375 ], [ 112.841426425177033, 27.971750036854448 ], [ 112.841306228924509, 27.971698818270578 ], [ 112.841015754108426, 27.971569288203728 ], [ 112.840875523506881, 27.971518033746893 ], [ 112.840820433606524, 27.971487932050021 ], [ 112.840715262055525, 27.971427737328657 ], [ 112.840539978405516, 27.97129340679729 ], [ 112.840384726473687, 27.971178114291753 ], [ 112.84027454818694, 27.971086904943093 ], [ 112.840204434796064, 27.971026771285917 ], [ 112.840094253689202, 27.970967566979532 ], [ 112.839994087813579, 27.97092738336849 ], [ 112.839903937138388, 27.970907220661172 ], [ 112.839862867741743, 27.970907148016746 ], [ 112.839798760147076, 27.970897032913268 ], [ 112.8397086053603, 27.97092587811256 ], [ 112.839593404030495, 27.971005687290283 ], [ 112.839513264220599, 27.971056553666845 ], [ 112.839433122824175, 27.971126423115162 ], [ 112.839283860812529, 27.971236176350992 ], [ 112.839192700407168, 27.971306025967085 ], [ 112.839132594589856, 27.971351926727948 ], [ 112.83803780547224, 27.97030379788696 ], [ 112.836320014867383, 27.968026322957897 ], [ 112.834942715009078, 27.966659589897713 ], [ 112.833052270968693, 27.968020349702776 ], [ 112.828064568534899, 27.964826541472235 ], [ 112.826173027586762, 27.966187218985148 ] ] ] } }
]
}
