{
"type": "FeatureCollection",
"name": "半边街社区居委会",
"crs": { "type": "name", "properties": { "name": "urn:ogc:def:crs:OGC:1.3:CRS84" } },
"features": [
{ "type": "Feature", "properties": { "adcode": "430304005002", "fullName": "湖南省湘潭市岳塘区下摄司街道半边街社区居委会", "level": "居委会/社区", "location": "112.930063,27.801377", "name": "半边街社区居委会", "OBJECTID": 4061, "SHAPE_Leng": 0.031764310859100003, "SHAPE_Area": 3.4454601e-05 }, "geometry": { "type": "Polygon", "coordinates": [ [ [ 112.926865204468299, 27.802392624018498 ], [ 112.926859215506539, 27.802392632170125 ], [ 112.924186968274824, 27.802374111100235 ], [ 112.924174985288175, 27.802419132747964 ], [ 112.924111075129716, 27.802669249607401 ], [ 112.923935322134383, 27.803344568294214 ], [ 112.923917347546762, 27.803410600365197 ], [ 112.923856432356786, 27.803649711259663 ], [ 112.923817486779939, 27.803798781514015 ], [ 112.923662701889299, 27.804397061030084 ], [ 112.923262372522885, 27.804406548072681 ], [ 112.922549547060683, 27.804423397862216 ], [ 112.921726871277002, 27.804443350855898 ], [ 112.921501228703036, 27.804447606834753 ], [ 112.921069904780794, 27.804457090079477 ], [ 112.921026025957332, 27.803778036616073 ], [ 112.919038035824073, 27.803587118013095 ], [ 112.919034032475921, 27.803705139796193 ], [ 112.918968985526348, 27.805525479671999 ], [ 112.918955975022755, 27.805903549882171 ], [ 112.919522144942832, 27.805897968090537 ], [ 112.919898584193675, 27.805893573253027 ], [ 112.920419768922557, 27.806237068951457 ], [ 112.920883032839868, 27.806542610630039 ], [ 112.922125074183967, 27.806493203708239 ], [ 112.922800976273436, 27.806464409163986 ], [ 112.922679111424742, 27.807297679132585 ], [ 112.927467694396839, 27.807404550449078 ], [ 112.927534707364643, 27.805627188893538 ], [ 112.930306597612528, 27.802117645737624 ], [ 112.926865204468299, 27.802392624018498 ] ] ] } }
]
}
