{
"type": "FeatureCollection",
"name": "南盘岭社区居委会",
"crs": { "type": "name", "properties": { "name": "urn:ogc:def:crs:OGC:1.3:CRS84" } },
"features": [
{ "type": "Feature", "properties": { "adcode": "430302004002", "fullName": "湖南省湘潭市雨湖区广场街道南盘岭社区居委会", "level": "居委会/社区", "location": "112.891071,27.862811", "name": "南盘岭社区居委会", "OBJECTID": 3849, "SHAPE_Leng": 0.0224624263091, "SHAPE_Area": 9.2626584999399997e-06 }, "geometry": { "type": "Polygon", "coordinates": [ [ [ 112.883481473271274, 27.862693461262651 ], [ 112.883482471320079, 27.862722466633354 ], [ 112.883483470533434, 27.862736469507102 ], [ 112.883485464689798, 27.862819484410782 ], [ 112.883491449409277, 27.863039524299158 ], [ 112.884087607931221, 27.863196866916738 ], [ 112.884720763873645, 27.863296203847298 ], [ 112.884865794355804, 27.863353284461827 ], [ 112.884768753097802, 27.86358527562949 ], [ 112.884800745052999, 27.86378832516273 ], [ 112.88477972229235, 27.864016352861388 ], [ 112.884725693741331, 27.864215359462055 ], [ 112.884842715279291, 27.864301431230473 ], [ 112.884810688058494, 27.864553457603417 ], [ 112.884788668792879, 27.864733476843238 ], [ 112.885016654290013, 27.865612734361104 ], [ 112.884200252105657, 27.868173756207678 ], [ 112.885337531563778, 27.86811630525731 ], [ 112.885638585500644, 27.868231463631499 ], [ 112.886711727035049, 27.868857034052255 ], [ 112.887135772348728, 27.869051237537075 ], [ 112.887550866035312, 27.868501305566767 ], [ 112.887739896909508, 27.868368353866668 ], [ 112.887766912909143, 27.868198335366053 ], [ 112.888075971311267, 27.867827385100302 ], [ 112.886948869443245, 27.86747089852798 ], [ 112.88644977950652, 27.867646722120352 ], [ 112.886364772971746, 27.867548669637188 ], [ 112.886643838876111, 27.867281742312159 ], [ 112.886444824186938, 27.867060621988582 ], [ 112.886558856323717, 27.866884640517426 ], [ 112.885731749598463, 27.866357192431785 ], [ 112.886305901015589, 27.865770347224046 ], [ 112.885511765022684, 27.865583962829753 ], [ 112.886430051929153, 27.864095120593529 ], [ 112.885614927411865, 27.863764706698671 ], [ 112.885755995565674, 27.863249684935997 ], [ 112.885764999894661, 27.863216683499676 ], [ 112.885704989209117, 27.863201653873084 ], [ 112.885196891862421, 27.863077397645174 ], [ 112.883876582177933, 27.862773686076572 ], [ 112.883725541644779, 27.862739600305694 ], [ 112.883634516758292, 27.862718548088832 ], [ 112.883519484730527, 27.862692481714898 ], [ 112.883481473271274, 27.862693461262651 ] ] ] } }
]
}
