{
"type": "FeatureCollection",
"name": "卫星村村委会",
"crs": { "type": "name", "properties": { "name": "urn:ogc:def:crs:OGC:1.3:CRS84" } },
"features": [
{ "type": "Feature", "properties": { "adcode": "430302202214", "fullName": "湖南省湘潭市雨湖区长城乡卫星村村委会", "level": "居委会/社区", "location": "112.854174,27.877197", "name": "卫星村村委会", "OBJECTID": 3993, "SHAPE_Leng": 0.069523618273099996, "SHAPE_Area": 0.000109696331 }, "geometry": { "type": "Polygon", "coordinates": [ [ [ 112.849743703382899, 27.893680704796481 ], [ 112.850375700886488, 27.892952587458165 ], [ 112.850503994091241, 27.891624564374819 ], [ 112.850540051644813, 27.891569612101659 ], [ 112.850565091422766, 27.891533645603012 ], [ 112.850891609394509, 27.891056079781634 ], [ 112.850948707911826, 27.890867137508433 ], [ 112.850926714103892, 27.890373018695808 ], [ 112.850932755513753, 27.889954957000459 ], [ 112.85101690701218, 27.889594027964709 ], [ 112.850696470091464, 27.889158448717467 ], [ 112.850814680963225, 27.888684554639443 ], [ 112.850706563281136, 27.888152293421705 ], [ 112.850878859427723, 27.887603471877096 ], [ 112.851137265438922, 27.887252818708355 ], [ 112.851426760818299, 27.88631411276863 ], [ 112.851653152255423, 27.885509329503702 ], [ 112.851631160926871, 27.884988206706684 ], [ 112.851425936698192, 27.884038725034557 ], [ 112.851180634276886, 27.883328220197146 ], [ 112.850868194291564, 27.883099690078698 ], [ 112.850761065593616, 27.882729458331259 ], [ 112.850234351396779, 27.881903484023852 ], [ 112.850234408225305, 27.881174360578573 ], [ 112.850277566828751, 27.879959223423061 ], [ 112.850041239232198, 27.879655796050933 ], [ 112.850009215125951, 27.879352693726954 ], [ 112.850416840951155, 27.8790882971272 ], [ 112.850740362166121, 27.878526714055784 ], [ 112.850762465591032, 27.877615594971921 ], [ 112.851492498491837, 27.878062816982389 ], [ 112.852631184785707, 27.877450478219284 ], [ 112.854177426580705, 27.876542673735027 ], [ 112.85533804033966, 27.87620234196396 ], [ 112.855682648959856, 27.874343534601902 ], [ 112.855682702142076, 27.8736604196292 ], [ 112.853812166820532, 27.873361587739065 ], [ 112.852822760969389, 27.873545113640407 ], [ 112.852651449444977, 27.874418997944225 ], [ 112.852350013243779, 27.87449354632097 ], [ 112.851104207201928, 27.874528612233995 ], [ 112.850199971688014, 27.873275971972266 ], [ 112.846462260932185, 27.873270886097412 ], [ 112.841390084835055, 27.872844153831917 ], [ 112.841389011988142, 27.873756305527174 ], [ 112.841130471735724, 27.875160089780714 ], [ 112.843150775676136, 27.875579668501683 ], [ 112.843751783716087, 27.875201636056534 ], [ 112.844956594739386, 27.876873967707098 ], [ 112.8450425904621, 27.878694420658103 ], [ 112.84560249676143, 27.87850533183067 ], [ 112.845901973965724, 27.878467827675728 ], [ 112.846244428354339, 27.8795685861263 ], [ 112.846503767734106, 27.880442165947667 ], [ 112.846804169855091, 27.881315812720199 ], [ 112.847621338546233, 27.882606379783862 ], [ 112.847190618233597, 27.883288786409686 ], [ 112.847835586101255, 27.883669911584285 ], [ 112.847621036697717, 27.886477036441981 ], [ 112.847062090486617, 27.887499289370705 ], [ 112.84706203135147, 27.888257418251076 ], [ 112.84654612502041, 27.889547782706178 ], [ 112.847361333639782, 27.890345267584898 ], [ 112.847620498247693, 27.893380211250712 ], [ 112.847789752068991, 27.893473504842671 ], [ 112.848522844260984, 27.8938757697371 ], [ 112.84912477826532, 27.89361169893602 ], [ 112.849743703382899, 27.893680704796481 ] ] ] } }
]
}
