{
"type": "FeatureCollection",
"name": "双建社区",
"crs": { "type": "name", "properties": { "name": "urn:ogc:def:crs:OGC:1.3:CRS84" } },
"features": [
{ "type": "Feature", "properties": { "adcode": "430372100001", "fullName": "湖南省湘潭市岳塘区昭山镇双建社区", "level": "居委会/社区", "location": "113.013012,27.916922", "name": "双建社区", "OBJECTID": 4143, "SHAPE_Leng": 0.042192828965900001, "SHAPE_Area": 3.91264239999e-05 }, "geometry": { "type": "Polygon", "coordinates": [ [ [ 113.001191249811612, 27.921399834478805 ], [ 113.002109842564025, 27.921472068924007 ], [ 113.002606001930474, 27.921547583663088 ], [ 113.002686698033898, 27.92161835225787 ], [ 113.002932768571839, 27.921872653490102 ], [ 113.002991441634123, 27.923238710122384 ], [ 113.003455726226974, 27.923264315434658 ], [ 113.003739691131457, 27.923117435441693 ], [ 113.004343457412546, 27.923243641507671 ], [ 113.004664268740498, 27.923350696373976 ], [ 113.005278018024228, 27.923302847545525 ], [ 113.005588895015336, 27.923086879607023 ], [ 113.005614805190646, 27.923022791095509 ], [ 113.005785201404663, 27.922765237187601 ], [ 113.005920778190671, 27.921855676190628 ], [ 113.006047340817616, 27.92153224252219 ], [ 113.006112140050249, 27.921080971698334 ], [ 113.006924158251906, 27.921241575940105 ], [ 113.0073466193912, 27.921210312612054 ], [ 113.008309051104888, 27.922017592132352 ], [ 113.008544156687762, 27.92251898118872 ], [ 113.008811190220754, 27.922489185614701 ], [ 113.009004478733459, 27.922622636790145 ], [ 113.009384119206288, 27.922435483365369 ], [ 113.009544506883657, 27.922833078109996 ], [ 113.010672476799414, 27.922351677101961 ], [ 113.011773458204715, 27.923168594161961 ], [ 113.012111283575379, 27.922747536828282 ], [ 113.01142675621027, 27.922483489995841 ], [ 113.011223503072131, 27.922267047632975 ], [ 113.011629093774175, 27.92170676581198 ], [ 113.011351105113491, 27.921526547636205 ], [ 113.011313263894507, 27.921242609790571 ], [ 113.010634717747166, 27.921054566135084 ], [ 113.010474318156, 27.920771988793327 ], [ 113.010479339676976, 27.920282890404572 ], [ 113.010848060039422, 27.919698708380199 ], [ 113.010913852346718, 27.919342454561825 ], [ 113.012199252031891, 27.91925668359427 ], [ 113.012466382886018, 27.918209726924395 ], [ 113.012146616484131, 27.917080464735978 ], [ 113.010125867112421, 27.917153394268251 ], [ 113.009971372622786, 27.917794958679732 ], [ 113.009234030236868, 27.917891149384676 ], [ 113.008691981858334, 27.9180497792258 ], [ 113.008351272706861, 27.917382674338803 ], [ 113.00806228165483, 27.917894618984427 ], [ 113.007794261744337, 27.917833404262193 ], [ 113.0077304796893, 27.918009623889454 ], [ 113.007933727381953, 27.918165046810184 ], [ 113.007779270201624, 27.918403546308188 ], [ 113.00733389573962, 27.918366864201857 ], [ 113.006891524788116, 27.918182149986304 ], [ 113.006816829737602, 27.917784304588331 ], [ 113.006699281686267, 27.917505607419614 ], [ 113.006448225030297, 27.917188302213599 ], [ 113.006025792231554, 27.916923518755073 ], [ 113.005699996072892, 27.916796471394886 ], [ 113.005375148881967, 27.917272525357273 ], [ 113.005332267744862, 27.917748735258456 ], [ 113.005214684790815, 27.917928118252259 ], [ 113.005567360342994, 27.918306126567092 ], [ 113.005741702343357, 27.918539644746101 ], [ 113.005566308190453, 27.91899924825924 ], [ 113.005496537938257, 27.919322512429641 ], [ 113.004936584595768, 27.919431209091531 ], [ 113.00364330887038, 27.919867169779625 ], [ 113.002835294048523, 27.91982259690371 ], [ 113.002590215907148, 27.919619301561312 ], [ 113.002231558642421, 27.919411348850169 ], [ 113.002129909016261, 27.919728710180788 ], [ 113.002285320525345, 27.919898269749154 ], [ 113.001650604071557, 27.920706326113272 ], [ 113.001191249811612, 27.921399834478805 ] ] ] } }
]
}
