{
"type": "FeatureCollection",
"name": "双埠村村委会",
"crs": { "type": "name", "properties": { "name": "urn:ogc:def:crs:OGC:1.3:CRS84" } },
"features": [
{ "type": "Feature", "properties": { "adcode": "430304015206", "fullName": "湖南省湘潭市岳塘区荷塘街道双埠村村委会", "level": "居委会/社区", "location": "112.972225,27.888655", "name": "双埠村村委会", "OBJECTID": 4108, "SHAPE_Leng": 0.063949062887699998, "SHAPE_Area": 0.000121584535 }, "geometry": { "type": "Polygon", "coordinates": [ [ [ 112.978866508995822, 27.889072763513514 ], [ 112.97834241874817, 27.888894275162883 ], [ 112.978352297466728, 27.889967428369683 ], [ 112.977871045134776, 27.889834818593741 ], [ 112.977235290801673, 27.890382773080894 ], [ 112.976353483430387, 27.890033285928386 ], [ 112.975332086243952, 27.890620350484092 ], [ 112.974413350826069, 27.890653008804804 ], [ 112.973675980177489, 27.890423088777556 ], [ 112.973145836697043, 27.890603637247235 ], [ 112.972060593645594, 27.891303847812821 ], [ 112.970495122061678, 27.890407116670445 ], [ 112.969424875952697, 27.889731997198297 ], [ 112.967255409537231, 27.888297752651471 ], [ 112.965999717084088, 27.887475038462014 ], [ 112.964276574090022, 27.886194462769716 ], [ 112.963121198973084, 27.888586940831285 ], [ 112.962480268794948, 27.888968695596873 ], [ 112.959890587576751, 27.889543513210857 ], [ 112.956293796198523, 27.890391685507517 ], [ 112.956311734521734, 27.890473655336283 ], [ 112.95639146779169, 27.8907425048892 ], [ 112.956876822475536, 27.892595622023929 ], [ 112.957325295363972, 27.894306800184886 ], [ 112.957328284957285, 27.894320795128159 ], [ 112.95778073776593, 27.896044959912341 ], [ 112.961755107151163, 27.895580719672793 ], [ 112.962104979031224, 27.895458784151881 ], [ 112.962398975926604, 27.896018108342506 ], [ 112.964092410747483, 27.895956613980285 ], [ 112.964110396997711, 27.89537846748836 ], [ 112.964026702869432, 27.895016629167806 ], [ 112.964384522268205, 27.894943660844344 ], [ 112.964646648808298, 27.894970963277235 ], [ 112.965036386129327, 27.894514838500161 ], [ 112.965309462314252, 27.894658127084721 ], [ 112.965592502907668, 27.894804387484619 ], [ 112.965934334588681, 27.895067506512078 ], [ 112.966528339314834, 27.894994879039665 ], [ 112.966571246030611, 27.894344651350206 ], [ 112.967768181926687, 27.894394380219399 ], [ 112.967595720149035, 27.895010959689607 ], [ 112.96826442749213, 27.895161141919605 ], [ 112.969344723954052, 27.895120137041236 ], [ 112.971291022705486, 27.894574583511385 ], [ 112.973066798761494, 27.894579539397334 ], [ 112.974514668339808, 27.894708406757349 ], [ 112.974750877249718, 27.894106623190943 ], [ 112.974889411981565, 27.893764165009955 ], [ 112.975851994843921, 27.893581346871265 ], [ 112.979527766732531, 27.893396547855929 ], [ 112.979357418218513, 27.892978979836283 ], [ 112.979548864318772, 27.891214114378009 ], [ 112.978780785224203, 27.889500088532539 ], [ 112.978866508995822, 27.889072763513514 ] ] ] } }
]
}
