{
"type": "FeatureCollection",
"name": "双湖村委会",
"crs": { "type": "name", "properties": { "name": "urn:ogc:def:crs:OGC:1.3:CRS84" } },
"features": [
{ "type": "Feature", "properties": { "adcode": "430302100253", "fullName": "湖南省湘潭市雨湖区鹤岭镇双湖村委会", "level": "居委会/社区", "location": "112.826036,27.921479", "name": "双湖村委会", "OBJECTID": 3933, "SHAPE_Leng": 0.12528401343199999, "SHAPE_Area": 0.000495951303 }, "geometry": { "type": "Polygon", "coordinates": [ [ [ 112.803123761988687, 27.917829511115702 ], [ 112.803467168822095, 27.919953473620957 ], [ 112.805358277718241, 27.921019979947548 ], [ 112.803981733814624, 27.92374802386113 ], [ 112.805186747491263, 27.924053196746623 ], [ 112.805014263681201, 27.926480308119721 ], [ 112.803982484579677, 27.926933571306908 ], [ 112.803396307595122, 27.929396969142502 ], [ 112.805716208767862, 27.929660095557423 ], [ 112.807607486114605, 27.929359422824135 ], [ 112.808639351836618, 27.928452128416101 ], [ 112.809498987281728, 27.926784401758464 ], [ 112.810874386940171, 27.927089963962491 ], [ 112.810874446660748, 27.926330833961853 ], [ 112.812250890524695, 27.926333363252542 ], [ 112.812250818863262, 27.927244519283555 ], [ 112.814142191434101, 27.92739904500317 ], [ 112.813969774629598, 27.92876395882498 ], [ 112.815689848929892, 27.929070212377486 ], [ 112.816033398467923, 27.929981009761342 ], [ 112.817581155784566, 27.93059101084495 ], [ 112.817581072318902, 27.931653192528643 ], [ 112.818270277080387, 27.932261589706773 ], [ 112.818785178137517, 27.932717634845488 ], [ 112.820160720020226, 27.932264144441319 ], [ 112.822052052105846, 27.933785967702367 ], [ 112.821021075389396, 27.93499623196286 ], [ 112.821363569560873, 27.936666162632001 ], [ 112.824631509313221, 27.936975373709885 ], [ 112.825836573664972, 27.938646927285632 ], [ 112.828758827419833, 27.939258514063045 ], [ 112.828931293377877, 27.937286499870925 ], [ 112.830135451577746, 27.93744177359828 ], [ 112.830651437851074, 27.93668460467692 ], [ 112.832026898955661, 27.936686156647607 ], [ 112.8325429606315, 27.934866799624029 ], [ 112.8342631015867, 27.933656756744266 ], [ 112.834278128299999, 27.933653783763155 ], [ 112.835039477097595, 27.933522153211015 ], [ 112.834996758061777, 27.92896929597546 ], [ 112.833814721507395, 27.928398034263832 ], [ 112.834330692477792, 27.92762184741645 ], [ 112.834115378186752, 27.926787309891054 ], [ 112.834996988135373, 27.926030792927179 ], [ 112.835512956879612, 27.925197590499362 ], [ 112.835405813271365, 27.92463729939281 ], [ 112.833406308824976, 27.924435604639136 ], [ 112.832729117096932, 27.924311335754993 ], [ 112.832794274473315, 27.923779364746235 ], [ 112.833718004836953, 27.922586860590922 ], [ 112.833987549169791, 27.921714205722406 ], [ 112.833836279812004, 27.92174293305025 ], [ 112.833128106428006, 27.920717454951312 ], [ 112.832826597180031, 27.920385842378526 ], [ 112.832599291078537, 27.919133208091079 ], [ 112.832464068903079, 27.918897918030659 ], [ 112.831794966806356, 27.917738481548707 ], [ 112.830354388174655, 27.917716802726726 ], [ 112.828527104663678, 27.91758436906683 ], [ 112.827440116401434, 27.917837375814681 ], [ 112.826990292009242, 27.91794154950799 ], [ 112.826710780670425, 27.917989032748064 ], [ 112.826118723789278, 27.917741877695747 ], [ 112.826018575763854, 27.917305614541469 ], [ 112.825903404914584, 27.916811313149108 ], [ 112.825668004650637, 27.916451808679732 ], [ 112.825324361249201, 27.916678200893042 ], [ 112.824389602270585, 27.917387562516126 ], [ 112.824141134409871, 27.917576126794689 ], [ 112.823227442218808, 27.91789846032113 ], [ 112.823094205271744, 27.917819195602245 ], [ 112.822313816414109, 27.917365646877247 ], [ 112.821390158182666, 27.917012845630655 ], [ 112.821088630395266, 27.9167262283502 ], [ 112.82097042876336, 27.916546974921783 ], [ 112.821282057601493, 27.915778430154781 ], [ 112.820379471198862, 27.915009598176976 ], [ 112.819347629167609, 27.914515571688231 ], [ 112.818584238136438, 27.914532139690031 ], [ 112.818487122384042, 27.91375482391668 ], [ 112.818412992264413, 27.913694674380817 ], [ 112.817712764149746, 27.913126262771552 ], [ 112.816552588627886, 27.914036245904992 ], [ 112.816443426817742, 27.913578963300871 ], [ 112.816643810764418, 27.913310291997938 ], [ 112.816810129567472, 27.913087565006109 ], [ 112.815679074148505, 27.913201470744582 ], [ 112.81552078707422, 27.91321717814608 ], [ 112.814915706686421, 27.913078026763362 ], [ 112.813693531732696, 27.912797708122557 ], [ 112.812489390155804, 27.912643454706096 ], [ 112.812226879246481, 27.91319106462549 ], [ 112.812134699938056, 27.913383927880325 ], [ 112.811801051429171, 27.914083433750179 ], [ 112.810791074917844, 27.916450986694262 ], [ 112.810489516767888, 27.916774490615694 ], [ 112.809972654557626, 27.916153440634762 ], [ 112.80869453475222, 27.914618855753854 ], [ 112.807416301893355, 27.914763576215567 ], [ 112.807938060163735, 27.916623833815883 ], [ 112.807278899011024, 27.916867690639474 ], [ 112.804671362358789, 27.917832220210904 ], [ 112.804155563195209, 27.916920157214914 ], [ 112.803123761988687, 27.917829511115702 ] ] ] } }
]
}
