{
"type": "FeatureCollection",
"name": "古新村委会",
"crs": { "type": "name", "properties": { "name": "urn:ogc:def:crs:OGC:1.3:CRS84" } },
"features": [
{ "type": "Feature", "properties": { "adcode": "430302102232", "fullName": "湖南省湘潭市雨湖区姜畲镇古新村委会", "level": "居委会/社区", "location": "112.849356,27.896023", "name": "古新村委会", "OBJECTID": 3977, "SHAPE_Leng": 0.11020152662799999, "SHAPE_Area": 0.0002703187455 }, "geometry": { "type": "Polygon", "coordinates": [ [ [ 112.832711613914185, 27.891956761439332 ], [ 112.832925929462846, 27.89279029888845 ], [ 112.833098137123329, 27.894043830148703 ], [ 112.834473454004311, 27.895488602241731 ], [ 112.835204574561118, 27.897576294476004 ], [ 112.834258827351817, 27.898674753791564 ], [ 112.835204340531178, 27.900568805875178 ], [ 112.836665763306215, 27.902162732143434 ], [ 112.840449056314199, 27.90433285828194 ], [ 112.841093010468029, 27.905928262669349 ], [ 112.842339860374011, 27.908735916786455 ], [ 112.843094028624748, 27.909634373666247 ], [ 112.844446097134281, 27.911243962586205 ], [ 112.84612263830175, 27.912915074099004 ], [ 112.84615648115799, 27.915614593629677 ], [ 112.84616344783673, 27.916182702706394 ], [ 112.848031350935798, 27.91622379552344 ], [ 112.848912694822161, 27.916234229934513 ], [ 112.850019405244112, 27.915628902831177 ], [ 112.849580781339597, 27.915220131565015 ], [ 112.849096058015718, 27.91513533755862 ], [ 112.848945842651062, 27.914982068744067 ], [ 112.848934867339736, 27.914451960084357 ], [ 112.849289409676331, 27.914367517362663 ], [ 112.849589910315913, 27.913740892491163 ], [ 112.849536877273323, 27.913143705035591 ], [ 112.849655073707353, 27.912897852314391 ], [ 112.848967086072818, 27.912271638213976 ], [ 112.848537475490446, 27.911730849532908 ], [ 112.848440363699751, 27.911264611756401 ], [ 112.848548564101662, 27.910810709759978 ], [ 112.848730871151218, 27.910430940381218 ], [ 112.848118010134542, 27.909472779304973 ], [ 112.847162549687724, 27.909281177820873 ], [ 112.846335307428774, 27.908626693541219 ], [ 112.846367415661348, 27.907885620002794 ], [ 112.846560747812148, 27.907516878488238 ], [ 112.845378999607235, 27.905997641244429 ], [ 112.845363980615062, 27.90593460515851 ], [ 112.845055590306345, 27.904631861914538 ], [ 112.84592794478904, 27.905041398850049 ], [ 112.846797279045091, 27.905449916929065 ], [ 112.847183883582758, 27.905422551736812 ], [ 112.846614095261771, 27.904131387087642 ], [ 112.84682945721427, 27.90380868914162 ], [ 112.847044818022098, 27.903487990676517 ], [ 112.848135549777552, 27.902892680523493 ], [ 112.849103006079915, 27.903103286375348 ], [ 112.850693278884137, 27.904396046548278 ], [ 112.851809885150104, 27.904699848972143 ], [ 112.852068365698997, 27.903317013446795 ], [ 112.85135939234759, 27.902631791938457 ], [ 112.850370052621486, 27.901169982541031 ], [ 112.851359580096513, 27.900224380260742 ], [ 112.8521327094073, 27.900091561109861 ], [ 112.853669885800784, 27.900126919980188 ], [ 112.854819472320074, 27.900153647941575 ], [ 112.8544540420435, 27.899243947964461 ], [ 112.854368009264348, 27.898142631043502 ], [ 112.854539336495009, 27.896967686246896 ], [ 112.854905901812032, 27.896151092082331 ], [ 112.855507743943804, 27.895811922387505 ], [ 112.855815159462409, 27.895776366561911 ], [ 112.855831184795022, 27.895726381432603 ], [ 112.856025465557167, 27.895451617768462 ], [ 112.856119600644149, 27.895325733179174 ], [ 112.856273821296881, 27.89512092201857 ], [ 112.856132672340152, 27.894627633000752 ], [ 112.856132690028801, 27.894400594276888 ], [ 112.856003562519575, 27.893830309151706 ], [ 112.855629117492555, 27.893109639234545 ], [ 112.855413840939178, 27.892938293961492 ], [ 112.854844068213737, 27.8929284502874 ], [ 112.854242254874748, 27.892756523048021 ], [ 112.853704528561948, 27.89249066808129 ], [ 112.853156751621071, 27.892593853915734 ], [ 112.852770250777127, 27.891997161110503 ], [ 112.852663116926507, 27.891758956058894 ], [ 112.852223512857847, 27.891446225255049 ], [ 112.851675754064473, 27.891046306836927 ], [ 112.851309261310831, 27.890532646711449 ], [ 112.850932755513753, 27.889954957000459 ], [ 112.850926714103892, 27.890373018695808 ], [ 112.850948707911826, 27.890867137508433 ], [ 112.850891609394509, 27.891056079781634 ], [ 112.850565091422766, 27.891533645603012 ], [ 112.850540051644813, 27.891569612101659 ], [ 112.850503994091241, 27.891624564374819 ], [ 112.850375700886488, 27.892952587458165 ], [ 112.849743703382899, 27.893680704796481 ], [ 112.848569825564866, 27.895035043918551 ], [ 112.847151595565052, 27.895640824999198 ], [ 112.843989534665283, 27.896178605379053 ], [ 112.843841292600416, 27.896203356356864 ], [ 112.842509229258653, 27.894758818110432 ], [ 112.841391485795413, 27.89339164071222 ], [ 112.840833758881374, 27.890774217469062 ], [ 112.840001554633304, 27.888283327430123 ], [ 112.837612461254849, 27.888550114187669 ], [ 112.836393337723777, 27.888742947508906 ], [ 112.835248326420881, 27.888924898118805 ], [ 112.833441998151528, 27.890818913020372 ], [ 112.832711613914185, 27.891956761439332 ] ] ] } }
]
}
