{
"type": "FeatureCollection",
"name": "古梁巷社区居委会",
"crs": { "type": "name", "properties": { "name": "urn:ogc:def:crs:OGC:1.3:CRS84" } },
"features": [
{ "type": "Feature", "properties": { "adcode": "430302001006", "fullName": "湖南省湘潭市雨湖区雨湖路街道古梁巷社区居委会", "level": "居委会/社区", "location": "112.905963,27.856826", "name": "古梁巷社区居委会", "OBJECTID": 3829, "SHAPE_Leng": 0.0122016643753, "SHAPE_Area": 9.9372715000099993e-06 }, "geometry": { "type": "Polygon", "coordinates": [ [ [ 112.898830660081501, 27.861144625389631 ], [ 112.900123999939836, 27.861875569743439 ], [ 112.900687686116726, 27.862192521972638 ], [ 112.901310325819409, 27.862479442243959 ], [ 112.901321322317287, 27.862445434180071 ], [ 112.902585766740884, 27.859979711796409 ], [ 112.902520809343002, 27.859950724800601 ], [ 112.900280215420054, 27.858090915469081 ], [ 112.900258224840883, 27.858112922897416 ], [ 112.899495536586244, 27.858876167273063 ], [ 112.899195650878298, 27.859180256973325 ], [ 112.899055699638041, 27.859361303962974 ], [ 112.898937738621541, 27.859531345791961 ], [ 112.898916735333529, 27.859692374858703 ], [ 112.898884734500001, 27.859883410107763 ], [ 112.898884697768693, 27.860356488608332 ], [ 112.898830660081501, 27.861144625389631 ] ] ] } }
]
}
