{
"type": "FeatureCollection",
"name": "司马村委会",
"crs": { "type": "name", "properties": { "name": "urn:ogc:def:crs:OGC:1.3:CRS84" } },
"features": [
{ "type": "Feature", "properties": { "adcode": "430302100245", "fullName": "湖南省湘潭市雨湖区鹤岭镇司马村委会", "level": "居委会/社区", "location": "112.789407,27.906125", "name": "司马村委会", "OBJECTID": 3925, "SHAPE_Leng": 0.108097664291, "SHAPE_Area": 0.0002964663135 }, "geometry": { "type": "Polygon", "coordinates": [ [ [ 112.770482580212644, 27.911264143974474 ], [ 112.770541623651113, 27.911294204272618 ], [ 112.770645686046464, 27.911530342240436 ], [ 112.770985927084809, 27.91186872143566 ], [ 112.772703258433594, 27.912933582613718 ], [ 112.771501028645162, 27.915814891802018 ], [ 112.773390566796209, 27.916574905682467 ], [ 112.774078383821887, 27.913995177028045 ], [ 112.775280542970521, 27.913390356738667 ], [ 112.775624786481572, 27.914452914828711 ], [ 112.777171271140944, 27.914909726254621 ], [ 112.777171175234301, 27.916122934289962 ], [ 112.779232325888856, 27.916125356183649 ], [ 112.778889041817564, 27.915063762045129 ], [ 112.7797479453411, 27.91536885167352 ], [ 112.780263441638695, 27.916278640577787 ], [ 112.779062011026866, 27.917795437877452 ], [ 112.779919894477459, 27.918401582224959 ], [ 112.782669772797234, 27.921743631639721 ], [ 112.786966173107544, 27.921293396034287 ], [ 112.786965315471079, 27.919474082721905 ], [ 112.787826549662526, 27.918262102814985 ], [ 112.786795224609264, 27.917805556112132 ], [ 112.78971737070998, 27.915077315865449 ], [ 112.788686124773946, 27.912952435639706 ], [ 112.786279902712906, 27.913404077218573 ], [ 112.787998437156844, 27.909917918570386 ], [ 112.791608475864606, 27.909467197205803 ], [ 112.79229661040273, 27.907646939863163 ], [ 112.793844023802947, 27.905830037853292 ], [ 112.79607831506388, 27.90689478705011 ], [ 112.797454519394563, 27.905985876966216 ], [ 112.797586732488995, 27.905908081258463 ], [ 112.797680872906469, 27.905999252039699 ], [ 112.797855136413006, 27.906128561841072 ], [ 112.797895197049101, 27.906158633197805 ], [ 112.798045424919891, 27.906268900618667 ], [ 112.798245730687498, 27.906400255135399 ], [ 112.798292800908627, 27.90645334235813 ], [ 112.799064993780732, 27.906883703388583 ], [ 112.79766797432012, 27.90445296578163 ], [ 112.796281897192927, 27.903474530852137 ], [ 112.795250387212519, 27.902628722682632 ], [ 112.795035081973239, 27.902363332717908 ], [ 112.79492799021304, 27.901473009258439 ], [ 112.795056222095198, 27.900989131221166 ], [ 112.79455053985599, 27.899974151818341 ], [ 112.794089877682822, 27.899630363584517 ], [ 112.793833499934451, 27.899582951430283 ], [ 112.793670260292203, 27.899551689537347 ], [ 112.792983258456658, 27.899421593772193 ], [ 112.792560637288204, 27.899473947360288 ], [ 112.791822562593538, 27.899567828202144 ], [ 112.791645306538612, 27.89958956107542 ], [ 112.791198664742083, 27.899644891191386 ], [ 112.789632423437794, 27.90022564419878 ], [ 112.789415117365735, 27.900307337137487 ], [ 112.788443781120051, 27.900460942128657 ], [ 112.787577610878969, 27.900597717367855 ], [ 112.787352299960347, 27.900758423218754 ], [ 112.787363280097694, 27.901194513512117 ], [ 112.78696572271916, 27.901631023655714 ], [ 112.78611662429185, 27.901582822875483 ], [ 112.78578219065146, 27.901647369260996 ], [ 112.784999146693039, 27.902320407823101 ], [ 112.784515524208274, 27.902565792862514 ], [ 112.783517295066673, 27.902641469378352 ], [ 112.781174542038841, 27.902646440144768 ], [ 112.78058890229326, 27.902369659193841 ], [ 112.779950216961737, 27.902067818649201 ], [ 112.778734994508937, 27.90091815341453 ], [ 112.778360601058182, 27.900899706560324 ], [ 112.778338466566211, 27.902309921882765 ], [ 112.778328404244149, 27.902966022377143 ], [ 112.778308381144583, 27.902993003403985 ], [ 112.777243173898697, 27.904396005749447 ], [ 112.776802703689484, 27.904748564183759 ], [ 112.776287161400134, 27.905164055318998 ], [ 112.775739610053066, 27.905418491730881 ], [ 112.775524400985631, 27.905457262247285 ], [ 112.77528812801549, 27.906073110195084 ], [ 112.774525378827349, 27.906555373103227 ], [ 112.774009875978038, 27.906981902486674 ], [ 112.773945789868918, 27.907341897186043 ], [ 112.773848679527774, 27.907635846282353 ], [ 112.774203905957322, 27.908824422045068 ], [ 112.773838482142622, 27.910019244334993 ], [ 112.77366627907432, 27.910645172846095 ], [ 112.772588362810154, 27.91037202797553 ], [ 112.772463259095559, 27.910340897605128 ], [ 112.771840745079217, 27.91026526997754 ], [ 112.770744952224149, 27.909145026472654 ], [ 112.770482580212644, 27.911264143974474 ] ] ] } }
]
}
