{
"type": "FeatureCollection",
"name": "合山社区",
"crs": { "type": "name", "properties": { "name": "urn:ogc:def:crs:OGC:1.3:CRS84" } },
"features": [
{ "type": "Feature", "properties": { "adcode": "430373001239", "fullName": "湖南省湘潭市雨湖区和平街道合山社区", "level": "居委会/社区", "location": "112.973922,27.934118", "name": "合山社区", "OBJECTID": 4008, "SHAPE_Leng": 0.27716446718400001, "SHAPE_Area": 0.0025774228465000001 }, "geometry": { "type": "Polygon", "coordinates": [ [ [ 112.995294199488768, 27.970971138321318 ], [ 112.997569838455462, 27.969407950427861 ], [ 112.99769936544368, 27.969288536561681 ], [ 112.998188578875812, 27.968844975080334 ], [ 112.998496455096827, 27.96856499262951 ], [ 112.99971204970231, 27.967121060605351 ], [ 112.999951186125031, 27.966810283329412 ], [ 113.000837989118949, 27.96562739814911 ], [ 113.001092071305848, 27.965322577912943 ], [ 113.000766295831383, 27.965123531275221 ], [ 112.99936955327459, 27.964269624757303 ], [ 113.001080359601573, 27.962292107125371 ], [ 113.00215357330741, 27.959948468869428 ], [ 113.002192436384192, 27.959863337197042 ], [ 113.002534270256007, 27.95864810113061 ], [ 113.003260755108784, 27.956561559626284 ], [ 113.003346552014207, 27.955157064796413 ], [ 113.004789222460516, 27.955347759218846 ], [ 113.005661012038203, 27.955463166140103 ], [ 113.005661018651438, 27.955381152314441 ], [ 113.005501735520824, 27.953742353056562 ], [ 113.005478834510697, 27.953557390448651 ], [ 113.005302603841301, 27.952042662784297 ], [ 113.005143310953784, 27.950531885011674 ], [ 113.00466516997426, 27.949273106466539 ], [ 113.003808439581803, 27.947846439851197 ], [ 113.003300373914513, 27.947097842810859 ], [ 113.003061283934173, 27.946758505880258 ], [ 113.002941739207742, 27.946587837398265 ], [ 113.002722568912688, 27.946340456556999 ], [ 113.0022543429492, 27.94580978003491 ], [ 113.00146732748567, 27.94493201019273 ], [ 113.000082554595835, 27.943816015528149 ], [ 112.999993889384356, 27.943748272950817 ], [ 112.999953043681984, 27.943716391436617 ], [ 112.999594399530707, 27.943428430763348 ], [ 112.997582005776394, 27.941973299158356 ], [ 112.995838612593133, 27.940638379521836 ], [ 112.994354257165668, 27.93931367609397 ], [ 112.994164977173597, 27.939143223765104 ], [ 112.992142627673147, 27.937835161010486 ], [ 112.99210277838138, 27.937809277926764 ], [ 112.991724210193681, 27.937560387958754 ], [ 112.991160335476224, 27.937274055096967 ], [ 112.990568564851358, 27.93697480398852 ], [ 112.990488864976271, 27.936935039539069 ], [ 112.989452765342492, 27.936407097765567 ], [ 112.986384282091905, 27.934877130785885 ], [ 112.983096508835558, 27.933685814593488 ], [ 112.980456269590391, 27.932454471503906 ], [ 112.978005244448667, 27.931391520915952 ], [ 112.976630271414209, 27.930404373615001 ], [ 112.974886607272765, 27.929079206426465 ], [ 112.973013395089069, 27.927125252812466 ], [ 112.971409157778439, 27.925399516589341 ], [ 112.970456556614494, 27.924345020540571 ], [ 112.969425213857576, 27.923204711602846 ], [ 112.968043087989514, 27.921536259789203 ], [ 112.968011199946062, 27.92149734110367 ], [ 112.96715423062075, 27.920059451073257 ], [ 112.9670236906654, 27.91984077112566 ], [ 112.966777558042565, 27.919414371144256 ], [ 112.96599829340704, 27.918073263351555 ], [ 112.965290780992845, 27.916633931342993 ], [ 112.965091478815836, 27.916235400282861 ], [ 112.964845361509376, 27.915460929779567 ], [ 112.964778595189671, 27.915320085021051 ], [ 112.964211623599667, 27.913508293676962 ], [ 112.964144861676814, 27.913297435915172 ], [ 112.963307789149837, 27.911248311830782 ], [ 112.962390948723012, 27.909311399173035 ], [ 112.961244866423186, 27.906863973863008 ], [ 112.961136289368469, 27.90595309996025 ], [ 112.960407729741519, 27.904745776377045 ], [ 112.960164531020482, 27.904466353944262 ], [ 112.959919336876681, 27.90418693502744 ], [ 112.959570552286479, 27.90287660287116 ], [ 112.959047370673773, 27.90088159349434 ], [ 112.95778073776593, 27.896044959912341 ], [ 112.957328284957285, 27.894320795128159 ], [ 112.957325295363972, 27.894306800184886 ], [ 112.956876822475536, 27.892595622023929 ], [ 112.95639146779169, 27.8907425048892 ], [ 112.956311734521734, 27.890473655336283 ], [ 112.956293796198523, 27.890391685507517 ], [ 112.956291803042106, 27.890382688878198 ], [ 112.955666883855997, 27.888299865488761 ], [ 112.955365801898083, 27.888306599791235 ], [ 112.951511277696298, 27.888391752866177 ], [ 112.950741411531837, 27.88960872803754 ], [ 112.949436120853505, 27.889875727056673 ], [ 112.944685154047932, 27.889753963077293 ], [ 112.938840968304874, 27.889006326074945 ], [ 112.939570040169656, 27.891132324870572 ], [ 112.940636179288305, 27.894236823770498 ], [ 112.94299060501335, 27.902159540417749 ], [ 112.94291757374738, 27.904949163960513 ], [ 112.942703478068836, 27.913160998072009 ], [ 112.942651457257909, 27.915121437686327 ], [ 112.942645453840768, 27.915360490607192 ], [ 112.942945572189913, 27.916764128971444 ], [ 112.943888995314595, 27.918392493969346 ], [ 112.94614682376735, 27.920466137293797 ], [ 112.947610735017761, 27.921534168158431 ], [ 112.948637762106003, 27.922973158586807 ], [ 112.949321662122628, 27.92517101235336 ], [ 112.94787485196791, 27.936136086007703 ], [ 112.946452908874818, 27.946906993014391 ], [ 112.946333694982982, 27.953724400566813 ], [ 112.945253530126365, 27.954664843475502 ], [ 112.946279706236723, 27.955438804734435 ], [ 112.947306907863492, 27.955322576468721 ], [ 112.947734678605883, 27.955928747888517 ], [ 112.947349688277583, 27.956611700745594 ], [ 112.947605936037618, 27.95718123944771 ], [ 112.946963644133916, 27.957939759118673 ], [ 112.946241418221106, 27.960404721127301 ], [ 112.953087847810593, 27.961753557682478 ], [ 112.959034418911259, 27.963900343828261 ], [ 112.966391387764673, 27.963123842165814 ], [ 112.966734578078743, 27.958724169097717 ], [ 112.968660319170226, 27.954927231591686 ], [ 112.972766820682395, 27.957760156237683 ], [ 112.976357997260891, 27.958583944481486 ], [ 112.974903918263351, 27.96199973330156 ], [ 112.980676768971037, 27.966153511593582 ], [ 112.985935913756094, 27.972619838723457 ], [ 112.988518046741319, 27.976180615734208 ], [ 112.98945958745351, 27.975634668710018 ], [ 112.991601746262475, 27.97386786431132 ], [ 112.993495807930742, 27.972260830848331 ], [ 112.994341700709469, 27.971638150679041 ], [ 112.99484983319266, 27.971277542841182 ], [ 112.995193569439564, 27.971040456364182 ], [ 112.995294199488768, 27.970971138321318 ] ] ] } }
]
}
