{
"type": "FeatureCollection",
"name": "合岭村委会",
"crs": { "type": "name", "properties": { "name": "urn:ogc:def:crs:OGC:1.3:CRS84" } },
"features": [
{ "type": "Feature", "properties": { "adcode": "430373200243", "fullName": "湖南省湘潭市雨湖区响水乡合岭村委会", "level": "居委会/社区", "location": "112.879774,27.988243", "name": "合岭村委会", "OBJECTID": 4029, "SHAPE_Leng": 0.113805174579, "SHAPE_Area": 0.0004363557015 }, "geometry": { "type": "Polygon", "coordinates": [ [ [ 112.863615236151034, 28.004109123053524 ], [ 112.863635215935105, 28.004648232993151 ], [ 112.864055630219795, 28.005198840528937 ], [ 112.864156729040602, 28.005329985615855 ], [ 112.864246817172472, 28.005442113890091 ], [ 112.864405972177678, 28.005640339914802 ], [ 112.864476039920063, 28.005730439618535 ], [ 112.865063607508347, 28.006406257154449 ], [ 112.865527043344983, 28.006981901039666 ], [ 112.866385866744025, 28.007590004381601 ], [ 112.867789154947175, 28.00858475668565 ], [ 112.868821113190762, 28.008585890220402 ], [ 112.869200455531526, 28.008585297927322 ], [ 112.869580799424696, 28.008506689700997 ], [ 112.86978798483733, 28.00845890029866 ], [ 112.870130287643264, 28.008379244966406 ], [ 112.871602538471606, 28.008038682291932 ], [ 112.872454269655577, 28.007250387022772 ], [ 112.873007729340841, 28.006738831366501 ], [ 112.873644242963664, 28.006149328727762 ], [ 112.876506348287791, 28.003502384182763 ], [ 112.876676462945056, 28.003342496442308 ], [ 112.876586498034484, 28.002202243422424 ], [ 112.876566504744275, 28.001962189213351 ], [ 112.876510520552614, 28.001327043125418 ], [ 112.876356564806855, 27.999561637173581 ], [ 112.87634957739607, 27.999345597062586 ], [ 112.876297670022197, 27.997751300298052 ], [ 112.876286690600679, 27.99740123536688 ], [ 112.876431779304781, 27.997399353610838 ], [ 112.878507950578424, 27.997382961339451 ], [ 112.878868134838385, 27.997383224216929 ], [ 112.879218291523557, 27.997602510036355 ], [ 112.880159575392327, 27.99961448170566 ], [ 112.88062870190447, 28.00062395382308 ], [ 112.881493092267533, 28.000143429141158 ], [ 112.882689578059995, 27.999476038189158 ], [ 112.882819626801776, 27.999406101381858 ], [ 112.882960679126782, 27.999326168510038 ], [ 112.884780272508635, 27.998306964807654 ], [ 112.885251401313866, 27.998046149661214 ], [ 112.885660509913023, 27.997755292562164 ], [ 112.886795770723268, 27.996948653196359 ], [ 112.887740942126101, 27.996276912776533 ], [ 112.887701046418982, 27.994886675170786 ], [ 112.887671103319875, 27.994116540371952 ], [ 112.886401083330739, 27.99214671783476 ], [ 112.884917922250949, 27.990397761302805 ], [ 112.884720893222266, 27.990165627464972 ], [ 112.883600657151291, 27.989324914102472 ], [ 112.883110536239428, 27.988953585525042 ], [ 112.8816301054663, 27.987832534938168 ], [ 112.87976941316802, 27.986591119362977 ], [ 112.879678391270744, 27.986327013560945 ], [ 112.879142254600282, 27.984776384375028 ], [ 112.878549089003371, 27.983059674588841 ], [ 112.878218990614016, 27.982100272830294 ], [ 112.878389149084214, 27.98122025524475 ], [ 112.878409168150839, 27.981110252030813 ], [ 112.878733467608583, 27.979418212259024 ], [ 112.878860583423133, 27.978759196098039 ], [ 112.878909628290828, 27.978500188892216 ], [ 112.87948996936187, 27.977769480746808 ], [ 112.879870159948027, 27.977610717621818 ], [ 112.879963205639797, 27.977571774730276 ], [ 112.880802600898448, 27.977218274409193 ], [ 112.88069658290847, 27.976875148854589 ], [ 112.880201491989453, 27.975277557202279 ], [ 112.878439703838367, 27.974443176055836 ], [ 112.877710285045737, 27.974782682952931 ], [ 112.877451237722795, 27.973532276058446 ], [ 112.876850906133171, 27.973341771597951 ], [ 112.875519815313808, 27.976790245677645 ], [ 112.873930815219438, 27.975802689357042 ], [ 112.873716694749604, 27.975385425704062 ], [ 112.873072161052221, 27.976180961242644 ], [ 112.872238487345967, 27.976681251312321 ], [ 112.871315708596399, 27.977248439385679 ], [ 112.869554217889402, 27.977208623298058 ], [ 112.868587307891445, 27.977719669956805 ], [ 112.867964695153233, 27.978155057243551 ], [ 112.866483144124729, 27.979649623979352 ], [ 112.866654242852178, 27.980559971075735 ], [ 112.86667620683491, 27.981300117836462 ], [ 112.865924415504765, 27.981791324120191 ], [ 112.865967425187833, 27.982226445922045 ], [ 112.866245642179933, 27.983041904678561 ], [ 112.867985269574177, 27.983860016205821 ], [ 112.86749173899733, 27.9846545947956 ], [ 112.867791949639809, 27.985622088841613 ], [ 112.867684757678006, 27.986778157402846 ], [ 112.867106122787774, 27.987780667748304 ], [ 112.865601524039604, 27.988993117479481 ], [ 112.866374259322697, 27.989600122074403 ], [ 112.866803607960776, 27.990586777142788 ], [ 112.866525312257963, 27.990850499376428 ], [ 112.866223981590949, 27.991230211041607 ], [ 112.866180899812917, 27.991723240437324 ], [ 112.86617888693975, 27.991862260530056 ], [ 112.866429137715684, 27.991860551238084 ], [ 112.866849553686208, 27.991861035690327 ], [ 112.867169849997453, 27.99207043471889 ], [ 112.867670305933913, 27.99239205066608 ], [ 112.868310809773718, 27.993652963847261 ], [ 112.868321803588628, 27.993863009710982 ], [ 112.868321800464059, 27.993903016142561 ], [ 112.868352755887614, 27.994842201049032 ], [ 112.868394695526362, 27.996113450932846 ], [ 112.868420658656859, 27.996893604275531 ], [ 112.868220430781378, 27.997432470641257 ], [ 112.867788935636327, 27.998581175916318 ], [ 112.86767980921401, 27.998873100584721 ], [ 112.864693505961455, 28.002720229034971 ], [ 112.864631433952994, 28.002800166341014 ], [ 112.864094805986767, 28.003489619093664 ], [ 112.863615236151034, 28.004109123053524 ] ] ] } }
]
}
