{
"type": "FeatureCollection",
"name": "吉利社区",
"crs": { "type": "name", "properties": { "name": "urn:ogc:def:crs:OGC:1.3:CRS84" } },
"features": [
{ "type": "Feature", "properties": { "adcode": "430373001237", "fullName": "湖南省湘潭市雨湖区和平街道吉利社区", "level": "居委会/社区", "location": "112.909061,27.923717", "name": "吉利社区", "OBJECTID": 4007, "SHAPE_Leng": 0.24634986965, "SHAPE_Area": 0.0014215203925000001 }, "geometry": { "type": "Polygon", "coordinates": [ [ [ 112.869531273246423, 27.937732956850326 ], [ 112.873482159727061, 27.941564523238327 ], [ 112.877862761224449, 27.944071639033485 ], [ 112.876490694732453, 27.947620162347505 ], [ 112.876059343236037, 27.948733997464306 ], [ 112.883015459624247, 27.951052235745784 ], [ 112.88597811430985, 27.952304934311908 ], [ 112.889582561266678, 27.951282084635981 ], [ 112.892073712060679, 27.947985121842315 ], [ 112.894861547840023, 27.944003797271034 ], [ 112.896406425340857, 27.940098182085752 ], [ 112.898198735932368, 27.940693209736231 ], [ 112.900052854135097, 27.941310089127338 ], [ 112.898851145103279, 27.944761839873841 ], [ 112.903097779163687, 27.945556108226913 ], [ 112.906515257366891, 27.945626835583475 ], [ 112.910388680575878, 27.945705755331741 ], [ 112.91227452624716, 27.947485792323778 ], [ 112.917674672059974, 27.948542460720699 ], [ 112.917737590247881, 27.948468387883612 ], [ 112.921359655590734, 27.942794656405692 ], [ 112.921123071371014, 27.942226823799501 ], [ 112.921293824465778, 27.941960588262322 ], [ 112.921488581041004, 27.941146231140323 ], [ 112.921163118036617, 27.940829541571667 ], [ 112.920845636751167, 27.940520839896863 ], [ 112.92037449920528, 27.93875905231295 ], [ 112.920395573971859, 27.937391796594429 ], [ 112.920525721164395, 27.93296290023687 ], [ 112.920653860006567, 27.928669027269521 ], [ 112.922967531574088, 27.923964583203869 ], [ 112.923481846025211, 27.921763587734738 ], [ 112.921717981905175, 27.918580116228856 ], [ 112.921425487183598, 27.918049355921703 ], [ 112.921723444202243, 27.912555078356149 ], [ 112.92202639562403, 27.906972776478238 ], [ 112.922198308178167, 27.904545162874303 ], [ 112.920569963191312, 27.903408795285436 ], [ 112.9204413379789, 27.901133545741622 ], [ 112.920740925224379, 27.900525116259328 ], [ 112.920539299916499, 27.899700194914107 ], [ 112.920869906385477, 27.898211579867375 ], [ 112.921298279169861, 27.897681014468816 ], [ 112.921407193572762, 27.896581704902211 ], [ 112.919799662462523, 27.896603456274931 ], [ 112.918526535989244, 27.896491739720428 ], [ 112.917561901286177, 27.896406663869705 ], [ 112.91508519129971, 27.896189845676581 ], [ 112.914701764748827, 27.894977957851658 ], [ 112.914635862689437, 27.894767976187353 ], [ 112.913070782059947, 27.894163101012602 ], [ 112.912989104382277, 27.8912376638491 ], [ 112.912685451355074, 27.89124488937745 ], [ 112.91248667630353, 27.8912450339736 ], [ 112.912296886089266, 27.89128517717506 ], [ 112.912187005395708, 27.891325262205122 ], [ 112.912087112183642, 27.891376341524076 ], [ 112.911987217763539, 27.89143642192489 ], [ 112.911597621873057, 27.891706737312386 ], [ 112.911367861264083, 27.891805909838094 ], [ 112.911158081415778, 27.891846056694988 ], [ 112.910888363623485, 27.891866237233948 ], [ 112.910738516556549, 27.891906341032264 ], [ 112.910691562725049, 27.891938376662509 ], [ 112.910488760783636, 27.892077529544714 ], [ 112.910258984094725, 27.892216697365924 ], [ 112.909869366316855, 27.892327955234251 ], [ 112.909549677438036, 27.892377154522318 ], [ 112.909519706696372, 27.892377172185952 ], [ 112.909475750382114, 27.892366196145058 ], [ 112.909369855337772, 27.892338253250397 ], [ 112.908849363944313, 27.892187524276824 ], [ 112.908520676038805, 27.892117693431743 ], [ 112.908250931367149, 27.892017821353665 ], [ 112.908031146674602, 27.891807901264237 ], [ 112.907901269314436, 27.891727954968413 ], [ 112.907630520127441, 27.891588069029641 ], [ 112.907582562544633, 27.891584092428804 ], [ 112.907497630672864, 27.891663148270304 ], [ 112.906726232449529, 27.892383640971033 ], [ 112.908290649540618, 27.895171337559916 ], [ 112.908205703219792, 27.895475434528198 ], [ 112.90790397519099, 27.89547359181244 ], [ 112.908739987535256, 27.89833763374488 ], [ 112.908911690126928, 27.900082836114247 ], [ 112.908611846930214, 27.901676274601314 ], [ 112.908354008096879, 27.902661582706067 ], [ 112.908482840853864, 27.903287620331461 ], [ 112.908225038635592, 27.903780842827576 ], [ 112.907839366501818, 27.904027086004422 ], [ 112.90644559442319, 27.903553675596928 ], [ 112.905780136917429, 27.903441945696446 ], [ 112.905309464012987, 27.903915219127192 ], [ 112.904108328548091, 27.904085694260019 ], [ 112.903014942903212, 27.905641309932584 ], [ 112.903056834541047, 27.906685476222496 ], [ 112.903572445486759, 27.907310424077906 ], [ 112.90449379780037, 27.907386122957462 ], [ 112.903121590357955, 27.909281901382386 ], [ 112.901684318007256, 27.911272627070812 ], [ 112.900211738550382, 27.916099752426046 ], [ 112.899623876149349, 27.918025174456641 ], [ 112.899623802358121, 27.918973336909751 ], [ 112.89537742939909, 27.918177412295879 ], [ 112.892501775003737, 27.920868569145917 ], [ 112.894603199504871, 27.923562288147924 ], [ 112.898379005673164, 27.923448247924956 ], [ 112.900009190473853, 27.924435213722333 ], [ 112.900395901375347, 27.925647355707341 ], [ 112.8994080084871, 27.930466334398606 ], [ 112.901637649124652, 27.933043365075946 ], [ 112.899020652544124, 27.93729254891138 ], [ 112.896575646230957, 27.936570579703346 ], [ 112.884554321249823, 27.932799945520152 ], [ 112.876489044402859, 27.930267202416925 ], [ 112.873838215597715, 27.93129709624446 ], [ 112.872495180073969, 27.931818932774867 ], [ 112.870905706864264, 27.934433815677377 ], [ 112.869531273246423, 27.937732956850326 ] ] ] } }
]
}
