{
"type": "FeatureCollection",
"name": "向家塘社区居委会",
"crs": { "type": "name", "properties": { "name": "urn:ogc:def:crs:OGC:1.3:CRS84" } },
"features": [
{ "type": "Feature", "properties": { "adcode": "430304004008", "fullName": "湖南省湘潭市岳塘区书院路街道向家塘社区居委会", "level": "居委会/社区", "location": "112.965676,27.805861", "name": "向家塘社区居委会", "OBJECTID": 4058, "SHAPE_Leng": 0.045892206650299999, "SHAPE_Area": 0.0001214049785 }, "geometry": { "type": "Polygon", "coordinates": [ [ [ 112.965978296163271, 27.805303794055181 ], [ 112.963874363871511, 27.804569339829065 ], [ 112.962797930573984, 27.804232141640728 ], [ 112.957374383508935, 27.802545798884392 ], [ 112.957344477269643, 27.802535871843173 ], [ 112.957278683127655, 27.802518032860977 ], [ 112.954012003540086, 27.810782246765342 ], [ 112.953386882455277, 27.810626710346114 ], [ 112.953324070430185, 27.810611856849139 ], [ 112.952725823125746, 27.810860305415382 ], [ 112.952139527120337, 27.811120716608244 ], [ 112.951465443588546, 27.811768378676017 ], [ 112.951490369408077, 27.81179032449111 ], [ 112.952053683876485, 27.812325100541642 ], [ 112.953007796539723, 27.813312016890528 ], [ 112.953007795284634, 27.813328019347622 ], [ 112.953017763400197, 27.813358000444364 ], [ 112.953017761046894, 27.813388005051902 ], [ 112.953019754904901, 27.813391000810181 ], [ 112.953065613992834, 27.813454902448932 ], [ 112.953086556715917, 27.813393843665217 ], [ 112.961887068133393, 27.814779135943311 ], [ 112.96230083506596, 27.813343832015843 ], [ 112.964819491255412, 27.813910231061996 ], [ 112.965581999775495, 27.813217069743878 ], [ 112.966399319585491, 27.812384724586369 ], [ 112.966870834703371, 27.811032231656608 ], [ 112.966871994949415, 27.808956912628364 ], [ 112.965978296163271, 27.805303794055181 ] ] ] } }
]
}
