{
"type": "FeatureCollection",
"name": "向阳农场村委会",
"crs": { "type": "name", "properties": { "name": "urn:ogc:def:crs:OGC:1.3:CRS84" } },
"features": [
{ "type": "Feature", "properties": { "adcode": "430371002206", "fullName": "湖南省湘潭市岳塘区双马街道向阳农场村委会", "level": "居委会/社区", "location": "112.978819,27.823999", "name": "向阳农场村委会", "OBJECTID": 4136, "SHAPE_Leng": 0.075339441632599993, "SHAPE_Area": 0.000264847333 }, "geometry": { "type": "Polygon", "coordinates": [ [ [ 112.981056091120323, 27.832122869144108 ], [ 112.980734272495553, 27.832020808746165 ], [ 112.980305839857223, 27.831927064488315 ], [ 112.980370654699456, 27.831290771249268 ], [ 112.979654271690563, 27.831121864777078 ], [ 112.979986126212538, 27.830371764261301 ], [ 112.98059490791843, 27.830416967534383 ], [ 112.981023394430167, 27.829812599481951 ], [ 112.981065256887831, 27.829622444949706 ], [ 112.980882960240436, 27.829137909837915 ], [ 112.98067971891642, 27.828911477398151 ], [ 112.979846807354988, 27.828173828528229 ], [ 112.980050083959114, 27.827983196910683 ], [ 112.980552269250154, 27.827829684567778 ], [ 112.980711723331368, 27.827392142397571 ], [ 112.981577624651933, 27.826631448256204 ], [ 112.981600556802988, 27.826431348454427 ], [ 112.981600601184141, 27.825872260329742 ], [ 112.981556808113908, 27.825283298136604 ], [ 112.981258025848788, 27.823692937744266 ], [ 112.98036057726668, 27.820165051662503 ], [ 112.979497796673527, 27.819095438252074 ], [ 112.97914408696208, 27.818991466022769 ], [ 112.978812316426371, 27.818632388032476 ], [ 112.977926556763265, 27.818103909327053 ], [ 112.977242038190155, 27.817878878898991 ], [ 112.976290434633142, 27.818079685336997 ], [ 112.975959635411158, 27.817852611793761 ], [ 112.975874943621378, 27.81778084661179 ], [ 112.975342755799545, 27.81886255706565 ], [ 112.9747967241385, 27.818535084588312 ], [ 112.974748914272936, 27.818279182891157 ], [ 112.974428077946101, 27.817962058649986 ], [ 112.973834188967103, 27.817853749394619 ], [ 112.970718081900344, 27.818170655809446 ], [ 112.969730480101973, 27.818418463220659 ], [ 112.968447862256767, 27.81872007672127 ], [ 112.967753243462738, 27.818579972211431 ], [ 112.967528018130338, 27.818470574666488 ], [ 112.967271891401921, 27.818424270546089 ], [ 112.967189126215359, 27.819003587279486 ], [ 112.967039544270321, 27.820125171202296 ], [ 112.967210914216167, 27.820748798901391 ], [ 112.968024060538454, 27.821866737313723 ], [ 112.967638354527125, 27.822114838413956 ], [ 112.966954615590438, 27.822856829659379 ], [ 112.96539286111954, 27.822975092223807 ], [ 112.965521354654939, 27.823941896548821 ], [ 112.966099379105685, 27.824396401814592 ], [ 112.965478369342364, 27.825575269113266 ], [ 112.96421656995058, 27.825596662505291 ], [ 112.964323143136284, 27.826526523989273 ], [ 112.965103429094242, 27.828019665613883 ], [ 112.965135317760485, 27.828081589514781 ], [ 112.965797988968092, 27.829484021290078 ], [ 112.965862635245543, 27.83121212023444 ], [ 112.965220702309793, 27.83225702154985 ], [ 112.964257862715371, 27.832809693934099 ], [ 112.963056737345255, 27.833914062522407 ], [ 112.962974999564437, 27.83398929048408 ], [ 112.963008826155018, 27.834779327343853 ], [ 112.970650943011094, 27.835473570838818 ], [ 112.970870180051207, 27.835492956939337 ], [ 112.971391362063159, 27.835540494073495 ], [ 112.971583689744179, 27.835557952929737 ], [ 112.972133762661102, 27.835607401332329 ], [ 112.974991654543203, 27.835866254164451 ], [ 112.977186790517763, 27.83606590647058 ], [ 112.977189779776879, 27.836065897732635 ], [ 112.980998957787008, 27.836411723830739 ], [ 112.981003158191655, 27.833704278400521 ], [ 112.980940512205379, 27.832128213411838 ], [ 112.981056091120323, 27.832122869144108 ] ] ] } }
]
}
