{
"type": "FeatureCollection",
"name": "和平村村委会",
"crs": { "type": "name", "properties": { "name": "urn:ogc:def:crs:OGC:1.3:CRS84" } },
"features": [
{ "type": "Feature", "properties": { "adcode": "430302202202", "fullName": "湖南省湘潭市雨湖区长城乡和平村村委会", "level": "居委会/社区", "location": "112.876723,27.849576", "name": "和平村村委会", "OBJECTID": 3982, "SHAPE_Leng": 0.043156254786599998, "SHAPE_Area": 5.7018797000099999e-05 }, "geometry": { "type": "Polygon", "coordinates": [ [ [ 112.866803601319802, 27.849299963373724 ], [ 112.867169794559985, 27.851416728653476 ], [ 112.867685271866335, 27.851644347187321 ], [ 112.867814361847635, 27.852062560117712 ], [ 112.867814273443216, 27.853200747298256 ], [ 112.868115483059384, 27.854150238066453 ], [ 112.869617845584173, 27.854151861329544 ], [ 112.869490645108229, 27.855290914734869 ], [ 112.869789760538382, 27.857187543664171 ], [ 112.870134029141454, 27.857566965801869 ], [ 112.870649425543107, 27.858099584470931 ], [ 112.871829344081689, 27.858678860696962 ], [ 112.872817183772483, 27.857712651634259 ], [ 112.873665728683164, 27.858756614087586 ], [ 112.873440530782744, 27.859202480979981 ], [ 112.873408481612202, 27.859534506448423 ], [ 112.875147606903028, 27.860627241561488 ], [ 112.87593714013228, 27.860308857882558 ], [ 112.875981169125367, 27.860290891545546 ], [ 112.875936144241237, 27.860247846921698 ], [ 112.875885115880507, 27.860199796379998 ], [ 112.875620967153949, 27.859953533640006 ], [ 112.875435861259959, 27.859780347903737 ], [ 112.874372225499158, 27.858785256610318 ], [ 112.8739529589744, 27.858434822200781 ], [ 112.872965316987802, 27.857430744627734 ], [ 112.872933295557019, 27.857397709035585 ], [ 112.873607805926412, 27.857222306894911 ], [ 112.873663847460961, 27.857208355944518 ], [ 112.872846297140597, 27.856534484213313 ], [ 112.872866326189822, 27.856354473362927 ], [ 112.872869330002189, 27.856334472891437 ], [ 112.873212608759744, 27.856040746182398 ], [ 112.873598902853871, 27.85589007846152 ], [ 112.873771043672278, 27.855672199927017 ], [ 112.873889138380747, 27.855538285220028 ], [ 112.874254393247412, 27.855568619271711 ], [ 112.8743194445386, 27.855490664499367 ], [ 112.874350468924476, 27.855453686049266 ], [ 112.874254408078684, 27.85537758774333 ], [ 112.873363834008032, 27.854571644116398 ], [ 112.873437897861848, 27.854446692003542 ], [ 112.873673058027123, 27.854579930159012 ], [ 112.874821946322996, 27.853452772111517 ], [ 112.874953035595198, 27.853435883570683 ], [ 112.874974049861933, 27.85343290133488 ], [ 112.875145247388957, 27.852351871555697 ], [ 112.875447497321005, 27.851679019864797 ], [ 112.875456504784864, 27.851658024079939 ], [ 112.875757729625093, 27.851250211710767 ], [ 112.874933234549033, 27.850700416667337 ], [ 112.874203766503967, 27.850301707133003 ], [ 112.872850884241004, 27.849011250637037 ], [ 112.871518847515205, 27.848989958321923 ], [ 112.870617125921711, 27.84872300730893 ], [ 112.868560369856837, 27.84803472227431 ], [ 112.86714293978882, 27.84920933604711 ], [ 112.866803601319802, 27.849299963373724 ] ] ] } }
]
}
