{
"type": "FeatureCollection",
"name": "和平社区居委会",
"crs": { "type": "name", "properties": { "name": "urn:ogc:def:crs:OGC:1.3:CRS84" } },
"features": [
{ "type": "Feature", "properties": { "adcode": "430302004001", "fullName": "湖南省湘潭市雨湖区广场街道和平社区居委会", "level": "居委会/社区", "location": "112.898544,27.867451", "name": "和平社区居委会", "OBJECTID": 3848, "SHAPE_Leng": 0.0260381205942, "SHAPE_Area": 1.02109065e-05 }, "geometry": { "type": "Polygon", "coordinates": [ [ [ 112.890380694217157, 27.872407861049325 ], [ 112.890509661713665, 27.872786957760628 ], [ 112.891721576171065, 27.873016271820219 ], [ 112.891678627705019, 27.872399159395364 ], [ 112.89223557549785, 27.872380262838519 ], [ 112.89245154404675, 27.872465314899287 ], [ 112.892687479052896, 27.872919430200344 ], [ 112.893351386040948, 27.872853515929805 ], [ 112.893458405816574, 27.872369448400196 ], [ 112.894050300107622, 27.872331509560492 ], [ 112.894071372524877, 27.871345346059083 ], [ 112.894017408287695, 27.871022286353124 ], [ 112.894103455995733, 27.870188155097388 ], [ 112.894575335225369, 27.870454241609401 ], [ 112.894972227744418, 27.870645301398273 ], [ 112.895498079104428, 27.87082535779269 ], [ 112.895747006033616, 27.870884375882884 ], [ 112.895792992192852, 27.870895378945395 ], [ 112.89554611142303, 27.870242261772841 ], [ 112.89523525764902, 27.869415109742494 ], [ 112.894967377540411, 27.868731980404309 ], [ 112.894903412864267, 27.868475933510826 ], [ 112.894924446807337, 27.86797385081563 ], [ 112.894495574307172, 27.867603757728354 ], [ 112.894489571896855, 27.867651765266189 ], [ 112.894450554167477, 27.86798981858437 ], [ 112.89440752448867, 27.868491898971097 ], [ 112.89410756842986, 27.868729911131897 ], [ 112.894322505032832, 27.868975972582451 ], [ 112.894354459569897, 27.869474058870502 ], [ 112.894043516405802, 27.869564044455679 ], [ 112.893941497321975, 27.870066118031691 ], [ 112.893689556749678, 27.86990606311317 ], [ 112.893195661969671, 27.869621952473793 ], [ 112.892568776700998, 27.869283800679945 ], [ 112.892278776313418, 27.869732826214381 ], [ 112.892998677923103, 27.869800954411065 ], [ 112.892859664692338, 27.870228005202595 ], [ 112.891752790901919, 27.870216807988182 ], [ 112.891913764544128, 27.870368865161865 ], [ 112.892108743690343, 27.870388905399217 ], [ 112.892096702293173, 27.870937995294376 ], [ 112.892430654754151, 27.871072077344301 ], [ 112.892557603181857, 27.871536176636059 ], [ 112.892011698456159, 27.871098006229559 ], [ 112.890660791397352, 27.8710577050506 ], [ 112.890906734189684, 27.871667866878166 ], [ 112.891088691885301, 27.87209498090191 ], [ 112.890380694217157, 27.872407861049325 ] ] ] } }
]
}
