{
"type": "FeatureCollection",
"name": "和平桥社区居委会",
"crs": { "type": "name", "properties": { "name": "urn:ogc:def:crs:OGC:1.3:CRS84" } },
"features": [
{ "type": "Feature", "properties": { "adcode": "430302001003", "fullName": "湖南省湘潭市雨湖区雨湖路街道和平桥社区居委会", "level": "居委会/社区", "location": "112.914884,27.863737", "name": "和平桥社区居委会", "OBJECTID": 3826, "SHAPE_Leng": 0.0231756875291, "SHAPE_Area": 1.9795680500100002e-05 }, "geometry": { "type": "Polygon", "coordinates": [ [ [ 112.905870826720701, 27.867963893798272 ], [ 112.905920786209691, 27.867976874754682 ], [ 112.908396592954801, 27.868961847014429 ], [ 112.911097845778713, 27.870010405198826 ], [ 112.911112829567344, 27.870015396142321 ], [ 112.911166786901418, 27.869830329419344 ], [ 112.911011978275511, 27.869470371212799 ], [ 112.911027973679197, 27.869313334410592 ], [ 112.91084518318641, 27.869081414862375 ], [ 112.910830210937675, 27.868925398443711 ], [ 112.910829213145135, 27.868910396578453 ], [ 112.911182848915402, 27.868815148736484 ], [ 112.911192838558605, 27.868812141600205 ], [ 112.911310731490204, 27.868577023626244 ], [ 112.911326716850766, 27.868546007726792 ], [ 112.912410492327183, 27.86903333632689 ], [ 112.912721132020124, 27.869151130432083 ], [ 112.912914923108403, 27.868988960318273 ], [ 112.912941893917065, 27.868965936432552 ], [ 112.912823036485676, 27.868885010912184 ], [ 112.912683213462188, 27.868659075830564 ], [ 112.912437521082822, 27.868274189809213 ], [ 112.91230269098314, 27.86803224606825 ], [ 112.912041008455574, 27.867686373621346 ], [ 112.911832262395762, 27.867369466310183 ], [ 112.911714403079344, 27.867212521453578 ], [ 112.911638504194499, 27.866971533252407 ], [ 112.91154361631159, 27.866848577441463 ], [ 112.910712517409209, 27.866559078652898 ], [ 112.910762483724895, 27.866326007569388 ], [ 112.910552711102525, 27.866189118959753 ], [ 112.910172105813984, 27.866096341960741 ], [ 112.910166112012575, 27.866094345330737 ], [ 112.910235047228113, 27.866032292280288 ], [ 112.910476807413744, 27.865952127479268 ], [ 112.910825455365952, 27.865848887224548 ], [ 112.911083186303628, 27.865834716458842 ], [ 112.911140129585036, 27.865790671495628 ], [ 112.911158111570131, 27.865777657415762 ], [ 112.911569708531474, 27.865302301536204 ], [ 112.911590687818816, 27.86527728306099 ], [ 112.909502929565647, 27.864035401651005 ], [ 112.909481947427381, 27.864068419473252 ], [ 112.909339067351581, 27.864307542691531 ], [ 112.908487802863007, 27.865185166602132 ], [ 112.907560560737849, 27.866157811843035 ], [ 112.906568321888329, 27.867216462427038 ], [ 112.905870826720701, 27.867963893798272 ] ] ] } }
]
}
