{
"type": "FeatureCollection",
"name": "和平村",
"crs": { "type": "name", "properties": { "name": "urn:ogc:def:crs:OGC:1.3:CRS84" } },
"features": [
{ "type": "Feature", "properties": { "adcode": "430373001998", "fullName": "湖南省湘潭市雨湖区和平街道和平村", "level": "居委会/社区", "location": "112.925807,27.887858", "name": "和平村", "OBJECTID": 4009, "SHAPE_Leng": 0.00261908137232, "SHAPE_Area": 4.2305850000699998e-07 }, "geometry": { "type": "Polygon", "coordinates": [ [ [ 112.919984819516742, 27.891031311565854 ], [ 112.920177472276634, 27.891751229095384 ], [ 112.920776569938752, 27.891564549369299 ], [ 112.920669777560022, 27.891015572628348 ], [ 112.919984819516742, 27.891031311565854 ] ] ] } }
]
}
