{
"type": "FeatureCollection",
"name": "和平村村委会_1",
"crs": { "type": "name", "properties": { "name": "urn:ogc:def:crs:OGC:1.3:CRS84" } },
"features": [
{ "type": "Feature", "properties": { "adcode": "430304014205", "fullName": "湖南省湘潭市岳塘区霞城街道和平村村委会", "level": "居委会/社区", "location": "112.904056,27.834553", "name": "和平村村委会", "OBJECTID": 4097, "SHAPE_Leng": 0.116960983016, "SHAPE_Area": 0.000138916422 }, "geometry": { "type": "MultiPolygon", "coordinates": [ [ [ [ 112.908916064583948, 27.830955344041911 ], [ 112.908844204705204, 27.830023236179727 ], [ 112.908819253792061, 27.829693197717006 ], [ 112.908025994073526, 27.829545601619202 ], [ 112.908025999507529, 27.829475590514903 ], [ 112.908027079185402, 27.828437425499772 ], [ 112.908428782807235, 27.827553072812179 ], [ 112.908412815500313, 27.827321044760083 ], [ 112.908044155666246, 27.827255229713728 ], [ 112.907329795127751, 27.82712757059079 ], [ 112.907328751439039, 27.827701661785284 ], [ 112.907204856494971, 27.827720725060715 ], [ 112.907118882032321, 27.828337864066384 ], [ 112.906926043663091, 27.828360959388476 ], [ 112.90691503382682, 27.82860700351398 ], [ 112.907214770083513, 27.828723878960716 ], [ 112.907118837014721, 27.828917955925704 ], [ 112.906846074057242, 27.828835071965727 ], [ 112.906712165759998, 27.8290941751942 ], [ 112.906584271708155, 27.829094233837111 ], [ 112.906471391403628, 27.828748230165502 ], [ 112.906342496599294, 27.828748287862311 ], [ 112.90628956091696, 27.82847326779688 ], [ 112.906171656085988, 27.828473319635066 ], [ 112.906080754374173, 27.828146307423992 ], [ 112.905961849085273, 27.828146358578124 ], [ 112.905890934120478, 27.827774329950273 ], [ 112.906167714090046, 27.827767209670071 ], [ 112.906330582708804, 27.827764137452959 ], [ 112.906297609929041, 27.827758151125408 ], [ 112.906277626893214, 27.827748158381723 ], [ 112.906247651137122, 27.827748171604242 ], [ 112.90623765998437, 27.827738174421427 ], [ 112.906207684167455, 27.827738187589887 ], [ 112.906187701040338, 27.827728194765029 ], [ 112.906187703368417, 27.827698190021636 ], [ 112.906177712961338, 27.827678191230916 ], [ 112.906207702016857, 27.827508151230177 ], [ 112.906197712395809, 27.827478150869183 ], [ 112.906187721217819, 27.827468153664711 ], [ 112.90614775412628, 27.827458169542922 ], [ 112.906087801396964, 27.827468197176245 ], [ 112.906047834102722, 27.827458212874319 ], [ 112.905957907898667, 27.827429246904387 ], [ 112.905907948322309, 27.827418266460143 ], [ 112.905876972791887, 27.827418279605865 ], [ 112.905866979898931, 27.827428285417511 ], [ 112.90586697679494, 27.827468291738796 ], [ 112.905857983109357, 27.827478297123605 ], [ 112.90583799574695, 27.827518311886649 ], [ 112.9058280020583, 27.827538319261578 ], [ 112.905817009149999, 27.82755832705277 ], [ 112.905797023298263, 27.827578338618309 ], [ 112.905737066397435, 27.827628371626645 ], [ 112.905717081240667, 27.827638381539543 ], [ 112.905667119423882, 27.827648403871819 ], [ 112.905638141186344, 27.827658417436908 ], [ 112.905597171426351, 27.827678437477459 ], [ 112.905558200812223, 27.827688455043472 ], [ 112.905537216245605, 27.827698465203468 ], [ 112.905498244736876, 27.827718484245338 ], [ 112.905498243960963, 27.827728485826412 ], [ 112.905488249324051, 27.827758494630757 ], [ 112.905488246995972, 27.827788499374662 ], [ 112.905477253122243, 27.827818508580265 ], [ 112.905468256930888, 27.827858518552489 ], [ 112.905458262278856, 27.827888527344555 ], [ 112.905437276053433, 27.82791854057399 ], [ 112.905433278575018, 27.827925543295066 ], [ 112.905613120772003, 27.828171508879677 ], [ 112.905679062515063, 27.828261495868048 ], [ 112.904869675423313, 27.828275819015118 ], [ 112.904762677846136, 27.829258014770971 ], [ 112.906424391410567, 27.829243329723852 ], [ 112.906506318632708, 27.829316304407541 ], [ 112.906596238371392, 27.829396276255011 ], [ 112.90752440355341, 27.829993928249905 ], [ 112.907814137060157, 27.830140805362703 ], [ 112.908043924342522, 27.830235701777326 ], [ 112.908183793921765, 27.830288636791238 ], [ 112.908327658931242, 27.83034056862698 ], [ 112.908504492410273, 27.830393481826093 ], [ 112.908449521929313, 27.830665554793313 ], [ 112.908572404051554, 27.830722497156273 ], [ 112.908540417493057, 27.830930547648165 ], [ 112.908916064583948, 27.830955344041911 ] ] ], [ [ [ 112.903682517021664, 27.841140294801107 ], [ 112.904043409007002, 27.839337883575695 ], [ 112.904053405772473, 27.839289872422057 ], [ 112.905702103501952, 27.840377423687471 ], [ 112.906093783424993, 27.840512279153074 ], [ 112.905927747686704, 27.842673700263958 ], [ 112.906896931705617, 27.84298931737402 ], [ 112.906918912658128, 27.84299630817128 ], [ 112.907644491412796, 27.840379531223448 ], [ 112.907398711260456, 27.840311642650818 ], [ 112.907977395101014, 27.83781594789582 ], [ 112.906930309822272, 27.83776145733367 ], [ 112.907191174941843, 27.836645153488973 ], [ 112.907199170892184, 27.836609143844441 ], [ 112.906964375105829, 27.836551246800298 ], [ 112.905721409461151, 27.836244750359469 ], [ 112.905674433060383, 27.836412796847469 ], [ 112.906383854889398, 27.836576517696585 ], [ 112.90688043494238, 27.836691308810657 ], [ 112.906701552509801, 27.837102458014556 ], [ 112.906676568754122, 27.837160478837745 ], [ 112.905684378618574, 27.83701388923788 ], [ 112.905732302512163, 27.837511949342911 ], [ 112.906316839701006, 27.837473691648256 ], [ 112.906564612478363, 27.837789631173507 ], [ 112.906127964747228, 27.837825831241503 ], [ 112.905685312008316, 27.837862025194909 ], [ 112.90565537075436, 27.837405964262075 ], [ 112.905621438224514, 27.836876893261945 ], [ 112.904601190944462, 27.837043317011023 ], [ 112.903585887635998, 27.837208692142042 ], [ 112.902900573348532, 27.834165413370442 ], [ 112.905034219887582, 27.832569438163887 ], [ 112.905191116050517, 27.832390348553531 ], [ 112.905365998719347, 27.832192247615069 ], [ 112.904802424945117, 27.832139457810172 ], [ 112.904636564198952, 27.831906482308852 ], [ 112.904953331904906, 27.831902362910341 ], [ 112.904962343619857, 27.831665321723165 ], [ 112.904968351272331, 27.831509294590262 ], [ 112.904856449641287, 27.831309305306831 ], [ 112.904819481915482, 27.831244308896089 ], [ 112.903361503793079, 27.831201802434407 ], [ 112.903418481383895, 27.831003753179914 ], [ 112.903453467419993, 27.830883723120053 ], [ 112.903597501984748, 27.829195409357681 ], [ 112.903059856832854, 27.829195575454492 ], [ 112.90255717453347, 27.829206720754485 ], [ 112.902521025533318, 27.831415081368675 ], [ 112.901604551270069, 27.831680354659454 ], [ 112.901602467303476, 27.832777529992484 ], [ 112.899209626281007, 27.833655096401344 ], [ 112.899113611088822, 27.834408228597567 ], [ 112.896565566726807, 27.834722442872817 ], [ 112.894429018644544, 27.836298613318888 ], [ 112.887693476754251, 27.835051869011068 ], [ 112.883920589478933, 27.837054496598057 ], [ 112.883911586719549, 27.837057492346219 ], [ 112.883923589777467, 27.837061499300489 ], [ 112.888380261793102, 27.83862568850634 ], [ 112.890208329272539, 27.838489223154113 ], [ 112.897117835095131, 27.841766565717307 ], [ 112.897384786248566, 27.841173459482036 ], [ 112.897546741714521, 27.84098342099702 ], [ 112.903998952033547, 27.845618916496278 ], [ 112.905056131232826, 27.846373655814602 ], [ 112.904912215858715, 27.846662758126342 ], [ 112.904891231151922, 27.846665766585375 ], [ 112.904432560511466, 27.846722945124441 ], [ 112.904435556423053, 27.846747948127131 ], [ 112.904459521293646, 27.846978977197864 ], [ 112.9056896088277, 27.846869482649311 ], [ 112.905751560802244, 27.846864456017215 ], [ 112.905217004768659, 27.846444604587703 ], [ 112.904367745827997, 27.844933676879407 ], [ 112.904594615834483, 27.844508525902938 ], [ 112.903890202415553, 27.843363586525868 ], [ 112.903888204024568, 27.843360586706808 ], [ 112.904259969510761, 27.843039407291315 ], [ 112.904265965657103, 27.843034404375544 ], [ 112.904874566560196, 27.842507096881491 ], [ 112.904466958524338, 27.841282049076426 ], [ 112.903682517021664, 27.841140294801107 ] ] ] ] } }
]
}
