{
"type": "FeatureCollection",
"name": "响塘村委会",
"crs": { "type": "name", "properties": { "name": "urn:ogc:def:crs:OGC:1.3:CRS84" } },
"features": [
{ "type": "Feature", "properties": { "adcode": "430302100213", "fullName": "湖南省湘潭市雨湖区鹤岭镇响塘村委会", "level": "居委会/社区", "location": "112.828139,27.952802", "name": "响塘村委会", "OBJECTID": 3903, "SHAPE_Leng": 0.106360194694, "SHAPE_Area": 0.000287321284 }, "geometry": { "type": "Polygon", "coordinates": [ [ [ 112.806729475507581, 27.961070238770777 ], [ 112.807417520070771, 27.962890777118051 ], [ 112.809051316324144, 27.963499827805972 ], [ 112.809051328226772, 27.963348802503781 ], [ 112.810169351570337, 27.962593709728676 ], [ 112.812060678791255, 27.962900228502196 ], [ 112.812146724699062, 27.964265615889914 ], [ 112.811888169079452, 27.965477342751928 ], [ 112.813133309734624, 27.966513813345426 ], [ 112.813906797572315, 27.965227031005501 ], [ 112.81665872736771, 27.965687236269339 ], [ 112.817058683204962, 27.962751493039658 ], [ 112.818520368917447, 27.962375171375591 ], [ 112.819895850785215, 27.962681808949633 ], [ 112.821100125246673, 27.961698911558525 ], [ 112.822131967508142, 27.962229945097327 ], [ 112.823163970570789, 27.96071663597785 ], [ 112.825916083624648, 27.959508615469503 ], [ 112.826172645555701, 27.958295893677249 ], [ 112.828408643546794, 27.959057217079909 ], [ 112.829010690100887, 27.959590432894213 ], [ 112.828493642768748, 27.961029707953081 ], [ 112.833051608678772, 27.963692624705075 ], [ 112.834255726659762, 27.963846862840271 ], [ 112.834428083868261, 27.963163063824346 ], [ 112.833051751533546, 27.961871319416172 ], [ 112.832278465362762, 27.96073370123548 ], [ 112.833396433776798, 27.960963801507173 ], [ 112.833386493055386, 27.959981618081855 ], [ 112.834247043532685, 27.959603134271781 ], [ 112.832614241049896, 27.958461939197079 ], [ 112.832957946763557, 27.957250368978158 ], [ 112.832613435441402, 27.955960515910331 ], [ 112.835795388487583, 27.951568603019584 ], [ 112.835121352720023, 27.949736065352525 ], [ 112.834776795444185, 27.9491293334384 ], [ 112.834089585628064, 27.949127075212736 ], [ 112.834261972623935, 27.948066211089099 ], [ 112.833573781012277, 27.947761896570302 ], [ 112.832025912098104, 27.949275298664297 ], [ 112.827899548075251, 27.94850948008855 ], [ 112.827555018628104, 27.947295628060647 ], [ 112.827726472041135, 27.945475640178195 ], [ 112.824460365166175, 27.947593860490596 ], [ 112.821708354463681, 27.947436647598835 ], [ 112.822050932256147, 27.948044396442317 ], [ 112.819472179988892, 27.948645642140562 ], [ 112.819127242110582, 27.952588661884729 ], [ 112.817235671778093, 27.954252392947563 ], [ 112.814655923953808, 27.955309754824047 ], [ 112.813451713072581, 27.955914621795692 ], [ 112.812419856372173, 27.956063739844982 ], [ 112.812764590993822, 27.954547119932812 ], [ 112.811560410160396, 27.9549999780942 ], [ 112.811216621260471, 27.957274730939229 ], [ 112.809841144430678, 27.957879318468283 ], [ 112.808980515419222, 27.959394009660592 ], [ 112.808980479558571, 27.959849086178611 ], [ 112.807604976951083, 27.961210831844362 ], [ 112.806729475507581, 27.961070238770777 ] ] ] } }
]
}
