{
"type": "FeatureCollection",
"name": "响水村委会",
"crs": { "type": "name", "properties": { "name": "urn:ogc:def:crs:OGC:1.3:CRS84" } },
"features": [
{ "type": "Feature", "properties": { "adcode": "430373200248", "fullName": "湖南省湘潭市雨湖区响水乡响水村委会", "level": "居委会/社区", "location": "112.87084,27.904358", "name": "响水村委会", "OBJECTID": 4034, "SHAPE_Leng": 0.096712555769899997, "SHAPE_Area": 0.0003229829785 }, "geometry": { "type": "Polygon", "coordinates": [ [ [ 112.854368009264348, 27.898142631043502 ], [ 112.8544540420435, 27.899243947964461 ], [ 112.854819472320074, 27.900153647941575 ], [ 112.854690170810557, 27.901754729617064 ], [ 112.855162741104664, 27.902704592871949 ], [ 112.857868971437981, 27.907031238648027 ], [ 112.85817026965492, 27.908131850281816 ], [ 112.857912847366777, 27.909345697045104 ], [ 112.858342357819708, 27.90980037679924 ], [ 112.858514418425045, 27.911810961196942 ], [ 112.860362613100975, 27.912837661374109 ], [ 112.860275443228019, 27.913672687620448 ], [ 112.860362506638964, 27.914203895501618 ], [ 112.861307586777215, 27.914736240835818 ], [ 112.861307527704312, 27.915494370762286 ], [ 112.861823083045365, 27.916064141841911 ], [ 112.862166480580342, 27.916026579659782 ], [ 112.86281116949506, 27.916558495622159 ], [ 112.864787249649723, 27.917471102966132 ], [ 112.865818297674338, 27.917738380235331 ], [ 112.866504923546032, 27.918574325206347 ], [ 112.867578988004126, 27.918346510044625 ], [ 112.868094436982176, 27.918840168828179 ], [ 112.869038233007529, 27.919751353775204 ], [ 112.869597716258667, 27.919942982537211 ], [ 112.870242204623679, 27.920852811955715 ], [ 112.871573258553383, 27.921500269151441 ], [ 112.872477037002284, 27.920625998553021 ], [ 112.871789537827652, 27.920133247822719 ], [ 112.872777401626919, 27.918881985491684 ], [ 112.873722074568093, 27.919186916200431 ], [ 112.880164393743087, 27.912098822123326 ], [ 112.879262036982951, 27.911264055687734 ], [ 112.878704720639277, 27.911756739520101 ], [ 112.878060426868615, 27.911187164068977 ], [ 112.878489689508612, 27.910731406077591 ], [ 112.878704847609427, 27.910124459894231 ], [ 112.877200995658811, 27.910579398153146 ], [ 112.876428609942835, 27.909667623629076 ], [ 112.876900909823306, 27.909439965326385 ], [ 112.876298568874304, 27.909175433022778 ], [ 112.875913318070204, 27.909325140176573 ], [ 112.874926671608705, 27.909401312742069 ], [ 112.87419515323792, 27.90962870574068 ], [ 112.873808880182366, 27.909627356649516 ], [ 112.872907169045263, 27.910271632000505 ], [ 112.872606953512701, 27.910120321668582 ], [ 112.871790273030996, 27.910687629271564 ], [ 112.869642599671607, 27.909092169729966 ], [ 112.868954989901468, 27.909054430419832 ], [ 112.867666883214781, 27.907914820289701 ], [ 112.867753015214461, 27.9072698060804 ], [ 112.867064400532342, 27.906662925519296 ], [ 112.867065555109932, 27.904689588873822 ], [ 112.868483905092489, 27.904615158860665 ], [ 112.869342800651893, 27.903099825863443 ], [ 112.868612191044292, 27.902453928839691 ], [ 112.869084649522392, 27.902074374510146 ], [ 112.868526197688709, 27.901352646685766 ], [ 112.86929895344251, 27.900632357006835 ], [ 112.869212932642782, 27.899912142040268 ], [ 112.867968811924413, 27.899644741172683 ], [ 112.867710594431003, 27.899302395027838 ], [ 112.867710682997185, 27.89816420058537 ], [ 112.866938032389228, 27.896950119665817 ], [ 112.866895037494515, 27.896342966800489 ], [ 112.86633651150828, 27.895997263673131 ], [ 112.864835002518404, 27.895581412480826 ], [ 112.863650756959075, 27.895252903358998 ], [ 112.863114154321522, 27.895393254993209 ], [ 112.862490441759292, 27.895555490481442 ], [ 112.861157798521361, 27.89690098958377 ], [ 112.859074419450096, 27.895094874722087 ], [ 112.856667296964034, 27.89568058585731 ], [ 112.855815159462409, 27.895776366561911 ], [ 112.855507743943804, 27.895811922387505 ], [ 112.854905901812032, 27.896151092082331 ], [ 112.854539336495009, 27.896967686246896 ], [ 112.854368009264348, 27.898142631043502 ] ] ] } }
]
}
