{
"type": "FeatureCollection",
"name": "唐兴寺社区居委会",
"crs": { "type": "name", "properties": { "name": "urn:ogc:def:crs:OGC:1.3:CRS84" } },
"features": [
{ "type": "Feature", "properties": { "adcode": "430302005005", "fullName": "湖南省湘潭市雨湖区窑湾街道唐兴寺社区居委会", "level": "居委会/社区", "location": "112.896243,27.847433", "name": "唐兴寺社区居委会", "OBJECTID": 3857, "SHAPE_Leng": 0.0274712542875, "SHAPE_Area": 4.2141306500199998e-05 }, "geometry": { "type": "Polygon", "coordinates": [ [ [ 112.8869881075602, 27.85158728027908 ], [ 112.887015066531873, 27.852164385881547 ], [ 112.887112066370946, 27.852336452717847 ], [ 112.887369081959434, 27.852558589509815 ], [ 112.887778117497533, 27.852691765342179 ], [ 112.888640166714865, 27.852972113080707 ], [ 112.889187180299658, 27.853143316539242 ], [ 112.889336159240557, 27.85347741709607 ], [ 112.890029143788723, 27.853789668176546 ], [ 112.890521111913955, 27.854101849038599 ], [ 112.890773064162602, 27.854608994940165 ], [ 112.891099009043387, 27.855121156022378 ], [ 112.891244983582325, 27.855339224849814 ], [ 112.891780970686256, 27.854988279770321 ], [ 112.891969959909019, 27.854902302443751 ], [ 112.891988958757892, 27.854893304580177 ], [ 112.892160958062874, 27.854676300869279 ], [ 112.892283955744517, 27.854533299452168 ], [ 112.892309955065627, 27.854504299272495 ], [ 112.892454939524086, 27.854486321433033 ], [ 112.892653912059927, 27.854519359889171 ], [ 112.892739902179244, 27.854500370498641 ], [ 112.892911887629509, 27.854381377412096 ], [ 112.893048876738163, 27.854264378348702 ], [ 112.89307287469795, 27.854244378511648 ], [ 112.893233867182914, 27.854021364329174 ], [ 112.893329862337836, 27.853885354846327 ], [ 112.89339485879654, 27.853793348215831 ], [ 112.893565849505137, 27.853538327774579 ], [ 112.893871830774842, 27.853063285001518 ], [ 112.894129809379407, 27.852689250183509 ], [ 112.894338792694199, 27.852347213468953 ], [ 112.894170835295014, 27.85224818165397 ], [ 112.8943958158481, 27.851892143688112 ], [ 112.894599793378006, 27.851604113101164 ], [ 112.895584668867016, 27.850049913411439 ], [ 112.895572672605482, 27.850043912009419 ], [ 112.895482700030769, 27.850003902113396 ], [ 112.893992101478219, 27.84927767653496 ], [ 112.892552386437984, 27.848573366922913 ], [ 112.889882619916733, 27.847653621146566 ], [ 112.887639579694792, 27.846544707125432 ], [ 112.887611559165606, 27.846769733347184 ], [ 112.887557346123685, 27.849438149139008 ], [ 112.887353294960306, 27.849788128672436 ], [ 112.887289265689375, 27.850063148973998 ], [ 112.887223235892549, 27.850339168504835 ], [ 112.887385249579992, 27.850423245070836 ], [ 112.887277201636493, 27.85086927648597 ], [ 112.887139151368743, 27.851287291050554 ], [ 112.8869881075602, 27.85158728027908 ] ] ] } }
]
}
