{
"type": "FeatureCollection",
"name": "团山村村委会",
"crs": { "type": "name", "properties": { "name": "urn:ogc:def:crs:OGC:1.3:CRS84" } },
"features": [
{ "type": "Feature", "properties": { "adcode": "430372100219", "fullName": "湖南省湘潭市岳塘区昭山镇团山村村委会", "level": "居委会/社区", "location": "113.039592,27.990393", "name": "团山村村委会", "OBJECTID": 4165, "SHAPE_Leng": 0.084421349401599996, "SHAPE_Area": 0.0002289477335 }, "geometry": { "type": "Polygon", "coordinates": [ [ [ 113.023793831154236, 27.997376157610731 ], [ 113.023942310135638, 27.997726814543356 ], [ 113.02519908541413, 27.998722617520166 ], [ 113.026315388037915, 27.999389775761202 ], [ 113.02637519064173, 27.999429625058717 ], [ 113.027504504177713, 27.999920754954605 ], [ 113.027541384358528, 27.999937661922097 ], [ 113.029255900928831, 28.000223297680126 ], [ 113.02978321162054, 28.00057101270745 ], [ 113.031399068374469, 28.001908166485489 ], [ 113.032236413494843, 28.002886247663433 ], [ 113.032394901795001, 28.00321590954734 ], [ 113.032502553248449, 28.003457683103132 ], [ 113.032953216867327, 28.003023510912406 ], [ 113.034199501343593, 28.002509409249118 ], [ 113.034541511179498, 28.00212452784513 ], [ 113.034386990527167, 28.001901862973551 ], [ 113.033465730742023, 28.002222136589833 ], [ 113.032991169904335, 28.002190286727284 ], [ 113.033306242544342, 28.001857466437254 ], [ 113.032881584638886, 28.001190396344949 ], [ 113.031684282647959, 28.000761276544157 ], [ 113.031347402415051, 27.999777957725883 ], [ 113.032337418083586, 27.999057392757642 ], [ 113.032919699949119, 27.99836885545356 ], [ 113.03361455719353, 27.998861243159109 ], [ 113.03403130279294, 27.998879239083085 ], [ 113.034523813377234, 27.999081088016272 ], [ 113.035304442988021, 27.999733331689097 ], [ 113.036160887152846, 28.000209388677643 ], [ 113.036524790548015, 28.000639606252257 ], [ 113.037577703919311, 28.001167252704974 ], [ 113.038337552537683, 28.000933479431282 ], [ 113.038229920035661, 28.000185605706804 ], [ 113.038711578045522, 27.999886465838447 ], [ 113.03949842102007, 27.999200589042388 ], [ 113.040846679787194, 27.999255617312272 ], [ 113.041643516065065, 27.999120863871031 ], [ 113.041964667061634, 27.998873132701664 ], [ 113.041857027860203, 27.998022228794376 ], [ 113.042184194177082, 27.997424431297272 ], [ 113.042553279526203, 27.996498495877539 ], [ 113.043003121590147, 27.995986460563593 ], [ 113.042788728175907, 27.99555184463334 ], [ 113.042403799835313, 27.995040581252546 ], [ 113.042466660939041, 27.994679389406329 ], [ 113.042889599593124, 27.993844357554689 ], [ 113.043365375420464, 27.99337928035597 ], [ 113.04295350582025, 27.992915073239896 ], [ 113.043198905905726, 27.992285454466447 ], [ 113.043793362221251, 27.991986161525109 ], [ 113.043766451138069, 27.991764181876139 ], [ 113.043814387950789, 27.991000959068984 ], [ 113.043408492745925, 27.990563736837796 ], [ 113.043317750031889, 27.990351893113615 ], [ 113.043184144235184, 27.989860094680314 ], [ 113.043537259899608, 27.989261256787863 ], [ 113.043975118665415, 27.989149325916181 ], [ 113.044558610848512, 27.988992094920604 ], [ 113.044547654800496, 27.988803086875031 ], [ 113.044585609768859, 27.988152903645329 ], [ 113.044708316823019, 27.987849602692716 ], [ 113.044906830823891, 27.98752214338991 ], [ 113.044789167315997, 27.9871243195036 ], [ 113.044904889488919, 27.986869041445757 ], [ 113.04436528121937, 27.986946161621031 ], [ 113.043697032026841, 27.986913542741519 ], [ 113.042894139796516, 27.987119263155794 ], [ 113.040598348353655, 27.987247233753966 ], [ 113.03964700613794, 27.987009299872266 ], [ 113.039042730396702, 27.986640592889902 ], [ 113.038968945983882, 27.986545743524577 ], [ 113.039155362736324, 27.98726044034726 ], [ 113.039005743228174, 27.987753856615569 ], [ 113.038967788616645, 27.988504063516508 ], [ 113.038701521292637, 27.988735701672542 ], [ 113.038696506188927, 27.989092770752421 ], [ 113.037054194063501, 27.989190543656889 ], [ 113.035214588956364, 27.988990823519838 ], [ 113.033792802696496, 27.989313281209615 ], [ 113.033105899359853, 27.989034903691067 ], [ 113.032402164074696, 27.987529383016227 ], [ 113.030700543038165, 27.985912346940271 ], [ 113.03021024207807, 27.983838242639965 ], [ 113.030045772182049, 27.983650627250558 ], [ 113.029748688592761, 27.983841410228848 ], [ 113.028888358426528, 27.984391691054995 ], [ 113.027412968886267, 27.985599691986131 ], [ 113.027402998074379, 27.985634723587282 ], [ 113.027058899484004, 27.988162029223592 ], [ 113.027033964782248, 27.988347124208822 ], [ 113.026984094619777, 27.98872731582113 ], [ 113.026753744764335, 27.98987810354593 ], [ 113.025957299419929, 27.99025025470738 ], [ 113.025945337892111, 27.990256287209096 ], [ 113.024900716808162, 27.990743132942448 ], [ 113.024491995012738, 27.991573356726686 ], [ 113.024541815109217, 27.9917642543729 ], [ 113.024731134278881, 27.992462861572193 ], [ 113.024800884308078, 27.992712715830994 ], [ 113.024551573126274, 27.994333640954931 ], [ 113.024530631072665, 27.994469718688059 ], [ 113.024501710528682, 27.994664827195965 ], [ 113.024348132900386, 27.995700403486765 ], [ 113.02422247911251, 27.996545874902807 ], [ 113.024211510479049, 27.996605913865352 ], [ 113.023793831154236, 27.997376157610731 ] ] ] } }
]
}
