{
"type": "FeatureCollection",
"name": "团结社区居委会",
"crs": { "type": "name", "properties": { "name": "urn:ogc:def:crs:OGC:1.3:CRS84" } },
"features": [
{ "type": "Feature", "properties": { "adcode": "430302101202", "fullName": "湖南省湘潭市雨湖区楠竹山镇团结社区居委会", "level": "居委会/社区", "location": "112.659058,27.847176", "name": "团结社区居委会", "OBJECTID": 3945, "SHAPE_Leng": 0.019421433023899998, "SHAPE_Area": 1.9337937000099999e-05 }, "geometry": { "type": "Polygon", "coordinates": [ [ [ 112.65114462896058, 27.851735884824723 ], [ 112.65213935248704, 27.852159134546312 ], [ 112.65190385331266, 27.85256663345757 ], [ 112.651829002357317, 27.85282481307646 ], [ 112.652599234161173, 27.853144451454465 ], [ 112.652331798316965, 27.853687032613351 ], [ 112.653766485436392, 27.854328490999976 ], [ 112.654174612937595, 27.853549605655644 ], [ 112.654565767466138, 27.852898771466883 ], [ 112.654860135622371, 27.852337130974838 ], [ 112.654838248448144, 27.851531039257281 ], [ 112.655406028656699, 27.850428799018889 ], [ 112.656005729593332, 27.849354500999461 ], [ 112.656004745144557, 27.849183474832742 ], [ 112.65467793375889, 27.847441667860767 ], [ 112.654462452154121, 27.847128017553498 ], [ 112.653799989745409, 27.846843200812124 ], [ 112.653115460958389, 27.847992654669962 ], [ 112.652665416595809, 27.848856625706919 ], [ 112.651830189557685, 27.850376408627334 ], [ 112.65114462896058, 27.851735884824723 ] ] ] } }
]
}
