{
"type": "FeatureCollection",
"name": "国强村村委会",
"crs": { "type": "name", "properties": { "name": "urn:ogc:def:crs:OGC:1.3:CRS84" } },
"features": [
{ "type": "Feature", "properties": { "adcode": "430371002207", "fullName": "湖南省湘潭市岳塘区双马街道国强村村委会", "level": "居委会/社区", "location": "112.993191,27.816349", "name": "国强村村委会", "OBJECTID": 4137, "SHAPE_Leng": 0.10910315603, "SHAPE_Area": 0.0003709583295 }, "geometry": { "type": "Polygon", "coordinates": [ [ [ 112.972854999344634, 27.813333855126395 ], [ 112.975451516866812, 27.816991952479185 ], [ 112.975670686555588, 27.817606412281854 ], [ 112.975874943621378, 27.81778084661179 ], [ 112.975959635411158, 27.817852611793761 ], [ 112.976290434633142, 27.818079685336997 ], [ 112.977242038190155, 27.817878878898991 ], [ 112.977926556763265, 27.818103909327053 ], [ 112.978812316426371, 27.818632388032476 ], [ 112.97914408696208, 27.818991466022769 ], [ 112.979497796673527, 27.819095438252074 ], [ 112.98036057726668, 27.820165051662503 ], [ 112.981258025848788, 27.823692937744266 ], [ 112.981556808113908, 27.825283298136604 ], [ 112.981600601184141, 27.825872260329742 ], [ 112.981600556802988, 27.826431348454427 ], [ 112.981577624651933, 27.826631448256204 ], [ 112.980711723331368, 27.827392142397571 ], [ 112.980552269250154, 27.827829684567778 ], [ 112.980050083959114, 27.827983196910683 ], [ 112.979846807354988, 27.828173828528229 ], [ 112.98067971891642, 27.828911477398151 ], [ 112.980882960240436, 27.829137909837915 ], [ 112.981065256887831, 27.829622444949706 ], [ 112.981023394430167, 27.829812599481951 ], [ 112.98059490791843, 27.830416967534383 ], [ 112.979986126212538, 27.830371764261301 ], [ 112.979654271690563, 27.831121864777078 ], [ 112.980370654699456, 27.831290771249268 ], [ 112.980305839857223, 27.831927064488315 ], [ 112.980734272495553, 27.832020808746165 ], [ 112.981056091120323, 27.832122869144108 ], [ 112.984381909938662, 27.83196590338601 ], [ 112.984766510935358, 27.831736710791425 ], [ 112.984811416493741, 27.830845434123688 ], [ 112.985451051976526, 27.830899517054 ], [ 112.985985083793864, 27.830837897175165 ], [ 112.986220227852996, 27.830668160632118 ], [ 112.986198364770729, 27.829966115284048 ], [ 112.986583977704782, 27.829469872227804 ], [ 112.987203705411147, 27.829184953696743 ], [ 112.987267659618468, 27.826791382226627 ], [ 112.988186250166578, 27.826826606347289 ], [ 112.988635527672088, 27.827509351977145 ], [ 112.989213415837028, 27.827070529413977 ], [ 112.989384815114363, 27.826615937451095 ], [ 112.990687940799191, 27.826952030708313 ], [ 112.993225339970863, 27.828805599705728 ], [ 112.993109831266651, 27.828046831621183 ], [ 112.992682477141358, 27.827383028433559 ], [ 112.993451698584678, 27.826279511578434 ], [ 112.993986790807668, 27.82519671117543 ], [ 112.994905471726611, 27.82388470648101 ], [ 112.995675633897818, 27.823482297353127 ], [ 112.996530460151803, 27.823348673220597 ], [ 112.997685134582213, 27.823685211803607 ], [ 112.99858273843185, 27.824404595341374 ], [ 112.999240180585687, 27.825834822791116 ], [ 113.000992583481178, 27.82703569773189 ], [ 113.00152847059671, 27.828638328911779 ], [ 113.001632094910036, 27.828542000261791 ], [ 113.002294605895685, 27.829033075711852 ], [ 113.002850594196943, 27.828519316425243 ], [ 113.004069212521927, 27.827167433004863 ], [ 113.005117454652535, 27.826007103020466 ], [ 113.005341649395831, 27.825796398016319 ], [ 113.004137220829563, 27.82395472345441 ], [ 113.002772379079445, 27.822348582497632 ], [ 113.00153706946746, 27.820791071270172 ], [ 113.00030177775983, 27.819144556184408 ], [ 113.000184225981982, 27.818991888905501 ], [ 112.999963069314916, 27.818706515362138 ], [ 112.998777588431253, 27.817249888869171 ], [ 112.997866094597086, 27.815791434614834 ], [ 112.997809313117941, 27.815700593315235 ], [ 112.99754234078911, 27.81527233946926 ], [ 112.996934617891412, 27.815084159868899 ], [ 112.994364258155059, 27.814281865013001 ], [ 112.993889040729655, 27.814139290903203 ], [ 112.989910952485104, 27.812935213462023 ], [ 112.989382928265115, 27.812776792901342 ], [ 112.989223524227441, 27.812732269996573 ], [ 112.988505210048729, 27.812509415091391 ], [ 112.98830695063937, 27.81245100719191 ], [ 112.98746011217537, 27.812192532558463 ], [ 112.986811530541786, 27.811994463895743 ], [ 112.979211579230082, 27.809729843832148 ], [ 112.975284780461848, 27.808559143902311 ], [ 112.97334769749888, 27.807880616188815 ], [ 112.972983757354683, 27.810676081295405 ], [ 112.972854999344634, 27.813333855126395 ] ] ] } }
]
}
