{
"type": "FeatureCollection",
"name": "塔岭村委会",
"crs": { "type": "name", "properties": { "name": "urn:ogc:def:crs:OGC:1.3:CRS84" } },
"features": [
{ "type": "Feature", "properties": { "adcode": "430302102230", "fullName": "湖南省湘潭市雨湖区姜畲镇塔岭村委会", "level": "居委会/社区", "location": "112.837554,27.903977", "name": "塔岭村委会", "OBJECTID": 3975, "SHAPE_Leng": 0.068521374906300003, "SHAPE_Area": 0.0002228361315 }, "geometry": { "type": "Polygon", "coordinates": [ [ [ 112.82535954154379, 27.902412821159341 ], [ 112.825661913891423, 27.904689780135065 ], [ 112.825832990699936, 27.907687615747296 ], [ 112.826091282607834, 27.909962491556968 ], [ 112.826218475243465, 27.910456815464521 ], [ 112.827166101572828, 27.911672804086553 ], [ 112.825668004650637, 27.916451808679732 ], [ 112.825903404914584, 27.916811313149108 ], [ 112.826018575763854, 27.917305614541469 ], [ 112.826118723789278, 27.917741877695747 ], [ 112.826710780670425, 27.917989032748064 ], [ 112.826990292009242, 27.91794154950799 ], [ 112.827440116401434, 27.917837375814681 ], [ 112.828527104663678, 27.91758436906683 ], [ 112.830354388174655, 27.917716802726726 ], [ 112.831794966806356, 27.917738481548707 ], [ 112.832464068903079, 27.918897918030659 ], [ 112.833481920806733, 27.91831869461268 ], [ 112.833911739958396, 27.917560354101614 ], [ 112.833482110841956, 27.915891278528676 ], [ 112.833524360519519, 27.91365297222875 ], [ 112.83412658722186, 27.911568720341783 ], [ 112.835803531821256, 27.911533775335478 ], [ 112.839414818895122, 27.910630109131212 ], [ 112.842166464571079, 27.910141857053961 ], [ 112.843094028624748, 27.909634373666247 ], [ 112.842339860374011, 27.908735916786455 ], [ 112.841093010468029, 27.905928262669349 ], [ 112.840449056314199, 27.90433285828194 ], [ 112.836665763306215, 27.902162732143434 ], [ 112.835204340531178, 27.900568805875178 ], [ 112.834258827351817, 27.898674753791564 ], [ 112.831764435141096, 27.898251085173452 ], [ 112.828239128682199, 27.897827444044108 ], [ 112.827478814049059, 27.89702788235012 ], [ 112.82600602958928, 27.898430355862381 ], [ 112.825446881511766, 27.900099589557492 ], [ 112.82570432348578, 27.900440132216939 ], [ 112.82535954154379, 27.902412821159341 ] ] ] } }
]
}
