{
"type": "FeatureCollection",
"name": "塘高村委会",
"crs": { "type": "name", "properties": { "name": "urn:ogc:def:crs:OGC:1.3:CRS84" } },
"features": [
{ "type": "Feature", "properties": { "adcode": "430373200226", "fullName": "湖南省湘潭市雨湖区响水乡塘高村委会", "level": "居委会/社区", "location": "112.917662,27.964296", "name": "塘高村委会", "OBJECTID": 4020, "SHAPE_Leng": 0.14900039714499999, "SHAPE_Area": 0.00052722618 }, "geometry": { "type": "Polygon", "coordinates": [ [ [ 112.892656335878712, 27.964774052190258 ], [ 112.892742294911201, 27.965153129263008 ], [ 112.893514948621231, 27.968071725171104 ], [ 112.893385931951684, 27.968565791127901 ], [ 112.894114759467769, 27.969057956068553 ], [ 112.893943669201292, 27.970649203322644 ], [ 112.893299748173732, 27.971104202021216 ], [ 112.893642654252886, 27.97155932077013 ], [ 112.893471613066168, 27.97247045103698 ], [ 112.894157369428356, 27.973948772120398 ], [ 112.894801174782771, 27.974630937934354 ], [ 112.895916857724785, 27.974935037236367 ], [ 112.896903520513604, 27.97527609159004 ], [ 112.897651210001598, 27.975827152599166 ], [ 112.897932115735529, 27.975655106545219 ], [ 112.898021084711033, 27.975605091970831 ], [ 112.898130046861397, 27.975535072196369 ], [ 112.898450908077862, 27.975635061490298 ], [ 112.89897167199068, 27.975796034194925 ], [ 112.900989628740916, 27.976420814780543 ], [ 112.90335805279274, 27.978305514850909 ], [ 112.903457980026715, 27.978385496725394 ], [ 112.903597879021504, 27.978475466973045 ], [ 112.906156848126457, 27.980223783822591 ], [ 112.906705368973576, 27.980604599852516 ], [ 112.907017090274891, 27.980815488325202 ], [ 112.907384755183713, 27.981064351145566 ], [ 112.90777338061605, 27.981492226491405 ], [ 112.908443716208325, 27.982232995770332 ], [ 112.908843309375413, 27.982672848219956 ], [ 112.91025193144678, 27.982673016815745 ], [ 112.912239871849962, 27.981941570992166 ], [ 112.91235974715822, 27.981821465646235 ], [ 112.912599496363214, 27.981571251358115 ], [ 112.9130270409334, 27.981136864672614 ], [ 112.913598417533478, 27.980559335431405 ], [ 112.913758240859607, 27.980389183329702 ], [ 112.914187758224827, 27.97994977175123 ], [ 112.915093697473495, 27.979176901519583 ], [ 112.915084709036833, 27.979173908584251 ], [ 112.915084794859794, 27.978075727928527 ], [ 112.914141963400652, 27.978037494037633 ], [ 112.914570486696618, 27.977431048102485 ], [ 112.915685079701007, 27.977431109158545 ], [ 112.916284374360757, 27.976444418571727 ], [ 112.916927535163893, 27.976177790012152 ], [ 112.91671387657162, 27.975495873733955 ], [ 112.918384675561583, 27.974054046149849 ], [ 112.919499024602501, 27.974430979044012 ], [ 112.919713663547142, 27.974961842866083 ], [ 112.920271875332332, 27.97427913811644 ], [ 112.921597810728585, 27.974315682691312 ], [ 112.921299327064105, 27.97374692441597 ], [ 112.919798699582898, 27.972877408793366 ], [ 112.919327444430337, 27.972309805441355 ], [ 112.919370446300675, 27.971475622749637 ], [ 112.920185333404831, 27.970109539649098 ], [ 112.921042012309499, 27.970145613614989 ], [ 112.922070520899481, 27.968363155232115 ], [ 112.923055977182031, 27.967490852853402 ], [ 112.922970190737672, 27.966580803557147 ], [ 112.923355528211488, 27.966845385068634 ], [ 112.923227726979732, 27.967035570933117 ], [ 112.923741827006921, 27.967489022047598 ], [ 112.92378484908464, 27.966276767129827 ], [ 112.924512530521753, 27.967185013544384 ], [ 112.924984727989766, 27.96691936959493 ], [ 112.925155418749057, 27.967033169409863 ], [ 112.925241276097765, 27.966919039666781 ], [ 112.925669517586257, 27.966880476224809 ], [ 112.925712464566033, 27.966576369211158 ], [ 112.926483173967057, 27.965249123771702 ], [ 112.926953329909296, 27.964982442003986 ], [ 112.926954369562026, 27.964452352002596 ], [ 112.927254879435992, 27.963580793963388 ], [ 112.927554315731541, 27.963617385404728 ], [ 112.927682098945269, 27.963313156368208 ], [ 112.928111284876067, 27.963313553013773 ], [ 112.928154182156845, 27.963579536771753 ], [ 112.929096368193385, 27.963502169835756 ], [ 112.928966639119523, 27.96327532055302 ], [ 112.929182224024615, 27.963198993846827 ], [ 112.928239067570132, 27.962972314721746 ], [ 112.92815426533214, 27.962517358864762 ], [ 112.928410783011088, 27.962402974821739 ], [ 112.928496659509307, 27.961871763044989 ], [ 112.929311140876095, 27.961036442888478 ], [ 112.929052694523534, 27.960430718803202 ], [ 112.928367978282338, 27.960961794359797 ], [ 112.928368010861945, 27.960545724517807 ], [ 112.928539716320245, 27.960090402608653 ], [ 112.928197432787613, 27.95933176336283 ], [ 112.928453964675626, 27.959029347183609 ], [ 112.928625782279809, 27.957132781981073 ], [ 112.928240534668774, 27.956982307122772 ], [ 112.928326435749426, 27.956146044124932 ], [ 112.929996227363773, 27.955385478390706 ], [ 112.929740786586152, 27.954739750090813 ], [ 112.928027182926698, 27.953907090978529 ], [ 112.927513181201562, 27.953567753573413 ], [ 112.924514525669366, 27.954442873757561 ], [ 112.924128208739759, 27.954217319083337 ], [ 112.922115416774886, 27.956001032461113 ], [ 112.92160116865594, 27.956910773474114 ], [ 112.920701606436879, 27.956532709896361 ], [ 112.919030076781524, 27.957028556248321 ], [ 112.918344981657398, 27.95808942130331 ], [ 112.917358386388571, 27.957787322269091 ], [ 112.916844039393084, 27.958394903363534 ], [ 112.916201954289633, 27.957638357260553 ], [ 112.915216254072845, 27.957296155757192 ], [ 112.914187645420839, 27.955818753593039 ], [ 112.913029928129333, 27.956956841164786 ], [ 112.913158684064527, 27.958170948855717 ], [ 112.910800267708908, 27.958362632385491 ], [ 112.911314784297957, 27.957603165817211 ], [ 112.911143989701458, 27.957299228447841 ], [ 112.909814367655272, 27.95711203763814 ], [ 112.908827303736274, 27.957338648157677 ], [ 112.908571524966845, 27.957566827693675 ], [ 112.907199628815889, 27.959121795696262 ], [ 112.907156562104859, 27.960449039462958 ], [ 112.905826569598574, 27.961549825276556 ], [ 112.90535493571312, 27.96155001928857 ], [ 112.903468172065104, 27.963027942782087 ], [ 112.902481635276629, 27.965228600615717 ], [ 112.901538193493209, 27.965266843186846 ], [ 112.901366208156489, 27.966328059208728 ], [ 112.902094743628837, 27.966858974541221 ], [ 112.900550452021463, 27.968867648471729 ], [ 112.899649880393213, 27.969133841465911 ], [ 112.899862704027925, 27.970080967139072 ], [ 112.898834151624143, 27.970422159306462 ], [ 112.898190459949006, 27.969929138254056 ], [ 112.897976539126844, 27.970005167083329 ], [ 112.898319345464628, 27.970725259856863 ], [ 112.897847533175351, 27.970725295563703 ], [ 112.897504674486527, 27.970573290085014 ], [ 112.897289826428562, 27.969627142524882 ], [ 112.896089324494938, 27.96829893854213 ], [ 112.895874390557523, 27.968260928606824 ], [ 112.895574394870309, 27.969286090914618 ], [ 112.895616327199591, 27.970006212125615 ], [ 112.895488347319343, 27.970195239008881 ], [ 112.894844566693607, 27.969474085351219 ], [ 112.894501686606603, 27.968943971796161 ], [ 112.895574489531938, 27.968071888703367 ], [ 112.895445583493682, 27.967313757486693 ], [ 112.895059724234443, 27.966783650283666 ], [ 112.894973851809269, 27.965418417220551 ], [ 112.894844882856816, 27.965418409018824 ], [ 112.894629929826152, 27.965456400092386 ], [ 112.894629858879526, 27.966366552121567 ], [ 112.894200919234009, 27.966783585253829 ], [ 112.894029968475976, 27.966594536935975 ], [ 112.894072986596782, 27.966252484166194 ], [ 112.893343225798773, 27.964887171581076 ], [ 112.892656335878712, 27.964774052190258 ] ] ] } }
]
}
