{
"type": "FeatureCollection",
"name": "大塘社区居委会",
"crs": { "type": "name", "properties": { "name": "urn:ogc:def:crs:OGC:1.3:CRS84" } },
"features": [
{ "type": "Feature", "properties": { "adcode": "430372100002", "fullName": "湖南省湘潭市岳塘区昭山镇大塘社区居委会", "level": "居委会/社区", "location": "113.015559,27.955114", "name": "大塘社区居委会", "OBJECTID": 4144, "SHAPE_Leng": 0.047144036182500001, "SHAPE_Area": 8.90948375e-05 }, "geometry": { "type": "Polygon", "coordinates": [ [ [ 113.003649851016135, 27.962355359688917 ], [ 113.007001537539381, 27.962488342186216 ], [ 113.008129336293237, 27.963611176932282 ], [ 113.012394043613014, 27.962564465473843 ], [ 113.012432111619731, 27.960051933960305 ], [ 113.013224304023254, 27.959858601467065 ], [ 113.013325924096534, 27.960087345476392 ], [ 113.013016893072617, 27.96169451033132 ], [ 113.012967947248839, 27.963173899788007 ], [ 113.013998301361852, 27.962999889682685 ], [ 113.014329209310162, 27.962024772822026 ], [ 113.016259560487271, 27.960288955361808 ], [ 113.015608073424573, 27.957462338970259 ], [ 113.015095873703004, 27.957471806574819 ], [ 113.014987332636181, 27.956528959315644 ], [ 113.013630133580264, 27.956514865409929 ], [ 113.013308303610557, 27.956184741079774 ], [ 113.0124971779166, 27.956373126887861 ], [ 113.012519284252036, 27.954090678319705 ], [ 113.0124655213625, 27.953533740818482 ], [ 113.011945383985861, 27.95349224890413 ], [ 113.011326626469014, 27.95318700493085 ], [ 113.010936045731896, 27.952988115140911 ], [ 113.010619200291018, 27.952809014314159 ], [ 113.010353168541585, 27.952687775249579 ], [ 113.009674615609825, 27.952717777599549 ], [ 113.008219876382611, 27.952882106822479 ], [ 113.005478834510697, 27.953557390448651 ], [ 113.005501735520824, 27.953742353056562 ], [ 113.005661018651438, 27.955381152314441 ], [ 113.005661012038203, 27.955463166140103 ], [ 113.005669830917697, 27.957301448948982 ], [ 113.005653880663672, 27.957409514844471 ], [ 113.005473448435296, 27.958572250288711 ], [ 113.005451517571004, 27.958712339478765 ], [ 113.004858591412997, 27.959995331938615 ], [ 113.00459451637316, 27.960565220006661 ], [ 113.003649851016135, 27.962355359688917 ] ] ] } }
]
}
