{
"type": "FeatureCollection",
"name": "大屋村委会",
"crs": { "type": "name", "properties": { "name": "urn:ogc:def:crs:OGC:1.3:CRS84" } },
"features": [
{ "type": "Feature", "properties": { "adcode": "430302100220", "fullName": "湖南省湘潭市雨湖区鹤岭镇大屋村委会", "level": "居委会/社区", "location": "112.816851,27.983099", "name": "大屋村委会", "OBJECTID": 3907, "SHAPE_Leng": 0.076963840068299996, "SHAPE_Area": 0.000160393659 }, "geometry": { "type": "Polygon", "coordinates": [ [ [ 112.800515003247639, 27.987191718476456 ], [ 112.800687145549546, 27.988936294573708 ], [ 112.804726691528529, 27.991064637844246 ], [ 112.806265108243338, 27.993688787176513 ], [ 112.807727632130849, 27.993691406344986 ], [ 112.807899109023381, 27.991417348195672 ], [ 112.815208288935793, 27.988777336873707 ], [ 112.816248201967085, 27.988356209158393 ], [ 112.81779600999181, 27.988359107780724 ], [ 112.818311870579961, 27.989346236034255 ], [ 112.818999127686823, 27.989272515149398 ], [ 112.819171387914096, 27.989954949589727 ], [ 112.821752162436326, 27.989125674041535 ], [ 112.824847056031444, 27.986024001436963 ], [ 112.824847395922944, 27.981701295228948 ], [ 112.82347189813035, 27.981547678812799 ], [ 112.823299362895966, 27.984352812967948 ], [ 112.817623965529165, 27.984947229542168 ], [ 112.817194149163313, 27.985402498316247 ], [ 112.816764423253701, 27.98471958225937 ], [ 112.814958151216885, 27.984791221988022 ], [ 112.815044437929686, 27.983124110082219 ], [ 112.8134966785438, 27.982817184845452 ], [ 112.813325508847782, 27.981074582129207 ], [ 112.81229370054831, 27.980617601029337 ], [ 112.811519244857465, 27.981601337420305 ], [ 112.809541668341467, 27.982657895682948 ], [ 112.808253594740648, 27.98038218845489 ], [ 112.806789963845205, 27.981592757507212 ], [ 112.806876226030695, 27.98015167513454 ], [ 112.805546964268345, 27.979921269816394 ], [ 112.805415525130812, 27.982650484891028 ], [ 112.802061704412154, 27.985071019218463 ], [ 112.800515003247639, 27.987191718476456 ] ] ] } }
]
}
