{
"type": "FeatureCollection",
"name": "大埠桥社区居委会",
"crs": { "type": "name", "properties": { "name": "urn:ogc:def:crs:OGC:1.3:CRS84" } },
"features": [
{ "type": "Feature", "properties": { "adcode": "430302001205", "fullName": "湖南省湘潭市雨湖区雨湖路街道大埠桥社区居委会", "level": "居委会/社区", "location": "112.917695,27.856703", "name": "大埠桥社区居委会", "OBJECTID": 3830, "SHAPE_Leng": 0.0282383433658, "SHAPE_Area": 4.6488483499900001e-05 }, "geometry": { "type": "Polygon", "coordinates": [ [ [ 112.914656285922163, 27.863350658316072 ], [ 112.91547533285086, 27.862365807180243 ], [ 112.915535267616988, 27.862218731247403 ], [ 112.915535278510433, 27.862078707961182 ], [ 112.917113448734398, 27.858805751269674 ], [ 112.917131427066863, 27.858769728555782 ], [ 112.917212329517412, 27.858605625835644 ], [ 112.915690385533949, 27.858145921723118 ], [ 112.915395769970985, 27.858057160586291 ], [ 112.914826500100062, 27.857888611546283 ], [ 112.910654391572351, 27.856098378510115 ], [ 112.9085412483185, 27.858824080162123 ], [ 112.908637154222419, 27.858890038690905 ], [ 112.908551223217685, 27.859028108530474 ], [ 112.908471299682105, 27.858994146287095 ], [ 112.908304457012193, 27.85893922682142 ], [ 112.907929753570201, 27.859479513066002 ], [ 112.907885788392647, 27.859536545184945 ], [ 112.907758888625381, 27.859697636821188 ], [ 112.908084580392156, 27.859918505342687 ], [ 112.908037613360904, 27.860038549791351 ], [ 112.907960672851218, 27.860161610187173 ], [ 112.907864747403664, 27.860304683397068 ], [ 112.907789800481865, 27.860478750645509 ], [ 112.907687893166184, 27.860445796933362 ], [ 112.907601951096837, 27.860672877905845 ], [ 112.908267333108597, 27.860967583006317 ], [ 112.908412194348827, 27.861047518770491 ], [ 112.908293276698046, 27.861388639126279 ], [ 112.909432158924815, 27.861972099763591 ], [ 112.909515076403764, 27.861996055125552 ], [ 112.909960620449937, 27.862208823917356 ], [ 112.909732747753765, 27.863477172417639 ], [ 112.910262217040497, 27.86349685267384 ], [ 112.910947499978846, 27.863637439165974 ], [ 112.911707674647204, 27.863817959702203 ], [ 112.912298016949407, 27.863912561733059 ], [ 112.912576703792951, 27.863912360913051 ], [ 112.913251942745546, 27.863730829629549 ], [ 112.91402404855684, 27.863466187395655 ], [ 112.914162882340932, 27.863447073800888 ], [ 112.914495483391406, 27.863359791220216 ], [ 112.914656285922163, 27.863350658316072 ] ] ] } }
]
}
