{
"type": "FeatureCollection",
"name": "大码头社区居委会",
"crs": { "type": "name", "properties": { "name": "urn:ogc:def:crs:OGC:1.3:CRS84" } },
"features": [
{ "type": "Feature", "properties": { "adcode": "430302005203", "fullName": "湖南省湘潭市雨湖区窑湾街道大码头社区居委会", "level": "居委会/社区", "location": "112.90194,27.849431", "name": "大码头社区居委会", "OBJECTID": 3862, "SHAPE_Leng": 0.0189702434207, "SHAPE_Area": 2.1182963e-05 }, "geometry": { "type": "Polygon", "coordinates": [ [ [ 112.893329862337836, 27.853885354846327 ], [ 112.896656897631132, 27.855846878913219 ], [ 112.896870818436128, 27.855953892936373 ], [ 112.896902823401049, 27.855750858698194 ], [ 112.896917825232919, 27.855661843652761 ], [ 112.897293720869101, 27.855319775149876 ], [ 112.897443678100473, 27.855172744350195 ], [ 112.897518653153512, 27.855139735262032 ], [ 112.897587632800551, 27.855072720637914 ], [ 112.89771259615226, 27.854940691860961 ], [ 112.898108474836718, 27.854523596364992 ], [ 112.898059498390793, 27.854470591311575 ], [ 112.89839239847754, 27.854025490859918 ], [ 112.898762277617095, 27.853574380700859 ], [ 112.900141759676629, 27.8519809313573 ], [ 112.899879896340934, 27.851883957486585 ], [ 112.895584668867016, 27.850049913411439 ], [ 112.894599793378006, 27.851604113101164 ], [ 112.8943958158481, 27.851892143688112 ], [ 112.894170835295014, 27.85224818165397 ], [ 112.894338792694199, 27.852347213468953 ], [ 112.894129809379407, 27.852689250183509 ], [ 112.893871830774842, 27.853063285001518 ], [ 112.893565849505137, 27.853538327774579 ], [ 112.89339485879654, 27.853793348215831 ], [ 112.893329862337836, 27.853885354846327 ] ] ] } }
]
}
