{
"type": "FeatureCollection",
"name": "大进村委会",
"crs": { "type": "name", "properties": { "name": "urn:ogc:def:crs:OGC:1.3:CRS84" } },
"features": [
{ "type": "Feature", "properties": { "adcode": "430302102208", "fullName": "湖南省湘潭市雨湖区姜畲镇大进村委会", "level": "居委会/社区", "location": "112.741692,27.869737", "name": "大进村委会", "OBJECTID": 3954, "SHAPE_Leng": 0.051571047014100001, "SHAPE_Area": 0.000177167191 }, "geometry": { "type": "Polygon", "coordinates": [ [ [ 112.729289380943356, 27.877752660646326 ], [ 112.731205578922726, 27.879545919892276 ], [ 112.733174006110815, 27.879838037522184 ], [ 112.734507031371493, 27.880037521856263 ], [ 112.737038437137755, 27.879733609878624 ], [ 112.739611033926025, 27.880149052694911 ], [ 112.741713135645341, 27.879958693690106 ], [ 112.742443915674514, 27.87927650394133 ], [ 112.742828873504152, 27.878099273898503 ], [ 112.742869936920656, 27.877119105332021 ], [ 112.742916008664693, 27.87601291534261 ], [ 112.743172088006943, 27.873926546962899 ], [ 112.74437499596587, 27.870474921587171 ], [ 112.741243196117082, 27.868918892119844 ], [ 112.739486047420314, 27.868085045394558 ], [ 112.737640156137203, 27.866263174144169 ], [ 112.734553180462086, 27.86508898986957 ], [ 112.732650636937294, 27.864212644660796 ], [ 112.731565468439172, 27.864547217515863 ], [ 112.730495268406202, 27.865727967087693 ], [ 112.729946311093528, 27.871218186704191 ], [ 112.729660344096061, 27.874002815558427 ], [ 112.72941337511449, 27.876409362231254 ], [ 112.729407368356107, 27.876563391681987 ], [ 112.729336374159175, 27.87730055707997 ], [ 112.729289380943356, 27.877752660646326 ] ] ] } }
]
}
