{
"type": "FeatureCollection",
"name": "天鹤社区居委会",
"crs": { "type": "name", "properties": { "name": "urn:ogc:def:crs:OGC:1.3:CRS84" } },
"features": [
{ "type": "Feature", "properties": { "adcode": "430304004010", "fullName": "湖南省湘潭市岳塘区书院路街道天鹤社区居委会", "level": "居委会/社区", "location": "112.923632,27.824919", "name": "天鹤社区居委会", "OBJECTID": 4060, "SHAPE_Leng": 0.0129994530018, "SHAPE_Area": 1.014944e-05 }, "geometry": { "type": "Polygon", "coordinates": [ [ [ 112.916178983556321, 27.829452838242229 ], [ 112.916863055133703, 27.829688256835968 ], [ 112.917506155531669, 27.829976701753832 ], [ 112.918101309275286, 27.830181161640059 ], [ 112.918651506988965, 27.830422656564263 ], [ 112.920547883435404, 27.827940286793503 ], [ 112.919387679385935, 27.827282411120045 ], [ 112.919367709603378, 27.827272430160612 ], [ 112.917365642866386, 27.826200237499926 ], [ 112.917205858484351, 27.826240393833555 ], [ 112.917196867796108, 27.826278408230298 ], [ 112.917016044115627, 27.827172717582286 ], [ 112.916844249979306, 27.827509929368532 ], [ 112.916789269542065, 27.82820909033148 ], [ 112.916178983556321, 27.829452838242229 ] ] ] } }
]
}
