{
"type": "FeatureCollection",
"name": "姜畲村委会",
"crs": { "type": "name", "properties": { "name": "urn:ogc:def:crs:OGC:1.3:CRS84" } },
"features": [
{ "type": "Feature", "properties": { "adcode": "430302102201", "fullName": "湖南省湘潭市雨湖区姜畲镇姜畲村委会", "level": "居委会/社区", "location": "112.778029,27.851213", "name": "姜畲村委会", "OBJECTID": 3947, "SHAPE_Leng": 0.059589826720800002, "SHAPE_Area": 0.00016036823 }, "geometry": { "type": "Polygon", "coordinates": [ [ [ 112.761477714867908, 27.853268313669851 ], [ 112.761914896535686, 27.853395610295916 ], [ 112.762422116901405, 27.853541962768219 ], [ 112.763838785792544, 27.853953996099467 ], [ 112.765470648770474, 27.854486283306741 ], [ 112.765814837850783, 27.854675579354065 ], [ 112.767188658240229, 27.855170758706649 ], [ 112.76864861690099, 27.855589064733714 ], [ 112.769937516528088, 27.856121304265603 ], [ 112.769979440442782, 27.857487568814371 ], [ 112.769979299696658, 27.859270864438216 ], [ 112.770366547197909, 27.859879322789549 ], [ 112.772083866509334, 27.860601086539162 ], [ 112.774317778629381, 27.86105844312813 ], [ 112.776077411749355, 27.861364400884366 ], [ 112.778343707356882, 27.861280982210516 ], [ 112.779086496622114, 27.861254861768998 ], [ 112.780505118294556, 27.860382449419269 ], [ 112.78132015281335, 27.858942231749044 ], [ 112.782008047863229, 27.857652894663801 ], [ 112.782737965545635, 27.856893713570063 ], [ 112.782952265123654, 27.856326899881367 ], [ 112.782392664946897, 27.855531039425589 ], [ 112.781448535656565, 27.85594689812179 ], [ 112.780932984429199, 27.855491172536066 ], [ 112.780674735470029, 27.854957761508246 ], [ 112.779901922261331, 27.854387712484634 ], [ 112.779901997010313, 27.853439556173999 ], [ 112.77972984138853, 27.853021276854783 ], [ 112.777410364853893, 27.853399589208554 ], [ 112.77650755932072, 27.85214635574097 ], [ 112.775777983314043, 27.850437262907832 ], [ 112.775535857163533, 27.849095777003953 ], [ 112.775035382403743, 27.849120237283735 ], [ 112.772898453177376, 27.849225021075217 ], [ 112.772277927868188, 27.849195394863617 ], [ 112.772097776562561, 27.849204218237954 ], [ 112.770152229451014, 27.849144352603393 ], [ 112.769475723942733, 27.849122732924794 ], [ 112.769095447144849, 27.84911139140852 ], [ 112.768625123698314, 27.848951951884739 ], [ 112.76844900884177, 27.848839780618984 ], [ 112.765211105194936, 27.846787822075903 ], [ 112.764998939523338, 27.847349754640565 ], [ 112.764912848815996, 27.847881777473024 ], [ 112.763883198365036, 27.849019216172447 ], [ 112.76229427065006, 27.850840434569978 ], [ 112.761692910086595, 27.851978236079368 ], [ 112.761477714867908, 27.853268313669851 ] ] ] } }
]
}
