{
"type": "FeatureCollection",
"name": "学卫社区居委会",
"crs": { "type": "name", "properties": { "name": "urn:ogc:def:crs:OGC:1.3:CRS84" } },
"features": [
{ "type": "Feature", "properties": { "adcode": "430304008012", "fullName": "湖南省湘潭市岳塘区五里堆街道学卫社区居委会", "level": "居委会/社区", "location": "112.95846,27.863308", "name": "学卫社区居委会", "OBJECTID": 4078, "SHAPE_Leng": 0.050838750143099999, "SHAPE_Area": 4.1046326500199998e-05 }, "geometry": { "type": "Polygon", "coordinates": [ [ [ 112.951067890114302, 27.871571934354733 ], [ 112.951098801443322, 27.871561861702826 ], [ 112.951238395753322, 27.871577543477812 ], [ 112.951267313146019, 27.87156147423747 ], [ 112.951303211353334, 27.871531386544056 ], [ 112.951363045523365, 27.87143123190139 ], [ 112.95139794650278, 27.871401146396465 ], [ 112.951447803171817, 27.871381028015087 ], [ 112.951606342488546, 27.871371660192054 ], [ 112.951646226271833, 27.871371567909822 ], [ 112.951809745329911, 27.871420197240674 ], [ 112.951906464264809, 27.87139996937465 ], [ 112.951946348401165, 27.871389875027372 ], [ 112.9520061764632, 27.871349729213829 ], [ 112.952046061163742, 27.871330633227956 ], [ 112.952095917843195, 27.871295511285449 ], [ 112.952125832200949, 27.871269437242514 ], [ 112.952224551177636, 27.871160188804215 ], [ 112.952304327206832, 27.871028980616884 ], [ 112.952355187960848, 27.870898839992115 ], [ 112.952415019076639, 27.870808685008871 ], [ 112.952474852344309, 27.870689525047517 ], [ 112.952504768969732, 27.870629444941077 ], [ 112.952574569667249, 27.870548267813749 ], [ 112.952624431222617, 27.870439132621961 ], [ 112.952633410253682, 27.870369099829713 ], [ 112.9526433864186, 27.870298064528424 ], [ 112.952633425268104, 27.870178067799564 ], [ 112.952643419434494, 27.869877994107785 ], [ 112.952654390216878, 27.869837961665372 ], [ 112.952694280362067, 27.869737851281311 ], [ 112.952704254068678, 27.869697821163534 ], [ 112.952723202843913, 27.869637766613366 ], [ 112.952713238577033, 27.869557776625452 ], [ 112.952728197946612, 27.869512733954089 ], [ 112.952763096822395, 27.869487647766601 ], [ 112.952773069325715, 27.869462620142205 ], [ 112.952733193834504, 27.869377699620969 ], [ 112.952733200123262, 27.86929768621706 ], [ 112.952748162233561, 27.869217637674431 ], [ 112.952773090943609, 27.869187574066725 ], [ 112.952843883941952, 27.869158402728686 ], [ 112.95290370930455, 27.869128256892242 ], [ 112.952963536898906, 27.869068105917663 ], [ 112.952983480267008, 27.869037053725247 ], [ 112.953003425901059, 27.868976996663136 ], [ 112.953013399498957, 27.86893696645279 ], [ 112.953023376237994, 27.868856929540488 ], [ 112.953042324013808, 27.868806876481869 ], [ 112.953063263505243, 27.868786823730517 ], [ 112.953092178535343, 27.868776753811289 ], [ 112.95312308761865, 27.86876667915638 ], [ 112.953182910819649, 27.868756536144257 ], [ 112.953252702612843, 27.868767372950224 ], [ 112.953282614485843, 27.86875730049913 ], [ 112.953302556765408, 27.868737249950073 ], [ 112.953351416942368, 27.868667122536177 ], [ 112.953391303042338, 27.868606017824149 ], [ 112.953422213294743, 27.868576939698212 ], [ 112.953481040490075, 27.86854579497513 ], [ 112.953551830231362, 27.868535625245105 ], [ 112.953631592224298, 27.868535435699009 ], [ 112.953671471957975, 27.86855034336293 ], [ 112.95381005015102, 27.868646029456588 ], [ 112.953854912435361, 27.868689929868196 ], [ 112.954219798549843, 27.868935098842329 ], [ 112.954309523190105, 27.869004895456296 ], [ 112.954557760283762, 27.869193330688628 ], [ 112.954588666219621, 27.869203257977762 ], [ 112.954617578930396, 27.869203188364263 ], [ 112.954638517197623, 27.869184134755542 ], [ 112.954658460979104, 27.869133078175079 ], [ 112.954678403016331, 27.869104025268054 ], [ 112.95472825392028, 27.869083901742069 ], [ 112.954808011099644, 27.869103712653473 ], [ 112.954876798129547, 27.869163556570459 ], [ 112.954917671242171, 27.869202464318466 ], [ 112.954987453418539, 27.869282308945781 ], [ 112.955027327749548, 27.869342222489102 ], [ 112.955067198800734, 27.86944314285482 ], [ 112.955117042436228, 27.869507032814678 ], [ 112.95517685868441, 27.869532892154879 ], [ 112.955186828309579, 27.869533868142472 ], [ 112.955328414344649, 27.869322489107244 ], [ 112.956131005136356, 27.868756434957813 ], [ 112.956714213881284, 27.868688987809943 ], [ 112.956939530264975, 27.86851840187785 ], [ 112.957076115052331, 27.868415045980811 ], [ 112.957263544182254, 27.868274556944133 ], [ 112.957323361854691, 27.868228400434766 ], [ 112.957478893043756, 27.868034980746479 ], [ 112.956795107062817, 27.86687448470494 ], [ 112.956773177793195, 27.866837532760126 ], [ 112.956760221166093, 27.866795557784414 ], [ 112.956618694510354, 27.866337830954894 ], [ 112.956508062011068, 27.86600604844979 ], [ 112.955304034293405, 27.862405394908865 ], [ 112.953432656013717, 27.862566913036638 ], [ 112.951817402827444, 27.862791738833401 ], [ 112.951998813705032, 27.863536441346056 ], [ 112.952262950461318, 27.864663013521611 ], [ 112.952278855907352, 27.865270077537797 ], [ 112.951685586489106, 27.865343469047421 ], [ 112.95018690039079, 27.865535934308113 ], [ 112.948731006709949, 27.865776237970593 ], [ 112.948373004212129, 27.865834039118663 ], [ 112.947895323877376, 27.865957108899678 ], [ 112.947895198718911, 27.867552375466342 ], [ 112.946501921658339, 27.868871611171443 ], [ 112.946550784740765, 27.868922515094205 ], [ 112.946630563608508, 27.868972352481986 ], [ 112.946751225266269, 27.869091113372178 ], [ 112.946801086791922, 27.869121011205948 ], [ 112.946831004287858, 27.869130948524319 ], [ 112.946860923317715, 27.869120882460916 ], [ 112.946890843096924, 27.869100814691063 ], [ 112.946910790119802, 27.869080768377042 ], [ 112.946950687963025, 27.868991667500037 ], [ 112.946970634939163, 27.868971621144599 ], [ 112.946989585493597, 27.868940575084224 ], [ 112.947010529629338, 27.868921526717301 ], [ 112.947040450802263, 27.868881455441972 ], [ 112.947129218416279, 27.868741240236815 ], [ 112.947170110984402, 27.868680141591099 ], [ 112.947279824496945, 27.868489872236815 ], [ 112.947329692051923, 27.868429754079841 ], [ 112.947349639753014, 27.868396705286354 ], [ 112.947384544210706, 27.868389628360184 ], [ 112.947454346706593, 27.868455487772966 ], [ 112.94749323947147, 27.868455403216757 ], [ 112.947528148284945, 27.868390316407094 ], [ 112.947579014958592, 27.868300190627725 ], [ 112.947608934762883, 27.868269120270998 ], [ 112.947643840281003, 27.868244040018212 ], [ 112.947668770971589, 27.868248986494738 ], [ 112.947748546351335, 27.868298820765915 ], [ 112.947778463526333, 27.868298755422536 ], [ 112.947867219962717, 27.868268556367219 ], [ 112.947928055081732, 27.868219415019446 ], [ 112.948017812158497, 27.868139204951976 ], [ 112.948037758307734, 27.868119157860892 ], [ 112.948087620945657, 27.86810304576343 ], [ 112.948156431457974, 27.868077890440048 ], [ 112.948227234268714, 27.868077734749807 ], [ 112.948316981679071, 27.868107542169337 ], [ 112.948346898198636, 27.86810747624104 ], [ 112.94838678840766, 27.868087384942044 ], [ 112.948436651475618, 27.868057269905034 ], [ 112.948476543823688, 27.868008173630958 ], [ 112.948486519157726, 27.867967144743243 ], [ 112.94851643775921, 27.867938073789094 ], [ 112.948704921674178, 27.867786631382341 ], [ 112.94873583652182, 27.867766559500645 ], [ 112.948744813692386, 27.867736534578317 ], [ 112.948795673278497, 27.867706416721092 ], [ 112.948875450620591, 27.867687236363892 ], [ 112.948915338455123, 27.86768714769347 ], [ 112.949104805707293, 27.867675723932503 ], [ 112.949164638485712, 27.867655587096419 ], [ 112.949224471913851, 27.867625448466779 ], [ 112.949324193208255, 27.867585218821926 ], [ 112.949374052144478, 27.867585107219217 ], [ 112.94943288627519, 27.867575973915041 ], [ 112.949493713130465, 27.867585839198696 ], [ 112.949563515247505, 27.867584682366356 ], [ 112.949633320243649, 27.867544518847371 ], [ 112.949713098279886, 27.867484329379568 ], [ 112.94974301400039, 27.867474260364915 ], [ 112.949772933613559, 27.86741418295837 ], [ 112.94984672819443, 27.867355006779302 ], [ 112.949871665822457, 27.867244932157647 ], [ 112.949861705222332, 27.867104931243688 ], [ 112.949882651060889, 27.86703487230081 ], [ 112.949892626572819, 27.86698484144182 ], [ 112.949932518453508, 27.866913739538191 ], [ 112.949952463861294, 27.866884689653212 ], [ 112.950002325627452, 27.866833568476974 ], [ 112.95002227027652, 27.866813520050258 ], [ 112.950082100208618, 27.866803383047635 ], [ 112.950140931287521, 27.866813251527098 ], [ 112.950171842108062, 27.866823183170236 ], [ 112.95024064052005, 27.866883037215512 ], [ 112.950291493319114, 27.866902925165604 ], [ 112.950480947574249, 27.866932499531227 ], [ 112.950579661557001, 27.866962279685158 ], [ 112.950670398929546, 27.866982076054672 ], [ 112.950710282905092, 27.866996987498855 ], [ 112.950829933615665, 27.867052723356824 ], [ 112.951018384710551, 27.867111301499406 ], [ 112.951139034792504, 27.867121026168046 ], [ 112.951198861471497, 27.867120888634723 ], [ 112.951278632058688, 27.867096701062934 ], [ 112.951308547304663, 27.867070627828031 ], [ 112.951337466434225, 27.867031554688548 ], [ 112.95134744070532, 27.866990524856018 ], [ 112.951357415601336, 27.866941493683289 ], [ 112.951367389786668, 27.866901464012056 ], [ 112.951367398035842, 27.866796446462136 ], [ 112.951378368142969, 27.866771416996574 ], [ 112.951409279204569, 27.866760343872961 ], [ 112.951468108979782, 27.866750206444017 ], [ 112.951498021976931, 27.866750137371614 ], [ 112.951537908279704, 27.866720040216258 ], [ 112.951567823558193, 27.866689966062637 ], [ 112.951612694843689, 27.866664858120298 ], [ 112.951657563699086, 27.866669755126146 ], [ 112.951716390508437, 27.866690622404604 ], [ 112.951767240633686, 27.866709507730778 ], [ 112.951866947767456, 27.86673027992148 ], [ 112.951906830473121, 27.866739188808296 ], [ 112.95196665548508, 27.866739049786368 ], [ 112.952176042719259, 27.866729560799804 ], [ 112.952235867152055, 27.866729421260839 ], [ 112.952375457074936, 27.866728095057564 ], [ 112.952415338973623, 27.866738003461258 ], [ 112.95245422453641, 27.866737912476584 ], [ 112.9524941055368, 27.866757822451408 ], [ 112.952544953376503, 27.866787708347992 ], [ 112.952629696819926, 27.866872523843195 ], [ 112.952694496526732, 27.866987390956137 ], [ 112.952704458364948, 27.867098386099116 ], [ 112.952673535538565, 27.867277488598777 ], [ 112.952673531529896, 27.867328497126856 ], [ 112.952714405343642, 27.86739841284512 ], [ 112.952732350297993, 27.867424375035561 ], [ 112.952734344172342, 27.867427370852511 ], [ 112.952753286561247, 27.867448329852511 ], [ 112.952813108188622, 27.86746819255832 ], [ 112.952833046868619, 27.867498150670926 ], [ 112.952844012075403, 27.867528129885446 ], [ 112.952853977082924, 27.867598118133081 ], [ 112.952823056699629, 27.86774821594258 ], [ 112.952793134121691, 27.867888309708089 ], [ 112.9527731851949, 27.867988373320056 ], [ 112.952754239596786, 27.868008421190677 ], [ 112.952664497568293, 27.868097646832716 ], [ 112.952644554839054, 27.868117696978057 ], [ 112.952574759891348, 27.868127862346281 ], [ 112.95245411528839, 27.868128144938737 ], [ 112.952355408746371, 27.868089369279016 ], [ 112.952235763413995, 27.868049642006767 ], [ 112.952205851293328, 27.86804871162326 ], [ 112.952175935761218, 27.868090788406903 ], [ 112.952215812599007, 27.868168708447278 ], [ 112.952235747774225, 27.868248675310866 ], [ 112.9522756259408, 27.868308592263933 ], [ 112.952314506194256, 27.868378513169759 ], [ 112.952345409765329, 27.868449452837289 ], [ 112.952355375814804, 27.868508439411954 ], [ 112.952355373378325, 27.8685394446019 ], [ 112.95233542893628, 27.868578497733488 ], [ 112.952314488117395, 27.868608551674825 ], [ 112.952255658571005, 27.868638694060436 ], [ 112.952195833398378, 27.868648835312072 ], [ 112.952045274789839, 27.868649186073878 ], [ 112.951955536618669, 27.868660396632851 ], [ 112.951747139322833, 27.868739893548739 ], [ 112.951707254896334, 27.868749987635304 ], [ 112.951627487442153, 27.868750172305145 ], [ 112.951557693087807, 27.868720328698767 ], [ 112.951497869551289, 27.868690461907295 ], [ 112.951467958834328, 27.868661526123841 ], [ 112.95144802153338, 27.868601562109877 ], [ 112.951438055313204, 27.868540574908103 ], [ 112.9514380630917, 27.868441558334222 ], [ 112.951448038818981, 27.868381525278956 ], [ 112.951467982405802, 27.868361475898922 ], [ 112.951507868828841, 27.868330378606842 ], [ 112.951592623681421, 27.868310179368933 ], [ 112.951612571485242, 27.868235120689945 ], [ 112.951577676667867, 27.8681901938698 ], [ 112.951557738660611, 27.868140231604901 ], [ 112.951537799067296, 27.868110272674517 ], [ 112.951487947270834, 27.868070381149682 ], [ 112.951428123502879, 27.868041514393219 ], [ 112.951405191171844, 27.868028565123947 ], [ 112.95133739101199, 27.867991715250799 ], [ 112.951258621241237, 27.867970893153995 ], [ 112.951208766580365, 27.867961006197206 ], [ 112.951178852483196, 27.867971076661519 ], [ 112.951109051486796, 27.868011243753525 ], [ 112.951089107638808, 27.868031292899261 ], [ 112.951008333413327, 27.868131494986933 ], [ 112.950968446655835, 27.868157590791821 ], [ 112.950819871728967, 27.868206939198558 ], [ 112.950779984773945, 27.868232034589909 ], [ 112.95077499836043, 27.868242047660875 ], [ 112.950740092654627, 27.868322140808825 ], [ 112.950710175686993, 27.868362215836218 ], [ 112.950640373882877, 27.868397381021413 ], [ 112.950575559449859, 27.868408530665075 ], [ 112.950519712481082, 27.868503673795026 ], [ 112.950479820764869, 27.868583778001675 ], [ 112.950479811339491, 27.868703798094231 ], [ 112.950440918273529, 27.868763896633375 ], [ 112.950430944614126, 27.868792924171892 ], [ 112.950440910497647, 27.868862913212439 ], [ 112.95046084924401, 27.868913876379533 ], [ 112.950519674778931, 27.868983754173101 ], [ 112.950540609187414, 27.869052718032709 ], [ 112.950550578172042, 27.869082700339565 ], [ 112.950559542164555, 27.869212701667795 ], [ 112.950569511063691, 27.869243684136716 ], [ 112.95059044535472, 27.869313648132298 ], [ 112.950590442291286, 27.869352654666724 ], [ 112.950610377863399, 27.869442624274345 ], [ 112.950620340459452, 27.869553620133932 ], [ 112.950640280800869, 27.86958257950155 ], [ 112.950680161989553, 27.869633497024719 ], [ 112.950690131001011, 27.86966247912094 ], [ 112.950739975610375, 27.869812390392838 ], [ 112.950774869138883, 27.869887323207529 ], [ 112.950799796090351, 27.869902268727788 ], [ 112.950888537690005, 27.869932070691842 ], [ 112.950954345271143, 27.869961924966695 ], [ 112.95101914929154, 27.870071794799976 ], [ 112.95109891214652, 27.8701526252893 ], [ 112.951188646032264, 27.870231432309311 ], [ 112.951217561435897, 27.87024136747926 ], [ 112.95127938450905, 27.870211220169878 ], [ 112.951437926452897, 27.870180849694748 ], [ 112.951467837908325, 27.870200784005025 ], [ 112.95151669263916, 27.870240677879178 ], [ 112.951537628479642, 27.870281636373846 ], [ 112.951547593955482, 27.870351625069635 ], [ 112.951537619914518, 27.870390654653949 ], [ 112.951527646498576, 27.870421682893472 ], [ 112.951506705857312, 27.870441734622016 ], [ 112.951447871535152, 27.870510882027371 ], [ 112.951358125220636, 27.870601104109049 ], [ 112.95126738543415, 27.870641319837606 ], [ 112.951188611461532, 27.87067150610849 ], [ 112.951128782331054, 27.87070264882307 ], [ 112.951098868148833, 27.870712719213863 ], [ 112.950919383231678, 27.870762139099085 ], [ 112.950838614794492, 27.870782327359251 ], [ 112.950759841862379, 27.870783507659926 ], [ 112.950630218292304, 27.87074379692611 ], [ 112.950560419900498, 27.870732954223673 ], [ 112.950511561099788, 27.870723063850544 ], [ 112.95044974021063, 27.870703201216561 ], [ 112.950390911384815, 27.870673329978661 ], [ 112.950271260630288, 27.870593588330237 ], [ 112.950170555867743, 27.870504801774807 ], [ 112.95008181748716, 27.870403985795349 ], [ 112.950012021521971, 27.870344133607581 ], [ 112.949972137695013, 27.870314218717894 ], [ 112.949912311450404, 27.87027434712266 ], [ 112.949872428260008, 27.870234430423739 ], [ 112.949842516613387, 27.870194491187998 ], [ 112.949802632533448, 27.870164576073449 ], [ 112.949741807174306, 27.870144709739268 ], [ 112.949672005530203, 27.870145866989805 ], [ 112.949593228551109, 27.870155045582102 ], [ 112.9495134533026, 27.870175228048399 ], [ 112.949458606404434, 27.870205356094996 ], [ 112.949443645641466, 27.870245396334845 ], [ 112.949443641715376, 27.870295404719762 ], [ 112.949463578142613, 27.870385375102142 ], [ 112.949471547134138, 27.87049237516025 ], [ 112.949503451737115, 27.870555314153133 ], [ 112.949553301694252, 27.870665220701976 ], [ 112.949563270260924, 27.870705205021714 ], [ 112.949563267905148, 27.870735210054722 ], [ 112.949533347274041, 27.870805288961247 ], [ 112.949533343347753, 27.870855297350523 ], [ 112.949573221547922, 27.87096522625178 ], [ 112.949643015439321, 27.871066086348897 ], [ 112.949731753782913, 27.871185906826593 ], [ 112.949952111331854, 27.871374441622478 ], [ 112.95019141506566, 27.871534927166927 ], [ 112.950291122524675, 27.87162471609782 ], [ 112.950370886104793, 27.87172355153993 ], [ 112.950429709473696, 27.871823434576662 ], [ 112.950460616815604, 27.871873372649119 ], [ 112.950489531421141, 27.871903311871431 ], [ 112.950520440658423, 27.871928245684551 ], [ 112.950600210943946, 27.871933064738325 ], [ 112.950674997312689, 27.871912890764374 ], [ 112.950749784967911, 27.8718737134154 ], [ 112.950788673738174, 27.871862622679824 ], [ 112.950819586169345, 27.871842548630912 ], [ 112.9508893910415, 27.871762375457937 ], [ 112.950949226115938, 27.871662221620301 ], [ 112.950999085173237, 27.871622100609599 ], [ 112.95103897298209, 27.871582002399425 ], [ 112.951067890114302, 27.871571934354733 ] ] ] } }
]
}
