{
"type": "FeatureCollection",
"name": "安乐社区居委会",
"crs": { "type": "name", "properties": { "name": "urn:ogc:def:crs:OGC:1.3:CRS84" } },
"features": [
{ "type": "Feature", "properties": { "adcode": "430304008011", "fullName": "湖南省湘潭市岳塘区五里堆街道安乐社区居委会", "level": "居委会/社区", "location": "112.964487,27.86122", "name": "安乐社区居委会", "OBJECTID": 4077, "SHAPE_Leng": 0.022266520369400002, "SHAPE_Area": 2.3725542000100001e-05 }, "geometry": { "type": "Polygon", "coordinates": [ [ [ 112.962466084381191, 27.866620967878017 ], [ 112.962343652224533, 27.864495935251103 ], [ 112.960939185633848, 27.864756640001385 ], [ 112.960734857549184, 27.864577138465584 ], [ 112.960657115914671, 27.864470321414231 ], [ 112.960589504856642, 27.862298134608313 ], [ 112.958129309860325, 27.862342404770253 ], [ 112.956941011217481, 27.862368373160059 ], [ 112.956871227111336, 27.862370546320161 ], [ 112.955304034293405, 27.862405394908865 ], [ 112.956508062011068, 27.86600604844979 ], [ 112.956618694510354, 27.866337830954894 ], [ 112.956623679202593, 27.866336818484449 ], [ 112.956648602730397, 27.866330755954195 ], [ 112.956945689026128, 27.866266010453341 ], [ 112.957024446086677, 27.866251812885054 ], [ 112.957567764361883, 27.866157445624228 ], [ 112.957584711759267, 27.866154402822513 ], [ 112.957602656117203, 27.866150357356474 ], [ 112.958207757515282, 27.866219853152977 ], [ 112.958418098654164, 27.86619531971283 ], [ 112.958791924290622, 27.866151368531568 ], [ 112.958918522860728, 27.866171051286337 ], [ 112.959100943610963, 27.866198593233801 ], [ 112.95912985065398, 27.866216522827081 ], [ 112.959219562227872, 27.866269303698623 ], [ 112.959308265842296, 27.866460109940146 ], [ 112.95940693590525, 27.866671894086807 ], [ 112.959941222863321, 27.866822554411929 ], [ 112.960340928415604, 27.867026562351406 ], [ 112.960487452699795, 27.867101197578819 ], [ 112.960818376673913, 27.867260370063502 ], [ 112.960837315007879, 27.867269322591607 ], [ 112.960994801625063, 27.867345927818679 ], [ 112.961487208716107, 27.867370653409367 ], [ 112.961827105029315, 27.86738777002488 ], [ 112.962466084381191, 27.866620967878017 ] ] ] } }
]
}
