{
"type": "FeatureCollection",
"name": "宝丰街社区居委会",
"crs": { "type": "name", "properties": { "name": "urn:ogc:def:crs:OGC:1.3:CRS84" } },
"features": [
{ "type": "Feature", "properties": { "adcode": "430302006002", "fullName": "湖南省湘潭市雨湖区昭潭街道宝丰街社区居委会", "level": "居委会/社区", "location": "112.887901,27.854941", "name": "宝丰街社区居委会", "OBJECTID": 3868, "SHAPE_Leng": 0.046361405243800002, "SHAPE_Area": 3.6161191999900003e-05 }, "geometry": { "type": "Polygon", "coordinates": [ [ [ 112.882660189654359, 27.862974048477511 ], [ 112.882713243340362, 27.862512002048835 ], [ 112.883389447774817, 27.86266340611051 ], [ 112.883450458580782, 27.862762455885282 ], [ 112.883485464689798, 27.862819484410782 ], [ 112.883483470533434, 27.862736469507102 ], [ 112.883482471320079, 27.862722466633354 ], [ 112.883481473271274, 27.862693461262651 ], [ 112.883519484730527, 27.862692481714898 ], [ 112.883634516758292, 27.862718548088832 ], [ 112.883474477922192, 27.86260644297716 ], [ 112.883496533127953, 27.861980350771319 ], [ 112.883587654306993, 27.860768198545163 ], [ 112.883678787294343, 27.859399020224043 ], [ 112.883802904906005, 27.858344911624656 ], [ 112.883871003414598, 27.857324778759065 ], [ 112.883899038403982, 27.856975735796109 ], [ 112.884889282197321, 27.8571382641694 ], [ 112.884987317250008, 27.856982285863417 ], [ 112.884911314553207, 27.856788216988988 ], [ 112.884933338891955, 27.856541186835884 ], [ 112.885039391495809, 27.856180178348328 ], [ 112.885050411947077, 27.855949145475353 ], [ 112.88616163129899, 27.856035667874217 ], [ 112.886477703649945, 27.855797763881643 ], [ 112.886547731180215, 27.855588758794219 ], [ 112.886611764527089, 27.855289736165115 ], [ 112.886064684151791, 27.8551294759542 ], [ 112.8861027095179, 27.854891453333373 ], [ 112.885978700434237, 27.854715369790014 ], [ 112.885528650509073, 27.854218084726174 ], [ 112.886086787261021, 27.853852275077337 ], [ 112.888337994498443, 27.854922332154111 ], [ 112.88834399472222, 27.854925334715766 ], [ 112.888629048995938, 27.854480357779476 ], [ 112.888892097337632, 27.854048372566293 ], [ 112.889154139034957, 27.853659391262813 ], [ 112.889256155907262, 27.853488394550823 ], [ 112.889278159490843, 27.853451395184088 ], [ 112.889336159240557, 27.85347741709607 ], [ 112.889187180299658, 27.853143316539242 ], [ 112.888640166714865, 27.852972113080707 ], [ 112.887778117497533, 27.852691765342179 ], [ 112.887369081959434, 27.852558589509815 ], [ 112.886694949611197, 27.853070404903924 ], [ 112.885579682738722, 27.853938062028998 ], [ 112.885216589730618, 27.854139926178672 ], [ 112.885224590801613, 27.854148931446982 ], [ 112.885714649336961, 27.854719252281811 ], [ 112.885205508516052, 27.855155088329937 ], [ 112.884745380878854, 27.8554219101547 ], [ 112.884427287340273, 27.855601781217253 ], [ 112.884105192605276, 27.855723636548966 ], [ 112.883492980000469, 27.856207391735822 ], [ 112.883037835862481, 27.856246147006331 ], [ 112.882919818468281, 27.855979036410687 ], [ 112.883632070920811, 27.855567361122802 ], [ 112.884014200796003, 27.855296518730849 ], [ 112.883746147482199, 27.855008329873129 ], [ 112.883736145371842, 27.854998322893778 ], [ 112.883149942174285, 27.855335059172624 ], [ 112.882689770701987, 27.855613844946436 ], [ 112.882153557927637, 27.855951586866233 ], [ 112.882119543410852, 27.855980571360924 ], [ 112.881670346483617, 27.856368363165643 ], [ 112.880897982181281, 27.857096996975596 ], [ 112.880533800725502, 27.857447817472924 ], [ 112.879788410720849, 27.858172435210555 ], [ 112.879689357098158, 27.858268382748914 ], [ 112.879698361080102, 27.858271389476002 ], [ 112.880291617351048, 27.858447822237526 ], [ 112.880126524297424, 27.858698752887634 ], [ 112.879847401622214, 27.858641553461666 ], [ 112.87947323726209, 27.858495269889829 ], [ 112.879462232390821, 27.858490261351101 ], [ 112.879214093633422, 27.858732126380929 ], [ 112.878687791023594, 27.859238831316922 ], [ 112.878645766384437, 27.85927880722349 ], [ 112.878182489435886, 27.859723537869513 ], [ 112.878076424730381, 27.859825475084815 ], [ 112.877502064343673, 27.860399131362641 ], [ 112.877029759931588, 27.860839834340037 ], [ 112.877031759931413, 27.860854838418401 ], [ 112.877078766751126, 27.861118919521545 ], [ 112.877410943724186, 27.861291208807522 ], [ 112.877329897174562, 27.861298146746968 ], [ 112.877519000284636, 27.861347302031032 ], [ 112.878371450893255, 27.861508975383074 ], [ 112.87842847983795, 27.861521019655459 ], [ 112.8788376829025, 27.861614334851353 ], [ 112.878898712561764, 27.861628381336285 ], [ 112.880355372818485, 27.861961448127566 ], [ 112.881346768807461, 27.862193128081728 ], [ 112.882071031182917, 27.862355599388252 ], [ 112.881995983207233, 27.862620598418026 ], [ 112.882248070241474, 27.862672757632694 ], [ 112.882173027205724, 27.86288174787882 ], [ 112.882622177424352, 27.862966025223933 ], [ 112.882660189654359, 27.862974048477511 ] ] ] } }
]
}
