{
"type": "FeatureCollection",
"name": "宝塔社区居委会",
"crs": { "type": "name", "properties": { "name": "urn:ogc:def:crs:OGC:1.3:CRS84" } },
"features": [
{ "type": "Feature", "properties": { "adcode": "430304010002", "fullName": "湖南省湘潭市岳塘区宝塔街道宝塔社区居委会", "level": "居委会/社区", "location": "112.939333,27.850082", "name": "宝塔社区居委会", "OBJECTID": 4082, "SHAPE_Leng": 0.036707780024599998, "SHAPE_Area": 4.7048876000199998e-05 }, "geometry": { "type": "Polygon", "coordinates": [ [ [ 112.929480620928004, 27.848481154344597 ], [ 112.930207893468875, 27.852091663210416 ], [ 112.929841550359953, 27.853042367428237 ], [ 112.931106013617935, 27.852864422661689 ], [ 112.931341550525758, 27.852604015649661 ], [ 112.931633898546096, 27.853221661852356 ], [ 112.93182844471923, 27.85385946179202 ], [ 112.932115817285847, 27.854211066304302 ], [ 112.932480075362704, 27.85390343609998 ], [ 112.933341189211376, 27.854553151105254 ], [ 112.933707378742355, 27.854803591174878 ], [ 112.933158515824601, 27.855391587089052 ], [ 112.931816240065842, 27.856800965859488 ], [ 112.930913041610651, 27.857547491200229 ], [ 112.933011570073134, 27.858716374896542 ], [ 112.933648136726973, 27.859536470717781 ], [ 112.936762490491816, 27.855458470988271 ], [ 112.937795206337199, 27.85390136267306 ], [ 112.93890869337028, 27.852189037479949 ], [ 112.937065102356399, 27.851475277741443 ], [ 112.935882850841153, 27.851008283316233 ], [ 112.929480620928004, 27.848481154344597 ] ] ] } }
]
}
