{
"type": "FeatureCollection",
"name": "宝庆路社区居委会",
"crs": { "type": "name", "properties": { "name": "urn:ogc:def:crs:OGC:1.3:CRS84" } },
"features": [
{ "type": "Feature", "properties": { "adcode": "430302005007", "fullName": "湖南省湘潭市雨湖区窑湾街道宝庆路社区居委会", "level": "居委会/社区", "location": "112.884437,27.851509", "name": "宝庆路社区居委会", "OBJECTID": 3859, "SHAPE_Leng": 0.068385154105600005, "SHAPE_Area": 5.84778965e-05 }, "geometry": { "type": "Polygon", "coordinates": [ [ [ 112.872846297140597, 27.856534484213313 ], [ 112.873663847460961, 27.857208355944518 ], [ 112.873607805926412, 27.857222306894911 ], [ 112.872933295557019, 27.857397709035585 ], [ 112.872965316987802, 27.857430744627734 ], [ 112.8739529589744, 27.858434822200781 ], [ 112.874372225499158, 27.858785256610318 ], [ 112.875435861259959, 27.859780347903737 ], [ 112.875620967153949, 27.859953533640006 ], [ 112.875787085135343, 27.85979764758611 ], [ 112.875797092252895, 27.859787654318222 ], [ 112.87574706361255, 27.859747605687993 ], [ 112.875747064389117, 27.859737604028812 ], [ 112.875907178814231, 27.859567709881556 ], [ 112.875917186736118, 27.859546714745264 ], [ 112.875907181221521, 27.859536704739348 ], [ 112.875814128261169, 27.859462614659979 ], [ 112.875597003550283, 27.859286402689772 ], [ 112.875266811122358, 27.859006074994312 ], [ 112.875216780609762, 27.858976027057007 ], [ 112.875155740402747, 27.858975974517151 ], [ 112.875165747781097, 27.858965981481841 ], [ 112.875266822770755, 27.858856050130409 ], [ 112.875275828671505, 27.858856057854275 ], [ 112.875275831777728, 27.858816051224686 ], [ 112.875206789560181, 27.858775985303492 ], [ 112.875186778715928, 27.858745963113137 ], [ 112.875175772162038, 27.858736952145247 ], [ 112.875175773792805, 27.858715948665132 ], [ 112.875186781822151, 27.858705956484403 ], [ 112.875226812812954, 27.858645980964265 ], [ 112.875296866499752, 27.858546024493677 ], [ 112.875376927275809, 27.858436074734737 ], [ 112.875386935339534, 27.858416079963209 ], [ 112.875396944175677, 27.858386083531531 ], [ 112.875386938445686, 27.858376073337002 ], [ 112.875356921230832, 27.858346042731529 ], [ 112.875256861250378, 27.858275945445783 ], [ 112.875195824250241, 27.858235886369794 ], [ 112.874976689017544, 27.858106675580952 ], [ 112.874886632637143, 27.858056588949303 ], [ 112.874826595461016, 27.858015529762152 ], [ 112.874766558059591, 27.85797547061021 ], [ 112.874726532525742, 27.857955432206996 ], [ 112.874566429736007, 27.857875278015239 ], [ 112.874546418366791, 27.85784525536517 ], [ 112.874536414617523, 27.857805239896287 ], [ 112.874556432983951, 27.857745247654996 ], [ 112.87457644978079, 27.857705258710318 ], [ 112.874576455993235, 27.8576252454694 ], [ 112.874586465162068, 27.857595249337049 ], [ 112.874606480381374, 27.857575263681699 ], [ 112.874646509994264, 27.857545293982714 ], [ 112.87467653196677, 27.857525317084256 ], [ 112.874706553902556, 27.857505340153278 ], [ 112.874716562241659, 27.85748534562935 ], [ 112.874716566124377, 27.85743533735581 ], [ 112.87470656089144, 27.857415325260881 ], [ 112.874706563997606, 27.8573753186426 ], [ 112.874726579118615, 27.857355332901207 ], [ 112.874756600992981, 27.85733535591654 ], [ 112.874776615296611, 27.857325371793458 ], [ 112.874806636332892, 27.857315396408943 ], [ 112.874867677414187, 27.85731544972365 ], [ 112.874907704968649, 27.857306483121803 ], [ 112.874936725174535, 27.857296506724168 ], [ 112.874956738554019, 27.857296524124834 ], [ 112.874976751140451, 27.857306543165372 ], [ 112.875106837599361, 27.857306655820302 ], [ 112.875165877385584, 27.857296705090793 ], [ 112.875206905186189, 27.857286738750194 ], [ 112.875226919120109, 27.857276754299779 ], [ 112.875246932260922, 27.857276771489143 ], [ 112.875256938048651, 27.857286781732729 ], [ 112.875266944608754, 27.857286790318287 ], [ 112.87527695038834, 27.857296800554533 ], [ 112.875286956163691, 27.857306810787204 ], [ 112.875296961158412, 27.85732682267059 ], [ 112.875296960381903, 27.857336824325071 ], [ 112.875316971989761, 27.857355844606822 ], [ 112.875346990030465, 27.85737587359581 ], [ 112.875356995699292, 27.857386883968456 ], [ 112.875397020197084, 27.857406921451744 ], [ 112.875437043929949, 27.857435960365741 ], [ 112.875447048862767, 27.857455972194845 ], [ 112.875457053015054, 27.857485985675087 ], [ 112.875447044203725, 27.857515982123381 ], [ 112.87544704187421, 27.857545987087889 ], [ 112.875437033835354, 27.857565981877929 ], [ 112.875437030729316, 27.857605988497745 ], [ 112.875447035662134, 27.857626000327524 ], [ 112.875447034109115, 27.857646003637633 ], [ 112.875457039814421, 27.857656013808775 ], [ 112.875477051988923, 27.857666032485046 ], [ 112.875497064146899, 27.857676051146747 ], [ 112.875517076288432, 27.857686069793761 ], [ 112.875527082741201, 27.857686078284214 ], [ 112.875547094857936, 27.857696096909319 ], [ 112.875577111837075, 27.857726127302275 ], [ 112.875587117488507, 27.857736137426006 ], [ 112.875597122359409, 27.857756149201283 ], [ 112.875597120806404, 27.857776152511903 ], [ 112.875607126449552, 27.857786162628397 ], [ 112.875617132088578, 27.857796172741185 ], [ 112.875627136946946, 27.857816184505754 ], [ 112.875647148204393, 27.85783620471318 ], [ 112.875657153826836, 27.857846214811392 ], [ 112.875667158668648, 27.857866226561477 ], [ 112.875727189185667, 27.857966293675084 ], [ 112.875767209188453, 27.858036338897026 ], [ 112.875837244227924, 27.858156417482178 ], [ 112.875907280539309, 27.858257492742972 ], [ 112.87593729629404, 27.858297524398694 ], [ 112.875967312011468, 27.858337556021631 ], [ 112.875967310458449, 27.858357559334532 ], [ 112.875947297137088, 27.858367544329809 ], [ 112.875837220078395, 27.858467468995546 ], [ 112.875697122695684, 27.858576369447107 ], [ 112.875486973040339, 27.858766223171365 ], [ 112.875476965794434, 27.858776216323584 ], [ 112.875476965017882, 27.858786217980857 ], [ 112.875486970710696, 27.858796228143301 ], [ 112.875917217720072, 27.859147648575536 ], [ 112.876057296895127, 27.859256783122586 ], [ 112.876065301334862, 27.859263790917129 ], [ 112.876105328618721, 27.859232818910353 ], [ 112.876909867797877, 27.858546358460067 ], [ 112.877402119317154, 27.858963815545952 ], [ 112.877908367446452, 27.859391275889394 ], [ 112.87805342756414, 27.859629425215271 ], [ 112.878182489435886, 27.859723537869513 ], [ 112.878645766384437, 27.85927880722349 ], [ 112.878687791023594, 27.859238831316922 ], [ 112.879214093633422, 27.858732126380929 ], [ 112.879462232390821, 27.858490261351101 ], [ 112.879689357098158, 27.858268382748914 ], [ 112.879788410720849, 27.858172435210555 ], [ 112.880533800725502, 27.857447817472924 ], [ 112.880897982181281, 27.857096996975596 ], [ 112.881670346483617, 27.856368363165643 ], [ 112.882119543410852, 27.855980571360924 ], [ 112.882153557927637, 27.855951586866233 ], [ 112.882689770701987, 27.855613844946436 ], [ 112.883149942174285, 27.855335059172624 ], [ 112.883736145371842, 27.854998322893778 ], [ 112.883827175584884, 27.854945362503745 ], [ 112.884030241534262, 27.854828449869593 ], [ 112.885035540994238, 27.854241856649214 ], [ 112.885117563398836, 27.854193888018585 ], [ 112.885216589730618, 27.854139926178672 ], [ 112.885579682738722, 27.853938062028998 ], [ 112.886694949611197, 27.853070404903924 ], [ 112.887369081959434, 27.852558589509815 ], [ 112.887112066370946, 27.852336452717847 ], [ 112.887015066531873, 27.852164385881547 ], [ 112.8869881075602, 27.85158728027908 ], [ 112.885813906393224, 27.85165679299012 ], [ 112.88582189816492, 27.851782817277769 ], [ 112.885811873023755, 27.852081861918091 ], [ 112.885851871433886, 27.852201899569682 ], [ 112.885911873566883, 27.85232194606596 ], [ 112.886031885094297, 27.852462022181921 ], [ 112.885961871337045, 27.852471992923679 ], [ 112.885871847329767, 27.852561967696126 ], [ 112.885761833000828, 27.852471903524904 ], [ 112.885711830035305, 27.852382866286341 ], [ 112.885701833479374, 27.852312850244935 ], [ 112.885711846409919, 27.852171831601126 ], [ 112.885731856503511, 27.852092827671687 ], [ 112.88573186123736, 27.852031817647031 ], [ 112.885671853173818, 27.851981782218306 ], [ 112.885561830768737, 27.851982732111093 ], [ 112.885280770505659, 27.851991602927018 ], [ 112.884021458379237, 27.852001979935189 ], [ 112.883401283319898, 27.851940638721803 ], [ 112.882621049481898, 27.851721164233375 ], [ 112.882440997883833, 27.851590038081678 ], [ 112.882409989428382, 27.851560015004431 ], [ 112.882390987454301, 27.851499994007689 ], [ 112.882349976971597, 27.851449961702485 ], [ 112.882230936410323, 27.851429888108342 ], [ 112.881900814767732, 27.851449693484593 ], [ 112.881159510323997, 27.851670269753903 ], [ 112.880850376439014, 27.851759086179911 ], [ 112.88069030515689, 27.851808990304441 ], [ 112.880657289174948, 27.851833972819122 ], [ 112.880825355892227, 27.8518890913397 ], [ 112.881103415367136, 27.852601387130623 ], [ 112.88106839854818, 27.852634370219629 ], [ 112.880664200960254, 27.853009170597783 ], [ 112.879804839499499, 27.85274355029615 ], [ 112.87851620813538, 27.85272262902231 ], [ 112.877668752211179, 27.852732992720139 ], [ 112.877034398994198, 27.852637481765335 ], [ 112.876885350832509, 27.852134280469752 ], [ 112.876627216017226, 27.851897034215291 ], [ 112.876700304054239, 27.851324999171716 ], [ 112.875843792199248, 27.851146266778855 ], [ 112.875757729625093, 27.851250211710767 ], [ 112.875456504784864, 27.851658024079939 ], [ 112.875447497321005, 27.851679019864797 ], [ 112.875145247388957, 27.852351871555697 ], [ 112.874974049861933, 27.85343290133488 ], [ 112.874953035595198, 27.853435883570683 ], [ 112.874821946322996, 27.853452772111517 ], [ 112.873673058027123, 27.854579930159012 ], [ 112.873437897861848, 27.854446692003542 ], [ 112.873363834008032, 27.854571644116398 ], [ 112.874254408078684, 27.85537758774333 ], [ 112.874350468924476, 27.855453686049266 ], [ 112.8743194445386, 27.855490664499367 ], [ 112.874254393247412, 27.855568619271711 ], [ 112.873889138380747, 27.855538285220028 ], [ 112.873771043672278, 27.855672199927017 ], [ 112.873598902853871, 27.85589007846152 ], [ 112.873212608759744, 27.856040746182398 ], [ 112.872869330002189, 27.856334472891437 ], [ 112.872866326189822, 27.856354473362927 ], [ 112.872846297140597, 27.856534484213313 ] ], [ [ 112.877188203231242, 27.856308208495687 ], [ 112.877248239248246, 27.85628825236677 ], [ 112.877357303021739, 27.856268334419831 ], [ 112.877428346385827, 27.85622838317126 ], [ 112.877638475156942, 27.856087522511093 ], [ 112.877808580035961, 27.855947629827131 ], [ 112.877858609781043, 27.855917663030031 ], [ 112.877908642525043, 27.855847689532919 ], [ 112.878098759303569, 27.85566780359018 ], [ 112.878138783079294, 27.855637828732515 ], [ 112.878198822108118, 27.855547858904004 ], [ 112.878238846489182, 27.855507882244957 ], [ 112.878268863876144, 27.855488901526797 ], [ 112.878387940587658, 27.855308960407044 ], [ 112.878428965944252, 27.855258982553547 ], [ 112.878578054248834, 27.855119069385037 ], [ 112.878658102418854, 27.85502911321225 ], [ 112.878768170240988, 27.854879168749616 ], [ 112.878888248864072, 27.854648217706476 ], [ 112.878929273339324, 27.854598239079163 ], [ 112.878989311884979, 27.854488264169564 ], [ 112.879019330711472, 27.854438277488377 ], [ 112.879069359414999, 27.854388305105608 ], [ 112.879119387234297, 27.854348334275976 ], [ 112.879219444101267, 27.854248389034311 ], [ 112.879259467503203, 27.854198409182864 ], [ 112.879299490059651, 27.854158430918577 ], [ 112.879349517381513, 27.854118459650124 ], [ 112.879479585272179, 27.85404853950649 ], [ 112.879619656293414, 27.853989627479589 ], [ 112.880039862922771, 27.853829889670749 ], [ 112.880119902148138, 27.853789937271095 ], [ 112.880259969420948, 27.85372902145842 ], [ 112.880309995429172, 27.853679046694715 ], [ 112.880340010981612, 27.8536490617902 ], [ 112.880420044500084, 27.853669118342616 ], [ 112.880460061930336, 27.853669144878747 ], [ 112.88051008594806, 27.853639173020905 ], [ 112.880570117263531, 27.853569201064712 ], [ 112.880820242032229, 27.853329324921269 ], [ 112.880850256136625, 27.853309341069718 ], [ 112.880870264482766, 27.85330935401068 ], [ 112.880889271618997, 27.853319367936226 ], [ 112.880930286232967, 27.853350399489106 ], [ 112.880940289596779, 27.853360407576481 ], [ 112.880950291481582, 27.853389418787874 ], [ 112.880959293647493, 27.853409427870695 ], [ 112.880959291241382, 27.853440432974423 ], [ 112.880950286824572, 27.853449428665936 ], [ 112.880940281912714, 27.853459423875034 ], [ 112.880920273628348, 27.853459410988734 ], [ 112.880900264550064, 27.853469399733282 ], [ 112.880880257006623, 27.853459385169273 ], [ 112.880830236130421, 27.853459352807118 ], [ 112.880820232718165, 27.853449344676591 ], [ 112.880800224327999, 27.853449331696609 ], [ 112.880780215144171, 27.853459320347422 ], [ 112.880770210933747, 27.853459313843782 ], [ 112.880760205942636, 27.85346930898271 ], [ 112.880730190089452, 27.853510296187331 ], [ 112.880710180145371, 27.853529286265637 ], [ 112.880700174351801, 27.853549283027853 ], [ 112.880670159195517, 27.85358026851636 ], [ 112.880650148422617, 27.853609260194908 ], [ 112.880640142602672, 27.853629256934152 ], [ 112.880620132501861, 27.853649247107505 ], [ 112.880590118094048, 27.853669230691612 ], [ 112.880560104422784, 27.853679212593843 ], [ 112.880530089935831, 27.853699196108042 ], [ 112.880510080514725, 27.853709184549146 ], [ 112.8805000754095, 27.853719179587323 ], [ 112.880500073857121, 27.853739182881331 ], [ 112.880510077409966, 27.853749191137105 ], [ 112.880510076633769, 27.853759192784189 ], [ 112.880530084502496, 27.853769207637111 ], [ 112.880560095108507, 27.853799232358131 ], [ 112.880600109964561, 27.853829263618032 ], [ 112.880640125526554, 27.853849293168604 ], [ 112.880670135909938, 27.853880317926361 ], [ 112.880700146409126, 27.853909342319792 ], [ 112.880710149874162, 27.853919350498131 ], [ 112.880710147467965, 27.853950355605146 ], [ 112.880660119309667, 27.85403933757485 ], [ 112.880640109226476, 27.854059327765512 ], [ 112.880620098271791, 27.854090319753237 ], [ 112.880580079647473, 27.854109296596732 ], [ 112.880570074572944, 27.854119291663032 ], [ 112.880510047138273, 27.8541392553878 ], [ 112.88048003336165, 27.854149237197692 ], [ 112.880440015190189, 27.854159212340591 ], [ 112.880420006466323, 27.854159199064764 ], [ 112.880359978636903, 27.854179162439866 ], [ 112.880339969066725, 27.854189150749896 ], [ 112.880298950208001, 27.854199125006502 ], [ 112.880269936597273, 27.854209107240788 ], [ 112.880219912830015, 27.854229076988297 ], [ 112.880148879544763, 27.854249032479004 ], [ 112.880089852231279, 27.854258994252895 ], [ 112.880029824312231, 27.854268955212792 ], [ 112.879909767148959, 27.854299878528089 ], [ 112.87985874291094, 27.854309845245311 ], [ 112.879789710212009, 27.854319799474212 ], [ 112.879719676062308, 27.85433975447647 ], [ 112.879658647482458, 27.854339712237426 ], [ 112.879598617660875, 27.854359673847561 ], [ 112.879549594458297, 27.854359639700828 ], [ 112.879469554877957, 27.854378586884433 ], [ 112.879429535721059, 27.854378558818023 ], [ 112.879389515718543, 27.854388532338554 ], [ 112.879349496422932, 27.85438850414922 ], [ 112.879339490811972, 27.854398498740668 ], [ 112.879329483644199, 27.854428496625282 ], [ 112.879329482091691, 27.854448499922235 ], [ 112.879349485555423, 27.854528527228805 ], [ 112.879369488225578, 27.854618556170191 ], [ 112.87936948744931, 27.854628557819055 ], [ 112.879379491494888, 27.854638566513405 ], [ 112.879409505934035, 27.854638587626596 ], [ 112.879429516314843, 27.854628600033912 ], [ 112.879479540250145, 27.854628635107304 ], [ 112.879489544946537, 27.854629642275338 ], [ 112.879499548163736, 27.854649652572483 ], [ 112.879499542729974, 27.85471966411556 ], [ 112.879509546719177, 27.85472967276014 ], [ 112.879509545942923, 27.854739674409231 ], [ 112.87956957444402, 27.854739716301182 ], [ 112.879579577626487, 27.854759726568005 ], [ 112.879579571416471, 27.854839739762031 ], [ 112.87958857489798, 27.854849747679729 ], [ 112.879738645342954, 27.854849851693487 ], [ 112.87979967448689, 27.85483989209505 ], [ 112.879828687994049, 27.854838911871177 ], [ 112.879858699441655, 27.854869937578695 ], [ 112.879858696414288, 27.854908944011498 ], [ 112.879848689394294, 27.854939942263961 ], [ 112.87970960152586, 27.85523989599227 ], [ 112.879679579714576, 27.85533989172794 ], [ 112.87963956022358, 27.855348865470095 ], [ 112.879658559765829, 27.855469898626957 ], [ 112.879679560307821, 27.855589932993464 ], [ 112.879689558784946, 27.855669953127318 ], [ 112.87970956356628, 27.855728976709532 ], [ 112.879779585326403, 27.855869048149014 ], [ 112.879810596602624, 27.855909076093919 ], [ 112.879820598904004, 27.85593908792427 ], [ 112.879839606913251, 27.855949102628923 ], [ 112.879859616144074, 27.855949116353948 ], [ 112.879910641932739, 27.855919146328148 ], [ 112.880089730361007, 27.855829253263128 ], [ 112.880098735195276, 27.855819257702944 ], [ 112.880109740926386, 27.855809263492183 ], [ 112.880138758621527, 27.855749273178127 ], [ 112.880148763884932, 27.855739278275802 ], [ 112.880199787477764, 27.85572931098341 ], [ 112.880219795618089, 27.855739326081142 ], [ 112.880228798848705, 27.855749333778185 ], [ 112.88023980296478, 27.855759342814569 ], [ 112.880249803526453, 27.855809357780597 ], [ 112.880309826133697, 27.855860406379321 ], [ 112.880408865819803, 27.855909480457736 ], [ 112.880399861883845, 27.855909474474714 ], [ 112.880389856730261, 27.855919469474784 ], [ 112.880368845893472, 27.855940458962305 ], [ 112.880359840466838, 27.855959456103363 ], [ 112.88034983451945, 27.855979452739582 ], [ 112.880339827713811, 27.856010451188975 ], [ 112.880309813014819, 27.856029434291312 ], [ 112.880038679353447, 27.856189278149373 ], [ 112.880028674818263, 27.856189271357962 ], [ 112.880008667287342, 27.856169254459385 ], [ 112.879918641721133, 27.855969160056056 ], [ 112.879910638827624, 27.855959152934513 ], [ 112.879878624121048, 27.855959131030072 ], [ 112.879629499544933, 27.856069977570566 ], [ 112.879619494132982, 27.856078972108019 ], [ 112.879619493356685, 27.856088973759878 ], [ 112.879629497293692, 27.856098982361079 ], [ 112.879689518495823, 27.856189038843841 ], [ 112.879689516865611, 27.856210042313297 ], [ 112.8796695067104, 27.856220030109274 ], [ 112.879569456450284, 27.856259967206245 ], [ 112.8795494477434, 27.856249951605413 ], [ 112.879539443771662, 27.856239942973172 ], [ 112.879499429393761, 27.856179905101609 ], [ 112.87947942148017, 27.85615888762986 ], [ 112.879419392744509, 27.856158845530356 ], [ 112.879249303415136, 27.856249740532068 ], [ 112.879189271054074, 27.856288704346749 ], [ 112.879169258912796, 27.856318695063415 ], [ 112.879169253478594, 27.856388706630479 ], [ 112.879189256226454, 27.856479735909531 ], [ 112.879239273695035, 27.856569786318463 ], [ 112.879259277236301, 27.856649813728787 ], [ 112.879259273354691, 27.856699821994201 ], [ 112.879249266928298, 27.856719818209083 ], [ 112.87923925972126, 27.856749816073467 ], [ 112.878587911987339, 27.857018390421516 ], [ 112.878558894673631, 27.857048374063943 ], [ 112.878548887169103, 27.857078371666752 ], [ 112.878568892857672, 27.857138396304336 ], [ 112.878607910655205, 27.857168429914584 ], [ 112.878677945063203, 27.857188484497232 ], [ 112.878737974166341, 27.857208531606478 ], [ 112.87890904826402, 27.857368682155066 ], [ 112.878939060207614, 27.857408710426377 ], [ 112.878939057102187, 27.857448717044782 ], [ 112.878909039724107, 27.857478700355546 ], [ 112.87886901726938, 27.857508676395277 ], [ 112.878778971734704, 27.857508611091994 ], [ 112.878727947329708, 27.857488570640164 ], [ 112.878687927668764, 27.857478539784854 ], [ 112.878657913848457, 27.857458514535011 ], [ 112.878548861549092, 27.857408426256466 ], [ 112.878428804465614, 27.857339326238389 ], [ 112.878398791165722, 27.857308298873715 ], [ 112.878338763441107, 27.857259246193035 ], [ 112.878288740154687, 27.857219202326366 ], [ 112.878268731897165, 27.857189182437381 ], [ 112.878128665075209, 27.857089060987388 ], [ 112.877918565679806, 27.856907872299288 ], [ 112.877838526625368, 27.856847801461825 ], [ 112.877607413628184, 27.856657592799738 ], [ 112.877518370015366, 27.856577510748654 ], [ 112.877507363834042, 27.856577502221256 ], [ 112.877407314314695, 27.856488409780912 ], [ 112.877378300200121, 27.85645838221085 ], [ 112.877207213462583, 27.85631722493644 ], [ 112.877188203231242, 27.856308208495687 ] ] ] } }
]
}
