{
"type": "FeatureCollection",
"name": "富家村委会",
"crs": { "type": "name", "properties": { "name": "urn:ogc:def:crs:OGC:1.3:CRS84" } },
"features": [
{ "type": "Feature", "properties": { "adcode": "430373200228", "fullName": "湖南省湘潭市雨湖区响水乡富家村委会", "level": "居委会/社区", "location": "112.943096,28.006031", "name": "富家村委会", "OBJECTID": 4022, "SHAPE_Leng": 0.119127391855, "SHAPE_Area": 0.00033072217 }, "geometry": { "type": "Polygon", "coordinates": [ [ [ 112.926426149991215, 28.017832657224844 ], [ 112.926438113985967, 28.018012668686691 ], [ 112.926605613085101, 28.020482819654475 ], [ 112.926606609369784, 28.020506821957245 ], [ 112.926624558650417, 28.020732832048829 ], [ 112.92664550209939, 28.020962838664989 ], [ 112.927344197161375, 28.021080901118893 ], [ 112.927543819438839, 28.021121630460641 ], [ 112.930567868145999, 28.021677313072978 ], [ 112.931695539121591, 28.021865601387937 ], [ 112.931865178040653, 28.02196434996155 ], [ 112.932733308002611, 28.022484046682894 ], [ 112.933152392805226, 28.02273340610564 ], [ 112.934279946342301, 28.022690538883563 ], [ 112.936095970786354, 28.021517255656441 ], [ 112.937572631448461, 28.02052548231287 ], [ 112.93904123669094, 28.019255595135292 ], [ 112.940148614523807, 28.01829836224767 ], [ 112.940216452203714, 28.018239223838304 ], [ 112.940228424136109, 28.018221198234066 ], [ 112.941149244796804, 28.016861216179866 ], [ 112.941413598880814, 28.016642667442873 ], [ 112.942160781688258, 28.015715054509872 ], [ 112.942653582570088, 28.014947955182059 ], [ 112.944316461790905, 28.012360177885721 ], [ 112.945564333933902, 28.009927199157325 ], [ 112.946231589671712, 28.009208673497007 ], [ 112.947728612308296, 28.007595192593445 ], [ 112.948196351567503, 28.00709208898461 ], [ 112.9513077772977, 28.00344450952954 ], [ 112.951437412191638, 28.003293186777878 ], [ 112.952604070472105, 28.00229131429608 ], [ 112.953830474408448, 28.001627309270773 ], [ 112.955185510738943, 28.000004793571314 ], [ 112.955195481189548, 27.999994767795439 ], [ 112.953007961907787, 28.00119119041354 ], [ 112.951289912625967, 28.002391384424786 ], [ 112.949667463172403, 28.003848307287672 ], [ 112.947349701730147, 28.007062933995712 ], [ 112.94616108224777, 28.00539622699371 ], [ 112.945475932244435, 28.005359670955247 ], [ 112.942950554551174, 28.005628910155739 ], [ 112.941196076688001, 28.00483625727588 ], [ 112.944020947404937, 28.003390383509448 ], [ 112.945818516037846, 27.998969937890926 ], [ 112.946474843009526, 27.997643330245158 ], [ 112.946509826113456, 27.996652097188004 ], [ 112.944391589621006, 27.995576379029163 ], [ 112.944991136969733, 27.993851858334285 ], [ 112.943685650964923, 27.992924401865743 ], [ 112.943192883562062, 27.993531499539316 ], [ 112.942465736596588, 27.993760995776622 ], [ 112.942443706118112, 27.994861216178705 ], [ 112.941608811450848, 27.995050897166546 ], [ 112.941587813577939, 27.995695041484979 ], [ 112.942250996282581, 27.997419008490116 ], [ 112.943022015495544, 27.997455472394158 ], [ 112.942165146131444, 27.99829131786214 ], [ 112.941651515201627, 27.99744019537086 ], [ 112.940774717606885, 27.997365890063371 ], [ 112.938975254791188, 27.995682031232885 ], [ 112.939104855650726, 27.996780965510972 ], [ 112.93809823219182, 27.997179887233088 ], [ 112.937070416039091, 28.00008220537778 ], [ 112.934543928223277, 28.002835024685627 ], [ 112.93276580480854, 28.002590915783816 ], [ 112.931204020857905, 28.003237483463323 ], [ 112.930863623747911, 28.004432195709001 ], [ 112.930148871679776, 28.00694367442426 ], [ 112.930265627946142, 28.007061517247873 ], [ 112.930448245706955, 28.007242269690476 ], [ 112.93076857098076, 28.007564832904713 ], [ 112.931944926714991, 28.010336439001922 ], [ 112.932065651548228, 28.01062229276021 ], [ 112.929460685899343, 28.013996794895508 ], [ 112.928816927784624, 28.014228770024179 ], [ 112.928732090081951, 28.014257896994096 ], [ 112.927454490453371, 28.01472077562817 ], [ 112.926865480378993, 28.016081794657723 ], [ 112.926658796586921, 28.016905201582617 ], [ 112.926426149991215, 28.017832657224844 ] ] ] } }
]
}
