{
"type": "FeatureCollection",
"name": "富强社区居委会",
"crs": { "type": "name", "properties": { "name": "urn:ogc:def:crs:OGC:1.3:CRS84" } },
"features": [
{ "type": "Feature", "properties": { "adcode": "430302007009", "fullName": "湖南省湘潭市雨湖区万楼街道富强社区居委会", "level": "居委会/社区", "location": "112.923199,27.881178", "name": "富强社区居委会", "OBJECTID": 3878, "SHAPE_Leng": 0.086917817799600006, "SHAPE_Area": 0.000186306664 }, "geometry": { "type": "Polygon", "coordinates": [ [ [ 112.921407193572762, 27.896581704902211 ], [ 112.92059770880428, 27.893316042677295 ], [ 112.920593716109892, 27.89330104446217 ], [ 112.920325204826227, 27.892302164574417 ], [ 112.920177472276634, 27.891751229095384 ], [ 112.919984819516742, 27.891031311565854 ], [ 112.919693341074748, 27.88994543385342 ], [ 112.92261881910018, 27.889250063648003 ], [ 112.924198201229899, 27.888875087323374 ], [ 112.924126349955358, 27.888547120984562 ], [ 112.923711205037435, 27.886642309575812 ], [ 112.923284082755472, 27.884594481179946 ], [ 112.923048554654159, 27.883570590414795 ], [ 112.92290979534836, 27.883428731806188 ], [ 112.923187372200616, 27.882953319551564 ], [ 112.92373341632198, 27.883456742308674 ], [ 112.924301469625945, 27.883169990693265 ], [ 112.92452610127269, 27.882923667078661 ], [ 112.924430278081502, 27.882780763412647 ], [ 112.925041228376898, 27.882599957494438 ], [ 112.924664973733442, 27.881473246265291 ], [ 112.923766751046983, 27.878448854786878 ], [ 112.924088197428176, 27.878534472666125 ], [ 112.924269913432724, 27.878183187206318 ], [ 112.924816037367819, 27.877291348346514 ], [ 112.925255334284259, 27.876417637882408 ], [ 112.925565827831008, 27.875849138988631 ], [ 112.92556186045158, 27.875522089098787 ], [ 112.921587471393508, 27.876565105985851 ], [ 112.916186195241067, 27.877972801367751 ], [ 112.91185732614052, 27.879040410332511 ], [ 112.911723518239185, 27.878448402875609 ], [ 112.909229019389912, 27.879134094720083 ], [ 112.909218986664101, 27.879678192408516 ], [ 112.906389399502444, 27.880958854635093 ], [ 112.90612847063835, 27.882758274280366 ], [ 112.907595236360976, 27.882786592133733 ], [ 112.908247650287265, 27.882823261546399 ], [ 112.909309679634944, 27.882500617475657 ], [ 112.9102118041842, 27.882301042909628 ], [ 112.911087903605164, 27.882244472903569 ], [ 112.911721211150905, 27.882423076391426 ], [ 112.91192497898956, 27.882544955860617 ], [ 112.912128698093042, 27.883265934947147 ], [ 112.912407361411368, 27.883597792506659 ], [ 112.912932745414579, 27.883844450203398 ], [ 112.913725816461309, 27.883863850069453 ], [ 112.913639871272551, 27.88447001956941 ], [ 112.913575925519993, 27.884745115665648 ], [ 112.914378638160883, 27.888878183031441 ], [ 112.914636195836067, 27.890490247468378 ], [ 112.912986116478024, 27.891126647184123 ], [ 112.912989104382277, 27.8912376638491 ], [ 112.91311595804801, 27.891234568385613 ], [ 112.913245809507174, 27.891204465329441 ], [ 112.913405625751523, 27.891164336922316 ], [ 112.913485535723353, 27.891114267178761 ], [ 112.913545467717043, 27.891080215277974 ], [ 112.913784184078636, 27.891085030840784 ], [ 112.914023895954415, 27.891094843892507 ], [ 112.914123772251216, 27.891134771333299 ], [ 112.914234633132622, 27.891194692921957 ], [ 112.914414401403377, 27.891353575097533 ], [ 112.91464411632812, 27.891384393109522 ], [ 112.91489380691047, 27.891373184988851 ], [ 112.915074583415588, 27.891333027102082 ], [ 112.915363222831886, 27.89127277261526 ], [ 112.915622891323167, 27.891263548120136 ], [ 112.915702784523091, 27.891313487419541 ], [ 112.915752720043386, 27.891313444014916 ], [ 112.915852591484565, 27.891303355166528 ], [ 112.915932489209155, 27.89128328172173 ], [ 112.916091284296712, 27.891252136388317 ], [ 112.916242088557965, 27.891221997223038 ], [ 112.916311997123742, 27.891211933028004 ], [ 112.916431836132062, 27.891241830495517 ], [ 112.916521715885963, 27.891251751044585 ], [ 112.916631569316593, 27.891251651364371 ], [ 112.91669148755463, 27.891271600170384 ], [ 112.916751404052931, 27.891311552220721 ], [ 112.916800334374855, 27.891361515893827 ], [ 112.91690019351681, 27.891441437671443 ], [ 112.916930149836645, 27.891482417012462 ], [ 112.916950118613428, 27.891536407758593 ], [ 112.916950114327875, 27.891591417124673 ], [ 112.916930136668341, 27.891651445792014 ], [ 112.916800304766326, 27.891741580604727 ], [ 112.916781326392353, 27.891791606520133 ], [ 112.916771335142485, 27.8918516258904 ], [ 112.916761340770975, 27.891951652069416 ], [ 112.916721388947394, 27.892021700535217 ], [ 112.916691426780119, 27.892051733005296 ], [ 112.916651479490667, 27.892061771126158 ], [ 112.916541625392753, 27.892071872608263 ], [ 112.916461732466487, 27.892061943131043 ], [ 112.916371853220625, 27.89204202063614 ], [ 112.91623203782494, 27.892042145777761 ], [ 112.916172114223485, 27.892073204421433 ], [ 112.916091214880481, 27.892143288129802 ], [ 112.916062244220356, 27.892253332497074 ], [ 112.916041261517577, 27.892383373178998 ], [ 112.916042252421107, 27.892483389333474 ], [ 112.916052234688948, 27.89254339073139 ], [ 112.91602126665876, 27.892652436643932 ], [ 112.916011276506381, 27.892693452440298 ], [ 112.915992298155672, 27.89273347598354 ], [ 112.915961336965637, 27.892753506649125 ], [ 112.915932374685639, 27.8927535321093 ], [ 112.915901415739086, 27.892743557579699 ], [ 112.915871457784448, 27.892703577020807 ], [ 112.915841505238021, 27.892593584494971 ], [ 112.915802562808324, 27.89250260301165 ], [ 112.915792577999071, 27.892473606783234 ], [ 112.915782594119506, 27.892432608505974 ], [ 112.91578260494849, 27.892293584825836 ], [ 112.915732682047249, 27.892132600871708 ], [ 112.915622838349876, 27.891943663922167 ], [ 112.915582892096552, 27.891912693141485 ], [ 112.915532956848693, 27.891903734631914 ], [ 112.915433084572072, 27.891903820341984 ], [ 112.915393134818913, 27.89191285603323 ], [ 112.915343195274275, 27.891952905443208 ], [ 112.915313230240471, 27.891992937760673 ], [ 112.915303240587491, 27.89202295136306 ], [ 112.915283258929307, 27.892112983664799 ], [ 112.915293236128591, 27.892242997326278 ], [ 112.915323183275447, 27.892433004217086 ], [ 112.915423044421573, 27.892582944556651 ], [ 112.91559281687033, 27.89271382097909 ], [ 112.915742616170093, 27.89281270803772 ], [ 112.915771574754785, 27.892863691515057 ], [ 112.915802530788312, 27.892913673041594 ], [ 112.91585145885908, 27.893022648861042 ], [ 112.915861439665051, 27.893102653755633 ], [ 112.91585144717267, 27.893172674424083 ], [ 112.915821482831888, 27.893213707601131 ], [ 112.915792517308788, 27.893252739526105 ], [ 112.91569264237296, 27.893303835094962 ], [ 112.915492892779469, 27.893383020967313 ], [ 112.915442953488025, 27.893423070606509 ], [ 112.915422975087282, 27.893473096226149 ], [ 112.91541298315272, 27.893533114995144 ], [ 112.915432954552074, 27.893573104725252 ], [ 112.915442937906931, 27.893623104697443 ], [ 112.915432947462648, 27.893664120237307 ], [ 112.915383007318738, 27.893713171277014 ], [ 112.915243182517571, 27.893744295487661 ], [ 112.915123334827058, 27.893733394848617 ], [ 112.915083386707536, 27.893713425040886 ], [ 112.91500348858996, 27.893694488789752 ], [ 112.914952551648611, 27.893704533049139 ], [ 112.91492258524373, 27.893754566550257 ], [ 112.914893616767088, 27.893814600885364 ], [ 112.914842671752339, 27.893924661941039 ], [ 112.914793728795303, 27.893974710999071 ], [ 112.91474378929388, 27.893994755658529 ], [ 112.914702838527944, 27.894014792809248 ], [ 112.914673871676342, 27.894049822596404 ], [ 112.914653892965234, 27.89409384650379 ], [ 112.914643901343126, 27.894144863395347 ], [ 112.914673860381185, 27.894194847319191 ], [ 112.914733775204539, 27.894334821866654 ], [ 112.914793692182585, 27.894444791138 ], [ 112.914923520116062, 27.894574705532179 ], [ 112.915013398934263, 27.894684649233465 ], [ 112.915372926471875, 27.894914384590273 ], [ 112.915772395124193, 27.895153080899902 ], [ 112.915902219736495, 27.895242982758464 ], [ 112.9161119350359, 27.895382821704263 ], [ 112.916416522515888, 27.89552257347 ], [ 112.916850922056284, 27.895773220983163 ], [ 112.91708060334804, 27.895872025438116 ], [ 112.917260352650288, 27.895941869477287 ], [ 112.917678766898661, 27.896051491794498 ], [ 112.917809584634526, 27.896051366235163 ], [ 112.917939402130457, 27.896061242583663 ], [ 112.918079203841842, 27.896082110323189 ], [ 112.918199033720995, 27.896091994896267 ], [ 112.918308877857214, 27.896091886960164 ], [ 112.918478634302531, 27.896110722331581 ], [ 112.918628417946749, 27.896130576554242 ], [ 112.918678342979106, 27.896170533427398 ], [ 112.918708295131978, 27.896230513641441 ], [ 112.91875821918434, 27.896280472043433 ], [ 112.918748229706267, 27.896330490611437 ], [ 112.918708281879077, 27.896400542653485 ], [ 112.918668337012093, 27.896431587968589 ], [ 112.918598434490988, 27.896470664496142 ], [ 112.918526535989244, 27.896491739720428 ], [ 112.919799662462523, 27.896603456274931 ], [ 112.921407193572762, 27.896581704902211 ] ] ] } }
]
}
