{
"type": "FeatureCollection",
"name": "富民城社区居委会",
"crs": { "type": "name", "properties": { "name": "urn:ogc:def:crs:OGC:1.3:CRS84" } },
"features": [
{ "type": "Feature", "properties": { "adcode": "430302006012", "fullName": "湖南省湘潭市雨湖区昭潭街道富民城社区居委会", "level": "居委会/社区", "location": "112.892318,27.856975", "name": "富民城社区居委会", "OBJECTID": 3870, "SHAPE_Leng": 0.034390996571100001, "SHAPE_Area": 3.3527054000099998e-05 }, "geometry": { "type": "Polygon", "coordinates": [ [ [ 112.883474477922192, 27.86260644297716 ], [ 112.883634516758292, 27.862718548088832 ], [ 112.883725541644779, 27.862739600305694 ], [ 112.883876582177933, 27.862773686076572 ], [ 112.885196891862421, 27.863077397645174 ], [ 112.885704989209117, 27.863201653873084 ], [ 112.885764999894661, 27.863216683499676 ], [ 112.886805159821165, 27.863462171072609 ], [ 112.887625250708268, 27.863652523538295 ], [ 112.887946278218976, 27.863720652859094 ], [ 112.888255300090705, 27.863786773384273 ], [ 112.888478313134044, 27.863833857785608 ], [ 112.888517315191592, 27.863841872296312 ], [ 112.888682323013299, 27.863876933176339 ], [ 112.888695323556234, 27.863879937964931 ], [ 112.888769336826357, 27.863763942910317 ], [ 112.888788340131057, 27.863734944274086 ], [ 112.888817344189917, 27.863702948370129 ], [ 112.888819344529949, 27.863699948519173 ], [ 112.888846348364439, 27.863668952097921 ], [ 112.888783352743573, 27.863568914985333 ], [ 112.888686343439076, 27.863616891169997 ], [ 112.888708357320638, 27.863454871430104 ], [ 112.88867036173076, 27.863368844568981 ], [ 112.888681367518018, 27.863302837210341 ], [ 112.8881613328806, 27.863264653520538 ], [ 112.888354396141835, 27.8626486181033 ], [ 112.88833739500781, 27.862646611918404 ], [ 112.888175341745409, 27.863165641955433 ], [ 112.888087336512385, 27.863135605879066 ], [ 112.887706309126258, 27.863012447112229 ], [ 112.888146445032831, 27.86180340509349 ], [ 112.888761476977933, 27.861952638800247 ], [ 112.888795478242201, 27.861960651219785 ], [ 112.88875150117812, 27.861633582484259 ], [ 112.888747505220664, 27.861578572030997 ], [ 112.888744507378689, 27.861548566061177 ], [ 112.888952519233669, 27.86153563112828 ], [ 112.888965519843708, 27.861535635269814 ], [ 112.88903053294348, 27.861404634095493 ], [ 112.889046536118244, 27.861372633820665 ], [ 112.8897115536233, 27.861378834935337 ], [ 112.889845554780322, 27.861377872838556 ], [ 112.890215551070298, 27.861406978837422 ], [ 112.890215530885499, 27.861667022059169 ], [ 112.890166515227889, 27.861876043745045 ], [ 112.890599508413615, 27.861848151035353 ], [ 112.890847498530078, 27.861857213067552 ], [ 112.890949494208314, 27.861853236541656 ], [ 112.890959493727294, 27.861853238884439 ], [ 112.890992496841818, 27.861792236441769 ], [ 112.891067502201423, 27.8616732339853 ], [ 112.890997516543848, 27.861535194875724 ], [ 112.891115543130311, 27.861112151707225 ], [ 112.891146547587567, 27.861032145445069 ], [ 112.891168548954667, 27.860998144760377 ], [ 112.891189550202796, 27.860966144163346 ], [ 112.891559521220373, 27.861014232202088 ], [ 112.891811500637019, 27.861009282556285 ], [ 112.892130467603764, 27.861036347940342 ], [ 112.892154464922243, 27.861038352678055 ], [ 112.892208490811711, 27.860630294729489 ], [ 112.891838526467367, 27.860645227417734 ], [ 112.891586545515153, 27.860674181339665 ], [ 112.891403565044271, 27.86059712989357 ], [ 112.891495569146201, 27.860459126592762 ], [ 112.891491575264538, 27.860384113295481 ], [ 112.891489577663549, 27.860355108058108 ], [ 112.891550573305963, 27.860352120381247 ], [ 112.891580571138007, 27.860350126296474 ], [ 112.891570583329042, 27.86020309981641 ], [ 112.891302604594429, 27.860175037884737 ], [ 112.891329614239197, 27.860028019397557 ], [ 112.891436619080054, 27.859871016460545 ], [ 112.89137763639647, 27.859700975571055 ], [ 112.891527645158277, 27.85944896573266 ], [ 112.891538645798676, 27.859429964887628 ], [ 112.891589644569891, 27.859394969707083 ], [ 112.891624643807972, 27.859368972622008 ], [ 112.891029718074151, 27.858917767897204 ], [ 112.890616748920735, 27.858742639829533 ], [ 112.889758776427158, 27.858514373129154 ], [ 112.889529777464759, 27.858458297493829 ], [ 112.889496776860113, 27.858457287583423 ], [ 112.889125766411922, 27.858447173218778 ], [ 112.88892669622652, 27.859239241636175 ], [ 112.886589483652727, 27.858864318065283 ], [ 112.886766554278992, 27.858305298631027 ], [ 112.886407503112068, 27.858233136933087 ], [ 112.886611572501991, 27.857764145042765 ], [ 112.88635453691839, 27.857683023316287 ], [ 112.885817464161647, 27.857365735770795 ], [ 112.885437396380965, 27.857247542758461 ], [ 112.88519334727826, 27.857198420146844 ], [ 112.884965298864614, 27.857153303515755 ], [ 112.884889282197321, 27.8571382641694 ], [ 112.883899038403982, 27.856975735796109 ], [ 112.883871003414598, 27.857324778759065 ], [ 112.883802904906005, 27.858344911624656 ], [ 112.883678787294343, 27.859399020224043 ], [ 112.883587654306993, 27.860768198545163 ], [ 112.883496533127953, 27.861980350771319 ], [ 112.883474477922192, 27.86260644297716 ] ] ] } }
]
}
