{
"type": "FeatureCollection",
"name": "小泉村委会",
"crs": { "type": "name", "properties": { "name": "urn:ogc:def:crs:OGC:1.3:CRS84" } },
"features": [
{ "type": "Feature", "properties": { "adcode": "430302100252", "fullName": "湖南省湘潭市雨湖区鹤岭镇小泉村委会", "level": "居委会/社区", "location": "112.798131,27.95308", "name": "小泉村委会", "OBJECTID": 3932, "SHAPE_Leng": 0.10251592687900001, "SHAPE_Area": 0.0003247704565 }, "geometry": { "type": "Polygon", "coordinates": [ [ [ 112.775795766688887, 27.954731980047164 ], [ 112.777342194939891, 27.956021939018132 ], [ 112.777685353369606, 27.958449744548133 ], [ 112.780778638220667, 27.959058574618048 ], [ 112.781550403397546, 27.960500790165167 ], [ 112.782840938555651, 27.96020040365223 ], [ 112.784387732460999, 27.961263636633586 ], [ 112.784559903972095, 27.961793958326073 ], [ 112.785934638734275, 27.961796843979354 ], [ 112.784903200151462, 27.963463704645722 ], [ 112.785848378599681, 27.963691042055899 ], [ 112.786793678429405, 27.962706199308663 ], [ 112.790231196025275, 27.964380474721931 ], [ 112.790833071956783, 27.964002314703414 ], [ 112.792466431352707, 27.96377776972869 ], [ 112.792466563215953, 27.962109490075662 ], [ 112.793412007914341, 27.96135283254592 ], [ 112.794787041342147, 27.96158204197577 ], [ 112.794959187568224, 27.963022558304104 ], [ 112.79573228484476, 27.964009964058313 ], [ 112.795302540387951, 27.96514546336115 ], [ 112.796974036772241, 27.96607332599925 ], [ 112.797531002891645, 27.964846034649927 ], [ 112.801055854870199, 27.962198503613624 ], [ 112.801141197597971, 27.959619215840174 ], [ 112.803892779133989, 27.959396938357106 ], [ 112.804838279752303, 27.960611803779823 ], [ 112.805267973799872, 27.961066639132504 ], [ 112.806729475507581, 27.961070238770777 ], [ 112.80716136894614, 27.959182694366238 ], [ 112.806817835965191, 27.958423951475755 ], [ 112.80681790763245, 27.957514798380899 ], [ 112.805957537736631, 27.956148033574173 ], [ 112.80613016752919, 27.951901622678964 ], [ 112.804754979505944, 27.949928852589899 ], [ 112.803378626816084, 27.9503805169707 ], [ 112.802862801890726, 27.949925542754002 ], [ 112.800971672675146, 27.950072313353775 ], [ 112.799251821017918, 27.950980557878399 ], [ 112.799081632636756, 27.949918092580667 ], [ 112.797533315033917, 27.948247238307157 ], [ 112.797533207273446, 27.949612469829557 ], [ 112.795298640176568, 27.95112609517858 ], [ 112.794266083964132, 27.95112345002725 ], [ 112.792718701810841, 27.952334231774646 ], [ 112.791343742081295, 27.952028069983196 ], [ 112.790484681923971, 27.950056439052414 ], [ 112.789796721942409, 27.950055412563149 ], [ 112.788936598850228, 27.949296016203164 ], [ 112.786874879896828, 27.948837972882924 ], [ 112.784984457734836, 27.948835346891254 ], [ 112.784639871555541, 27.950806212530264 ], [ 112.783093018242468, 27.950349070261431 ], [ 112.783265105012092, 27.95186655391592 ], [ 112.780514886964241, 27.952166082230146 ], [ 112.777937086201533, 27.952466026965201 ], [ 112.778796892498804, 27.95368024682152 ], [ 112.775795766688887, 27.954731980047164 ] ] ] } }
]
}
