{
"type": "FeatureCollection",
"name": "小荆村委会",
"crs": { "type": "name", "properties": { "name": "urn:ogc:def:crs:OGC:1.3:CRS84" } },
"features": [
{ "type": "Feature", "properties": { "adcode": "430302100255", "fullName": "湖南省湘潭市雨湖区鹤岭镇小荆村委会", "level": "居委会/社区", "location": "112.81692,28.023826", "name": "小荆村委会", "OBJECTID": 3935, "SHAPE_Leng": 0.114215256545, "SHAPE_Area": 0.000462144502 }, "geometry": { "type": "Polygon", "coordinates": [ [ [ 112.795391197591925, 28.021837708468084 ], [ 112.795391101596522, 28.023049892078774 ], [ 112.798313520240157, 28.024570895177213 ], [ 112.800550073297913, 28.025028721837696 ], [ 112.79952831427974, 28.026389199031613 ], [ 112.798542635893028, 28.027703746595748 ], [ 112.799157616289122, 28.027700773237353 ], [ 112.7997425555577, 28.027697755813978 ], [ 112.80286367240879, 28.027678093164628 ], [ 112.803504643098776, 28.028948398169263 ], [ 112.802783225656796, 28.031638542846686 ], [ 112.803283832570713, 28.034529838930936 ], [ 112.803538209788073, 28.03514737295875 ], [ 112.807244504158078, 28.035422974244003 ], [ 112.812660703881676, 28.039676459738224 ], [ 112.815412775832485, 28.038089337075974 ], [ 112.817733905780813, 28.03907982190179 ], [ 112.819111419712598, 28.039005397790813 ], [ 112.820572198047344, 28.037569938079454 ], [ 112.823065747164591, 28.037650648422691 ], [ 112.826140210207981, 28.039509707111037 ], [ 112.826441744752188, 28.039691300113851 ], [ 112.826454769077699, 28.039683323434609 ], [ 112.827656968339113, 28.039495552903869 ], [ 112.828098844480309, 28.038543243045819 ], [ 112.828409459526199, 28.03787672786823 ], [ 112.828394464293595, 28.037470640743845 ], [ 112.828378474175864, 28.036976538860262 ], [ 112.827397817384266, 28.035432475639592 ], [ 112.826895967717078, 28.034643418125437 ], [ 112.826345006676064, 28.034121306453173 ], [ 112.825523572058756, 28.033340646907597 ], [ 112.825002661826645, 28.032838592529579 ], [ 112.825153091456059, 28.03086358362221 ], [ 112.823420038207928, 28.029466111589493 ], [ 112.823763904637048, 28.026434306417315 ], [ 112.821872473466328, 28.026128695862703 ], [ 112.821356447359378, 28.027188882494965 ], [ 112.82049687778435, 28.027186263014499 ], [ 112.818776764459429, 28.026880981463851 ], [ 112.819120593805977, 28.024304240139134 ], [ 112.81636961732633, 28.023996034982392 ], [ 112.816369832478756, 28.021268622083511 ], [ 112.81379125222027, 28.020353680561872 ], [ 112.813961749429168, 28.017929626344451 ], [ 112.811898225609568, 28.015803486056161 ], [ 112.808975291387, 28.012918700156632 ], [ 112.807084002465245, 28.012915290711607 ], [ 112.805364195335883, 28.011092944367721 ], [ 112.804161156321399, 28.011090824023345 ], [ 112.804332361447706, 28.012152289567872 ], [ 112.802097519631715, 28.013512611106197 ], [ 112.802613110712926, 28.016848016385882 ], [ 112.797798102252614, 28.019568282607448 ], [ 112.798486057191937, 28.021236677068647 ], [ 112.797798923881899, 28.021841630086545 ], [ 112.795391197591925, 28.021837708468084 ] ] ] } }
]
}
