{
"type": "FeatureCollection",
"name": "尚泉村委会",
"crs": { "type": "name", "properties": { "name": "urn:ogc:def:crs:OGC:1.3:CRS84" } },
"features": [
{ "type": "Feature", "properties": { "adcode": "430302102220", "fullName": "湖南省湘潭市雨湖区姜畲镇尚泉村委会", "level": "居委会/社区", "location": "112.806345,27.843048", "name": "尚泉村委会", "OBJECTID": 3965, "SHAPE_Leng": 0.069986036286000003, "SHAPE_Area": 0.0002266118005 }, "geometry": { "type": "Polygon", "coordinates": [ [ [ 112.788628549777513, 27.843040579738872 ], [ 112.789717963413622, 27.844028340726638 ], [ 112.792704995405828, 27.846731309921502 ], [ 112.791629110156407, 27.850942345726143 ], [ 112.791587851139198, 27.853486701598356 ], [ 112.793778951282505, 27.854665289362003 ], [ 112.796143473198029, 27.855277164945001 ], [ 112.797518885604532, 27.851710823062763 ], [ 112.802722314885898, 27.851340561900283 ], [ 112.8050852590152, 27.851647748095889 ], [ 112.806375588675564, 27.850017770576166 ], [ 112.807665824489263, 27.849870057021125 ], [ 112.808267860611068, 27.849984160530664 ], [ 112.809782443935347, 27.850809042277103 ], [ 112.809600203259194, 27.849796544353818 ], [ 112.810846421782927, 27.84949576963001 ], [ 112.812093663409669, 27.849117998266063 ], [ 112.81226597903094, 27.849004297117325 ], [ 112.812351332994609, 27.846424032360332 ], [ 112.81239457031316, 27.844375778121464 ], [ 112.812523931630849, 27.842704745037395 ], [ 112.811448018644882, 27.842702764104423 ], [ 112.80917007660409, 27.841788456383039 ], [ 112.808698279134916, 27.8414455457191 ], [ 112.808717371409884, 27.840692458277253 ], [ 112.808618198847839, 27.840687277981168 ], [ 112.806162976923943, 27.840411825971312 ], [ 112.805272467103123, 27.840290225792458 ], [ 112.804981977808936, 27.840240704442991 ], [ 112.804861773405179, 27.840249493775065 ], [ 112.804260754222298, 27.840298444189834 ], [ 112.803920180558407, 27.840307848680386 ], [ 112.803905155011549, 27.840311823020944 ], [ 112.803699806118289, 27.840367472879446 ], [ 112.803459396501509, 27.840458067839982 ], [ 112.803218988744646, 27.840536661698167 ], [ 112.802998618328758, 27.840576284902127 ], [ 112.802839354872248, 27.840557005278434 ], [ 112.802497791274448, 27.840515406821183 ], [ 112.801946892940379, 27.840364431741595 ], [ 112.801526210774867, 27.840244689588431 ], [ 112.801094513781948, 27.840123931257217 ], [ 112.800985333292985, 27.840153749705326 ], [ 112.800514564582656, 27.840191954484034 ], [ 112.799502918071823, 27.840380275266913 ], [ 112.798361086402977, 27.840549394107104 ], [ 112.797389557347941, 27.840576793065075 ], [ 112.796588305569685, 27.840666496688062 ], [ 112.796147618298974, 27.84077379828522 ], [ 112.795376425489223, 27.84096358554126 ], [ 112.794327822046455, 27.841254961039951 ], [ 112.790969859791588, 27.842186914864723 ], [ 112.788628549777513, 27.843040579738872 ] ] ] } }
]
}
