{
"type": "FeatureCollection",
"name": "尧家村委会",
"crs": { "type": "name", "properties": { "name": "urn:ogc:def:crs:OGC:1.3:CRS84" } },
"features": [
{ "type": "Feature", "properties": { "adcode": "430302100205", "fullName": "湖南省湘潭市雨湖区鹤岭镇尧家村委会", "level": "居委会/社区", "location": "112.782535,27.923539", "name": "尧家村委会", "OBJECTID": 3899, "SHAPE_Leng": 0.138840034876, "SHAPE_Area": 0.0005762809985 }, "geometry": { "type": "Polygon", "coordinates": [ [ [ 112.760332310792677, 27.928396367924055 ], [ 112.760675349101248, 27.929608777216529 ], [ 112.763079289196554, 27.931280594836554 ], [ 112.764797170924652, 27.931583866477979 ], [ 112.766861217778214, 27.934015883939292 ], [ 112.768406251523032, 27.934017178409089 ], [ 112.771154177858861, 27.935688963884836 ], [ 112.773215686549506, 27.938421468234672 ], [ 112.775449701174765, 27.938726881171863 ], [ 112.775449629144887, 27.939637036406239 ], [ 112.778371685108823, 27.937971071862076 ], [ 112.779745133025102, 27.938276772337989 ], [ 112.781120775810138, 27.936913245024417 ], [ 112.783697701593695, 27.938280816064726 ], [ 112.787479604565817, 27.937073828333958 ], [ 112.788854427296343, 27.937378866835719 ], [ 112.791261804563064, 27.937079402103766 ], [ 112.794184271892505, 27.934504490293495 ], [ 112.795387072663402, 27.934657432379261 ], [ 112.797279143248801, 27.932690167613064 ], [ 112.797966328204936, 27.93132506639316 ], [ 112.796763460655654, 27.93117206376396 ], [ 112.797279430574648, 27.929047544430915 ], [ 112.795388744496947, 27.926161980440174 ], [ 112.792295935894145, 27.928887581786444 ], [ 112.789887542161622, 27.928579884070643 ], [ 112.790232297555974, 27.925090799763677 ], [ 112.787997263422696, 27.924784467152055 ], [ 112.787481540784881, 27.925239805466596 ], [ 112.786279004050584, 27.924783027955794 ], [ 112.78559107485205, 27.925388176132468 ], [ 112.784044190687368, 27.924778967902608 ], [ 112.787310566002688, 27.922054015366832 ], [ 112.784387733470453, 27.923262169597937 ], [ 112.783700915036803, 27.922959197584202 ], [ 112.782496495985015, 27.92265456260612 ], [ 112.782669772797234, 27.921743631639721 ], [ 112.779919894477459, 27.918401582224959 ], [ 112.779062011026866, 27.917795437877452 ], [ 112.780263441638695, 27.916278640577787 ], [ 112.7797479453411, 27.91536885167352 ], [ 112.778889041817564, 27.915063762045129 ], [ 112.779232325888856, 27.916125356183649 ], [ 112.777171175234301, 27.916122934289962 ], [ 112.777171271140944, 27.914909726254621 ], [ 112.775624786481572, 27.914452914828711 ], [ 112.775280542970521, 27.913390356738667 ], [ 112.774078383821887, 27.913995177028045 ], [ 112.773390566796209, 27.916574905682467 ], [ 112.771501028645162, 27.915814891802018 ], [ 112.772703258433594, 27.912933582613718 ], [ 112.770985927084809, 27.91186872143566 ], [ 112.770645686046464, 27.911530342240436 ], [ 112.770541623651113, 27.911294204272618 ], [ 112.770482580212644, 27.911264143974474 ], [ 112.770744952224149, 27.909145026472654 ], [ 112.769241780186562, 27.909579722953467 ], [ 112.768776415917117, 27.909946374429587 ], [ 112.767803680297376, 27.910716670104932 ], [ 112.766901054723121, 27.91111299060924 ], [ 112.76632066044418, 27.911473586528061 ], [ 112.765462090525816, 27.912137032335423 ], [ 112.764973662434997, 27.913987981208599 ], [ 112.76480142125753, 27.915809165608504 ], [ 112.763598691020377, 27.916870482672689 ], [ 112.764628144805087, 27.918083428008487 ], [ 112.763770624014299, 27.918841941404732 ], [ 112.763598162768758, 27.923544626998915 ], [ 112.764457522805927, 27.924758447974156 ], [ 112.761021693437002, 27.927031543673944 ], [ 112.761536814815216, 27.92824706908122 ], [ 112.760332310792677, 27.928396367924055 ] ] ] } }
]
}
