{
"type": "FeatureCollection",
"name": "山界村委会",
"crs": { "type": "name", "properties": { "name": "urn:ogc:def:crs:OGC:1.3:CRS84" } },
"features": [
{ "type": "Feature", "properties": { "adcode": "430302100257", "fullName": "湖南省湘潭市雨湖区鹤岭镇山界村委会", "level": "居委会/社区", "location": "112.845301,28.012887", "name": "山界村委会", "OBJECTID": 3937, "SHAPE_Leng": 0.116187919919, "SHAPE_Area": 0.0004132440525 }, "geometry": { "type": "Polygon", "coordinates": [ [ [ 112.823420038207928, 28.029466111589493 ], [ 112.825153091456059, 28.03086358362221 ], [ 112.825153091849984, 28.030858582881379 ], [ 112.825380522731962, 28.030651980274143 ], [ 112.825744211616723, 28.030319615186972 ], [ 112.826955430349514, 28.030132863725218 ], [ 112.828137589662404, 28.029955054191454 ], [ 112.828365017997939, 28.029746449014507 ], [ 112.828748740163775, 28.02939311439383 ], [ 112.829701529397084, 28.028517763478121 ], [ 112.831283486094961, 28.027070490334072 ], [ 112.831821484334597, 28.026615419365502 ], [ 112.832790275555737, 28.025797086933345 ], [ 112.833598763722421, 28.02511447273622 ], [ 112.833638837011819, 28.025084541865084 ], [ 112.835812745826402, 28.023988349115751 ], [ 112.838848989234165, 28.023983813518878 ], [ 112.838924117043263, 28.023987947979901 ], [ 112.841683750981559, 28.024148836052028 ], [ 112.842393895068611, 28.024550130594818 ], [ 112.84393735148187, 28.025412915522313 ], [ 112.844435122376183, 28.025842828153181 ], [ 112.845809225610878, 28.027026324628334 ], [ 112.846800787828528, 28.02700797433442 ], [ 112.8477724088239, 28.02557936137428 ], [ 112.84755212724194, 28.024828886913241 ], [ 112.847281780101753, 28.023909303267828 ], [ 112.847081521961073, 28.02322786979202 ], [ 112.847129669282381, 28.022303809364512 ], [ 112.84721192142004, 28.02071770414808 ], [ 112.847210923078293, 28.020676696258455 ], [ 112.847200940365227, 28.020257615956385 ], [ 112.847171992435122, 28.019017378899505 ], [ 112.847168990819583, 28.018978367982342 ], [ 112.847161984696669, 28.018917347089594 ], [ 112.847323258016246, 28.018627568729862 ], [ 112.847632785264608, 28.018016984307522 ], [ 112.848293900721259, 28.01675887236097 ], [ 112.848813760301383, 28.015905585178469 ], [ 112.850597662647672, 28.012970986364316 ], [ 112.852603804956402, 28.010038659152837 ], [ 112.852929305029107, 28.009564084237869 ], [ 112.854001933510943, 28.007995466382951 ], [ 112.854063025301599, 28.007906544330364 ], [ 112.854957396842934, 28.006100595685719 ], [ 112.855209779967041, 28.00558988849837 ], [ 112.855284893641496, 28.005437975339792 ], [ 112.855575331163138, 28.004857310806806 ], [ 112.855683560147526, 28.003789300824351 ], [ 112.855715627582214, 28.003477298444448 ], [ 112.855854928198269, 28.002019271182469 ], [ 112.853949280071774, 28.002625541332211 ], [ 112.850405098595274, 28.003755238959322 ], [ 112.847482853580146, 28.001400144783748 ], [ 112.846450041074547, 28.00397584401933 ], [ 112.844387907090095, 28.002078074474181 ], [ 112.841378598666864, 28.006847637702926 ], [ 112.838540586279251, 28.009646060641508 ], [ 112.837508814240223, 28.009645211488376 ], [ 112.837336350357631, 28.011766231607282 ], [ 112.835187497659277, 28.013203561049814 ], [ 112.837078744596539, 28.013813084901916 ], [ 112.829523084624071, 28.017350739894635 ], [ 112.828490158892933, 28.018106925458728 ], [ 112.825566014065075, 28.015979110148994 ], [ 112.825136069748297, 28.01802361509402 ], [ 112.825481508691027, 28.020450636049091 ], [ 112.823846520306816, 28.02052256818569 ], [ 112.824619734847758, 28.023025404811484 ], [ 112.824791858250208, 28.025450094872593 ], [ 112.823763904637048, 28.026434306417315 ], [ 112.823420038207928, 28.029466111589493 ] ] ] } }
]
}
