{
"type": "FeatureCollection",
"name": "岳塘村村委会_1",
"crs": { "type": "name", "properties": { "name": "urn:ogc:def:crs:OGC:1.3:CRS84" } },
"features": [
{ "type": "Feature", "properties": { "adcode": "430304014201", "fullName": "湖南省湘潭市岳塘区霞城街道岳塘村村委会", "level": "居委会/社区", "location": "112.91339,27.819962", "name": "岳塘村村委会", "OBJECTID": 4093, "SHAPE_Leng": 0.050848431652400002, "SHAPE_Area": 3.8666909000100003e-05 }, "geometry": { "type": "Polygon", "coordinates": [ [ [ 112.905433278574947, 27.827925543295006 ], [ 112.905437276053462, 27.827918540573982 ], [ 112.9054582622787, 27.827888527344559 ], [ 112.905468256930831, 27.827858518552571 ], [ 112.905477253122214, 27.827818508580343 ], [ 112.905488246996001, 27.827788499374595 ], [ 112.905488249324009, 27.827758494630704 ], [ 112.905498243960935, 27.827728485826409 ], [ 112.905498244736933, 27.827718484245221 ], [ 112.905537216245463, 27.827698465203373 ], [ 112.905558200812237, 27.827688455043404 ], [ 112.905597171426209, 27.827678437477367 ], [ 112.90563814118633, 27.827658417436876 ], [ 112.905667119423882, 27.827648403871706 ], [ 112.905717081240638, 27.827638381539479 ], [ 112.905737066397393, 27.827628371626506 ], [ 112.905797023298206, 27.827578338618263 ], [ 112.905817009150027, 27.827558327052749 ], [ 112.905828002058243, 27.827538319261521 ], [ 112.90583799574695, 27.827518311886585 ], [ 112.905857983109271, 27.827478297123616 ], [ 112.905866976794826, 27.827468291738818 ], [ 112.905866979898931, 27.827428285417419 ], [ 112.905876972791845, 27.827418279605844 ], [ 112.905907948322138, 27.8274182664601 ], [ 112.905957907898511, 27.827429246904348 ], [ 112.906047834102679, 27.827458212874305 ], [ 112.906087801396922, 27.827468197176184 ], [ 112.906147754126224, 27.827458169542936 ], [ 112.906187721217663, 27.827468153664594 ], [ 112.90619771239578, 27.827478150869101 ], [ 112.906207702016829, 27.827508151230067 ], [ 112.906177712961295, 27.827678191230941 ], [ 112.906187703368403, 27.827698190021611 ], [ 112.906187701040224, 27.827728194765012 ], [ 112.906207684167498, 27.827738187589777 ], [ 112.906237659984299, 27.827738174421395 ], [ 112.906247651137022, 27.827748171604163 ], [ 112.906277626893086, 27.827748158381709 ], [ 112.906297609929069, 27.827758151125419 ], [ 112.90633058270879, 27.827764137452874 ], [ 112.906331581897177, 27.827764137009037 ], [ 112.906345570529439, 27.827764130790612 ], [ 112.906345570451833, 27.827765130948737 ], [ 112.906356549095747, 27.827925151360738 ], [ 112.906362538008764, 27.828005161344905 ], [ 112.906673281096843, 27.828025023854835 ], [ 112.906864141627437, 27.827769894979031 ], [ 112.906972061931612, 27.827625821417062 ], [ 112.907266811011084, 27.827621679359844 ], [ 112.907266826611618, 27.827420647590767 ], [ 112.907266832898372, 27.827339634791642 ], [ 112.907266854009279, 27.827067591826076 ], [ 112.907805376512172, 27.827158337659711 ], [ 112.908269952681607, 27.827237107935431 ], [ 112.908350889277571, 27.827102043423874 ], [ 112.908598692899773, 27.826690844467471 ], [ 112.908778522461432, 27.826726751099898 ], [ 112.909125189125959, 27.826797567234099 ], [ 112.909387995042323, 27.826044296993491 ], [ 112.909414973109605, 27.825990272755671 ], [ 112.909569845085954, 27.8256981358278 ], [ 112.909209213336609, 27.825451307011058 ], [ 112.90920923320887, 27.825195266716399 ], [ 112.909386082522403, 27.824942124645453 ], [ 112.909536952803933, 27.824725002158004 ], [ 112.909794698928309, 27.824734850369662 ], [ 112.909673848248303, 27.824345861531842 ], [ 112.908912576135563, 27.824413312175555 ], [ 112.908931487811799, 27.825320444158155 ], [ 112.908786606957321, 27.825541559856166 ], [ 112.9081951526707, 27.825537879695556 ], [ 112.908370097769975, 27.82419157493306 ], [ 112.908407081183299, 27.823968520058262 ], [ 112.908420075234289, 27.823891500978945 ], [ 112.908530974302153, 27.823875438457378 ], [ 112.908604906537207, 27.823866396728949 ], [ 112.908697821032248, 27.823854343827879 ], [ 112.908836692420735, 27.823836264022741 ], [ 112.909723863001375, 27.823522702541599 ], [ 112.910380223526445, 27.823291264318918 ], [ 112.910550035334268, 27.823478186451805 ], [ 112.910834716425327, 27.823793053242568 ], [ 112.912023504600967, 27.822991125474246 ], [ 112.911916635683113, 27.822816172799179 ], [ 112.912828657349337, 27.822263432049844 ], [ 112.913006443082338, 27.822395320759192 ], [ 112.913058380227952, 27.822433287890963 ], [ 112.913823518206641, 27.821965628935736 ], [ 112.914083218901808, 27.821806399204153 ], [ 112.913852502254471, 27.82172556871496 ], [ 112.913435008154593, 27.821578869281851 ], [ 112.911992586764526, 27.822372050249172 ], [ 112.91170193080734, 27.822033198866581 ], [ 112.911348343429509, 27.821622374774094 ], [ 112.912219439517671, 27.821037681801375 ], [ 112.912913691360743, 27.820573105238818 ], [ 112.912810826749734, 27.8203461459427 ], [ 112.912801838489457, 27.820327149607532 ], [ 112.912617047327402, 27.820343287498403 ], [ 112.912428258838418, 27.820360426879638 ], [ 112.912434226331428, 27.820692474329942 ], [ 112.91221745462795, 27.820871657315262 ], [ 112.911778936985314, 27.820875965140416 ], [ 112.911301451025366, 27.820881290526646 ], [ 112.910462314602469, 27.821040860797808 ], [ 112.910327450093604, 27.821065949392356 ], [ 112.909791988868051, 27.821037273007708 ], [ 112.909795993300975, 27.820929253751594 ], [ 112.909803998050549, 27.820766223515761 ], [ 112.91032947127384, 27.820766901485793 ], [ 112.910330488888661, 27.820526863430548 ], [ 112.910331501302565, 27.820353835835952 ], [ 112.910333522714652, 27.820051787528783 ], [ 112.910502373761616, 27.819751634613379 ], [ 112.910854058952211, 27.819125311889572 ], [ 112.910705215253302, 27.819103404533454 ], [ 112.910188748897085, 27.819026718115882 ], [ 112.91009382629656, 27.819259812852827 ], [ 112.909909975314633, 27.819705994411201 ], [ 112.909639241792817, 27.819717158537959 ], [ 112.90942245262346, 27.819724287288622 ], [ 112.909299570906896, 27.819730359639532 ], [ 112.90921665037142, 27.819733407912445 ], [ 112.909382541849212, 27.8190732093144 ], [ 112.909462489044316, 27.81875511322124 ], [ 112.909128812171957, 27.818732302588749 ], [ 112.908301513671745, 27.819643900841239 ], [ 112.908020759364462, 27.819753065730161 ], [ 112.90792084581625, 27.819792123583355 ], [ 112.907321353945477, 27.820025461081968 ], [ 112.907063572348036, 27.820054590128183 ], [ 112.907095493720661, 27.820717678195297 ], [ 112.905978409347838, 27.820761191462061 ], [ 112.905933444776906, 27.820764211140038 ], [ 112.905884483414383, 27.820765232109835 ], [ 112.905890463784459, 27.820957259525198 ], [ 112.905892456620052, 27.821029269914511 ], [ 112.905933321106545, 27.822358460203901 ], [ 112.905946278770799, 27.822771519324135 ], [ 112.905952260827618, 27.822941543395469 ], [ 112.905960235477878, 27.823186578375715 ], [ 112.90424340992314, 27.824640473784747 ], [ 112.904234399670585, 27.82485451057855 ], [ 112.90423339789325, 27.824886515960475 ], [ 112.904179336907163, 27.826162735684747 ], [ 112.904282253803544, 27.826297720999339 ], [ 112.904890751409127, 27.827096624661554 ], [ 112.904652912796124, 27.827263739952304 ], [ 112.904252200063482, 27.827263883998047 ], [ 112.904251200769693, 27.827263884348231 ], [ 112.903809519060658, 27.827121012143294 ], [ 112.903809516888273, 27.827149016565713 ], [ 112.903798522079967, 27.82717902493496 ], [ 112.903809512233138, 27.827209026043146 ], [ 112.903839490143383, 27.82722901927297 ], [ 112.90391942506659, 27.827359013135556 ], [ 112.904029346598691, 27.827388980726976 ], [ 112.904099299379212, 27.827368953643418 ], [ 112.904239199541678, 27.827388908296953 ], [ 112.90425818504022, 27.827402903858278 ], [ 112.904259188601074, 27.827347894817013 ], [ 112.904259191316697, 27.827312889286947 ], [ 112.904944695002868, 27.827308637621798 ], [ 112.905192485626344, 27.827617590495063 ], [ 112.905362340287653, 27.827829556637091 ], [ 112.905390315969782, 27.8278675514245 ], [ 112.905433278574947, 27.827925543295006 ] ] ] } }
]
}
