{
"type": "FeatureCollection",
"name": "工人社区居委会",
"crs": { "type": "name", "properties": { "name": "urn:ogc:def:crs:OGC:1.3:CRS84" } },
"features": [
{ "type": "Feature", "properties": { "adcode": "430302001206", "fullName": "湖南省湘潭市雨湖区雨湖路街道工人社区居委会", "level": "居委会/社区", "location": "112.91181,27.861501", "name": "工人社区居委会", "OBJECTID": 3831, "SHAPE_Leng": 0.019436471653800001, "SHAPE_Area": 1.6079815e-05 }, "geometry": { "type": "Polygon", "coordinates": [ [ [ 112.902987271328072, 27.863084113364661 ], [ 112.90318113132264, 27.863269086377787 ], [ 112.903442928492865, 27.863657070279377 ], [ 112.903807637929944, 27.864226047508726 ], [ 112.90410339893613, 27.864667021284493 ], [ 112.90437617261945, 27.865098997855434 ], [ 112.904585995986267, 27.865430977524671 ], [ 112.904746844564471, 27.865871991744573 ], [ 112.90493863972516, 27.866688055698937 ], [ 112.905145400523693, 27.867777157925271 ], [ 112.905191364947854, 27.867789141919165 ], [ 112.90582586301781, 27.867952910958444 ], [ 112.905870826720701, 27.867963893798272 ], [ 112.906568321888329, 27.867216462427038 ], [ 112.907560560737849, 27.866157811843035 ], [ 112.908487802863007, 27.865185166602132 ], [ 112.909339067351581, 27.864307542691531 ], [ 112.909481947427381, 27.864068419473252 ], [ 112.909502929565647, 27.864035401651005 ], [ 112.909630818565702, 27.863855296117304 ], [ 112.909725752625732, 27.863503180930813 ], [ 112.909732747753765, 27.863477172417639 ], [ 112.909178286498189, 27.863478497306271 ], [ 112.908311097121228, 27.863487978779425 ], [ 112.906785488430899, 27.862756618751192 ], [ 112.906623603391239, 27.863009735523374 ], [ 112.906505685146044, 27.863208822292901 ], [ 112.906370786258478, 27.86332790270221 ], [ 112.906204912611727, 27.863431993403054 ], [ 112.906055023328747, 27.863555079130581 ], [ 112.905856166446341, 27.863744195604397 ], [ 112.905674307847548, 27.863759274267096 ], [ 112.905368547493495, 27.863711390961985 ], [ 112.904966856505879, 27.863630534873369 ], [ 112.90471504644745, 27.863574620509677 ], [ 112.904431256957736, 27.863507712950856 ], [ 112.904129478877564, 27.863403801819231 ], [ 112.903594857798012, 27.863256955401901 ], [ 112.903101196800691, 27.863096081605679 ], [ 112.902987271328072, 27.863084113364661 ] ] ] } }
]
}
