{
"type": "FeatureCollection",
"name": "工农村委会",
"crs": { "type": "name", "properties": { "name": "urn:ogc:def:crs:OGC:1.3:CRS84" } },
"features": [
{ "type": "Feature", "properties": { "adcode": "430302102203", "fullName": "湖南省湘潭市雨湖区姜畲镇工农村委会", "level": "居委会/社区", "location": "112.782389,27.887568", "name": "工农村委会", "OBJECTID": 3949, "SHAPE_Leng": 0.084946313782199995, "SHAPE_Area": 0.0002299841315 }, "geometry": { "type": "Polygon", "coordinates": [ [ [ 112.770744952224149, 27.909145026472654 ], [ 112.771840745079217, 27.91026526997754 ], [ 112.772463259095559, 27.910340897605128 ], [ 112.772588362810154, 27.91037202797553 ], [ 112.77366627907432, 27.910645172846095 ], [ 112.773838482142622, 27.910019244334993 ], [ 112.774203905957322, 27.908824422045068 ], [ 112.773848679527774, 27.907635846282353 ], [ 112.773945789868918, 27.907341897186043 ], [ 112.774009875978038, 27.906981902486674 ], [ 112.774525378827349, 27.906555373103227 ], [ 112.77528812801549, 27.906073110195084 ], [ 112.775524400985631, 27.905457262247285 ], [ 112.775739610053066, 27.905418491730881 ], [ 112.776287161400134, 27.905164055318998 ], [ 112.776802703689484, 27.904748564183759 ], [ 112.777243173898697, 27.904396005749447 ], [ 112.778308381144583, 27.902993003403985 ], [ 112.778328404244149, 27.902966022377143 ], [ 112.778338466566211, 27.902309921882765 ], [ 112.778360601058182, 27.900899706560324 ], [ 112.777250607309995, 27.899000090508842 ], [ 112.776520011785792, 27.89729196886659 ], [ 112.777036607032201, 27.896269378990173 ], [ 112.77866835642368, 27.895436136714686 ], [ 112.780000852622521, 27.894716623626145 ], [ 112.780216186257476, 27.893503681518684 ], [ 112.780860029128021, 27.891949216466102 ], [ 112.781117488288317, 27.889825177663312 ], [ 112.781505068842748, 27.888080370711027 ], [ 112.782450324100637, 27.88610924843691 ], [ 112.783352539775962, 27.884327126366554 ], [ 112.785239996449732, 27.882691389606965 ], [ 112.784379011374625, 27.881552025634868 ], [ 112.783305848815942, 27.879691278691922 ], [ 112.782274809001791, 27.877338534591011 ], [ 112.781115446413665, 27.877641107077611 ], [ 112.779010147763103, 27.877333467485091 ], [ 112.778537711886102, 27.876498763476125 ], [ 112.775185374201271, 27.87638194052419 ], [ 112.775184253553675, 27.877898195463278 ], [ 112.77514304121668, 27.880098523094201 ], [ 112.774669527976656, 27.881010168624716 ], [ 112.77406890169398, 27.881994700085858 ], [ 112.773251957206909, 27.884764324099496 ], [ 112.772908515331622, 27.886585284247374 ], [ 112.772650135114603, 27.888595365930239 ], [ 112.772349787807897, 27.889770266098065 ], [ 112.77277903880811, 27.891211941305485 ], [ 112.772392593249606, 27.892691806728543 ], [ 112.773080016926215, 27.894778854605594 ], [ 112.773036802713776, 27.897017193090104 ], [ 112.772649292790078, 27.899255184551578 ], [ 112.771490022531722, 27.903122705014901 ], [ 112.770744952224149, 27.909145026472654 ] ] ] } }
]
}
