{
"type": "FeatureCollection",
"name": "工农村村委会",
"crs": { "type": "name", "properties": { "name": "urn:ogc:def:crs:OGC:1.3:CRS84" } },
"features": [
{ "type": "Feature", "properties": { "adcode": "430302202203", "fullName": "湖南省湘潭市雨湖区长城乡工农村村委会", "level": "居委会/社区", "location": "112.883886,27.848571", "name": "工农村村委会", "OBJECTID": 3983, "SHAPE_Leng": 0.018022467354899999, "SHAPE_Area": 5.5405684999800003e-06 }, "geometry": { "type": "Polygon", "coordinates": [ [ [ 112.876627216017226, 27.851897034215291 ], [ 112.876885350832509, 27.852134280469752 ], [ 112.877034398994198, 27.852637481765335 ], [ 112.877668752211179, 27.852732992720139 ], [ 112.87851620813538, 27.85272262902231 ], [ 112.879804839499499, 27.85274355029615 ], [ 112.880664200960254, 27.853009170597783 ], [ 112.88106839854818, 27.852634370219629 ], [ 112.881103415367136, 27.852601387130623 ], [ 112.880825355892227, 27.8518890913397 ], [ 112.880657289174948, 27.851833972819122 ], [ 112.880362168978834, 27.851737762140665 ], [ 112.880277133664663, 27.85170970075395 ], [ 112.879311708870901, 27.851413988016546 ], [ 112.878290200863745, 27.851290226089105 ], [ 112.878179142442292, 27.851283141910084 ], [ 112.87805907864751, 27.851276050474027 ], [ 112.87757781871322, 27.851222674414721 ], [ 112.876804377475707, 27.851175058126927 ], [ 112.876700304054239, 27.851324999171716 ], [ 112.876627216017226, 27.851897034215291 ] ] ] } }
]
}
