{
"type": "FeatureCollection",
"name": "幸福村村委会",
"crs": { "type": "name", "properties": { "name": "urn:ogc:def:crs:OGC:1.3:CRS84" } },
"features": [
{ "type": "Feature", "properties": { "adcode": "430372100220", "fullName": "湖南省湘潭市岳塘区昭山镇幸福村村委会", "level": "居委会/社区", "location": "113.042123,27.976233", "name": "幸福村村委会", "OBJECTID": 4166, "SHAPE_Leng": 0.093335020174399999, "SHAPE_Area": 0.000306450421 }, "geometry": { "type": "Polygon", "coordinates": [ [ [ 113.023260237807179, 27.977373354484669 ], [ 113.02384918369485, 27.978554961873339 ], [ 113.023944877276946, 27.978422683105169 ], [ 113.024322643888098, 27.978221637479869 ], [ 113.024762201254291, 27.978140450233845 ], [ 113.02578885236899, 27.977957696831023 ], [ 113.026666006570466, 27.977906382531867 ], [ 113.026885299343448, 27.977884805583301 ], [ 113.027917944286813, 27.978322194151179 ], [ 113.028201030139911, 27.978442483238712 ], [ 113.028898764568069, 27.979019786293069 ], [ 113.029008409916202, 27.979110520823333 ], [ 113.02938804465866, 27.981139885145641 ], [ 113.030138616470467, 27.982000123399086 ], [ 113.030284147670358, 27.982167783751954 ], [ 113.030553225554087, 27.983176271324908 ], [ 113.030583121781021, 27.983306217421703 ], [ 113.030045772182049, 27.983650627250558 ], [ 113.03021024207807, 27.983838242639965 ], [ 113.030700543038165, 27.985912346940271 ], [ 113.032402164074696, 27.987529383016227 ], [ 113.033105899359853, 27.989034903691067 ], [ 113.033792802696496, 27.989313281209615 ], [ 113.035214588956364, 27.988990823519838 ], [ 113.037054194063501, 27.989190543656889 ], [ 113.038696506188927, 27.989092770752421 ], [ 113.038701521292637, 27.988735701672542 ], [ 113.038967788616645, 27.988504063516508 ], [ 113.039005743228174, 27.987753856615569 ], [ 113.039155362736324, 27.98726044034726 ], [ 113.038968945983882, 27.986545743524577 ], [ 113.039042730396702, 27.986640592889902 ], [ 113.03964700613794, 27.987009299872266 ], [ 113.040598348353655, 27.987247233753966 ], [ 113.042894139796516, 27.987119263155794 ], [ 113.043697032026841, 27.986913542741519 ], [ 113.04436528121937, 27.986946161621031 ], [ 113.044904889488919, 27.986869041445757 ], [ 113.045081436719315, 27.986844677405887 ], [ 113.045954242553151, 27.986420845322268 ], [ 113.046071965684192, 27.986161567547306 ], [ 113.046452008412629, 27.986145807706404 ], [ 113.046751234400617, 27.986433261945823 ], [ 113.047061451101257, 27.986547669868457 ], [ 113.047532284922553, 27.986541749025758 ], [ 113.048639648127377, 27.985700482109777 ], [ 113.04932305638043, 27.98507508919328 ], [ 113.049216369182403, 27.984374175478674 ], [ 113.049045826357258, 27.98378740110353 ], [ 113.04928040933325, 27.982022671489069 ], [ 113.049410220802358, 27.980545186330964 ], [ 113.047954745197018, 27.980472941158919 ], [ 113.047098874352741, 27.980265571877986 ], [ 113.04651939847804, 27.979338562709756 ], [ 113.04632797958368, 27.978125743866823 ], [ 113.044708252595115, 27.976458741880176 ], [ 113.043862509900848, 27.975801380451603 ], [ 113.042883136151289, 27.975339359454551 ], [ 113.041166879582775, 27.973951814106549 ], [ 113.040904602805725, 27.973886375312322 ], [ 113.040513680934779, 27.97384822601072 ], [ 113.040336150082197, 27.974104659298494 ], [ 113.039705874411055, 27.974420107986372 ], [ 113.039262125572662, 27.974302079880694 ], [ 113.038914124264679, 27.974060822155785 ], [ 113.038720654959619, 27.974250290012961 ], [ 113.038508237922912, 27.974474807843762 ], [ 113.038235002383402, 27.97461645184374 ], [ 113.03798869459149, 27.974736033154564 ], [ 113.037709500418131, 27.974646657379331 ], [ 113.037443257583604, 27.974732283225428 ], [ 113.037362460903708, 27.975087527929769 ], [ 113.037378378134562, 27.975538565626405 ], [ 113.037133060725509, 27.975837181048064 ], [ 113.036843881448092, 27.976027882417391 ], [ 113.03658163089851, 27.976170515810864 ], [ 113.036405155783143, 27.976032904802853 ], [ 113.036506875433986, 27.975839635557104 ], [ 113.036929669088778, 27.975587610835333 ], [ 113.036977552839787, 27.975315454978098 ], [ 113.036898824341478, 27.974782549594835 ], [ 113.037059386421134, 27.974459124189284 ], [ 113.037598852903912, 27.974216840364939 ], [ 113.037893003987151, 27.974296179262701 ], [ 113.038145288782914, 27.974238593778722 ], [ 113.038256997521415, 27.973912285523305 ], [ 113.038845343122247, 27.97375792718336 ], [ 113.039541401952548, 27.973587337107151 ], [ 113.039637165195117, 27.973212061471422 ], [ 113.03937492074337, 27.972942602600465 ], [ 113.039145573586922, 27.972830098111125 ], [ 113.039069804931799, 27.972607231478563 ], [ 113.0389262326254, 27.972322507468146 ], [ 113.038893345520989, 27.972076540860979 ], [ 113.038690914819099, 27.97210600270029 ], [ 113.038524400990056, 27.97192634986412 ], [ 113.03793712013497, 27.971340589511318 ], [ 113.037305902290683, 27.971688096424227 ], [ 113.037059620021111, 27.971599650791045 ], [ 113.036888115750415, 27.971604048929862 ], [ 113.03672756758418, 27.971769449210111 ], [ 113.036494276360926, 27.971392930153481 ], [ 113.036344737249266, 27.971084228178039 ], [ 113.036012741028699, 27.970671937610771 ], [ 113.035798355003365, 27.970849471166527 ], [ 113.03581030869627, 27.97098646573086 ], [ 113.035740492315639, 27.9712476734822 ], [ 113.03531274556363, 27.971328697858649 ], [ 113.034606839658466, 27.971321377538619 ], [ 113.03407146747135, 27.970975605347189 ], [ 113.033429400230176, 27.970960155578187 ], [ 113.033226025933956, 27.970826627892752 ], [ 113.032915988971496, 27.970544337248665 ], [ 113.032499281935216, 27.970245308498754 ], [ 113.032601032055197, 27.969506936200681 ], [ 113.032349825512426, 27.969179498961051 ], [ 113.03209759152324, 27.96925213256532 ], [ 113.031841363846084, 27.969423794368371 ], [ 113.031146502246983, 27.969486531828302 ], [ 113.030989968732044, 27.969713960567343 ], [ 113.030208397465472, 27.969777933798937 ], [ 113.029941225053534, 27.969887626863144 ], [ 113.029181614786978, 27.969901558753477 ], [ 113.028358259019754, 27.969506602573876 ], [ 113.027271718985347, 27.969736452223362 ], [ 113.026445318900571, 27.970589752877519 ], [ 113.026368545786497, 27.970860999324763 ], [ 113.026477159580324, 27.971276783250868 ], [ 113.02637044555955, 27.972013185219023 ], [ 113.026220921478654, 27.972130597469931 ], [ 113.02607038948976, 27.972393036941192 ], [ 113.026114224861075, 27.972662966215751 ], [ 113.026033478649481, 27.972772196867023 ], [ 113.025893930060676, 27.972809570830723 ], [ 113.025439444886786, 27.972431709511305 ], [ 113.0247337809801, 27.97218254348218 ], [ 113.024092883383886, 27.972340283210567 ], [ 113.023808785112394, 27.972825126193644 ], [ 113.023792751818192, 27.973885344536388 ], [ 113.024070676194583, 27.975780910949201 ], [ 113.023260237807179, 27.977373354484669 ] ] ] } }
]
}
