{
"type": "FeatureCollection",
"name": "广场村村委会",
"crs": { "type": "name", "properties": { "name": "urn:ogc:def:crs:OGC:1.3:CRS84" } },
"features": [
{ "type": "Feature", "properties": { "adcode": "430302004202", "fullName": "湖南省湘潭市雨湖区广场街道广场村村委会", "level": "居委会/社区", "location": "112.895681,27.862327", "name": "广场村村委会", "OBJECTID": 3856, "SHAPE_Leng": 0.0074981046522400001, "SHAPE_Area": 1.3616535000299999e-06 }, "geometry": { "type": "Polygon", "coordinates": [ [ [ 112.890847297987051, 27.864440643216305 ], [ 112.890821299476514, 27.864435636158692 ], [ 112.890671270179908, 27.86488667491831 ], [ 112.890661268193696, 27.864916677458442 ], [ 112.890441276085042, 27.864896618815212 ], [ 112.890081281470785, 27.864896523890053 ], [ 112.890090272870609, 27.865006544683744 ], [ 112.890071264450427, 27.865116557884502 ], [ 112.889954257671036, 27.865208541157592 ], [ 112.889931256268355, 27.865226537787287 ], [ 112.889801244119184, 27.865376526374572 ], [ 112.889771227661114, 27.8655855527531 ], [ 112.88990219100323, 27.866066669974845 ], [ 112.890301188146267, 27.866065777708762 ], [ 112.890310181780649, 27.866145793429023 ], [ 112.890262165473388, 27.866365817579879 ], [ 112.890161150439624, 27.866575825830225 ], [ 112.890001134377073, 27.866795819195676 ], [ 112.889768114813222, 27.86703879467586 ], [ 112.88974111246921, 27.867065791493275 ], [ 112.890032097701237, 27.867266906445057 ], [ 112.890058099987286, 27.867235908353777 ], [ 112.89039112353889, 27.86687593647736 ], [ 112.890410140987669, 27.866645902927853 ], [ 112.890570177998072, 27.866115855002779 ], [ 112.890831220635306, 27.865445807073549 ], [ 112.890691249369326, 27.865145723053221 ], [ 112.890671257756722, 27.865046701614943 ], [ 112.890881296109995, 27.864445652145594 ], [ 112.890847297987051, 27.864440643216305 ] ] ] } }
]
}
