{
"type": "FeatureCollection",
"name": "建城村村委会",
"crs": { "type": "name", "properties": { "name": "urn:ogc:def:crs:OGC:1.3:CRS84" } },
"features": [
{ "type": "Feature", "properties": { "adcode": "430302006206", "fullName": "湖南省湘潭市雨湖区昭潭街道建城村村委会", "level": "居委会/社区", "location": "112.885286,27.855003", "name": "建城村村委会", "OBJECTID": 3876, "SHAPE_Leng": 0.00194427412576, "SHAPE_Area": 1.9775699999500001e-07 }, "geometry": { "type": "Polygon", "coordinates": [ [ [ 112.879462232390821, 27.858490261351101 ], [ 112.87947323726209, 27.858495269889829 ], [ 112.879847401622214, 27.858641553461666 ], [ 112.880126524297424, 27.858698752887634 ], [ 112.880291617351048, 27.858447822237526 ], [ 112.879698361080102, 27.858271389476002 ], [ 112.879689357098158, 27.858268382748914 ], [ 112.879462232390821, 27.858490261351101 ] ] ] } }
]
}
