{
"type": "FeatureCollection",
"name": "建新村村委会",
"crs": { "type": "name", "properties": { "name": "urn:ogc:def:crs:OGC:1.3:CRS84" } },
"features": [
{ "type": "Feature", "properties": { "adcode": "430302006202", "fullName": "湖南省湘潭市雨湖区昭潭街道建新村村委会", "level": "居委会/社区", "location": "112.880813,27.861678", "name": "建新村村委会", "OBJECTID": 3874, "SHAPE_Leng": 0.00309861733396, "SHAPE_Area": 4.4376399998999998e-07 }, "geometry": { "type": "Polygon", "coordinates": [ [ [ 112.87510624588181, 27.864926921852405 ], [ 112.875106241221303, 27.864986931864571 ], [ 112.875116243882132, 27.865037949015566 ], [ 112.875186280102895, 27.86516703092423 ], [ 112.875196283585225, 27.86520704621157 ], [ 112.875196282031723, 27.865227049549862 ], [ 112.875206287063435, 27.865247061495594 ], [ 112.875206285509918, 27.865267064834025 ], [ 112.875226296337871, 27.865297087045573 ], [ 112.87522629556112, 27.865307088714893 ], [ 112.875236302133985, 27.865307097311316 ], [ 112.875236299026966, 27.865347103988661 ], [ 112.875246304042207, 27.865367115920154 ], [ 112.875246299381658, 27.865427125936897 ], [ 112.875256304392778, 27.865447137865072 ], [ 112.875256303616013, 27.865457139534595 ], [ 112.875266308623011, 27.865477151459221 ], [ 112.875266307846246, 27.865487153128853 ], [ 112.875286319401511, 27.865507173628099 ], [ 112.875286317847994, 27.865527176967429 ], [ 112.875296323619381, 27.865537187211604 ], [ 112.875306322395787, 27.865637212480252 ], [ 112.875306320065505, 27.865667217489968 ], [ 112.875316325051998, 27.865687229397054 ], [ 112.875326330811021, 27.865697239630542 ], [ 112.875336336565908, 27.865707249860449 ], [ 112.87535634806332, 27.86572727030924 ], [ 112.875376360321098, 27.865737289073508 ], [ 112.875407380491922, 27.865737315540621 ], [ 112.875416385563753, 27.865747324888055 ], [ 112.875426392058245, 27.86574733341504 ], [ 112.875436397771864, 27.865757343608465 ], [ 112.875446401850141, 27.865788357305416 ], [ 112.87545640763328, 27.865797367324575 ], [ 112.875466414111258, 27.86579737583692 ], [ 112.875496434219457, 27.865788399848832 ], [ 112.875536465555456, 27.865717421960202 ], [ 112.875635554033622, 27.86539745234959 ], [ 112.875655578488292, 27.865247444199586 ], [ 112.875655584702145, 27.865167430846654 ], [ 112.875626566908139, 27.865157404682556 ], [ 112.875606554857242, 27.865147386102457 ], [ 112.875596548437215, 27.865147377641406 ], [ 112.875596549913013, 27.865128374470295 ], [ 112.875616563525639, 27.865118389719726 ], [ 112.875626569937381, 27.86511839817344 ], [ 112.875655589284847, 27.865108420999533 ], [ 112.875665595680431, 27.865108429438937 ], [ 112.875706628150581, 27.865027450484174 ], [ 112.875706629704027, 27.865007447146589 ], [ 112.875696624878884, 27.86498743538478 ], [ 112.875686619971944, 27.864968423786177 ], [ 112.875716648506, 27.864847428869151 ], [ 112.875725655715314, 27.864828433274564 ], [ 112.87572565812313, 27.864797428102388 ], [ 112.875575562127082, 27.864797301456296 ], [ 112.875466495669315, 27.864747200567361 ], [ 112.875356425738062, 27.86472710339357 ], [ 112.875326406932345, 27.864717076056557 ], [ 112.875226347603103, 27.864636976910926 ], [ 112.875206334444954, 27.864636959707116 ], [ 112.875146294017469, 27.864647909843111 ], [ 112.875146280812842, 27.864817938204173 ], [ 112.875116255533399, 27.864887923985023 ], [ 112.87510624588181, 27.864926921852405 ] ] ] } }
]
}
