{
"type": "FeatureCollection",
"name": "建设社区居委会",
"crs": { "type": "name", "properties": { "name": "urn:ogc:def:crs:OGC:1.3:CRS84" } },
"features": [
{ "type": "Feature", "properties": { "adcode": "430302004004", "fullName": "湖南省湘潭市雨湖区广场街道建设社区居委会", "level": "居委会/社区", "location": "112.899282,27.87012", "name": "建设社区居委会", "OBJECTID": 3851, "SHAPE_Leng": 0.0255131820711, "SHAPE_Area": 1.24994539999e-05 }, "geometry": { "type": "Polygon", "coordinates": [ [ [ 112.891402437185278, 27.875123559974934 ], [ 112.891520418375336, 27.875255607301664 ], [ 112.891499345530548, 27.876213764339987 ], [ 112.89310816048696, 27.876252054817606 ], [ 112.89363407009337, 27.876299131460833 ], [ 112.893634058285144, 27.876451157091758 ], [ 112.894947775556986, 27.876542291776865 ], [ 112.894986765928806, 27.876544294510339 ], [ 112.894881809597393, 27.87630824811146 ], [ 112.894967856631951, 27.875436106575044 ], [ 112.893476168954734, 27.875379957175607 ], [ 112.893519187389572, 27.875047906628481 ], [ 112.892800303771523, 27.874980794852153 ], [ 112.893056334645792, 27.874110686704505 ], [ 112.893057334729193, 27.874107686343802 ], [ 112.893261313445137, 27.873975692646166 ], [ 112.893562266090925, 27.873938725218323 ], [ 112.894054184120776, 27.873814759339293 ], [ 112.894388127787337, 27.873652763436684 ], [ 112.894989025219985, 27.873199731458456 ], [ 112.89549290940198, 27.873027727497014 ], [ 112.895708848896945, 27.873044737661555 ], [ 112.895727843425746, 27.873046738543003 ], [ 112.895932823935809, 27.872544659028968 ], [ 112.896414793228629, 27.871064414669974 ], [ 112.895792992192852, 27.870895378945395 ], [ 112.895747006033616, 27.870884375882884 ], [ 112.895498079104428, 27.87082535779269 ], [ 112.894972227744418, 27.870645301398273 ], [ 112.894575335225369, 27.870454241609401 ], [ 112.894103455995733, 27.870188155097388 ], [ 112.894017408287695, 27.871022286353124 ], [ 112.894071372524877, 27.871345346059083 ], [ 112.894050300107622, 27.872331509560492 ], [ 112.893458405816574, 27.872369448400196 ], [ 112.893351386040948, 27.872853515929805 ], [ 112.892687479052896, 27.872919430200344 ], [ 112.892867441669196, 27.873085486236366 ], [ 112.892914427248527, 27.873185510166802 ], [ 112.892935387811676, 27.873654592203888 ], [ 112.892082484314713, 27.873763467431097 ], [ 112.892109466151766, 27.873961505757517 ], [ 112.891460519904385, 27.874005384139302 ], [ 112.89144450925123, 27.874157406313454 ], [ 112.891681482209151, 27.874269474530962 ], [ 112.892121401985904, 27.874771644333041 ], [ 112.891466465096343, 27.874705503255488 ], [ 112.891402437185278, 27.875123559974934 ] ] ] } }
]
}
