{
"type": "FeatureCollection",
"name": "拾亩村委会",
"crs": { "type": "name", "properties": { "name": "urn:ogc:def:crs:OGC:1.3:CRS84" } },
"features": [
{ "type": "Feature", "properties": { "adcode": "430373200225", "fullName": "湖南省湘潭市雨湖区响水乡拾亩村委会", "level": "居委会/社区", "location": "112.926791,27.950296", "name": "拾亩村委会", "OBJECTID": 4019, "SHAPE_Leng": 0.128128648801, "SHAPE_Area": 0.000234652678501 }, "geometry": { "type": "Polygon", "coordinates": [ [ [ 112.90535493571312, 27.96155001928857 ], [ 112.905826569598574, 27.961549825276556 ], [ 112.907156562104859, 27.960449039462958 ], [ 112.907199628815889, 27.959121795696262 ], [ 112.908571524966845, 27.957566827693675 ], [ 112.908827303736274, 27.957338648157677 ], [ 112.909814367655272, 27.95711203763814 ], [ 112.911143989701458, 27.957299228447841 ], [ 112.911314784297957, 27.957603165817211 ], [ 112.910800267708908, 27.958362632385491 ], [ 112.913158684064527, 27.958170948855717 ], [ 112.913029928129333, 27.956956841164786 ], [ 112.914187645420839, 27.955818753593039 ], [ 112.915216254072845, 27.957296155757192 ], [ 112.916201954289633, 27.957638357260553 ], [ 112.916844039393084, 27.958394903363534 ], [ 112.917358386388571, 27.957787322269091 ], [ 112.918344981657398, 27.95808942130331 ], [ 112.919030076781524, 27.957028556248321 ], [ 112.920701606436879, 27.956532709896361 ], [ 112.92160116865594, 27.956910773474114 ], [ 112.922115416774886, 27.956001032461113 ], [ 112.924128208739759, 27.954217319083337 ], [ 112.924514525669366, 27.954442873757561 ], [ 112.927513181201562, 27.953567753573413 ], [ 112.928027182926698, 27.953907090978529 ], [ 112.929740786586152, 27.954739750090813 ], [ 112.929996227363773, 27.955385478390706 ], [ 112.930938345808698, 27.955120006310512 ], [ 112.931410356267421, 27.955383321577525 ], [ 112.931709748187743, 27.955231828750623 ], [ 112.933208546006284, 27.955684509721145 ], [ 112.933208498497521, 27.956290611887386 ], [ 112.933464940294684, 27.956366205487203 ], [ 112.933978851202681, 27.956025300017078 ], [ 112.935649093546942, 27.95662857103018 ], [ 112.935477456749808, 27.956932918337809 ], [ 112.93577775774456, 27.95719744403808 ], [ 112.936033073678033, 27.958523223028042 ], [ 112.936762422159077, 27.958255895509403 ], [ 112.936976901811462, 27.958560565507035 ], [ 112.936976878108354, 27.95886261630168 ], [ 112.936205629506134, 27.959167029668659 ], [ 112.936205587837378, 27.959698118922407 ], [ 112.935392379934157, 27.960344637970085 ], [ 112.935477150463143, 27.960837574862509 ], [ 112.936119750965076, 27.960115339093253 ], [ 112.936805019450318, 27.962124469089773 ], [ 112.936291067292728, 27.963831661703139 ], [ 112.936804885535224, 27.963830754885631 ], [ 112.936890746545828, 27.963072475508344 ], [ 112.937618095579609, 27.962501075979709 ], [ 112.938390248756392, 27.962764713061141 ], [ 112.938602676143873, 27.963598461362096 ], [ 112.938241445176658, 27.964766320748591 ], [ 112.940460385252891, 27.960719483443068 ], [ 112.94183010875669, 27.95882150268482 ], [ 112.940546429183044, 27.957458770661116 ], [ 112.939861288244259, 27.955260707641258 ], [ 112.936522335620083, 27.953674548460096 ], [ 112.933866340508757, 27.95291996292913 ], [ 112.931297050710398, 27.949511505642654 ], [ 112.92761430865545, 27.949516928080637 ], [ 112.9261580702087, 27.948609758566391 ], [ 112.922558930399873, 27.953012011948182 ], [ 112.917674672059974, 27.948542460720699 ], [ 112.91227452624716, 27.947485792323778 ], [ 112.910388680575878, 27.945705755331741 ], [ 112.906515257366891, 27.945626835583475 ], [ 112.906512206657382, 27.946308952768614 ], [ 112.908570336874391, 27.947181073074564 ], [ 112.908399361583264, 27.948887455042076 ], [ 112.908698915320983, 27.95104765756934 ], [ 112.907155125490505, 27.953247827331186 ], [ 112.906340642946432, 27.955332556705887 ], [ 112.906855013023645, 27.957949762667475 ], [ 112.905782787449994, 27.959200449228824 ], [ 112.90535493571312, 27.96155001928857 ] ] ] } }
]
}
