{
"type": "FeatureCollection",
"name": "措树园村村委会",
"crs": { "type": "name", "properties": { "name": "urn:ogc:def:crs:OGC:1.3:CRS84" } },
"features": [
{ "type": "Feature", "properties": { "adcode": "430302006201", "fullName": "湖南省湘潭市雨湖区昭潭街道措树园村村委会", "level": "居委会/社区", "location": "112.89366,27.85895", "name": "措树园村村委会", "OBJECTID": 3873, "SHAPE_Leng": 0.0040674984481200004, "SHAPE_Area": 8.1694299998899999e-07 }, "geometry": { "type": "Polygon", "coordinates": [ [ [ 112.887706309126258, 27.863012447112229 ], [ 112.888087336512385, 27.863135605879066 ], [ 112.888175341745409, 27.863165641955433 ], [ 112.88833739500781, 27.862646611918404 ], [ 112.888354396141835, 27.8626486181033 ], [ 112.888364399533501, 27.862614615881078 ], [ 112.888666417542197, 27.862646723027048 ], [ 112.888686418592187, 27.862648729968274 ], [ 112.888708430144206, 27.862516715249253 ], [ 112.888783456466399, 27.862232692556621 ], [ 112.888795478242201, 27.861960651219785 ], [ 112.888761476977933, 27.861952638800247 ], [ 112.888146445032831, 27.86180340509349 ], [ 112.887706309126258, 27.863012447112229 ] ] ] } }
]
}
