{
"type": "FeatureCollection",
"name": "斑竹塘社区居委会",
"crs": { "type": "name", "properties": { "name": "urn:ogc:def:crs:OGC:1.3:CRS84" } },
"features": [
{ "type": "Feature", "properties": { "adcode": "430304004009", "fullName": "湖南省湘潭市岳塘区书院路街道斑竹塘社区居委会", "level": "居委会/社区", "location": "112.926148,27.821103", "name": "斑竹塘社区居委会", "OBJECTID": 4059, "SHAPE_Leng": 0.0278945129518, "SHAPE_Area": 1.2216903999799999e-05 }, "geometry": { "type": "Polygon", "coordinates": [ [ [ 112.920547883435404, 27.827940286793503 ], [ 112.92288141878042, 27.824760134514261 ], [ 112.922965289294069, 27.824645016671951 ], [ 112.923611286413916, 27.823680086523147 ], [ 112.919837421709786, 27.822008113621497 ], [ 112.919631731781777, 27.821967322862427 ], [ 112.919347121924574, 27.822365680371373 ], [ 112.919343126639589, 27.822380686837015 ], [ 112.919229264452312, 27.822759863241441 ], [ 112.919212288797326, 27.822766881746055 ], [ 112.918778902210434, 27.822987356281381 ], [ 112.918759926644668, 27.823025381310028 ], [ 112.918292520311368, 27.823993997896281 ], [ 112.919513711864568, 27.824472838216831 ], [ 112.919765363761954, 27.824136522689312 ], [ 112.920247634460409, 27.824177017661054 ], [ 112.920535182674143, 27.824347734629985 ], [ 112.922538063915056, 27.823708374612163 ], [ 112.923195953417988, 27.824045646627987 ], [ 112.923169993875533, 27.824080683298387 ], [ 112.9227606256717, 27.824656261328411 ], [ 112.922349315293516, 27.824423707364172 ], [ 112.921535622510461, 27.824378632938032 ], [ 112.920565073770859, 27.825157829489168 ], [ 112.920580050175133, 27.825165814487317 ], [ 112.921838021810316, 27.82591953201711 ], [ 112.921808066509101, 27.825959572499009 ], [ 112.921571418143699, 27.826274890772456 ], [ 112.919586518256224, 27.825572935428905 ], [ 112.919581522401984, 27.825614947243832 ], [ 112.919387679385935, 27.827282411120045 ], [ 112.920547883435404, 27.827940286793503 ] ] ] } }
]
}
