{
"type": "FeatureCollection",
"name": "新农村村委会_1",
"crs": { "type": "name", "properties": { "name": "urn:ogc:def:crs:OGC:1.3:CRS84" } },
"features": [
{ "type": "Feature", "properties": { "adcode": "430372100206", "fullName": "湖南省湘潭市岳塘区昭山镇新农村村委会", "level": "居委会/社区", "location": "113.044411,27.966107", "name": "新农村村委会", "OBJECTID": 4152, "SHAPE_Leng": 0.0734821731152, "SHAPE_Area": 0.0001352629145 }, "geometry": { "type": "Polygon", "coordinates": [ [ [ 113.028278707405761, 27.967120410613425 ], [ 113.028354449092831, 27.967328250236434 ], [ 113.028626546853474, 27.967777625853191 ], [ 113.028765095116398, 27.967923294851786 ], [ 113.029262505538966, 27.96811205521167 ], [ 113.029236578322809, 27.968223139768735 ], [ 113.02912989508954, 27.968471453166874 ], [ 113.029204629612096, 27.968830322156474 ], [ 113.029065039764475, 27.969210741590022 ], [ 113.029181614786978, 27.969901558753477 ], [ 113.029941225053534, 27.969887626863144 ], [ 113.030208397465472, 27.969777933798937 ], [ 113.030989968732044, 27.969713960567343 ], [ 113.031146502246983, 27.969486531828302 ], [ 113.031841363846084, 27.969423794368371 ], [ 113.03209759152324, 27.96925213256532 ], [ 113.032349825512426, 27.969179498961051 ], [ 113.032601032055197, 27.969506936200681 ], [ 113.032499281935216, 27.970245308498754 ], [ 113.032915988971496, 27.970544337248665 ], [ 113.033226025933956, 27.970826627892752 ], [ 113.033429400230176, 27.970960155578187 ], [ 113.03407146747135, 27.970975605347189 ], [ 113.034606839658466, 27.971321377538619 ], [ 113.03531274556363, 27.971328697858649 ], [ 113.035740492315639, 27.9712476734822 ], [ 113.03581030869627, 27.97098646573086 ], [ 113.035798355003365, 27.970849471166527 ], [ 113.036012741028699, 27.970671937610771 ], [ 113.036344737249266, 27.971084228178039 ], [ 113.036494276360926, 27.971392930153481 ], [ 113.03672756758418, 27.971769449210111 ], [ 113.036888115750415, 27.971604048929862 ], [ 113.037059620021111, 27.971599650791045 ], [ 113.037305902290683, 27.971688096424227 ], [ 113.03793712013497, 27.971340589511318 ], [ 113.038524400990056, 27.97192634986412 ], [ 113.038690914819099, 27.97210600270029 ], [ 113.038893345520989, 27.972076540860979 ], [ 113.0389262326254, 27.972322507468146 ], [ 113.039069804931799, 27.972607231478563 ], [ 113.039145573586922, 27.972830098111125 ], [ 113.03937492074337, 27.972942602600465 ], [ 113.039637165195117, 27.973212061471422 ], [ 113.039541401952548, 27.973587337107151 ], [ 113.038845343122247, 27.97375792718336 ], [ 113.038256997521415, 27.973912285523305 ], [ 113.038145288782914, 27.974238593778722 ], [ 113.037893003987151, 27.974296179262701 ], [ 113.037598852903912, 27.974216840364939 ], [ 113.037059386421134, 27.974459124189284 ], [ 113.036898824341478, 27.974782549594835 ], [ 113.036977552839787, 27.975315454978098 ], [ 113.036929669088778, 27.975587610835333 ], [ 113.036506875433986, 27.975839635557104 ], [ 113.036405155783143, 27.976032904802853 ], [ 113.03658163089851, 27.976170515810864 ], [ 113.036843881448092, 27.976027882417391 ], [ 113.037133060725509, 27.975837181048064 ], [ 113.037378378134562, 27.975538565626405 ], [ 113.037362460903708, 27.975087527929769 ], [ 113.037443257583604, 27.974732283225428 ], [ 113.037709500418131, 27.974646657379331 ], [ 113.03798869459149, 27.974736033154564 ], [ 113.038235002383402, 27.97461645184374 ], [ 113.038508237922912, 27.974474807843762 ], [ 113.038720654959619, 27.974250290012961 ], [ 113.038914124264679, 27.974060822155785 ], [ 113.039262125572662, 27.974302079880694 ], [ 113.039705874411055, 27.974420107986372 ], [ 113.040336150082197, 27.974104659298494 ], [ 113.040513680934779, 27.97384822601072 ], [ 113.040904602805725, 27.973886375312322 ], [ 113.041166879582775, 27.973951814106549 ], [ 113.042883136151289, 27.975339359454551 ], [ 113.043862509900848, 27.975801380451603 ], [ 113.044708252595115, 27.976458741880176 ], [ 113.045096263121479, 27.976319926329946 ], [ 113.045664798737519, 27.976432793429083 ], [ 113.046456802421119, 27.976336193408784 ], [ 113.047184009114702, 27.976051712705825 ], [ 113.047654879302371, 27.975633726041906 ], [ 113.047815518723567, 27.975215345874258 ], [ 113.047880406117798, 27.9746481268682 ], [ 113.047837541679939, 27.97427814861955 ], [ 113.048297458968634, 27.973774180274109 ], [ 113.048426205882905, 27.973044813380891 ], [ 113.048447186097647, 27.972665710589158 ], [ 113.048629771724876, 27.972323305832422 ], [ 113.048501104431352, 27.972067508648873 ], [ 113.04818987986333, 27.971842066952416 ], [ 113.047798837225329, 27.971837819893249 ], [ 113.047302033395425, 27.972193844709111 ], [ 113.047087570338562, 27.972137255177117 ], [ 113.047066645793095, 27.971852249037859 ], [ 113.04706665702183, 27.97171522632037 ], [ 113.046970914752649, 27.971479375309983 ], [ 113.046783408385977, 27.971166692802967 ], [ 113.046627802359851, 27.971111991220042 ], [ 113.046146997896713, 27.97128797620995 ], [ 113.046034274358931, 27.971393218989739 ], [ 113.045787889673363, 27.971511732806288 ], [ 113.045552496591768, 27.971422192207555 ], [ 113.045402903611716, 27.971120444643883 ], [ 113.045584478814959, 27.970644998813246 ], [ 113.04569921856077, 27.970253702618574 ], [ 113.045474826248707, 27.969823083915852 ], [ 113.045190568637878, 27.96964863118264 ], [ 113.045004069561628, 27.969387967572239 ], [ 113.044970185328111, 27.969040979048479 ], [ 113.04471886443379, 27.968672431774042 ], [ 113.044093529129114, 27.968199642044382 ], [ 113.043541973824446, 27.968233796312806 ], [ 113.042772071475753, 27.967548303847188 ], [ 113.042713300172522, 27.96667228263868 ], [ 113.042242557404805, 27.966720293511095 ], [ 113.041856621269048, 27.966437074369534 ], [ 113.041496614040341, 27.966233817625081 ], [ 113.041404891266382, 27.965895960028554 ], [ 113.040773652665123, 27.965467264080342 ], [ 113.039607916489416, 27.96504376976473 ], [ 113.039415470846052, 27.964846166555141 ], [ 113.038934837027952, 27.964652212981274 ], [ 113.038855163739086, 27.963407184593585 ], [ 113.038003562084867, 27.963631154700483 ], [ 113.037455107002458, 27.96394846509515 ], [ 113.036882777482901, 27.963713748467178 ], [ 113.036466013735307, 27.963393664736273 ], [ 113.035897696944687, 27.963113949353325 ], [ 113.035631487895316, 27.963001557732003 ], [ 113.03571127666882, 27.962716321820235 ], [ 113.035529821653739, 27.962579727294916 ], [ 113.034968478506258, 27.962604062961457 ], [ 113.034599575448496, 27.962595942055049 ], [ 113.034203735362794, 27.962861935966508 ], [ 113.033674290902468, 27.963272281960293 ], [ 113.033441983100758, 27.963371861784868 ], [ 113.032982357859964, 27.963572014294968 ], [ 113.032574589015297, 27.963683030944782 ], [ 113.031932557466021, 27.963630603673881 ], [ 113.031773026207958, 27.963893042364255 ], [ 113.031505845925892, 27.96393171176296 ], [ 113.031410134311614, 27.964016963990929 ], [ 113.031521745786279, 27.964556776633437 ], [ 113.031318355898534, 27.964774318898936 ], [ 113.030895669653873, 27.964719365016038 ], [ 113.030810986520166, 27.964060467041094 ], [ 113.030324547729037, 27.963498595114388 ], [ 113.030265726074305, 27.963564754385352 ], [ 113.030258732398025, 27.963754803768957 ], [ 113.030376341160959, 27.964047556403592 ], [ 113.030436132942938, 27.96431245016884 ], [ 113.030500895366785, 27.96474836007275 ], [ 113.030503843179815, 27.965274440442908 ], [ 113.030402148229882, 27.965422720966863 ], [ 113.030011358862595, 27.965560729639979 ], [ 113.02950887401218, 27.966334132217913 ], [ 113.029316457204018, 27.966619669364675 ], [ 113.029149977891052, 27.966681104002987 ], [ 113.02875025641606, 27.966525100123313 ], [ 113.028626648331411, 27.966531418128067 ], [ 113.028429278658635, 27.96649791949422 ], [ 113.028375447738796, 27.966526062630471 ], [ 113.028305665281806, 27.96658425191357 ], [ 113.028278707405761, 27.967120410613425 ] ] ] } }
]
}
