{
"type": "FeatureCollection",
"name": "新华村村委会",
"crs": { "type": "name", "properties": { "name": "urn:ogc:def:crs:OGC:1.3:CRS84" } },
"features": [
{ "type": "Feature", "properties": { "adcode": "430371002208", "fullName": "湖南省湘潭市岳塘区双马街道新华村村委会", "level": "居委会/社区", "location": "112.97124,27.812587", "name": "新华村村委会", "OBJECTID": 4138, "SHAPE_Leng": 0.083879465188499994, "SHAPE_Area": 0.0001826579395 }, "geometry": { "type": "Polygon", "coordinates": [ [ [ 112.975874943621378, 27.81778084661179 ], [ 112.975670686555588, 27.817606412281854 ], [ 112.975451516866812, 27.816991952479185 ], [ 112.972854999344634, 27.813333855126395 ], [ 112.972983757354683, 27.810676081295405 ], [ 112.97334769749888, 27.807880616188815 ], [ 112.969371661182919, 27.806490639251372 ], [ 112.966037097024312, 27.805323637471563 ], [ 112.965978296163271, 27.805303794055181 ], [ 112.966871994949415, 27.808956912628364 ], [ 112.966870834703371, 27.811032231656608 ], [ 112.966399319585491, 27.812384724586369 ], [ 112.965581999775495, 27.813217069743878 ], [ 112.964819491255412, 27.813910231061996 ], [ 112.96230083506596, 27.813343832015843 ], [ 112.961887068133393, 27.814779135943311 ], [ 112.953086556715917, 27.813393843665217 ], [ 112.953065613992834, 27.813454902448932 ], [ 112.953067607847487, 27.81345789820427 ], [ 112.953107485695384, 27.813507811749165 ], [ 112.953118451917177, 27.813523788311077 ], [ 112.95317727159798, 27.81359766071844 ], [ 112.953296906000887, 27.813728397879515 ], [ 112.953326813169625, 27.813778334752104 ], [ 112.953336781957319, 27.813798314216022 ], [ 112.953336780388241, 27.813818317290657 ], [ 112.953346748387872, 27.813848298289134 ], [ 112.953356714030477, 27.813908283897636 ], [ 112.953366673471464, 27.814047281654265 ], [ 112.953369662927088, 27.814068277797798 ], [ 112.954851092413108, 27.815662979681253 ], [ 112.955685485655977, 27.816552091440109 ], [ 112.958508462003806, 27.819981617897291 ], [ 112.96056173789907, 27.822499773735309 ], [ 112.963127156788758, 27.825682571951937 ], [ 112.965103429094242, 27.828019665613883 ], [ 112.964323143136284, 27.826526523989273 ], [ 112.96421656995058, 27.825596662505291 ], [ 112.965478369342364, 27.825575269113266 ], [ 112.966099379105685, 27.824396401814592 ], [ 112.965521354654939, 27.823941896548821 ], [ 112.96539286111954, 27.822975092223807 ], [ 112.966954615590438, 27.822856829659379 ], [ 112.967638354527125, 27.822114838413956 ], [ 112.968024060538454, 27.821866737313723 ], [ 112.967210914216167, 27.820748798901391 ], [ 112.967039544270321, 27.820125171202296 ], [ 112.967189126215359, 27.819003587279486 ], [ 112.967271891401921, 27.818424270546089 ], [ 112.967528018130338, 27.818470574666488 ], [ 112.967753243462738, 27.818579972211431 ], [ 112.968447862256767, 27.81872007672127 ], [ 112.969730480101973, 27.818418463220659 ], [ 112.970718081900344, 27.818170655809446 ], [ 112.973834188967103, 27.817853749394619 ], [ 112.974428077946101, 27.817962058649986 ], [ 112.974748914272936, 27.818279182891157 ], [ 112.9747967241385, 27.818535084588312 ], [ 112.975342755799545, 27.81886255706565 ], [ 112.975874943621378, 27.81778084661179 ] ] ] } }
]
}
