{
"type": "FeatureCollection",
"name": "新城社区居委会",
"crs": { "type": "name", "properties": { "name": "urn:ogc:def:crs:OGC:1.3:CRS84" } },
"features": [
{ "type": "Feature", "properties": { "adcode": "430304015219", "fullName": "湖南省湘潭市岳塘区荷塘街道新城社区居委会", "level": "居委会/社区", "location": "112.969698,27.873876", "name": "新城社区居委会", "OBJECTID": 4118, "SHAPE_Leng": 0.016919607086900001, "SHAPE_Area": 1.29849345e-05 }, "geometry": { "type": "Polygon", "coordinates": [ [ [ 112.96678580079724, 27.878212331515943 ], [ 112.965650731213415, 27.876853188351976 ], [ 112.963833945548274, 27.874760712875901 ], [ 112.96335456772978, 27.874241899120168 ], [ 112.963340613655333, 27.874241936109879 ], [ 112.963310711259609, 27.874252017040256 ], [ 112.963280808839286, 27.874262097948439 ], [ 112.963240938380636, 27.874282206913552 ], [ 112.963201067877975, 27.874302315839262 ], [ 112.963160198948813, 27.874343430897401 ], [ 112.963121325082724, 27.874363537106728 ], [ 112.963071485676991, 27.874402675466033 ], [ 112.963001711545289, 27.874442866607776 ], [ 112.962921970754451, 27.874473082261744 ], [ 112.962842230575077, 27.874493296073254 ], [ 112.962811330240839, 27.874513380944304 ], [ 112.962781426615265, 27.874533463163445 ], [ 112.962742549891345, 27.874584574223277 ], [ 112.962732577001276, 27.874654612276814 ], [ 112.962732569898222, 27.87474462742885 ], [ 112.962742530949782, 27.874824614628828 ], [ 112.962752492866642, 27.87489359997501 ], [ 112.962752486552702, 27.874973613446159 ], [ 112.962762449887322, 27.875024595760024 ], [ 112.962762427788249, 27.875304642918071 ], [ 112.962771378756912, 27.875553661215104 ], [ 112.962781342875303, 27.875594641843499 ], [ 112.962791301623682, 27.875703633927134 ], [ 112.962811211771324, 27.876014633765415 ], [ 112.962811199142578, 27.876174660733486 ], [ 112.96282115859259, 27.876274651301173 ], [ 112.962831118907843, 27.876363640013231 ], [ 112.962852044708796, 27.876434596762628 ], [ 112.962871977001001, 27.876464549219275 ], [ 112.962931775073329, 27.876538403832395 ], [ 112.963051375495638, 27.876628103011942 ], [ 112.963061340797978, 27.876653080878423 ], [ 112.963061328167669, 27.87681310786045 ], [ 112.963051352997951, 27.876913151075051 ], [ 112.963035401798635, 27.876958200818418 ], [ 112.963011479130898, 27.876973266566747 ], [ 112.962752327908504, 27.876983952199549 ], [ 112.962622751984682, 27.876984293539465 ], [ 112.962493173929644, 27.877005637997371 ], [ 112.962403466204094, 27.877014875284779 ], [ 112.962353628085523, 27.877025007866209 ], [ 112.962333691555699, 27.877045063579935 ], [ 112.962303786739696, 27.877075147131627 ], [ 112.962224034915437, 27.877225381634272 ], [ 112.962194124482338, 27.877325476912898 ], [ 112.96212334469439, 27.877456684489605 ], [ 112.962074499856101, 27.877505820685883 ], [ 112.962024662848634, 27.877495949474376 ], [ 112.961959874790068, 27.877481116466544 ], [ 112.961845252502442, 27.87741640516002 ], [ 112.961845259603777, 27.877326389974943 ], [ 112.96183529435153, 27.877296410954994 ], [ 112.961743595274754, 27.877256643667803 ], [ 112.961708679141168, 27.877628797478625 ], [ 112.962086418067202, 27.878048881007921 ], [ 112.962834953894685, 27.878288954274883 ], [ 112.963358205184164, 27.878668634760853 ], [ 112.964366789541188, 27.879698122554903 ], [ 112.96534256720193, 27.879327438128382 ], [ 112.966432986313833, 27.878290306973113 ], [ 112.96678580079724, 27.878212331515943 ] ] ] } }
]
}
