{
"type": "FeatureCollection",
"name": "新农村村委会",
"crs": { "type": "name", "properties": { "name": "urn:ogc:def:crs:OGC:1.3:CRS84" } },
"features": [
{ "type": "Feature", "properties": { "adcode": "430371001206", "fullName": "湖南省湘潭市岳塘区板塘街道新农村村委会", "level": "居委会/社区", "location": "112.983586,27.860399", "name": "新农村村委会", "OBJECTID": 4124, "SHAPE_Leng": 0.075351668153399998, "SHAPE_Area": 0.000194935497 }, "geometry": { "type": "Polygon", "coordinates": [ [ [ 112.981832219485085, 27.870199790551844 ], [ 112.981965911074809, 27.867935013250513 ], [ 112.982912457374226, 27.867742154101755 ], [ 112.98486848437004, 27.864927816338568 ], [ 112.985695553992841, 27.863383068374006 ], [ 112.985672674278376, 27.862936063044366 ], [ 112.985042032546531, 27.862568901723836 ], [ 112.984844770357839, 27.862443474470744 ], [ 112.984668429498086, 27.862332986483032 ], [ 112.984603718077352, 27.861707077128933 ], [ 112.984219144046577, 27.861595214114995 ], [ 112.984005945031015, 27.861394820933079 ], [ 112.983920355473728, 27.860199879659749 ], [ 112.98398319291887, 27.859339548621037 ], [ 112.98316021303242, 27.859410027086138 ], [ 112.98330972234082, 27.858677458192808 ], [ 112.982925282221359, 27.856820302073611 ], [ 112.981943073636714, 27.854412838739428 ], [ 112.981785715604076, 27.853581171007246 ], [ 112.980608043442288, 27.853214612532881 ], [ 112.980641097804721, 27.851022154780306 ], [ 112.979881784485869, 27.851974560585713 ], [ 112.978256669684441, 27.851987353615122 ], [ 112.977465603842077, 27.850946502476795 ], [ 112.977155617173068, 27.852219617717736 ], [ 112.976706214515062, 27.852419962376874 ], [ 112.977358749607745, 27.853944307132128 ], [ 112.978053138531436, 27.855323499607525 ], [ 112.977753124092416, 27.856529578281446 ], [ 112.977143240710348, 27.857507524444856 ], [ 112.974182745211237, 27.858266234143862 ], [ 112.971949686117568, 27.857281450756759 ], [ 112.971330835273974, 27.857434227995416 ], [ 112.971715330627731, 27.859483479179289 ], [ 112.971069549251808, 27.859904374128089 ], [ 112.971433262401334, 27.860150387847561 ], [ 112.973647225454769, 27.863475635742905 ], [ 112.974533982300287, 27.864773302708983 ], [ 112.974855790111405, 27.865390477259062 ], [ 112.973968891854838, 27.865944123685562 ], [ 112.973637012377836, 27.866609186995383 ], [ 112.973710647319692, 27.867928196063669 ], [ 112.972534759911667, 27.868300618850615 ], [ 112.971798349700904, 27.868178690469552 ], [ 112.971368832711875, 27.868388941153526 ], [ 112.971114706470473, 27.868536683397419 ], [ 112.971242216282334, 27.869116420455327 ], [ 112.971124579377957, 27.869703850764751 ], [ 112.970943177425852, 27.870122432316037 ], [ 112.970900282975037, 27.87067164514318 ], [ 112.970973983593268, 27.871213528262665 ], [ 112.97180101120118, 27.87232137656326 ], [ 112.971853775436287, 27.872966335225041 ], [ 112.972153714999024, 27.873098506231301 ], [ 112.972866134373461, 27.874098645911335 ], [ 112.973323507155143, 27.874302373224221 ], [ 112.974363791410866, 27.874762464581281 ], [ 112.97541604428001, 27.874830437459288 ], [ 112.976420562503421, 27.873471292138788 ], [ 112.977764736857978, 27.873419356741568 ], [ 112.978165412103365, 27.871908927893852 ], [ 112.978184349485701, 27.871836860201668 ], [ 112.978289003195854, 27.871440486358985 ], [ 112.978302956789506, 27.87139043697405 ], [ 112.978693543550293, 27.871408291356769 ], [ 112.978696532737672, 27.871408282557141 ], [ 112.979554421036056, 27.871446759213843 ], [ 112.979558406491748, 27.871447747605277 ], [ 112.979774620651085, 27.871457110119728 ], [ 112.980755049337731, 27.871501212660064 ], [ 112.981812266128571, 27.870529905293932 ], [ 112.981832219485085, 27.870199790551844 ] ] ] } }
]
}
