{
"type": "FeatureCollection",
"name": "新城村委会",
"crs": { "type": "name", "properties": { "name": "urn:ogc:def:crs:OGC:1.3:CRS84" } },
"features": [
{ "type": "Feature", "properties": { "adcode": "430302102234", "fullName": "湖南省湘潭市雨湖区姜畲镇新城村委会", "level": "居委会/社区", "location": "112.819716,27.885975", "name": "新城村委会", "OBJECTID": 3979, "SHAPE_Leng": 0.0560492382375, "SHAPE_Area": 0.000185904216 }, "geometry": { "type": "Polygon", "coordinates": [ [ [ 112.803242237568668, 27.888841755318499 ], [ 112.807728660707056, 27.891609173382619 ], [ 112.810565494275494, 27.893282605735184 ], [ 112.812027934653941, 27.895220620150621 ], [ 112.814301791926979, 27.897900284404454 ], [ 112.816284515173464, 27.896022658724139 ], [ 112.818047742191524, 27.895646897198311 ], [ 112.819638669687833, 27.895232816072799 ], [ 112.821068356279739, 27.894212333574131 ], [ 112.821444062597038, 27.893945995984584 ], [ 112.82200310645176, 27.893642997808701 ], [ 112.822733489705769, 27.892999264609177 ], [ 112.82389467630675, 27.892128304489006 ], [ 112.823894682263045, 27.892052291535656 ], [ 112.823723381591066, 27.891901943100248 ], [ 112.82316459087555, 27.88897839176331 ], [ 112.820841604925533, 27.885749464621284 ], [ 112.820144442212126, 27.884362916249099 ], [ 112.819381170528487, 27.882842221936535 ], [ 112.8186909141657, 27.882841924342618 ], [ 112.816174268580099, 27.883858380392422 ], [ 112.815373816844058, 27.883932898999234 ], [ 112.812992522259108, 27.884156515151581 ], [ 112.809080651283921, 27.883504236857448 ], [ 112.806788704447641, 27.883101039875612 ], [ 112.804801068266585, 27.886180033425411 ], [ 112.803242237568668, 27.888841755318499 ] ] ] } }
]
}
