{
"type": "FeatureCollection",
"name": "新南村村委会",
"crs": { "type": "name", "properties": { "name": "urn:ogc:def:crs:OGC:1.3:CRS84" } },
"features": [
{ "type": "Feature", "properties": { "adcode": "430372100204", "fullName": "湖南省湘潭市岳塘区昭山镇新南村村委会", "level": "居委会/社区", "location": "113.03214,27.910191", "name": "新南村村委会", "OBJECTID": 4150, "SHAPE_Leng": 0.073278813637899995, "SHAPE_Area": 0.000184311456 }, "geometry": { "type": "Polygon", "coordinates": [ [ [ 113.017039376161335, 27.916756345685759 ], [ 113.017743861709647, 27.917595498883365 ], [ 113.020268162020798, 27.917915501976236 ], [ 113.02065679763993, 27.918436517077332 ], [ 113.020177322439864, 27.919750067250238 ], [ 113.019584296343879, 27.920386822253885 ], [ 113.018541774411716, 27.921654950368907 ], [ 113.020461131556928, 27.922510754153908 ], [ 113.020955435042751, 27.922731428448476 ], [ 113.022601856299701, 27.92312499301277 ], [ 113.023103199307016, 27.922902596029626 ], [ 113.023109225934888, 27.922328481568268 ], [ 113.026865108249709, 27.919736049599784 ], [ 113.027167262287563, 27.91816199216365 ], [ 113.029369302493379, 27.917469202451873 ], [ 113.032160800624339, 27.91536484621847 ], [ 113.032363419793455, 27.91243984681255 ], [ 113.039568688228243, 27.908098183936481 ], [ 113.036635235128585, 27.905766474310077 ], [ 113.034613105307116, 27.906686404502601 ], [ 113.02953963382528, 27.906825949083679 ], [ 113.028789999746849, 27.906845864988846 ], [ 113.027135283314749, 27.906893148326187 ], [ 113.027145077275307, 27.909035489020738 ], [ 113.024011221824381, 27.910132965647829 ], [ 113.023196945596581, 27.909890117087844 ], [ 113.021682059419021, 27.909440160701202 ], [ 113.021449848468023, 27.90937178519075 ], [ 113.020270875624902, 27.909020973293742 ], [ 113.019790526110711, 27.908878280745949 ], [ 113.019487569913508, 27.908788107792059 ], [ 113.018338578661655, 27.908069196953221 ], [ 113.018071465307386, 27.90851302330417 ], [ 113.017874124813275, 27.908798627468734 ], [ 113.017327954331222, 27.90959230404744 ], [ 113.017385731034935, 27.909871188457348 ], [ 113.017783257802378, 27.911036266016644 ], [ 113.018334252823223, 27.912265926655149 ], [ 113.019501119933935, 27.913755919575486 ], [ 113.019147210881812, 27.915264163981895 ], [ 113.018124700069592, 27.91567109771918 ], [ 113.017135120541653, 27.915801911386371 ], [ 113.017039376161335, 27.916756345685759 ] ] ] } }
]
}
