{
"type": "FeatureCollection",
"name": "新坪村委会",
"crs": { "type": "name", "properties": { "name": "urn:ogc:def:crs:OGC:1.3:CRS84" } },
"features": [
{ "type": "Feature", "properties": { "adcode": "430302102225", "fullName": "湖南省湘潭市雨湖区姜畲镇新坪村委会", "level": "居委会/社区", "location": "112.846925,27.835245", "name": "新坪村委会", "OBJECTID": 3970, "SHAPE_Leng": 0.063958508225599994, "SHAPE_Area": 0.00015983508749900001 }, "geometry": { "type": "Polygon", "coordinates": [ [ [ 112.833667630949591, 27.836528293133092 ], [ 112.834183153185748, 27.841501041968794 ], [ 112.835215009540931, 27.840934836566422 ], [ 112.836117644022011, 27.840176355362736 ], [ 112.837493967627864, 27.840937964888756 ], [ 112.838223134084728, 27.842041452150905 ], [ 112.842136575299676, 27.843907659805161 ], [ 112.844328035728452, 27.845391669482023 ], [ 112.846712654380099, 27.847548029810731 ], [ 112.846884923452265, 27.847547315296517 ], [ 112.847124299216517, 27.84750870492142 ], [ 112.847265520947076, 27.847477932971426 ], [ 112.847325615622367, 27.847459028950379 ], [ 112.847395728223503, 27.847408136129097 ], [ 112.847505904162347, 27.847338306020909 ], [ 112.8475960470373, 27.847292446692229 ], [ 112.849242468840615, 27.848460315905239 ], [ 112.850026734373628, 27.847295381892657 ], [ 112.851626269958217, 27.844914515884341 ], [ 112.852498632652697, 27.843529642638696 ], [ 112.852366451435785, 27.843430422750451 ], [ 112.852237266297536, 27.843431223352532 ], [ 112.850604958546185, 27.842569530435316 ], [ 112.850609968732883, 27.842533532518413 ], [ 112.850660064339792, 27.842253566305047 ], [ 112.850660071344294, 27.842163551716204 ], [ 112.850640045717171, 27.842113511943811 ], [ 112.850550915875672, 27.842092367511917 ], [ 112.850509853686631, 27.84211230572809 ], [ 112.850430731294892, 27.842182191679907 ], [ 112.850320555756923, 27.842342042796751 ], [ 112.850257458952967, 27.842383949365772 ], [ 112.848104299082948, 27.841247295604706 ], [ 112.847338149483178, 27.840841973179675 ], [ 112.845145798481127, 27.839586113226805 ], [ 112.844285477801691, 27.838825532126389 ], [ 112.843255004458086, 27.836280359275008 ], [ 112.843555677101989, 27.833927498131267 ], [ 112.843255240972013, 27.83324387297613 ], [ 112.843126177821688, 27.831346348089998 ], [ 112.842824669780171, 27.83153485842611 ], [ 112.842481111406883, 27.831460252612235 ], [ 112.841492485548514, 27.831343514897863 ], [ 112.840632076017016, 27.830999952328995 ], [ 112.839687485735652, 27.830998284783202 ], [ 112.839214702294456, 27.830770409508283 ], [ 112.839214764418415, 27.829973282812908 ], [ 112.838053818909643, 27.829515137736617 ], [ 112.837279516819407, 27.829133685960844 ], [ 112.83620466408361, 27.829018725217587 ], [ 112.836023357847282, 27.82890037754407 ], [ 112.835215871215638, 27.829889065645709 ], [ 112.83444146213202, 27.830533753414826 ], [ 112.834313129939346, 27.831899736063505 ], [ 112.834527350135531, 27.833911449718975 ], [ 112.834442081877924, 27.835430537153687 ], [ 112.833667630949591, 27.836528293133092 ] ] ] } }
]
}
