{
"type": "FeatureCollection",
"name": "新塘社区居委会",
"crs": { "type": "name", "properties": { "name": "urn:ogc:def:crs:OGC:1.3:CRS84" } },
"features": [
{ "type": "Feature", "properties": { "adcode": "430304004004", "fullName": "湖南省湘潭市岳塘区书院路街道新塘社区居委会", "level": "居委会/社区", "location": "112.943153,27.81619", "name": "新塘社区居委会", "OBJECTID": 4056, "SHAPE_Leng": 0.079445550957399996, "SHAPE_Area": 9.4372859500099996e-05 }, "geometry": { "type": "Polygon", "coordinates": [ [ [ 112.942960081354428, 27.820676149296855 ], [ 112.942963073965672, 27.820672142653596 ], [ 112.942974081460846, 27.820215049338813 ], [ 112.951388045639021, 27.81968977835297 ], [ 112.951550739879053, 27.81756407312044 ], [ 112.951836969474357, 27.816751284691094 ], [ 112.953019754904901, 27.813391000810181 ], [ 112.953017761046894, 27.813388005051902 ], [ 112.953017763400197, 27.813358000444364 ], [ 112.953007795284634, 27.813328019347622 ], [ 112.953007796539723, 27.813312016890528 ], [ 112.952053683876485, 27.812325100541642 ], [ 112.952018776531744, 27.812446200286924 ], [ 112.95143951154958, 27.811862452895941 ], [ 112.950933923463779, 27.812528717124572 ], [ 112.950221896061748, 27.813465483319774 ], [ 112.949430810800621, 27.817748926525798 ], [ 112.942997196771287, 27.817984656491216 ], [ 112.939556794788771, 27.818143382668289 ], [ 112.939538838318967, 27.818144416621482 ], [ 112.92730112717841, 27.818670508230838 ], [ 112.927292143849343, 27.818671520781898 ], [ 112.927290146558633, 27.81868452555533 ], [ 112.92726519041338, 27.818718565249025 ], [ 112.923611286413916, 27.823680086523147 ], [ 112.925956120585326, 27.824710268269254 ], [ 112.925991056437624, 27.824726224569623 ], [ 112.927498370316243, 27.823646011303627 ], [ 112.928054301223511, 27.823897272252491 ], [ 112.928865813707077, 27.822985969421932 ], [ 112.928707129296896, 27.82287918175123 ], [ 112.928690163011524, 27.822867204302309 ], [ 112.929043510846228, 27.822439626182366 ], [ 112.929654316990124, 27.822372719493274 ], [ 112.929984692845053, 27.821965164458735 ], [ 112.931612391934948, 27.821885664253148 ], [ 112.932754920922804, 27.82285100285123 ], [ 112.938064021014426, 27.822631848036433 ], [ 112.939703423759397, 27.818327134739445 ], [ 112.941645619079665, 27.818243382734344 ], [ 112.941648611542959, 27.81824337686184 ], [ 112.941758276000499, 27.818997278406631 ], [ 112.941768245670232, 27.819063269047042 ], [ 112.941949786818725, 27.81906291133533 ], [ 112.942076465809805, 27.819062660991033 ], [ 112.942216004446252, 27.820427596810287 ], [ 112.942246901881276, 27.82073358316487 ], [ 112.942892250818787, 27.820740295629111 ], [ 112.942913196880752, 27.820741253695147 ], [ 112.942960081354428, 27.820676149296855 ] ] ] } }
]
}
