{
"type": "FeatureCollection",
"name": "新塘里社区居委会",
"crs": { "type": "name", "properties": { "name": "urn:ogc:def:crs:OGC:1.3:CRS84" } },
"features": [
{ "type": "Feature", "properties": { "adcode": "430371002004", "fullName": "湖南省湘潭市岳塘区双马街道新塘里社区居委会", "level": "居委会/社区", "location": "112.940949,27.825975", "name": "新塘里社区居委会", "OBJECTID": 4129, "SHAPE_Leng": 0.049678141543099998, "SHAPE_Area": 7.4263206000300006e-05 }, "geometry": { "type": "Polygon", "coordinates": [ [ [ 112.942548193314806, 27.832725873608062 ], [ 112.942728151762338, 27.827378665798211 ], [ 112.936758729278495, 27.826971877070836 ], [ 112.935008715028147, 27.82672787909388 ], [ 112.928662983367261, 27.825841710289886 ], [ 112.928185763136511, 27.827584666561396 ], [ 112.929456289589098, 27.827728853595215 ], [ 112.930890311763434, 27.829090914917554 ], [ 112.931876255336206, 27.829422436322933 ], [ 112.931862280682665, 27.829470465918625 ], [ 112.931661642268139, 27.83017689268387 ], [ 112.930414222399335, 27.829775748195924 ], [ 112.930290452998733, 27.830009972197804 ], [ 112.929869301137359, 27.829924589637884 ], [ 112.929584897229205, 27.82950694528936 ], [ 112.929258548249337, 27.829389406527415 ], [ 112.929151744619048, 27.829550588133468 ], [ 112.928696657299071, 27.829186189944743 ], [ 112.927457018142078, 27.829152936443339 ], [ 112.927314285219794, 27.829149133314839 ], [ 112.927312288476472, 27.829155137022063 ], [ 112.927294318323192, 27.829202169270232 ], [ 112.926565514114273, 27.83112946912102 ], [ 112.931451963192117, 27.831618448845987 ], [ 112.932574609182183, 27.831730693825296 ], [ 112.942548193314806, 27.832725873608062 ] ] ] } }
]
}
