{
"type": "FeatureCollection",
"name": "新梁街社区居委会",
"crs": { "type": "name", "properties": { "name": "urn:ogc:def:crs:OGC:1.3:CRS84" } },
"features": [
{ "type": "Feature", "properties": { "adcode": "430302001207", "fullName": "湖南省湘潭市雨湖区雨湖路街道新梁街社区居委会", "level": "居委会/社区", "location": "112.908442,27.852861", "name": "新梁街社区居委会", "OBJECTID": 3832, "SHAPE_Leng": 0.018279500846299999, "SHAPE_Area": 1.70346505e-05 }, "geometry": { "type": "Polygon", "coordinates": [ [ [ 112.900280215420054, 27.858090915469081 ], [ 112.902520809343002, 27.859950724800601 ], [ 112.904110976413122, 27.857169773777102 ], [ 112.905817946615699, 27.854096613568842 ], [ 112.905736013529562, 27.854062642322599 ], [ 112.90567606189606, 27.854042663973868 ], [ 112.905166468751545, 27.853832834881192 ], [ 112.903160935675885, 27.853088407375036 ], [ 112.901953493444424, 27.855565146725421 ], [ 112.901545672629169, 27.856306366240684 ], [ 112.900794987800253, 27.857577735782105 ], [ 112.900280215420054, 27.858090915469081 ] ] ] } }
]
}
