{
"type": "FeatureCollection",
"name": "新月村村委会",
"crs": { "type": "name", "properties": { "name": "urn:ogc:def:crs:OGC:1.3:CRS84" } },
"features": [
{ "type": "Feature", "properties": { "adcode": "430302202205", "fullName": "湖南省湘潭市雨湖区长城乡新月村村委会", "level": "居委会/社区", "location": "112.869924,27.827932", "name": "新月村村委会", "OBJECTID": 3985, "SHAPE_Leng": 0.065531332237600007, "SHAPE_Area": 0.000183910467 }, "geometry": { "type": "Polygon", "coordinates": [ [ [ 112.856457450485337, 27.825798714298863 ], [ 112.856778841545776, 27.826204241311999 ], [ 112.857035081875964, 27.827420800795728 ], [ 112.857594729675213, 27.828407753299544 ], [ 112.857466452558512, 27.829849800311433 ], [ 112.858325413879456, 27.831598287559267 ], [ 112.858710816491595, 27.832659993018918 ], [ 112.858970051750006, 27.833799533492162 ], [ 112.859742880643978, 27.835394846521627 ], [ 112.86004320157609, 27.835965344581517 ], [ 112.864726234228556, 27.839613936079036 ], [ 112.866315860120181, 27.839729842988231 ], [ 112.869323633241905, 27.840644342988213 ], [ 112.869835003953369, 27.841668049044284 ], [ 112.870140220610693, 27.842277466141386 ], [ 112.871085112068855, 27.841026228932993 ], [ 112.871256355338289, 27.83969818595471 ], [ 112.870654878273768, 27.839431535351988 ], [ 112.872464394859264, 27.838635196986598 ], [ 112.87250843013291, 27.838616236076323 ], [ 112.87129758763291, 27.837135814202895 ], [ 112.871285578938384, 27.837121799957341 ], [ 112.871758998557979, 27.836628189593171 ], [ 112.872075291774976, 27.83606940885387 ], [ 112.872101315803292, 27.83602242658149 ], [ 112.871990509513338, 27.832401739387059 ], [ 112.871964488863981, 27.83240371433493 ], [ 112.868531538244653, 27.832628200671582 ], [ 112.86786603451155, 27.831127227761996 ], [ 112.86754382406005, 27.829893671211241 ], [ 112.867716086792882, 27.828621662482345 ], [ 112.867243698940911, 27.827785998345437 ], [ 112.867652153949066, 27.826971329783049 ], [ 112.868252757199343, 27.82647891896087 ], [ 112.868509989383085, 27.826553212728655 ], [ 112.868789262504322, 27.826326480685335 ], [ 112.869369782925389, 27.826345106752576 ], [ 112.869992418086156, 27.82518958044361 ], [ 112.86990636131145, 27.824960454502936 ], [ 112.869649142771678, 27.824884172394199 ], [ 112.868337973277079, 27.824711734153986 ], [ 112.866856604547706, 27.824140982395001 ], [ 112.86627707131511, 27.823609229490902 ], [ 112.865695528450004, 27.823020454739879 ], [ 112.864783655305544, 27.82207021465279 ], [ 112.863879761167254, 27.821129960742045 ], [ 112.863816698785186, 27.821050870237471 ], [ 112.863808689609584, 27.821056861239516 ], [ 112.863028788980316, 27.821597969294139 ], [ 112.861756294858424, 27.822235437169585 ], [ 112.86027247753492, 27.823086608766264 ], [ 112.859824915550007, 27.823344045261308 ], [ 112.858963815745383, 27.823851947610653 ], [ 112.85878357384226, 27.824071733142421 ], [ 112.857999497156257, 27.825193816349323 ], [ 112.857972459754208, 27.825231784336413 ], [ 112.857929401659007, 27.825272730240723 ], [ 112.857874327382163, 27.825323660750808 ], [ 112.857827263727202, 27.825368601529018 ], [ 112.857781201443501, 27.825411543347119 ], [ 112.856457450485337, 27.825798714298863 ] ] ] } }
]
}
