{
"type": "FeatureCollection",
"name": "新桥社区居委会_1",
"crs": { "type": "name", "properties": { "name": "urn:ogc:def:crs:OGC:1.3:CRS84" } },
"features": [
{ "type": "Feature", "properties": { "adcode": "430304015004", "fullName": "湖南省湘潭市岳塘区荷塘街道新桥社区居委会", "level": "居委会/社区", "location": "112.967715,27.876394", "name": "新桥社区居委会", "OBJECTID": 4103, "SHAPE_Leng": 0.012762962386799999, "SHAPE_Area": 7.4511179999799996e-06 }, "geometry": { "type": "Polygon", "coordinates": [ [ [ 112.960683798173903, 27.880046865266117 ], [ 112.960758505701065, 27.880706783756686 ], [ 112.960931894132784, 27.881380449179474 ], [ 112.961390417730911, 27.881327250578053 ], [ 112.961621661291588, 27.881420664324551 ], [ 112.96218178589821, 27.882110316873202 ], [ 112.962672324112987, 27.880339728931279 ], [ 112.964366789541188, 27.879698122554903 ], [ 112.963358205184164, 27.878668634760853 ], [ 112.962834953894685, 27.878288954274883 ], [ 112.962086418067202, 27.878048881007921 ], [ 112.961708679141168, 27.877628797478625 ], [ 112.96170070035943, 27.877687828240738 ], [ 112.961635858596466, 27.878346108298011 ], [ 112.961567053146481, 27.878706348353997 ], [ 112.961020763105296, 27.879415887278824 ], [ 112.960683798173903, 27.880046865266117 ] ] ] } }
]
}
