{
"type": "FeatureCollection",
"name": "新民村村委会",
"crs": { "type": "name", "properties": { "name": "urn:ogc:def:crs:OGC:1.3:CRS84" } },
"features": [
{ "type": "Feature", "properties": { "adcode": "430372100215", "fullName": "湖南省湘潭市岳塘区昭山镇新民村村委会", "level": "居委会/社区", "location": "113.028893,27.956661", "name": "新民村村委会", "OBJECTID": 4161, "SHAPE_Leng": 0.114739653484, "SHAPE_Area": 0.0003055749395 }, "geometry": { "type": "Polygon", "coordinates": [ [ [ 113.014229798576409, 27.946785492244651 ], [ 113.014742799424866, 27.949085405697101 ], [ 113.014526378102033, 27.951367413461117 ], [ 113.014962709622509, 27.952956428237648 ], [ 113.015935198299474, 27.954110841072097 ], [ 113.015475761797234, 27.954710254216181 ], [ 113.015998729985398, 27.957134168768079 ], [ 113.016736068016115, 27.958174246404059 ], [ 113.017270031470744, 27.960353099517995 ], [ 113.018478761434764, 27.961384868656992 ], [ 113.018744784280372, 27.96212524731191 ], [ 113.017703337252328, 27.962687266921794 ], [ 113.017804973937743, 27.962823003177665 ], [ 113.019718461019451, 27.96189449304045 ], [ 113.019975601577798, 27.961655739138347 ], [ 113.020157928020012, 27.962286339289161 ], [ 113.020370168858022, 27.962726825546888 ], [ 113.020471812857551, 27.962849565087712 ], [ 113.020504687489677, 27.963015502000758 ], [ 113.020814620072599, 27.963189675918866 ], [ 113.021284986120406, 27.963681464176194 ], [ 113.021557059824914, 27.963765732011218 ], [ 113.021572991380637, 27.963945718430658 ], [ 113.021471278516373, 27.964637112626022 ], [ 113.020898214060296, 27.964691696494267 ], [ 113.020759661242977, 27.964975125599004 ], [ 113.020920098930475, 27.965193719992254 ], [ 113.020733708725572, 27.965474280426246 ], [ 113.019947384897478, 27.965500459825229 ], [ 113.019818804214026, 27.965746857811101 ], [ 113.019996177314653, 27.966003408333481 ], [ 113.020209430867595, 27.966234855957239 ], [ 113.020439656422141, 27.966114198946631 ], [ 113.020573197000488, 27.966176840469824 ], [ 113.020840270125234, 27.966417143843135 ], [ 113.021011675267204, 27.966582699444789 ], [ 113.020701711259619, 27.966777585877491 ], [ 113.020914865005196, 27.968283248945948 ], [ 113.019427897382656, 27.96875644589932 ], [ 113.018829977328508, 27.968436061546459 ], [ 113.018609774670651, 27.967958598589661 ], [ 113.018406490134865, 27.967783139333505 ], [ 113.018540041047714, 27.967639740960525 ], [ 113.018930681818375, 27.967809675794083 ], [ 113.019331297266561, 27.967913574904799 ], [ 113.01916590779193, 27.96738694851544 ], [ 113.019811730504514, 27.966949077761658 ], [ 113.01916597619622, 27.966543807939157 ], [ 113.018706548521507, 27.966640108109239 ], [ 113.018352725543778, 27.967171188369608 ], [ 113.018086595841893, 27.967778036987735 ], [ 113.017852385968382, 27.968030738120891 ], [ 113.017985868631555, 27.968708475022463 ], [ 113.018188107232874, 27.969469032693215 ], [ 113.018060529074987, 27.969706430745799 ], [ 113.017680829883062, 27.969882529227313 ], [ 113.017231422843295, 27.969485732475761 ], [ 113.017097880417509, 27.96957212467564 ], [ 113.017112765312021, 27.970350211664336 ], [ 113.017096760228512, 27.971097380850324 ], [ 113.017171451755587, 27.971694268356085 ], [ 113.017084725056861, 27.972044571809885 ], [ 113.016931245600958, 27.972216034908403 ], [ 113.017247130363884, 27.972409172634872 ], [ 113.017346769119769, 27.97259192119278 ], [ 113.018064284334017, 27.972553892072046 ], [ 113.019346901705802, 27.972114228457393 ], [ 113.020524797156355, 27.973106124417072 ], [ 113.022427159485332, 27.975697336867103 ], [ 113.023260237807179, 27.977373354484669 ], [ 113.024070676194583, 27.975780910949201 ], [ 113.023792751818192, 27.973885344536388 ], [ 113.023808785112394, 27.972825126193644 ], [ 113.024092883383886, 27.972340283210567 ], [ 113.0247337809801, 27.97218254348218 ], [ 113.025439444886786, 27.972431709511305 ], [ 113.025893930060676, 27.972809570830723 ], [ 113.026033478649481, 27.972772196867023 ], [ 113.026114224861075, 27.972662966215751 ], [ 113.02607038948976, 27.972393036941192 ], [ 113.026220921478654, 27.972130597469931 ], [ 113.02637044555955, 27.972013185219023 ], [ 113.026477159580324, 27.971276783250868 ], [ 113.026368545786497, 27.970860999324763 ], [ 113.026445318900571, 27.970589752877519 ], [ 113.027271718985347, 27.969736452223362 ], [ 113.028358259019754, 27.969506602573876 ], [ 113.029181614786978, 27.969901558753477 ], [ 113.029065039764475, 27.969210741590022 ], [ 113.029204629612096, 27.968830322156474 ], [ 113.02912989508954, 27.968471453166874 ], [ 113.029236578322809, 27.968223139768735 ], [ 113.029262505538966, 27.96811205521167 ], [ 113.028765095116398, 27.967923294851786 ], [ 113.028626546853474, 27.967777625853191 ], [ 113.028354449092831, 27.967328250236434 ], [ 113.028278707405761, 27.967120410613425 ], [ 113.028305665281806, 27.96658425191357 ], [ 113.028375447738796, 27.966526062630471 ], [ 113.028429278658635, 27.96649791949422 ], [ 113.028626648331411, 27.966531418128067 ], [ 113.02875025641606, 27.966525100123313 ], [ 113.029149977891052, 27.966681104002987 ], [ 113.029316457204018, 27.966619669364675 ], [ 113.02950887401218, 27.966334132217913 ], [ 113.030011358862595, 27.965560729639979 ], [ 113.030402148229882, 27.965422720966863 ], [ 113.030503843179815, 27.965274440442908 ], [ 113.030500895366785, 27.96474836007275 ], [ 113.030436132942938, 27.96431245016884 ], [ 113.030376341160959, 27.964047556403592 ], [ 113.030258732398025, 27.963754803768957 ], [ 113.030265726074305, 27.963564754385352 ], [ 113.030324547729037, 27.963498595114388 ], [ 113.030810986520166, 27.964060467041094 ], [ 113.030895669653873, 27.964719365016038 ], [ 113.031318355898534, 27.964774318898936 ], [ 113.031521745786279, 27.964556776633437 ], [ 113.031410134311614, 27.964016963990929 ], [ 113.031505845925892, 27.96393171176296 ], [ 113.031773026207958, 27.963893042364255 ], [ 113.031932557466021, 27.963630603673881 ], [ 113.032574589015297, 27.963683030944782 ], [ 113.032982357859964, 27.963572014294968 ], [ 113.033441983100758, 27.963371861784868 ], [ 113.032930563905197, 27.962975041008917 ], [ 113.032576652171372, 27.962833883940846 ], [ 113.032781086338161, 27.962141267073751 ], [ 113.032674416008163, 27.962079517999936 ], [ 113.032455093537138, 27.961971038077131 ], [ 113.032357393865738, 27.961947274320256 ], [ 113.03195163914296, 27.961915269628715 ], [ 113.031561857781625, 27.961674195084896 ], [ 113.03125681611246, 27.961471920136109 ], [ 113.031208988408636, 27.961173989476283 ], [ 113.031514074430163, 27.960826171758072 ], [ 113.031776271683157, 27.960768511564449 ], [ 113.032016556661318, 27.960487870127622 ], [ 113.031582964432928, 27.95957379068275 ], [ 113.031235076358826, 27.959110578485312 ], [ 113.03122513229448, 27.958802551577794 ], [ 113.030897201556996, 27.958153261710084 ], [ 113.030849386790166, 27.957703305817336 ], [ 113.031160453733861, 27.95731846361069 ], [ 113.031295081456051, 27.956778037104243 ], [ 113.032022872123562, 27.956392166795474 ], [ 113.032231265993403, 27.955997586301748 ], [ 113.032552321964559, 27.955549721384138 ], [ 113.032712887006497, 27.954887216114759 ], [ 113.032149610619996, 27.954839592642035 ], [ 113.031225452620504, 27.954870889672698 ], [ 113.029790019934794, 27.953726305031275 ], [ 113.014790969175834, 27.944902558878688 ], [ 113.014229798576409, 27.946785492244651 ] ] ] } }
]
}
