{
"type": "FeatureCollection",
"name": "新湖村村委会",
"crs": { "type": "name", "properties": { "name": "urn:ogc:def:crs:OGC:1.3:CRS84" } },
"features": [
{ "type": "Feature", "properties": { "adcode": "430372100201", "fullName": "湖南省湘潭市岳塘区昭山镇新湖村村委会", "level": "居委会/社区", "location": "113.014759,27.914418", "name": "新湖村村委会", "OBJECTID": 4147, "SHAPE_Leng": 0.133750758562, "SHAPE_Area": 0.000270995503 }, "geometry": { "type": "Polygon", "coordinates": [ [ [ 113.011215409936909, 27.923775329174646 ], [ 113.01129512762121, 27.923728087796388 ], [ 113.011773458204715, 27.923168594161961 ], [ 113.010672476799414, 27.922351677101961 ], [ 113.009544506883657, 27.922833078109996 ], [ 113.009384119206288, 27.922435483365369 ], [ 113.009004478733459, 27.922622636790145 ], [ 113.008811190220754, 27.922489185614701 ], [ 113.008544156687762, 27.92251898118872 ], [ 113.008309051104888, 27.922017592132352 ], [ 113.0073466193912, 27.921210312612054 ], [ 113.006924158251906, 27.921241575940105 ], [ 113.006112140050249, 27.921080971698334 ], [ 113.006047340817616, 27.92153224252219 ], [ 113.005920778190671, 27.921855676190628 ], [ 113.005785201404663, 27.922765237187601 ], [ 113.005614805190646, 27.923022791095509 ], [ 113.005588895015336, 27.923086879607023 ], [ 113.005278018024228, 27.923302847545525 ], [ 113.004664268740498, 27.923350696373976 ], [ 113.004343457412546, 27.923243641507671 ], [ 113.003739691131457, 27.923117435441693 ], [ 113.003455726226974, 27.923264315434658 ], [ 113.002991441634123, 27.923238710122384 ], [ 113.002932768571839, 27.921872653490102 ], [ 113.002686698033898, 27.92161835225787 ], [ 113.002606001930474, 27.921547583663088 ], [ 113.002109842564025, 27.921472068924007 ], [ 113.001191249811612, 27.921399834478805 ], [ 113.001650604071557, 27.920706326113272 ], [ 113.002285320525345, 27.919898269749154 ], [ 113.002129909016261, 27.919728710180788 ], [ 113.002231558642421, 27.919411348850169 ], [ 113.002590215907148, 27.919619301561312 ], [ 113.002835294048523, 27.91982259690371 ], [ 113.00364330887038, 27.919867169779625 ], [ 113.004936584595768, 27.919431209091531 ], [ 113.005496537938257, 27.919322512429641 ], [ 113.005566308190453, 27.91899924825924 ], [ 113.005741702343357, 27.918539644746101 ], [ 113.005567360342994, 27.918306126567092 ], [ 113.005214684790815, 27.917928118252259 ], [ 113.005332267744862, 27.917748735258456 ], [ 113.005375148881967, 27.917272525357273 ], [ 113.005699996072892, 27.916796471394886 ], [ 113.006025792231554, 27.916923518755073 ], [ 113.006448225030297, 27.917188302213599 ], [ 113.006699281686267, 27.917505607419614 ], [ 113.006816829737602, 27.917784304588331 ], [ 113.006891524788116, 27.918182149986304 ], [ 113.00733389573962, 27.918366864201857 ], [ 113.007779270201624, 27.918403546308188 ], [ 113.007933727381953, 27.918165046810184 ], [ 113.0077304796893, 27.918009623889454 ], [ 113.007794261744337, 27.917833404262193 ], [ 113.00806228165483, 27.917894618984427 ], [ 113.008351272706861, 27.917382674338803 ], [ 113.008691981858334, 27.9180497792258 ], [ 113.009234030236868, 27.917891149384676 ], [ 113.009971372622786, 27.917794958679732 ], [ 113.010125867112421, 27.917153394268251 ], [ 113.012146616484131, 27.917080464735978 ], [ 113.012466382886018, 27.918209726924395 ], [ 113.012199252031891, 27.91925668359427 ], [ 113.010913852346718, 27.919342454561825 ], [ 113.010848060039422, 27.919698708380199 ], [ 113.010479339676976, 27.920282890404572 ], [ 113.010474318156, 27.920771988793327 ], [ 113.010634717747166, 27.921054566135084 ], [ 113.011313263894507, 27.921242609790571 ], [ 113.011351105113491, 27.921526547636205 ], [ 113.011629093774175, 27.92170676581198 ], [ 113.011223503072131, 27.922267047632975 ], [ 113.01142675621027, 27.922483489995841 ], [ 113.012111283575379, 27.922747536828282 ], [ 113.012360416981011, 27.922456761535091 ], [ 113.012582644747681, 27.922199071040861 ], [ 113.013170606135219, 27.92151324709263 ], [ 113.015812313856756, 27.921050568785596 ], [ 113.017319035297149, 27.921294330579013 ], [ 113.018541774411716, 27.921654950368907 ], [ 113.019584296343879, 27.920386822253885 ], [ 113.020177322439864, 27.919750067250238 ], [ 113.02065679763993, 27.918436517077332 ], [ 113.020268162020798, 27.917915501976236 ], [ 113.017743861709647, 27.917595498883365 ], [ 113.017039376161335, 27.916756345685759 ], [ 113.017135120541653, 27.915801911386371 ], [ 113.018124700069592, 27.91567109771918 ], [ 113.019147210881812, 27.915264163981895 ], [ 113.019501119933935, 27.913755919575486 ], [ 113.018334252823223, 27.912265926655149 ], [ 113.017783257802378, 27.911036266016644 ], [ 113.017385731034935, 27.909871188457348 ], [ 113.017327954331222, 27.90959230404744 ], [ 113.017874124813275, 27.908798627468734 ], [ 113.018071465307386, 27.90851302330417 ], [ 113.018338578661655, 27.908069196953221 ], [ 113.017287272614155, 27.907412046350597 ], [ 113.016499057877297, 27.906919196369948 ], [ 113.01627883836899, 27.906781799157567 ], [ 113.014669388220796, 27.908049618908031 ], [ 113.014430217301438, 27.908238338994003 ], [ 113.011904156490402, 27.908773751089182 ], [ 113.009441973362726, 27.909295065436829 ], [ 113.008014127754407, 27.909598343080081 ], [ 113.007918473976304, 27.909619630673312 ], [ 113.007243926917482, 27.909670644739972 ], [ 113.005443458588076, 27.910337134671391 ], [ 113.005260162962969, 27.90994261629481 ], [ 113.004479168339131, 27.908258671346413 ], [ 113.004292886229933, 27.90785516199232 ], [ 113.003257704047044, 27.907812269622347 ], [ 113.003465996181049, 27.907063514209614 ], [ 113.003902400240051, 27.906909174325694 ], [ 113.003742023123763, 27.906512589092525 ], [ 113.00290212011592, 27.90652812205607 ], [ 113.002893091800914, 27.907292279868713 ], [ 113.002700745924358, 27.907989979324199 ], [ 113.001127524547158, 27.908521825100358 ], [ 113.00087638136911, 27.909441742802827 ], [ 113.001908459523264, 27.910665829386776 ], [ 113.001364377853065, 27.911858678766514 ], [ 113.001390275066612, 27.911943614932046 ], [ 113.001588488553423, 27.912593126389975 ], [ 113.002179263843189, 27.913068421970141 ], [ 113.003799224931612, 27.913789661097226 ], [ 113.003007960351852, 27.916057432254433 ], [ 113.00165489793936, 27.916866656454253 ], [ 113.001553269411573, 27.91692697413642 ], [ 113.001171664693842, 27.917156168016795 ], [ 113.001102916257565, 27.917196383008239 ], [ 112.999947148844399, 27.917887003652819 ], [ 113.000454220330255, 27.918458563884737 ], [ 113.000284634603773, 27.921126534214206 ], [ 112.998279932635285, 27.92303994806932 ], [ 112.998185235389499, 27.923657341517096 ], [ 112.998426219207175, 27.925136861801455 ], [ 112.999036885752147, 27.9259011368882 ], [ 113.001110082479642, 27.927203072058347 ], [ 113.002351410134224, 27.92814948047279 ], [ 113.003431383462427, 27.928620303912247 ], [ 113.004424668515611, 27.929309433906887 ], [ 113.005814516269538, 27.929911370416797 ], [ 113.006626584269355, 27.929415860014558 ], [ 113.008027485516536, 27.929298671466842 ], [ 113.010389952066063, 27.929044650421996 ], [ 113.011170261348809, 27.927610116632991 ], [ 113.011183324170503, 27.926255847028919 ], [ 113.010434182463086, 27.924232698367007 ], [ 113.011215409936909, 27.923775329174646 ] ] ] } }
]
}
