{
"type": "FeatureCollection",
"name": "新石村村委会",
"crs": { "type": "name", "properties": { "name": "urn:ogc:def:crs:OGC:1.3:CRS84" } },
"features": [
{ "type": "Feature", "properties": { "adcode": "430302202204", "fullName": "湖南省湘潭市雨湖区长城乡新石村村委会", "level": "居委会/社区", "location": "112.877931,27.841983", "name": "新石村村委会", "OBJECTID": 3984, "SHAPE_Leng": 0.042804747374099998, "SHAPE_Area": 5.0486013000099997e-05 }, "geometry": { "type": "Polygon", "coordinates": [ [ [ 112.868560369856837, 27.84803472227431 ], [ 112.870617125921711, 27.84872300730893 ], [ 112.871518847515205, 27.848989958321923 ], [ 112.872850884241004, 27.849011250637037 ], [ 112.874203766503967, 27.850301707133003 ], [ 112.874933234549033, 27.850700416667337 ], [ 112.875757729625093, 27.851250211710767 ], [ 112.875843792199248, 27.851146266778855 ], [ 112.876700304054239, 27.851324999171716 ], [ 112.876804377475707, 27.851175058126927 ], [ 112.87757781871322, 27.851222674414721 ], [ 112.87805907864751, 27.851276050474027 ], [ 112.878179142442292, 27.851283141910084 ], [ 112.878290200863745, 27.851290226089105 ], [ 112.877625869101877, 27.850918661569843 ], [ 112.877206667178328, 27.850464260748428 ], [ 112.87644526686411, 27.849827546992742 ], [ 112.875327641085519, 27.84882044881132 ], [ 112.873815729140716, 27.847247856883893 ], [ 112.873792714470724, 27.847224832169591 ], [ 112.876374528781426, 27.845895846664099 ], [ 112.876417556750638, 27.845872878043274 ], [ 112.874464502798233, 27.843139770843102 ], [ 112.87373300909637, 27.842874069423438 ], [ 112.873261722338128, 27.842151517987286 ], [ 112.872620325049823, 27.841074739963624 ], [ 112.872617323149171, 27.841069736294717 ], [ 112.873345973498402, 27.83971120137155 ], [ 112.873368993704176, 27.839668215756053 ], [ 112.87250843013291, 27.838616236076323 ], [ 112.872464394859264, 27.838635196986598 ], [ 112.870654878273768, 27.839431535351988 ], [ 112.871256355338289, 27.83969818595471 ], [ 112.871085112068855, 27.841026228932993 ], [ 112.870140220610693, 27.842277466141386 ], [ 112.869835003953369, 27.841668049044284 ], [ 112.869247469100785, 27.841885462688143 ], [ 112.869205251718782, 27.844201793598522 ], [ 112.869890797010385, 27.844961642336642 ], [ 112.869933772461195, 27.845758817119151 ], [ 112.8689468162477, 27.846819942754074 ], [ 112.868560369856837, 27.84803472227431 ] ] ] } }
]
}
