{
"type": "FeatureCollection",
"name": "新电社区居委会",
"crs": { "type": "name", "properties": { "name": "urn:ogc:def:crs:OGC:1.3:CRS84" } },
"features": [
{ "type": "Feature", "properties": { "adcode": "430371002002", "fullName": "湖南省湘潭市岳塘区双马街道新电社区居委会", "level": "居委会/社区", "location": "113.001666,27.827971", "name": "新电社区居委会", "OBJECTID": 4127, "SHAPE_Leng": 0.051903865748099999, "SHAPE_Area": 0.000101868964 }, "geometry": { "type": "Polygon", "coordinates": [ [ [ 112.990249722671393, 27.837564051624437 ], [ 112.991284837382437, 27.837960967499058 ], [ 112.99196926520807, 27.838242929812029 ], [ 112.991713166103963, 27.838907816294043 ], [ 112.991306606022121, 27.839838203351103 ], [ 112.991827633880405, 27.840228680662541 ], [ 112.991935245462585, 27.84007232788241 ], [ 112.992406461388853, 27.840423949938739 ], [ 112.992620666643958, 27.840379290445735 ], [ 112.992758178429625, 27.840075822726849 ], [ 112.992802031335671, 27.839871656259866 ], [ 112.992909640205013, 27.839747308481915 ], [ 112.994152244838986, 27.836793048260706 ], [ 112.997059409505226, 27.836822198696211 ], [ 112.998513034465461, 27.836400709808963 ], [ 112.998962381072346, 27.836190310753143 ], [ 112.999069018428017, 27.835771919839029 ], [ 112.999753493343164, 27.835560808110998 ], [ 113.000073397742071, 27.8344206553564 ], [ 112.999986790753184, 27.833528775677525 ], [ 113.000373385688732, 27.833167545814174 ], [ 113.001163459488225, 27.833146149088822 ], [ 113.001303951129245, 27.832998700372247 ], [ 113.000990132697879, 27.832757611934149 ], [ 112.99896072194862, 27.832022650423554 ], [ 113.00015638184567, 27.830786825051003 ], [ 113.000156451815357, 27.829912686193655 ], [ 113.00152847059671, 27.828638328911779 ], [ 113.000992583481178, 27.82703569773189 ], [ 112.999240180585687, 27.825834822791116 ], [ 112.99858273843185, 27.824404595341374 ], [ 112.997685134582213, 27.823685211803607 ], [ 112.996530460151803, 27.823348673220597 ], [ 112.995675633897818, 27.823482297353127 ], [ 112.994905471726611, 27.82388470648101 ], [ 112.993986790807668, 27.82519671117543 ], [ 112.993451698584678, 27.826279511578434 ], [ 112.992682477141358, 27.827383028433559 ], [ 112.993109831266651, 27.828046831621183 ], [ 112.993225339970863, 27.828805599705728 ], [ 112.993456464843092, 27.828975922603043 ], [ 112.992644379013981, 27.830381618783157 ], [ 112.992088374737634, 27.83133246271186 ], [ 112.993370460037895, 27.833037829578785 ], [ 112.991232277936604, 27.834902637239729 ], [ 112.990249722671393, 27.837564051624437 ] ] ] } }
]
}
