{
"type": "FeatureCollection",
"name": "新站社区居委会",
"crs": { "type": "name", "properties": { "name": "urn:ogc:def:crs:OGC:1.3:CRS84" } },
"features": [
{ "type": "Feature", "properties": { "adcode": "430371002003", "fullName": "湖南省湘潭市岳塘区双马街道新站社区居委会", "level": "居委会/社区", "location": "112.999658,27.848763", "name": "新站社区居委会", "OBJECTID": 4128, "SHAPE_Leng": 0.0285939027425, "SHAPE_Area": 3.6798293000300003e-05 }, "geometry": { "type": "Polygon", "coordinates": [ [ [ 112.990638129315869, 27.85190219852052 ], [ 112.990995522927051, 27.855343677253092 ], [ 112.993853880057259, 27.855216953453336 ], [ 112.994877032114786, 27.855630904540412 ], [ 112.994902937388019, 27.855607821816555 ], [ 112.994908918381753, 27.855566796835603 ], [ 112.994828229615763, 27.855437021272461 ], [ 112.994869079656539, 27.855407892023578 ], [ 112.995257651228997, 27.855156666900005 ], [ 112.995455922707677, 27.855025041251945 ], [ 112.995666148725107, 27.854905381201558 ], [ 112.99573589289038, 27.854854160338675 ], [ 112.995785712041609, 27.854793998696604 ], [ 112.995925201049701, 27.854683555680612 ], [ 112.996253995895259, 27.854433513239439 ], [ 112.99637356015046, 27.854312129195858 ], [ 112.996503087964484, 27.854182713522736 ], [ 112.996742206091938, 27.854071967325943 ], [ 112.996761137186724, 27.854051906396805 ], [ 112.997250331608811, 27.85384938416173 ], [ 112.997399780037682, 27.853788919465398 ], [ 112.997459559029338, 27.85376973442628 ], [ 112.997568157199552, 27.853739399039814 ], [ 112.997608010548817, 27.853718274325118 ], [ 112.997886981109133, 27.853608407705803 ], [ 112.997867056855483, 27.853588465025123 ], [ 112.997738538329102, 27.853548849415422 ], [ 112.997698692245478, 27.853478959134598 ], [ 112.997657849955317, 27.853408071725912 ], [ 112.997618007084156, 27.853298174873142 ], [ 112.997489506195848, 27.853039523321311 ], [ 112.997403841553819, 27.852834750334285 ], [ 112.997360011629738, 27.852748869596692 ], [ 112.997270358257296, 27.852589116178279 ], [ 112.997150819397561, 27.852389447184489 ], [ 112.997129900421371, 27.852350504457519 ], [ 112.997129903702216, 27.852309497718561 ], [ 112.997180718512567, 27.852259334842593 ], [ 112.997280352374887, 27.852199021748476 ], [ 112.997409874121828, 27.852149619529357 ], [ 112.99742083636616, 27.852111579934483 ], [ 112.997379995791832, 27.852019689126632 ], [ 112.997240534356663, 27.851779074036678 ], [ 112.997190729430272, 27.851659205947321 ], [ 112.997159847946818, 27.851615292728344 ], [ 112.99715486697491, 27.851609306905651 ], [ 112.997139925819909, 27.851569345825446 ], [ 112.997139929020648, 27.851529339257596 ], [ 112.997170816423804, 27.851499240324024 ], [ 112.997200706739164, 27.851479146067085 ], [ 112.997290374420814, 27.851459870040792 ], [ 112.997330227256455, 27.85144474629254 ], [ 112.997350156677072, 27.85139967826365 ], [ 112.997360125349132, 27.851327636124175 ], [ 112.997398982943011, 27.851299513281447 ], [ 112.99751953667915, 27.851268141350083 ], [ 112.99757931577966, 27.851247956176028 ], [ 112.997628137281652, 27.851207801073521 ], [ 112.997698879620287, 27.851137574369496 ], [ 112.997739729203474, 27.851117446814115 ], [ 112.997835378886109, 27.851047144364863 ], [ 112.997808482186841, 27.85100721963213 ], [ 112.997788559537653, 27.850967273685775 ], [ 112.997788562739231, 27.850927267123232 ], [ 112.997783584078121, 27.850892276535561 ], [ 112.997758677967482, 27.85087734984749 ], [ 112.997739750013281, 27.85085740415499 ], [ 112.997678977787956, 27.8508375857703 ], [ 112.997609237347859, 27.850837797958896 ], [ 112.997519571092141, 27.850838070792346 ], [ 112.997419941150383, 27.85084837560612 ], [ 112.997164885891905, 27.850909161687721 ], [ 112.997105108469995, 27.850909343641423 ], [ 112.997070239832311, 27.850890446667872 ], [ 112.997041351499021, 27.850839526251089 ], [ 112.997021431298592, 27.850769575424689 ], [ 112.996991545719055, 27.850730660013536 ], [ 112.996941733625036, 27.850700806740203 ], [ 112.996852067632616, 27.850700079554542 ], [ 112.996692658054897, 27.850741571615327 ], [ 112.996621920731542, 27.850751788639705 ], [ 112.996563140566337, 27.85074096582391 ], [ 112.996263258453453, 27.850732877588527 ], [ 112.996125773188567, 27.850702291248766 ], [ 112.99607496482956, 27.850673441253285 ], [ 112.996035118918968, 27.850603551157104 ], [ 112.995955427906026, 27.850453769335054 ], [ 112.99592853206164, 27.850404843239605 ], [ 112.995915582083768, 27.85038287908489 ], [ 112.995860790673859, 27.85032803698336 ], [ 112.995795039309243, 27.850283229909603 ], [ 112.995706373747453, 27.850233491827421 ], [ 112.995577855920473, 27.850193876799835 ], [ 112.995317829798452, 27.850135659342381 ], [ 112.99526801547151, 27.850135811113841 ], [ 112.995208239162395, 27.850124991439387 ], [ 112.995008981096447, 27.850135600189731 ], [ 112.994942231199886, 27.85011980095511 ], [ 112.994929286114441, 27.850036826817256 ], [ 112.994949217433501, 27.849966754634327 ], [ 112.995009007396177, 27.849806546283542 ], [ 112.995048864922083, 27.84973041241026 ], [ 112.995078756308885, 27.849695315609967 ], [ 112.995138536687449, 27.849655126925182 ], [ 112.99518835420551, 27.849614968598065 ], [ 112.995218245197449, 27.849584872620241 ], [ 112.995347774440788, 27.849434453451675 ], [ 112.995507192231898, 27.849284943408112 ], [ 112.995522138213829, 27.849263894442032 ], [ 112.995595871442134, 27.849163653469997 ], [ 112.995626761056926, 27.849104549724693 ], [ 112.995646690875716, 27.849053480676403 ], [ 112.995656660143098, 27.848973437234694 ], [ 112.995656667339304, 27.848883422509335 ], [ 112.995636747994453, 27.848803470123688 ], [ 112.995546112982325, 27.848464690880096 ], [ 112.995517229536347, 27.848353760753199 ], [ 112.995517237531445, 27.848253744405881 ], [ 112.995537177581099, 27.848074654445384 ], [ 112.995546156156223, 27.847924602617891 ], [ 112.995527232300773, 27.847854648850422 ], [ 112.995477424431854, 27.847773787380419 ], [ 112.995397727882917, 27.847694017137496 ], [ 112.995346921257024, 27.847644163774579 ], [ 112.99530707458689, 27.847584275391725 ], [ 112.995307079383352, 27.847524265593599 ], [ 112.995327009113595, 27.84747419672097 ], [ 112.995356901711546, 27.847424097495438 ], [ 112.995387788918578, 27.847394998664349 ], [ 112.995417678321289, 27.847384905971616 ], [ 112.995447569324128, 27.847354810014533 ], [ 112.995457534670848, 27.847323774600749 ], [ 112.995437612851362, 27.847274827307793 ], [ 112.995407727445027, 27.847234911838058 ], [ 112.995367878452825, 27.84720402819212 ], [ 112.995337991450114, 27.84718411598913 ], [ 112.995287180830132, 27.847184270795164 ], [ 112.995228397522638, 27.847214454783582 ], [ 112.995178582396463, 27.847224608190587 ], [ 112.995138730857065, 27.847225729774824 ], [ 112.9950879218474, 27.847205881323639 ], [ 112.994939476861134, 27.847185330202329 ], [ 112.994879701284901, 27.847165509077978 ], [ 112.994789043158164, 27.847116777329362 ], [ 112.994710338232579, 27.84709601372472 ], [ 112.9945559138947, 27.84709648426746 ], [ 112.993864423729406, 27.847946729561073 ], [ 112.993786705843306, 27.848041981866452 ], [ 112.99316894831037, 27.848797987122115 ], [ 112.990638129315869, 27.85190219852052 ] ] ] } }
]
}
