{
"type": "FeatureCollection",
"name": "方竹村委会",
"crs": { "type": "name", "properties": { "name": "urn:ogc:def:crs:OGC:1.3:CRS84" } },
"features": [
{ "type": "Feature", "properties": { "adcode": "430302100249", "fullName": "湖南省湘潭市雨湖区鹤岭镇方竹村委会", "level": "居委会/社区", "location": "112.832885,27.985156", "name": "方竹村委会", "OBJECTID": 3929, "SHAPE_Leng": 0.097385525458500002, "SHAPE_Area": 0.0002651396475 }, "geometry": { "type": "Polygon", "coordinates": [ [ [ 112.813315521299941, 27.993398568470017 ], [ 112.816669508618077, 27.994162935633607 ], [ 112.819506667961392, 27.9941672601249 ], [ 112.819936260628069, 27.996594458016403 ], [ 112.821397946447547, 27.996369174566933 ], [ 112.823375385167822, 27.998570253340123 ], [ 112.82535403610855, 27.998049897032455 ], [ 112.827160483224645, 27.996006965383391 ], [ 112.831115634507142, 27.995861329231019 ], [ 112.833952552576747, 27.997535834831723 ], [ 112.834813283018249, 27.994806973199406 ], [ 112.834214214395033, 27.994984905759626 ], [ 112.833527154798489, 27.993012327370081 ], [ 112.836191071116943, 27.989984702697129 ], [ 112.834987973752973, 27.989907501674594 ], [ 112.836621944778813, 27.988394224880672 ], [ 112.836107114891405, 27.987559156818669 ], [ 112.836622034079923, 27.987256040052561 ], [ 112.836623089334651, 27.986573930940676 ], [ 112.837567711201388, 27.986727659083538 ], [ 112.837567806364333, 27.985514461556775 ], [ 112.836707342440633, 27.985208860725468 ], [ 112.837138183489287, 27.983997440499856 ], [ 112.836106452224712, 27.983237450600299 ], [ 112.834731051140764, 27.983158933441526 ], [ 112.833784435692252, 27.982476087512001 ], [ 112.833784566623237, 27.980807814097474 ], [ 112.832496293015637, 27.98065341630792 ], [ 112.831634904920506, 27.978756510756774 ], [ 112.834129561892169, 27.975880635159335 ], [ 112.833097783799005, 27.975271638446916 ], [ 112.83163516087896, 27.97549597309316 ], [ 112.831119279213311, 27.974964928323168 ], [ 112.830345813913567, 27.97594965321888 ], [ 112.829570400409551, 27.976174245110208 ], [ 112.827938450676996, 27.976171192721463 ], [ 112.827852258797648, 27.976626106353276 ], [ 112.828454319319547, 27.977006296727527 ], [ 112.828454188191827, 27.978675571738997 ], [ 112.828194647206942, 27.979583235251258 ], [ 112.827593611421719, 27.978900996628809 ], [ 112.826734050909153, 27.978898382997993 ], [ 112.827163760006414, 27.979810339867033 ], [ 112.82544463312253, 27.979807108311864 ], [ 112.824847395922944, 27.981701295228948 ], [ 112.824847056031444, 27.986024001436963 ], [ 112.821752162436326, 27.989125674041535 ], [ 112.819171387914096, 27.989954949589727 ], [ 112.818999127686823, 27.989272515149398 ], [ 112.818311870579961, 27.989346236034255 ], [ 112.81779600999181, 27.988359107780724 ], [ 112.816248201967085, 27.988356209158393 ], [ 112.815208288935793, 27.988777336873707 ], [ 112.815895494667032, 27.989233692718258 ], [ 112.814347612951721, 27.990366993057833 ], [ 112.813315521299941, 27.993398568470017 ] ] ] } }
]
}
