{
"type": "FeatureCollection",
"name": "日新村委会",
"crs": { "type": "name", "properties": { "name": "urn:ogc:def:crs:OGC:1.3:CRS84" } },
"features": [
{ "type": "Feature", "properties": { "adcode": "430302100203", "fullName": "湖南省湘潭市雨湖区鹤岭镇日新村委会", "level": "居委会/社区", "location": "112.74674,27.898298", "name": "日新村委会", "OBJECTID": 3897, "SHAPE_Leng": 0.13392041316799999, "SHAPE_Area": 0.0005210080565 }, "geometry": { "type": "Polygon", "coordinates": [ [ [ 112.726608168929289, 27.912971351357918 ], [ 112.72704066641667, 27.913834210121376 ], [ 112.731156896598023, 27.913982821624984 ], [ 112.732015271387667, 27.913073240255546 ], [ 112.734073614832752, 27.914437565122697 ], [ 112.734588386894359, 27.912769076289607 ], [ 112.738361025382474, 27.913525023209562 ], [ 112.739048741904128, 27.912615709448769 ], [ 112.741278786196006, 27.911856190566134 ], [ 112.742823085472168, 27.913373292151757 ], [ 112.745569361609199, 27.912615104043272 ], [ 112.744368001662252, 27.908365365570074 ], [ 112.744883079969213, 27.905635895354038 ], [ 112.745741839398491, 27.90608999141077 ], [ 112.746084814406231, 27.905482902526259 ], [ 112.746942581467948, 27.906393115853497 ], [ 112.748487381915808, 27.906241263589425 ], [ 112.747972597236853, 27.904269857922785 ], [ 112.749689466705391, 27.903967071752668 ], [ 112.750890324264546, 27.905331557516291 ], [ 112.751405363899224, 27.904877604506868 ], [ 112.752950321510042, 27.906394298388573 ], [ 112.753636495842755, 27.905029285963057 ], [ 112.757243188319848, 27.904727686146796 ], [ 112.757283199680657, 27.904715702895672 ], [ 112.758163466205374, 27.904451086063538 ], [ 112.757798430949578, 27.903560752433958 ], [ 112.757282413929559, 27.902004238197911 ], [ 112.75728354774327, 27.900315949796745 ], [ 112.757755774495195, 27.899064962144536 ], [ 112.757068655921643, 27.898250496238987 ], [ 112.756296486870184, 27.898079120594367 ], [ 112.755974494517702, 27.897110817153159 ], [ 112.756639740592604, 27.895858892426805 ], [ 112.756912843618736, 27.895385935084654 ], [ 112.757218962865835, 27.894853985870061 ], [ 112.757219019895516, 27.894132862788172 ], [ 112.757073020804015, 27.89364971235311 ], [ 112.756469034126766, 27.891647097890335 ], [ 112.755888956954692, 27.891039744954654 ], [ 112.755393904478169, 27.890490448340483 ], [ 112.754707822759116, 27.890054107681955 ], [ 112.754300773524918, 27.889920935258704 ], [ 112.754064784090531, 27.889388760637086 ], [ 112.752712672089984, 27.889085267833764 ], [ 112.751253648226765, 27.888610787886371 ], [ 112.749665628682948, 27.889292560535342 ], [ 112.748699660781867, 27.889805485570495 ], [ 112.747832700651244, 27.890548496539541 ], [ 112.747304740392366, 27.891001517292203 ], [ 112.746691788842, 27.891684581455628 ], [ 112.746489808123712, 27.89191160606202 ], [ 112.74668266456105, 27.893276852329695 ], [ 112.746810601315374, 27.893788949392253 ], [ 112.747991392474319, 27.894187136070766 ], [ 112.748420288564773, 27.894870308902586 ], [ 112.747390355247234, 27.895706328403612 ], [ 112.745909560075532, 27.896521360934859 ], [ 112.745094683258287, 27.897336477026535 ], [ 112.743271255601172, 27.896693406693178 ], [ 112.742326670953119, 27.895555282474067 ], [ 112.743449512246386, 27.892725719953379 ], [ 112.743485508062903, 27.892634702670478 ], [ 112.743013787634723, 27.891040457857738 ], [ 112.742711902735181, 27.890889453825739 ], [ 112.742640930392994, 27.89085345329574 ], [ 112.742027178015078, 27.890547457609088 ], [ 112.7396241874917, 27.890775855112654 ], [ 112.738589652296767, 27.891438189729186 ], [ 112.738380751579072, 27.891572262267928 ], [ 112.737652089137384, 27.892331577922128 ], [ 112.738123721216908, 27.893697688119872 ], [ 112.737136318034985, 27.893165864106752 ], [ 112.736021026595068, 27.892749138429838 ], [ 112.735993048875116, 27.892690137633416 ], [ 112.735807198026407, 27.892294132400824 ], [ 112.735634407877285, 27.891041978050783 ], [ 112.735592500896956, 27.890207850447041 ], [ 112.735206783445363, 27.88982892243467 ], [ 112.734862962874359, 27.890473158542488 ], [ 112.735163677154134, 27.891535228727662 ], [ 112.735034706281724, 27.892255398589992 ], [ 112.734940760076668, 27.892373453417243 ], [ 112.734520005614911, 27.892900702777958 ], [ 112.734026289667199, 27.893689032774343 ], [ 112.733104902187875, 27.894458553245517 ], [ 112.732344503890843, 27.894209855700417 ], [ 112.732118687154724, 27.894135949634265 ], [ 112.731227441414674, 27.893710315887816 ], [ 112.730914578630816, 27.895271743361484 ], [ 112.730809625447577, 27.895796887836866 ], [ 112.729963312157125, 27.896327435182442 ], [ 112.729544657782654, 27.896650726018805 ], [ 112.72899913559813, 27.896859078204471 ], [ 112.728184870954905, 27.897171624245932 ], [ 112.727787239738788, 27.897323899547423 ], [ 112.727579432567097, 27.897434050914313 ], [ 112.72736640455507, 27.900424699664018 ], [ 112.727356408052742, 27.900504719842569 ], [ 112.727337404598927, 27.900784780098196 ], [ 112.72728739690784, 27.901504935864185 ], [ 112.727237390105074, 27.902215090033977 ], [ 112.727187383321592, 27.902926244489045 ], [ 112.726967354593626, 27.906055925516789 ], [ 112.726947353139181, 27.906326985227054 ], [ 112.726916350208668, 27.906756079345179 ], [ 112.726896347293234, 27.907046142355 ], [ 112.726827300973113, 27.908507438818301 ], [ 112.726696226478353, 27.91111797419498 ], [ 112.726608168929289, 27.912971351357918 ] ] ] } }
]
}
