{
"type": "FeatureCollection",
"name": "易家山村委会",
"crs": { "type": "name", "properties": { "name": "urn:ogc:def:crs:OGC:1.3:CRS84" } },
"features": [
{ "type": "Feature", "properties": { "adcode": "430302102211", "fullName": "湖南省湘潭市雨湖区姜畲镇易家山村委会", "level": "居委会/社区", "location": "112.758277,27.843804", "name": "易家山村委会", "OBJECTID": 3957, "SHAPE_Leng": 0.071334757386899997, "SHAPE_Area": 0.0002811735945 }, "geometry": { "type": "Polygon", "coordinates": [ [ [ 112.739082063762766, 27.845070323573296 ], [ 112.741131055424731, 27.84596110695151 ], [ 112.741780777600269, 27.846180061186953 ], [ 112.742450510295413, 27.846400029868526 ], [ 112.74336913429228, 27.847210097693718 ], [ 112.743571053104318, 27.847430123782974 ], [ 112.744119840185533, 27.848040204553957 ], [ 112.744339757911163, 27.848291241232268 ], [ 112.744429725132164, 27.848390256168429 ], [ 112.744637650351294, 27.848623292561619 ], [ 112.745779272449596, 27.849900521509689 ], [ 112.745949213007904, 27.850190576254132 ], [ 112.746977881595527, 27.851915926445194 ], [ 112.747208831821681, 27.852068972126204 ], [ 112.748495591001799, 27.852980273420073 ], [ 112.748367436870211, 27.85510560607268 ], [ 112.751457250760026, 27.85571431072087 ], [ 112.75257331701539, 27.855487579874445 ], [ 112.753259381472432, 27.855373772737138 ], [ 112.754118445616115, 27.855790131396116 ], [ 112.757809247320438, 27.855299607244767 ], [ 112.759440797842686, 27.854843379682443 ], [ 112.762422116901405, 27.853541962768219 ], [ 112.761914896535686, 27.853395610295916 ], [ 112.761477714867908, 27.853268313669851 ], [ 112.761692910086595, 27.851978236079368 ], [ 112.76229427065006, 27.850840434569978 ], [ 112.763883198365036, 27.849019216172447 ], [ 112.764912848815996, 27.847881777473024 ], [ 112.764998939523338, 27.847349754640565 ], [ 112.765211105194936, 27.846787822075903 ], [ 112.764941964977382, 27.8466175924985 ], [ 112.763952474703643, 27.845977767962445 ], [ 112.76355228665723, 27.84572644547681 ], [ 112.762371867933567, 27.843725322196708 ], [ 112.760869413947134, 27.841186966994119 ], [ 112.757938428346975, 27.84080029858827 ], [ 112.754418741923061, 27.839887638355361 ], [ 112.750513380116303, 27.84140474529881 ], [ 112.745010280979145, 27.839411795228322 ], [ 112.744605397610414, 27.839265770858137 ], [ 112.744430438539609, 27.839349786014139 ], [ 112.740151839355676, 27.841429523300732 ], [ 112.740071872788235, 27.841469543891879 ], [ 112.73992192633645, 27.841669603417454 ], [ 112.739349140769178, 27.842418836299743 ], [ 112.739302158924744, 27.842480856050489 ], [ 112.739111233813418, 27.84273093686512 ], [ 112.739111205410083, 27.843090995339061 ], [ 112.739082063762766, 27.845070323573296 ] ] ] } }
]
}
