{
"type": "FeatureCollection",
"name": "易家村村委会",
"crs": { "type": "name", "properties": { "name": "urn:ogc:def:crs:OGC:1.3:CRS84" } },
"features": [
{ "type": "Feature", "properties": { "adcode": "430304015207", "fullName": "湖南省湘潭市岳塘区荷塘街道易家村村委会", "level": "居委会/社区", "location": "112.974555,27.899259", "name": "易家村村委会", "OBJECTID": 4109, "SHAPE_Leng": 0.125165076579, "SHAPE_Area": 0.000295156446 }, "geometry": { "type": "Polygon", "coordinates": [ [ [ 112.982955208385661, 27.893928446399219 ], [ 112.983081769802993, 27.893601011967618 ], [ 112.983258147623829, 27.893278429051058 ], [ 112.98429630798779, 27.893521356667307 ], [ 112.984435819304338, 27.893202883332457 ], [ 112.984269433561508, 27.893189380906492 ], [ 112.984296351742685, 27.892972263115759 ], [ 112.984397977653529, 27.892966956903955 ], [ 112.984456775740298, 27.892781748715478 ], [ 112.984890171411848, 27.892855458055244 ], [ 112.985184100175857, 27.892683544127038 ], [ 112.980897043241725, 27.890147939448251 ], [ 112.978866508995822, 27.889072763513514 ], [ 112.978780785224203, 27.889500088532539 ], [ 112.979548864318772, 27.891214114378009 ], [ 112.979357418218513, 27.892978979836283 ], [ 112.979527766732531, 27.893396547855929 ], [ 112.975851994843921, 27.893581346871265 ], [ 112.974889411981565, 27.893764165009955 ], [ 112.974750877249718, 27.894106623190943 ], [ 112.974514668339808, 27.894708406757349 ], [ 112.973066798761494, 27.894579539397334 ], [ 112.971291022705486, 27.894574583511385 ], [ 112.969344723954052, 27.895120137041236 ], [ 112.96826442749213, 27.895161141919605 ], [ 112.967595720149035, 27.895010959689607 ], [ 112.967768181926687, 27.894394380219399 ], [ 112.966571246030611, 27.894344651350206 ], [ 112.966528339314834, 27.894994879039665 ], [ 112.965934334588681, 27.895067506512078 ], [ 112.965592502907668, 27.894804387484619 ], [ 112.965309462314252, 27.894658127084721 ], [ 112.965036386129327, 27.894514838500161 ], [ 112.964646648808298, 27.894970963277235 ], [ 112.964384522268205, 27.894943660844344 ], [ 112.964026702869432, 27.895016629167806 ], [ 112.964110396997711, 27.89537846748836 ], [ 112.964092410747483, 27.895956613980285 ], [ 112.962398975926604, 27.896018108342506 ], [ 112.962104979031224, 27.895458784151881 ], [ 112.961755107151163, 27.895580719672793 ], [ 112.95778073776593, 27.896044959912341 ], [ 112.959047370673773, 27.90088159349434 ], [ 112.959570552286479, 27.90287660287116 ], [ 112.959919336876681, 27.90418693502744 ], [ 112.960164531020482, 27.904466353944262 ], [ 112.960407729741519, 27.904745776377045 ], [ 112.961136289368469, 27.90595309996025 ], [ 112.961244866423186, 27.906863973863008 ], [ 112.962390948723012, 27.909311399173035 ], [ 112.963307789149837, 27.911248311830782 ], [ 112.964144861676814, 27.913297435915172 ], [ 112.964211623599667, 27.913508293676962 ], [ 112.964778595189671, 27.915320085021051 ], [ 112.964845361509376, 27.915460929779567 ], [ 112.965091478815836, 27.916235400282861 ], [ 112.965290780992845, 27.916633931342993 ], [ 112.96599829340704, 27.918073263351555 ], [ 112.966777558042565, 27.919414371144256 ], [ 112.968236664397594, 27.918545213673308 ], [ 112.97086372816841, 27.916981615995887 ], [ 112.971499481502391, 27.917372888500747 ], [ 112.972184055884171, 27.917756013327882 ], [ 112.972248915365512, 27.916664642311297 ], [ 112.971623185988136, 27.915657244958879 ], [ 112.970874840818425, 27.915080259429718 ], [ 112.970110533841236, 27.914566318619592 ], [ 112.970105585338516, 27.914134258572592 ], [ 112.970352757462962, 27.913777504460004 ], [ 112.969742890959267, 27.913485162353549 ], [ 112.969860503997623, 27.913241791930563 ], [ 112.969411074899284, 27.912991003924866 ], [ 112.96948186401292, 27.912574735335227 ], [ 112.969049384469756, 27.912176871590066 ], [ 112.968418591034649, 27.911638529113258 ], [ 112.968413638588373, 27.911253476958816 ], [ 112.968807285695931, 27.911300394157831 ], [ 112.968866110657586, 27.910962173025286 ], [ 112.969134188621922, 27.910972429738393 ], [ 112.969258780377046, 27.910715038949228 ], [ 112.969851775882688, 27.910202296476363 ], [ 112.97025841909263, 27.909570049517793 ], [ 112.970567367989759, 27.909314138334384 ], [ 112.971070660870154, 27.908776629377929 ], [ 112.971677622801735, 27.907778743410059 ], [ 112.97193477216085, 27.907165909829395 ], [ 112.972202939184797, 27.905828919982493 ], [ 112.97379529815008, 27.906250444644137 ], [ 112.974340385730841, 27.906020838714209 ], [ 112.974084336313908, 27.905481483112357 ], [ 112.974553725209688, 27.904808016963241 ], [ 112.973052077963189, 27.904286237050822 ], [ 112.972459180310778, 27.904068890571594 ], [ 112.972090487192688, 27.903894908993891 ], [ 112.972203103144267, 27.903761566331148 ], [ 112.971961969627316, 27.903488204303574 ], [ 112.972069657893385, 27.902666758395995 ], [ 112.971176786763621, 27.902547265543465 ], [ 112.971594368162854, 27.902067003308574 ], [ 112.97197907036707, 27.901469811166443 ], [ 112.971834612785258, 27.901006141725308 ], [ 112.971834675588511, 27.900214006374025 ], [ 112.971284597187591, 27.900206561623964 ], [ 112.971197947874614, 27.899594701903236 ], [ 112.971745080547691, 27.899062063770867 ], [ 112.971643498885143, 27.898266215747935 ], [ 112.97211287076837, 27.898088854574201 ], [ 112.973343541419467, 27.898119351180426 ], [ 112.973508986566003, 27.897753815148501 ], [ 112.974459656013238, 27.897315009300794 ], [ 112.975394312096455, 27.897553350357672 ], [ 112.975415226287666, 27.897694313820271 ], [ 112.975222859714748, 27.898349982424211 ], [ 112.975132135671004, 27.898942345842151 ], [ 112.975730995432514, 27.898998620933391 ], [ 112.976131556434339, 27.899086472645251 ], [ 112.977046277163595, 27.899075805349586 ], [ 112.977788605943019, 27.899068632100189 ], [ 112.978032684083473, 27.89958900501248 ], [ 112.978497969030045, 27.900019711638588 ], [ 112.979176516963165, 27.899961703282752 ], [ 112.979892921006879, 27.899901576733047 ], [ 112.980626243516397, 27.900004421571243 ], [ 112.980904270670692, 27.899491508695647 ], [ 112.981566837391412, 27.899659566909786 ], [ 112.981941499023648, 27.89925538163677 ], [ 112.982427700280226, 27.899475968408307 ], [ 112.98296679509599, 27.898566201803039 ], [ 112.982945913103052, 27.898049176126378 ], [ 112.98168559015393, 27.897318814126489 ], [ 112.981262165408694, 27.896973015550333 ], [ 112.981399718845324, 27.896272486964961 ], [ 112.981923827209286, 27.895957872267168 ], [ 112.981572162092704, 27.895351816833841 ], [ 112.981016228862231, 27.89490039364977 ], [ 112.981652952111133, 27.894282394157631 ], [ 112.982955208385661, 27.893928446399219 ] ] ] } }
]
}
