{
"type": "FeatureCollection",
"name": "映山村委会",
"crs": { "type": "name", "properties": { "name": "urn:ogc:def:crs:OGC:1.3:CRS84" } },
"features": [
{ "type": "Feature", "properties": { "adcode": "430373200245", "fullName": "湖南省湘潭市雨湖区响水乡映山村委会", "level": "居委会/社区", "location": "112.87984,27.955739", "name": "映山村委会", "OBJECTID": 4031, "SHAPE_Leng": 0.108156053251, "SHAPE_Area": 0.000239841866 }, "geometry": { "type": "Polygon", "coordinates": [ [ [ 112.862635601526648, 27.959830644569589 ], [ 112.864225269524127, 27.960894812455802 ], [ 112.865085180527501, 27.960895856722875 ], [ 112.866159231722676, 27.96154223723541 ], [ 112.867104163791623, 27.961581332792235 ], [ 112.866975064525974, 27.961240128400529 ], [ 112.867274384997287, 27.960860404867699 ], [ 112.867190342087881, 27.960367226757235 ], [ 112.867790932399558, 27.960178870725805 ], [ 112.867963018109208, 27.96116422771297 ], [ 112.869123031510043, 27.961848607718096 ], [ 112.869166028693485, 27.962379742871757 ], [ 112.868778652200817, 27.962719382842934 ], [ 112.86882164993807, 27.963250518413123 ], [ 112.869294030865902, 27.963820121001074 ], [ 112.870840337217473, 27.964162786199381 ], [ 112.871958264184727, 27.963897853469124 ], [ 112.872644775669684, 27.96416455929786 ], [ 112.872257365312421, 27.965605429284931 ], [ 112.871141408747008, 27.966438470397581 ], [ 112.870797079579305, 27.967006217725295 ], [ 112.871012243331478, 27.967196467092712 ], [ 112.871656797098893, 27.966817046120727 ], [ 112.872944783769782, 27.966970312134233 ], [ 112.872558411308944, 27.967994116946056 ], [ 112.873073759009557, 27.968524692415571 ], [ 112.874490767695505, 27.968602995990288 ], [ 112.875478323284682, 27.96992907349005 ], [ 112.875264130547635, 27.970612004279719 ], [ 112.876208719690965, 27.970763823025386 ], [ 112.876251790402634, 27.970196764134691 ], [ 112.876896172006695, 27.970272298129135 ], [ 112.878012837378208, 27.9698190896802 ], [ 112.878398157655525, 27.968341131814128 ], [ 112.878914449205126, 27.967998452117921 ], [ 112.878571333485866, 27.967241076081368 ], [ 112.879043619967433, 27.966634317344063 ], [ 112.87981597257199, 27.966862897317039 ], [ 112.880159155475383, 27.966521073627426 ], [ 112.88058934110677, 27.966559366137783 ], [ 112.882135013387057, 27.965765201934005 ], [ 112.882219085001381, 27.965233162979821 ], [ 112.880674516354318, 27.964777124047469 ], [ 112.880159341571712, 27.964133674571521 ], [ 112.880159415475248, 27.963185515816605 ], [ 112.881232841432464, 27.963564279785604 ], [ 112.881662041721384, 27.963148477633823 ], [ 112.881534019073129, 27.962807341424021 ], [ 112.882692556104942, 27.961290778747738 ], [ 112.883765911077816, 27.961026327663735 ], [ 112.88531149847077, 27.958487673957752 ], [ 112.886084652321998, 27.958487024147544 ], [ 112.886255845086694, 27.956401747179921 ], [ 112.887973182992013, 27.955000188883986 ], [ 112.886385038306386, 27.954203431498051 ], [ 112.885655865719485, 27.954696193929038 ], [ 112.88514078279789, 27.954353896454002 ], [ 112.884839692388894, 27.95461979624972 ], [ 112.885010691110239, 27.955150968767938 ], [ 112.882392810859997, 27.95670283310514 ], [ 112.879945803198183, 27.956967326066554 ], [ 112.879517559198518, 27.957535126264759 ], [ 112.877798674742877, 27.957572876183843 ], [ 112.876638952909218, 27.958291086476454 ], [ 112.876639011997639, 27.957532958854365 ], [ 112.877970946011885, 27.955297623532157 ], [ 112.876080928365511, 27.954233946291829 ], [ 112.875481524487441, 27.954537494970204 ], [ 112.874621112358085, 27.952488404278565 ], [ 112.87453621367051, 27.950441982961113 ], [ 112.874793412305138, 27.950138157603039 ], [ 112.875093613011657, 27.950139418709558 ], [ 112.87543789775701, 27.949381585442829 ], [ 112.876295459364073, 27.949116256832003 ], [ 112.875609061343212, 27.948698614773335 ], [ 112.876166504039432, 27.947522880529394 ], [ 112.875438092812459, 27.946878160860862 ], [ 112.874664478365744, 27.94816771045214 ], [ 112.873075381610079, 27.947711190602117 ], [ 112.870370052169918, 27.949905903169537 ], [ 112.870068699581822, 27.951119796996267 ], [ 112.87105643775908, 27.952334013040034 ], [ 112.86835101555981, 27.953013282016425 ], [ 112.86706171035226, 27.95403701369257 ], [ 112.866245936299748, 27.95361900345037 ], [ 112.865687349631912, 27.953883392622512 ], [ 112.864956483115307, 27.955284756926897 ], [ 112.86439885445229, 27.955776163170729 ], [ 112.86448388007345, 27.95661140786482 ], [ 112.863066285127758, 27.957254757229428 ], [ 112.863538780998823, 27.957596407836746 ], [ 112.863366535362516, 27.958315313515509 ], [ 112.864140287404922, 27.959492472309286 ], [ 112.862635601526648, 27.959830644569589 ] ] ] } }
]
}
