{
"type": "FeatureCollection",
"name": "昭山村村委会",
"crs": { "type": "name", "properties": { "name": "urn:ogc:def:crs:OGC:1.3:CRS84" } },
"features": [
{ "type": "Feature", "properties": { "adcode": "430372100216", "fullName": "湖南省湘潭市岳塘区昭山镇昭山村村委会", "level": "居委会/社区", "location": "113.018724,27.967856", "name": "昭山村村委会", "OBJECTID": 4162, "SHAPE_Leng": 0.168555351105, "SHAPE_Area": 0.0003337924065 }, "geometry": { "type": "Polygon", "coordinates": [ [ [ 112.997569838455462, 27.969407950427861 ], [ 112.998556139261581, 27.96972500391659 ], [ 113.000538681188971, 27.970809166541429 ], [ 113.002376818958041, 27.971431708991776 ], [ 113.002531243578233, 27.971484251501703 ], [ 113.003617239590838, 27.971399963838614 ], [ 113.00414523761745, 27.972089489656742 ], [ 113.004022594220302, 27.973266053027832 ], [ 113.003974734707327, 27.973709270202143 ], [ 113.004872321006388, 27.975066798128736 ], [ 113.006218340878718, 27.975579853120976 ], [ 113.007098097000195, 27.975916284462482 ], [ 113.007343194903257, 27.976010570379128 ], [ 113.008276782228563, 27.976167823247483 ], [ 113.008568717544264, 27.976215966097133 ], [ 113.008708215086287, 27.976166544948018 ], [ 113.008806860453319, 27.976125246228143 ], [ 113.009248273992057, 27.975955913528487 ], [ 113.010192888772792, 27.975591069401212 ], [ 113.011657658496759, 27.975127699568134 ], [ 113.012115995599999, 27.975395406493835 ], [ 113.012185707323241, 27.975875282465331 ], [ 113.012195669188372, 27.975906258549205 ], [ 113.012414828460635, 27.97661473716629 ], [ 113.012793427909628, 27.977224736995556 ], [ 113.013130213776037, 27.977402789129496 ], [ 113.013789841672079, 27.977751937840921 ], [ 113.014257229146565, 27.977219502108017 ], [ 113.014347930192542, 27.976950196591865 ], [ 113.01440773500029, 27.976749991486979 ], [ 113.014497439991288, 27.976478688706472 ], [ 113.014636964985513, 27.976259251362713 ], [ 113.014652910720727, 27.976234201405266 ], [ 113.01506451008008, 27.97560791666902 ], [ 113.015195067537988, 27.975396507639598 ], [ 113.016032128226215, 27.975395115418738 ], [ 113.016410759475761, 27.975934126355661 ], [ 113.016271208442575, 27.976413602298937 ], [ 113.016251273297357, 27.976473668925674 ], [ 113.016149574754294, 27.977143068638352 ], [ 113.016120660437807, 27.977334182429178 ], [ 113.016091742895568, 27.97756530281335 ], [ 113.016310921456935, 27.978233788620013 ], [ 113.017307342976338, 27.979512172496882 ], [ 113.018067651054224, 27.980190139878609 ], [ 113.018197193662175, 27.980305794681669 ], [ 113.018601767552624, 27.980667718816438 ], [ 113.019071057707563, 27.981827595906875 ], [ 113.019210550857807, 27.982167262091416 ], [ 113.019290243996281, 27.982576106618843 ], [ 113.019429711054286, 27.983245827284257 ], [ 113.018144130181952, 27.983338439448598 ], [ 113.017855128695359, 27.983360256128012 ], [ 113.017684719344743, 27.983360736418259 ], [ 113.01758606077945, 27.983371016367979 ], [ 113.017506304147773, 27.983782308513273 ], [ 113.017580025537796, 27.984061145881409 ], [ 113.017775288893418, 27.984790714073739 ], [ 113.017486236293834, 27.985471640142414 ], [ 113.017486208703147, 27.985811695486927 ], [ 113.017635680073838, 27.985932293273461 ], [ 113.017655600385851, 27.98606225820151 ], [ 113.017536001628613, 27.986231623132817 ], [ 113.01732572788039, 27.986283225421182 ], [ 113.016858364502795, 27.986164529174605 ], [ 113.016639173866338, 27.985615061797155 ], [ 113.016512645804937, 27.985245361081578 ], [ 113.016410028876521, 27.984944603847509 ], [ 113.015711476415561, 27.984936593201908 ], [ 113.015014854644633, 27.985818730345269 ], [ 113.014784633035092, 27.986229457783839 ], [ 113.01568138340528, 27.98737807563375 ], [ 113.016012207158852, 27.987574163402829 ], [ 113.016469584601126, 27.987845905518686 ], [ 113.016947892188213, 27.988133594697203 ], [ 113.017097364327228, 27.988223185875654 ], [ 113.017147188398567, 27.988254049855925 ], [ 113.017844761468822, 27.988311089693486 ], [ 113.017883620340413, 27.988390993191796 ], [ 113.017992226047241, 27.988614723693896 ], [ 113.018079907652421, 27.988798506785677 ], [ 113.018142679711886, 27.988931351791432 ], [ 113.018751572676223, 27.988999655017473 ], [ 113.019208950102552, 27.989608475410641 ], [ 113.019907561992298, 27.989546521589915 ], [ 113.020375006543262, 27.98906414868835 ], [ 113.020612221178936, 27.988795449856575 ], [ 113.02091422330507, 27.988453561907278 ], [ 113.02168165981881, 27.988050389675816 ], [ 113.02247002474266, 27.987848206095279 ], [ 113.022507897124115, 27.98785610440305 ], [ 113.022817854355338, 27.987917272795148 ], [ 113.023096922226017, 27.987916516909586 ], [ 113.023166699276416, 27.987796308753079 ], [ 113.023077013953113, 27.987606520547434 ], [ 113.023011237584782, 27.98755669047474 ], [ 113.022857760106831, 27.987437086816101 ], [ 113.022707317968255, 27.986767386245983 ], [ 113.023098045784963, 27.98635626087205 ], [ 113.024628970429461, 27.986343145330693 ], [ 113.024861206114537, 27.98634152598899 ], [ 113.025479194931918, 27.986149853921926 ], [ 113.025568951299164, 27.985539517213695 ], [ 113.025269979396143, 27.984931210303081 ], [ 113.024412809890038, 27.984792470682784 ], [ 113.023754979359964, 27.984889250527235 ], [ 113.022957624702414, 27.985006421559042 ], [ 113.022100497931973, 27.984999750123279 ], [ 113.021183586913168, 27.985061270531961 ], [ 113.020595558467832, 27.98535293759948 ], [ 113.020495892590944, 27.985413222651196 ], [ 113.020386261624623, 27.985464534008116 ], [ 113.0193288361707, 27.985956549572087 ], [ 113.019100653007001, 27.985547119542858 ], [ 113.019180428677785, 27.984936797642572 ], [ 113.019728571744395, 27.984666227290806 ], [ 113.020346511946059, 27.984054414455496 ], [ 113.021003347502131, 27.983222466658766 ], [ 113.021044213139788, 27.983171345880116 ], [ 113.021383103534689, 27.982710339612801 ], [ 113.022042948408071, 27.98184939343815 ], [ 113.02222037075326, 27.981618871927353 ], [ 113.022768582922623, 27.981006281265465 ], [ 113.022918127787833, 27.98045678593034 ], [ 113.023007855121662, 27.980125488680251 ], [ 113.023396636665254, 27.979174282060217 ], [ 113.023612941462403, 27.97887865051969 ], [ 113.02384918369485, 27.978554961873339 ], [ 113.023260237807179, 27.977373354484669 ], [ 113.022427159485332, 27.975697336867103 ], [ 113.020524797156355, 27.973106124417072 ], [ 113.019346901705802, 27.972114228457393 ], [ 113.018064284334017, 27.972553892072046 ], [ 113.017346769119769, 27.97259192119278 ], [ 113.017247130363884, 27.972409172634872 ], [ 113.016931245600958, 27.972216034908403 ], [ 113.017084725056861, 27.972044571809885 ], [ 113.017171451755587, 27.971694268356085 ], [ 113.017096760228512, 27.971097380850324 ], [ 113.017112765312021, 27.970350211664336 ], [ 113.017097880417509, 27.96957212467564 ], [ 113.017231422843295, 27.969485732475761 ], [ 113.017680829883062, 27.969882529227313 ], [ 113.018060529074987, 27.969706430745799 ], [ 113.018188107232874, 27.969469032693215 ], [ 113.017985868631555, 27.968708475022463 ], [ 113.017852385968382, 27.968030738120891 ], [ 113.018086595841893, 27.967778036987735 ], [ 113.018352725543778, 27.967171188369608 ], [ 113.018706548521507, 27.966640108109239 ], [ 113.01916597619622, 27.966543807939157 ], [ 113.019811730504514, 27.966949077761658 ], [ 113.01916590779193, 27.96738694851544 ], [ 113.019331297266561, 27.967913574904799 ], [ 113.018930681818375, 27.967809675794083 ], [ 113.018540041047714, 27.967639740960525 ], [ 113.018406490134865, 27.967783139333505 ], [ 113.018609774670651, 27.967958598589661 ], [ 113.018829977328508, 27.968436061546459 ], [ 113.019427897382656, 27.96875644589932 ], [ 113.020914865005196, 27.968283248945948 ], [ 113.020701711259619, 27.966777585877491 ], [ 113.021011675267204, 27.966582699444789 ], [ 113.020840270125234, 27.966417143843135 ], [ 113.020573197000488, 27.966176840469824 ], [ 113.020439656422141, 27.966114198946631 ], [ 113.020209430867595, 27.966234855957239 ], [ 113.019996177314653, 27.966003408333481 ], [ 113.019818804214026, 27.965746857811101 ], [ 113.019947384897478, 27.965500459825229 ], [ 113.020733708725572, 27.965474280426246 ], [ 113.020920098930475, 27.965193719992254 ], [ 113.020759661242977, 27.964975125599004 ], [ 113.020898214060296, 27.964691696494267 ], [ 113.021471278516373, 27.964637112626022 ], [ 113.021572991380637, 27.963945718430658 ], [ 113.021557059824914, 27.963765732011218 ], [ 113.021284986120406, 27.963681464176194 ], [ 113.020814620072599, 27.963189675918866 ], [ 113.020504687489677, 27.963015502000758 ], [ 113.020471812857551, 27.962849565087712 ], [ 113.020370168858022, 27.962726825546888 ], [ 113.020157928020012, 27.962286339289161 ], [ 113.019975601577798, 27.961655739138347 ], [ 113.019718461019451, 27.96189449304045 ], [ 113.017804973937743, 27.962823003177665 ], [ 113.017703337252328, 27.962687266921794 ], [ 113.018744784280372, 27.96212524731191 ], [ 113.018478761434764, 27.961384868656992 ], [ 113.017270031470744, 27.960353099517995 ], [ 113.016736068016115, 27.958174246404059 ], [ 113.015998729985398, 27.957134168768079 ], [ 113.015475761797234, 27.954710254216181 ], [ 113.015935198299474, 27.954110841072097 ], [ 113.014962709622509, 27.952956428237648 ], [ 113.014526378102033, 27.951367413461117 ], [ 113.014358824870058, 27.953157197655393 ], [ 113.012519284252036, 27.954090678319705 ], [ 113.0124971779166, 27.956373126887861 ], [ 113.013308303610557, 27.956184741079774 ], [ 113.013630133580264, 27.956514865409929 ], [ 113.014987332636181, 27.956528959315644 ], [ 113.015095873703004, 27.957471806574819 ], [ 113.015608073424573, 27.957462338970259 ], [ 113.016259560487271, 27.960288955361808 ], [ 113.014329209310162, 27.962024772822026 ], [ 113.013998301361852, 27.962999889682685 ], [ 113.012967947248839, 27.963173899788007 ], [ 113.013016893072617, 27.96169451033132 ], [ 113.013325924096534, 27.960087345476392 ], [ 113.013224304023254, 27.959858601467065 ], [ 113.012432111619731, 27.960051933960305 ], [ 113.012394043613014, 27.962564465473843 ], [ 113.008129336293237, 27.963611176932282 ], [ 113.007001537539381, 27.962488342186216 ], [ 113.003649851016135, 27.962355359688917 ], [ 113.003647858041759, 27.962359366358317 ], [ 113.003478468329575, 27.962538906390531 ], [ 113.00264945463644, 27.96346956109058 ], [ 113.002352525617582, 27.963803513192357 ], [ 113.001092071305848, 27.965322577912943 ], [ 113.000837989118949, 27.96562739814911 ], [ 112.999951186125031, 27.966810283329412 ], [ 112.99971204970231, 27.967121060605351 ], [ 112.998496455096827, 27.96856499262951 ], [ 112.998188578875812, 27.968844975080334 ], [ 112.99769936544368, 27.969288536561681 ], [ 112.997569838455462, 27.969407950427861 ] ] ] } }
]
}
