{
"type": "FeatureCollection",
"name": "昭潭村",
"crs": { "type": "name", "properties": { "name": "urn:ogc:def:crs:OGC:1.3:CRS84" } },
"features": [
{ "type": "Feature", "properties": { "adcode": "430373001201", "fullName": "湖南省湘潭市雨湖区和平街道昭潭村", "level": "居委会/社区", "location": "113.010227,27.952883", "name": "昭潭村", "OBJECTID": 3998, "SHAPE_Leng": 0.0082474576559500006, "SHAPE_Area": 3.9987250000199997e-06 }, "geometry": { "type": "Polygon", "coordinates": [ [ [ 113.003260755108784, 27.956561559626284 ], [ 113.004528048548991, 27.957009822817106 ], [ 113.005653880663672, 27.957409514844471 ], [ 113.005669830917697, 27.957301448948982 ], [ 113.005661012038203, 27.955463166140103 ], [ 113.004789222460516, 27.955347759218846 ], [ 113.003346552014207, 27.955157064796413 ], [ 113.003260755108784, 27.956561559626284 ] ] ] } }
]
}
