{
"type": "FeatureCollection",
"name": "晓塘社区居委会",
"crs": { "type": "name", "properties": { "name": "urn:ogc:def:crs:OGC:1.3:CRS84" } },
"features": [
{ "type": "Feature", "properties": { "adcode": "430304004001", "fullName": "湖南省湘潭市岳塘区书院路街道晓塘社区居委会", "level": "居委会/社区", "location": "112.928552,27.817275", "name": "晓塘社区居委会", "OBJECTID": 4053, "SHAPE_Leng": 0.022703819398000001, "SHAPE_Area": 2.2748879499900002e-05 }, "geometry": { "type": "Polygon", "coordinates": [ [ [ 112.927292143849343, 27.818671520781898 ], [ 112.925092121666765, 27.818753463898915 ], [ 112.923975050915246, 27.818795877942023 ], [ 112.923958079801309, 27.818795898907727 ], [ 112.920282991686761, 27.818899155758697 ], [ 112.92024498477042, 27.819729325525241 ], [ 112.920833080766329, 27.819766693830722 ], [ 112.920573414005858, 27.820624110712615 ], [ 112.920631274164208, 27.821279149977006 ], [ 112.9206073115203, 27.821272174950124 ], [ 112.919928357308223, 27.82108387339407 ], [ 112.919693686131467, 27.821369164701963 ], [ 112.919265293634851, 27.821705661433967 ], [ 112.919283266378656, 27.82171664467808 ], [ 112.919657696197518, 27.821928289649829 ], [ 112.919631731781777, 27.821967322862427 ], [ 112.919837421709786, 27.822008113621497 ], [ 112.923611286413916, 27.823680086523147 ], [ 112.92726519041338, 27.818718565249025 ], [ 112.927290146558633, 27.81868452555533 ], [ 112.927292143849343, 27.818671520781898 ] ] ] } }
]
}
