{
"type": "FeatureCollection",
"name": "曙光社区居委会",
"crs": { "type": "name", "properties": { "name": "urn:ogc:def:crs:OGC:1.3:CRS84" } },
"features": [
{ "type": "Feature", "properties": { "adcode": "430304006001", "fullName": "湖南省湘潭市岳塘区建设路街道曙光社区居委会", "level": "居委会/社区", "location": "112.925598,27.83398", "name": "曙光社区居委会", "OBJECTID": 4068, "SHAPE_Leng": 0.0294765312235, "SHAPE_Area": 2.52761014999e-05 }, "geometry": { "type": "Polygon", "coordinates": [ [ [ 112.91664568179695, 27.838233821055084 ], [ 112.917035145882735, 27.838380486793596 ], [ 112.916705554331315, 27.838841864377667 ], [ 112.916678581187455, 27.838960908159901 ], [ 112.91771215188281, 27.839202980988308 ], [ 112.919303848394335, 27.83953845359515 ], [ 112.9193138409412, 27.83944542831038 ], [ 112.922496846755735, 27.840189046045804 ], [ 112.922500840090493, 27.840191041692474 ], [ 112.922605697579769, 27.839822859265841 ], [ 112.922611689573358, 27.839799848509681 ], [ 112.92278842086624, 27.839528596282193 ], [ 112.923007085151241, 27.839207284637517 ], [ 112.923248683432789, 27.839211995845684 ], [ 112.923253676589809, 27.839192986771213 ], [ 112.923261665295755, 27.839166972959518 ], [ 112.923431424672231, 27.838612678599276 ], [ 112.923403530828566, 27.837850589769392 ], [ 112.923402536237276, 27.837802583254565 ], [ 112.924056417325716, 27.837972809707797 ], [ 112.924550666601363, 27.836703988058346 ], [ 112.924566642137279, 27.836662961327082 ], [ 112.924240211505364, 27.836578357209333 ], [ 112.924224236025637, 27.836615383069905 ], [ 112.924204266288584, 27.836666416143281 ], [ 112.924201270954811, 27.836672420837893 ], [ 112.924083449861669, 27.836963614024896 ], [ 112.923490452837598, 27.836981344707695 ], [ 112.923287820114751, 27.836621532125754 ], [ 112.922634885287195, 27.836802338886738 ], [ 112.922627893533004, 27.836843353697432 ], [ 112.922322245975366, 27.838709011183806 ], [ 112.922314259000672, 27.838708020311831 ], [ 112.921583439417901, 27.838591839514621 ], [ 112.921338963970811, 27.83681282854559 ], [ 112.921332976424026, 27.836773828987845 ], [ 112.92181122801388, 27.83665626975467 ], [ 112.92181622004685, 27.836656264060043 ], [ 112.922034921860018, 27.835987906335156 ], [ 112.922191729990885, 27.835208600565625 ], [ 112.922199720438812, 27.835165584430857 ], [ 112.920005210111796, 27.834331884862273 ], [ 112.919784514948262, 27.834669171729612 ], [ 112.919368102322409, 27.835063668446111 ], [ 112.919195357727958, 27.83504384287545 ], [ 112.918911738467841, 27.835465199052031 ], [ 112.918242720038634, 27.835181820459816 ], [ 112.917986039343916, 27.835732159125161 ], [ 112.917514686130119, 27.835855631257342 ], [ 112.917062204384166, 27.837157264986853 ], [ 112.916870410390175, 27.837844552769479 ], [ 112.916720608120073, 27.837891697697632 ], [ 112.91664568179695, 27.838233821055084 ] ] ] } }
]
}
