{
"type": "FeatureCollection",
"name": "月华村村委会",
"crs": { "type": "name", "properties": { "name": "urn:ogc:def:crs:OGC:1.3:CRS84" } },
"features": [
{ "type": "Feature", "properties": { "adcode": "430371002202", "fullName": "湖南省湘潭市岳塘区双马街道月华村村委会", "level": "居委会/社区", "location": "113.008228,27.857524", "name": "月华村村委会", "OBJECTID": 4132, "SHAPE_Leng": 0.105706527354, "SHAPE_Area": 0.000406214248 }, "geometry": { "type": "Polygon", "coordinates": [ [ [ 112.986781100809083, 27.868844702180606 ], [ 112.988010522345661, 27.869092023284665 ], [ 112.989307682213564, 27.869353132956462 ], [ 112.990885784899987, 27.869656388126526 ], [ 112.991562254446123, 27.869786351767697 ], [ 112.992551610840735, 27.869239248312631 ], [ 112.992809660167637, 27.86909743872895 ], [ 112.994329061999736, 27.868257669847054 ], [ 112.99608143769855, 27.86939252149827 ], [ 112.997627597765629, 27.870392982593273 ], [ 112.998368800780511, 27.87087380913237 ], [ 112.998932674573567, 27.871238156674011 ], [ 112.999303277895365, 27.871478071350861 ], [ 113.002679591459497, 27.873664215991681 ], [ 113.00320761492894, 27.874006681285028 ], [ 113.007086473055438, 27.872878867183712 ], [ 113.008371876911852, 27.871864877888999 ], [ 113.00868781963608, 27.870760757022421 ], [ 113.008714729572347, 27.870667661776469 ], [ 113.008072114498887, 27.87002445854656 ], [ 113.007958613427689, 27.868955616598118 ], [ 113.007990537970116, 27.868452437709461 ], [ 113.00797959841276, 27.868196427398299 ], [ 113.008236704702639, 27.867692580404686 ], [ 113.007669771425341, 27.867628252729187 ], [ 113.007669817997908, 27.867049155907292 ], [ 113.008706170172971, 27.865595839694045 ], [ 113.007798527159778, 27.86484940673926 ], [ 113.009091872337237, 27.864361493358523 ], [ 113.010780908181673, 27.862753252643891 ], [ 113.011519503504687, 27.859706584553624 ], [ 113.012930508764398, 27.859161384649759 ], [ 113.014481044426361, 27.858767838985209 ], [ 113.015347018654055, 27.858471304785077 ], [ 113.015305195951655, 27.858096362523366 ], [ 113.015261371494972, 27.857830444066195 ], [ 113.014930590372046, 27.857149279805547 ], [ 113.01464163713328, 27.856798051693321 ], [ 113.013990048996064, 27.855442704653175 ], [ 113.01366925122808, 27.854628496961503 ], [ 113.01344512605651, 27.853641982891041 ], [ 113.013370425682126, 27.853216129126672 ], [ 113.01297486146369, 27.852847214953137 ], [ 113.012910110375671, 27.852618365270796 ], [ 113.013252915241907, 27.852323322840107 ], [ 113.013390427613885, 27.852313923080036 ], [ 113.013511990122453, 27.85238858355245 ], [ 113.013565806734576, 27.852295412601297 ], [ 113.013769133893831, 27.851701727523032 ], [ 113.013822973489383, 27.85132651050737 ], [ 113.013330741106216, 27.851057889938467 ], [ 113.013126508627323, 27.850540396914774 ], [ 113.013276988053804, 27.850364932139762 ], [ 113.013436438798919, 27.850155436193919 ], [ 113.013154457550982, 27.849943218169731 ], [ 113.012465943783866, 27.849514147305229 ], [ 113.011503470261331, 27.848452780639562 ], [ 113.010723284902866, 27.848275036514462 ], [ 113.010232094894704, 27.847754394381958 ], [ 113.010258068746168, 27.846919181873353 ], [ 113.008462661470318, 27.845672278623763 ], [ 113.007641654432746, 27.845557696414659 ], [ 113.006871392377221, 27.846417128887147 ], [ 113.005855013325387, 27.847587354230736 ], [ 113.005315990992798, 27.847555962631041 ], [ 113.004428201746535, 27.848165725388451 ], [ 113.001632426002573, 27.849279335297844 ], [ 113.00115019441246, 27.849489828788993 ], [ 113.001691179561135, 27.849640216615256 ], [ 113.001964168606492, 27.849654393679614 ], [ 113.002203272345568, 27.849806696160314 ], [ 113.001806714644871, 27.850105943465877 ], [ 113.00156060648149, 27.850339725934717 ], [ 113.001348369168511, 27.850625414787014 ], [ 113.001261651314138, 27.851109756538353 ], [ 113.001229751259658, 27.851335890139122 ], [ 113.001191855314929, 27.851787078804367 ], [ 113.001337273303008, 27.852327727390826 ], [ 113.001273491205268, 27.85255495770177 ], [ 113.000670688781867, 27.853001856428417 ], [ 113.000466433855124, 27.853154500455478 ], [ 112.996331563401924, 27.856220571412468 ], [ 112.997200299154343, 27.856572984989786 ], [ 112.997619723908116, 27.856743736992001 ], [ 112.996433959052766, 27.858995718031707 ], [ 112.993115307792735, 27.85928187449322 ], [ 112.991191305417246, 27.861439089427417 ], [ 112.990423142867897, 27.861726473279013 ], [ 112.98931124621113, 27.862143920528492 ], [ 112.98928733016335, 27.862206003440626 ], [ 112.988900685389567, 27.863230347044702 ], [ 112.987923108413753, 27.865822742213417 ], [ 112.987201631656603, 27.86773124458875 ], [ 112.98700830680967, 27.868247915580397 ], [ 112.986781100809083, 27.868844702180606 ] ], [ [ 113.006175836051497, 27.847627401729373 ], [ 113.007264953077254, 27.846466964774137 ], [ 113.007836833591782, 27.846930339880824 ], [ 113.008458534192329, 27.847435577931424 ], [ 113.007459078593612, 27.848540725261955 ], [ 113.006831403084831, 27.848094521450946 ], [ 113.006175836051497, 27.847627401729373 ] ] ] } }
]
}
