{
"type": "FeatureCollection",
"name": "朝龙村委会",
"crs": { "type": "name", "properties": { "name": "urn:ogc:def:crs:OGC:1.3:CRS84" } },
"features": [
{ "type": "Feature", "properties": { "adcode": "430373200207", "fullName": "湖南省湘潭市雨湖区响水乡朝龙村委会", "level": "居委会/社区", "location": "112.875287,27.929943", "name": "朝龙村委会", "OBJECTID": 4013, "SHAPE_Leng": 0.111934807606, "SHAPE_Area": 0.0001782029995 }, "geometry": { "type": "Polygon", "coordinates": [ [ [ 112.859414690388519, 27.935559270829902 ], [ 112.860187600511523, 27.93597739013812 ], [ 112.861134765401673, 27.935522573838995 ], [ 112.861565263336416, 27.935598151660926 ], [ 112.86182057990888, 27.93533343895567 ], [ 112.862766607396082, 27.935980765122039 ], [ 112.863067968243328, 27.935676094789859 ], [ 112.863454395937055, 27.935677580556209 ], [ 112.863454428452599, 27.935260509344666 ], [ 112.863883895046925, 27.935298050103494 ], [ 112.864958082866082, 27.934769271790906 ], [ 112.865645718945927, 27.935756261685061 ], [ 112.865946025117481, 27.935755615619811 ], [ 112.86637643455262, 27.936060170124662 ], [ 112.866204179384169, 27.937121150890146 ], [ 112.866761725051035, 27.937236815871394 ], [ 112.866847836346594, 27.936894856266917 ], [ 112.868051023460879, 27.93648014063756 ], [ 112.868480543945964, 27.934924347291272 ], [ 112.86912511848945, 27.935077070909497 ], [ 112.868908870398172, 27.935758954910597 ], [ 112.869597399482771, 27.936859877708081 ], [ 112.869125909518786, 27.93777053167474 ], [ 112.871615834658343, 27.940236515658892 ], [ 112.871400628581654, 27.940654373666209 ], [ 112.870369760586229, 27.940805356048447 ], [ 112.870411666298395, 27.94247368334333 ], [ 112.871272353054025, 27.94285362040063 ], [ 112.871014037749944, 27.944180587035223 ], [ 112.870498571702697, 27.944634140196346 ], [ 112.869940055042107, 27.945127646181589 ], [ 112.870198218599398, 27.945885043360651 ], [ 112.869853859223113, 27.946680819979253 ], [ 112.870283178957152, 27.947327376195872 ], [ 112.869854762566519, 27.947932033354441 ], [ 112.869810638451895, 27.949032173759232 ], [ 112.870370052169918, 27.949905903169537 ], [ 112.873075381610079, 27.947711190602117 ], [ 112.874664478365744, 27.94816771045214 ], [ 112.875438092812459, 27.946878160860862 ], [ 112.876166504039432, 27.947522880529394 ], [ 112.875609061343212, 27.948698614773335 ], [ 112.876295459364073, 27.949116256832003 ], [ 112.876059343236037, 27.948733997464306 ], [ 112.876490694732453, 27.947620162347505 ], [ 112.877862761224449, 27.944071639033485 ], [ 112.873482159727061, 27.941564523238327 ], [ 112.869531273246423, 27.937732956850326 ], [ 112.870905706864264, 27.934433815677377 ], [ 112.872495180073969, 27.931818932774867 ], [ 112.873838215597715, 27.93129709624446 ], [ 112.873572119966383, 27.930066642611916 ], [ 112.872756515733016, 27.930065881629091 ], [ 112.873099900223778, 27.928435925859109 ], [ 112.87215421783398, 27.927940941011936 ], [ 112.872841769016503, 27.927638546771338 ], [ 112.874044617168863, 27.92801872206126 ], [ 112.87443085703319, 27.928399132722529 ], [ 112.875890906000521, 27.927300201987936 ], [ 112.875934042294304, 27.925896997657603 ], [ 112.876362342738815, 27.925443273337127 ], [ 112.875977228641503, 27.923849682883951 ], [ 112.875418928715163, 27.923128089350179 ], [ 112.874732473355792, 27.92312749590576 ], [ 112.874732482231295, 27.923013476375445 ], [ 112.875117766644394, 27.922673753292209 ], [ 112.87292836519282, 27.920812458911108 ], [ 112.873400747583716, 27.920395828185143 ], [ 112.872928444840312, 27.919789283598735 ], [ 112.873722074568093, 27.919186916200431 ], [ 112.872777401626919, 27.918881985491684 ], [ 112.871789537827652, 27.920133247822719 ], [ 112.872477037002284, 27.920625998553021 ], [ 112.871573258553383, 27.921500269151441 ], [ 112.864872462727902, 27.928735136347463 ], [ 112.864571167794651, 27.928432719319698 ], [ 112.864098656219653, 27.928507153666892 ], [ 112.86384134511917, 27.92892390719706 ], [ 112.863068512540423, 27.928693901283388 ], [ 112.862767178381844, 27.928656513202913 ], [ 112.860231783862147, 27.934308164317123 ], [ 112.859414690388519, 27.935559270829902 ] ] ] } }
]
}
