{
"type": "FeatureCollection",
"name": "木屐塘社区居委会",
"crs": { "type": "name", "properties": { "name": "urn:ogc:def:crs:OGC:1.3:CRS84" } },
"features": [
{ "type": "Feature", "properties": { "adcode": "430304001211", "fullName": "湖南省湘潭市岳塘区岳塘街道木屐塘社区居委会", "level": "居委会/社区", "location": "112.917107,27.823592", "name": "木屐塘社区居委会", "OBJECTID": 4048, "SHAPE_Leng": 0.0398734117667, "SHAPE_Area": 2.4777161999799999e-05 }, "geometry": { "type": "Polygon", "coordinates": [ [ [ 112.916285136942676, 27.825686148591863 ], [ 112.916276149178714, 27.825681155838023 ], [ 112.916303116809814, 27.825640125268691 ], [ 112.915651992556093, 27.825287642817962 ], [ 112.91345079406446, 27.824094250994293 ], [ 112.912835572631622, 27.823251581626099 ], [ 112.910706791884991, 27.824531251621167 ], [ 112.909708720789681, 27.825545029273496 ], [ 112.909416966049363, 27.826056281991626 ], [ 112.909135171514492, 27.826901577948892 ], [ 112.908781358572512, 27.828802077545742 ], [ 112.908914136577678, 27.83005220166168 ], [ 112.913099612958234, 27.831688717703067 ], [ 112.913111598699629, 27.831693709501739 ], [ 112.913309397844728, 27.831319500565741 ], [ 112.912924855030838, 27.831165764931772 ], [ 112.912972811351992, 27.831018705896287 ], [ 112.912581292548552, 27.830572923092543 ], [ 112.911789193823523, 27.830293440252269 ], [ 112.911887122818541, 27.829830298859651 ], [ 112.911895117094218, 27.829791287109867 ], [ 112.912419527325596, 27.829896932761248 ], [ 112.912456485270042, 27.829903907244713 ], [ 112.912333657642236, 27.829457924754678 ], [ 112.911884163069715, 27.829354225424709 ], [ 112.911879183605322, 27.829160198137327 ], [ 112.911737341329314, 27.82912229026871 ], [ 112.911712369714806, 27.829106304919126 ], [ 112.911725358089711, 27.829074290913294 ], [ 112.911745336287211, 27.829075277312974 ], [ 112.91184224973901, 27.82882917134328 ], [ 112.911406729349565, 27.828720451834609 ], [ 112.911651538477955, 27.827784137434524 ], [ 112.911660531456235, 27.827749125741022 ], [ 112.91187329998165, 27.82774597843278 ], [ 112.911902268334288, 27.82774495812491 ], [ 112.911904288200546, 27.827460911840245 ], [ 112.911962221199587, 27.827504878375525 ], [ 112.912311833882185, 27.827504631250605 ], [ 112.912326819474075, 27.827474615794834 ], [ 112.91234180272447, 27.827474605070179 ], [ 112.91267048552875, 27.826791259420389 ], [ 112.912444785027319, 27.826217332732863 ], [ 112.912440790292464, 27.826207334035654 ], [ 112.91317999372734, 27.825593692468495 ], [ 112.913905109359774, 27.825969193064893 ], [ 112.915657860136747, 27.826892890620918 ], [ 112.915667846895843, 27.826897882761209 ], [ 112.916285136942676, 27.825686148591863 ] ], [ [ 112.911471801446027, 27.8268951193898 ], [ 112.911411826896895, 27.827395238841191 ], [ 112.911356874631352, 27.827537298246821 ], [ 112.910734537050246, 27.827440692093006 ], [ 112.910901423768763, 27.826663461428883 ], [ 112.911471801446027, 27.8268951193898 ] ], [ [ 112.910805338625678, 27.829047900675931 ], [ 112.910644524580221, 27.828798964628945 ], [ 112.910323859532824, 27.828713153691009 ], [ 112.910469755753482, 27.82813497057337 ], [ 112.910470755197423, 27.828128968993205 ], [ 112.910562685963811, 27.827806859832485 ], [ 112.911093136766823, 27.827766509979167 ], [ 112.910805338625678, 27.829047900675931 ] ], [ [ 112.9100941680842, 27.82772714001511 ], [ 112.909982228139114, 27.828396314319988 ], [ 112.909467756359774, 27.828120578149342 ], [ 112.909636628028352, 27.827650404222389 ], [ 112.9100941680842, 27.82772714001511 ] ] ] } }
]
}
