{
"type": "FeatureCollection",
"name": "杉山社区",
"crs": { "type": "name", "properties": { "name": "urn:ogc:def:crs:OGC:1.3:CRS84" } },
"features": [
{ "type": "Feature", "properties": { "adcode": "430373001004", "fullName": "湖南省湘潭市雨湖区和平街道杉山社区", "level": "居委会/社区", "location": "112.940526,27.936038", "name": "杉山社区", "OBJECTID": 3997, "SHAPE_Leng": 0.17460653061100001, "SHAPE_Area": 0.0009119961925 }, "geometry": { "type": "Polygon", "coordinates": [ [ [ 112.917674672059974, 27.948542460720699 ], [ 112.922558930399873, 27.953012011948182 ], [ 112.9261580702087, 27.948609758566391 ], [ 112.92761430865545, 27.949516928080637 ], [ 112.931297050710398, 27.949511505642654 ], [ 112.933866340508757, 27.95291996292913 ], [ 112.936522335620083, 27.953674548460096 ], [ 112.939861288244259, 27.955260707641258 ], [ 112.940546429183044, 27.957458770661116 ], [ 112.94183010875669, 27.95882150268482 ], [ 112.940460385252891, 27.960719483443068 ], [ 112.938241445176658, 27.964766320748591 ], [ 112.936007320840645, 27.968840993342738 ], [ 112.932581958697241, 27.967445493358827 ], [ 112.931468247808368, 27.9679763416767 ], [ 112.932281346354628, 27.970591496693711 ], [ 112.931724353583647, 27.972601709706513 ], [ 112.935236620028135, 27.974453255192628 ], [ 112.93808329069202, 27.971494729871136 ], [ 112.937908729372396, 27.971165993395044 ], [ 112.938155162316974, 27.970961510128877 ], [ 112.938534291714774, 27.970557747169224 ], [ 112.939125902645614, 27.970155583184912 ], [ 112.938319941151065, 27.968798849063319 ], [ 112.939390673335168, 27.964930217424115 ], [ 112.942259847306232, 27.960981015262767 ], [ 112.943543598175594, 27.960258314323234 ], [ 112.946241418221106, 27.960404721127301 ], [ 112.946963644133916, 27.957939759118673 ], [ 112.947605936037618, 27.95718123944771 ], [ 112.947349688277583, 27.956611700745594 ], [ 112.947734678605883, 27.955928747888517 ], [ 112.947306907863492, 27.955322576468721 ], [ 112.946279706236723, 27.955438804734435 ], [ 112.945253530126365, 27.954664843475502 ], [ 112.946333694982982, 27.953724400566813 ], [ 112.946452908874818, 27.946906993014391 ], [ 112.94787485196791, 27.936136086007703 ], [ 112.949321662122628, 27.92517101235336 ], [ 112.948637762106003, 27.922973158586807 ], [ 112.947610735017761, 27.921534168158431 ], [ 112.94614682376735, 27.920466137293797 ], [ 112.940334777900901, 27.921547070076986 ], [ 112.934169090797781, 27.922204229948807 ], [ 112.933518507162489, 27.922196305348685 ], [ 112.925517297192656, 27.922103083516443 ], [ 112.923481846025211, 27.921763587734738 ], [ 112.922967531574088, 27.923964583203869 ], [ 112.920653860006567, 27.928669027269521 ], [ 112.920525721164395, 27.93296290023687 ], [ 112.920395573971859, 27.937391796594429 ], [ 112.92037449920528, 27.93875905231295 ], [ 112.920845636751167, 27.940520839896863 ], [ 112.921163118036617, 27.940829541571667 ], [ 112.921488581041004, 27.941146231140323 ], [ 112.921293824465778, 27.941960588262322 ], [ 112.921123071371014, 27.942226823799501 ], [ 112.921359655590734, 27.942794656405692 ], [ 112.917737590247881, 27.948468387883612 ], [ 112.917674672059974, 27.948542460720699 ] ] ] } }
]
}
