{
"type": "FeatureCollection",
"name": "杨家湾社区居委会",
"crs": { "type": "name", "properties": { "name": "urn:ogc:def:crs:OGC:1.3:CRS84" } },
"features": [
{ "type": "Feature", "properties": { "adcode": "430302003007", "fullName": "湖南省湘潭市雨湖区云塘街道杨家湾社区居委会", "level": "居委会/社区", "location": "112.915097,27.86711", "name": "杨家湾社区居委会", "OBJECTID": 3846, "SHAPE_Leng": 0.023533379099, "SHAPE_Area": 1.97772615e-05 }, "geometry": { "type": "Polygon", "coordinates": [ [ [ 112.905145400523693, 27.867777157925271 ], [ 112.905152392460877, 27.867813161213739 ], [ 112.905222312084575, 27.868168193151739 ], [ 112.905448061077138, 27.869183272926417 ], [ 112.905586903174338, 27.86983632574815 ], [ 112.905750715643407, 27.870606386963178 ], [ 112.90586163101878, 27.870573334767457 ], [ 112.906027504280559, 27.870511253551946 ], [ 112.906225346234265, 27.870502165953365 ], [ 112.906451157867039, 27.870563075764842 ], [ 112.906976706462089, 27.870742863324654 ], [ 112.907576174427263, 27.870947605716083 ], [ 112.908090703645655, 27.871117370654186 ], [ 112.909192649634505, 27.871485827775796 ], [ 112.909771070417008, 27.871694523397395 ], [ 112.9104084104507, 27.871950174801491 ], [ 112.910585224004592, 27.872017074160823 ], [ 112.910920864931157, 27.872153880874567 ], [ 112.911483247579923, 27.872419551714209 ], [ 112.912168472675461, 27.87275513332542 ], [ 112.913400020387783, 27.873351326862259 ], [ 112.913722670268228, 27.872954011226888 ], [ 112.913947425781473, 27.872644783141293 ], [ 112.914145212878481, 27.872316571130142 ], [ 112.914323018942426, 27.872032380868468 ], [ 112.914618695675927, 27.87152405535134 ], [ 112.914160271468148, 27.87133039357176 ], [ 112.914153280169998, 27.871327398649555 ], [ 112.913829679847524, 27.871193632082825 ], [ 112.911752119170856, 27.870332017661919 ], [ 112.911112829567344, 27.870015396142321 ], [ 112.911097845778713, 27.870010405198826 ], [ 112.908396592954801, 27.868961847014429 ], [ 112.905920786209691, 27.867976874754682 ], [ 112.905870826720701, 27.867963893798272 ], [ 112.90582586301781, 27.867952910958444 ], [ 112.905191364947854, 27.867789141919165 ], [ 112.905145400523693, 27.867777157925271 ] ] ] } }
]
}
