{
"type": "FeatureCollection",
"name": "杨梅村委会",
"crs": { "type": "name", "properties": { "name": "urn:ogc:def:crs:OGC:1.3:CRS84" } },
"features": [
{ "type": "Feature", "properties": { "adcode": "430302100214", "fullName": "湖南省湘潭市雨湖区鹤岭镇杨梅村委会", "level": "居委会/社区", "location": "112.844861,27.938792", "name": "杨梅村委会", "OBJECTID": 3904, "SHAPE_Leng": 0.096344940037000004, "SHAPE_Area": 0.0003834278375 }, "geometry": { "type": "Polygon", "coordinates": [ [ [ 112.824115294549543, 27.940463996814273 ], [ 112.824631187830121, 27.94107107210408 ], [ 112.824631080657511, 27.942436304590327 ], [ 112.825490551657794, 27.943651129477477 ], [ 112.82514684236348, 27.944712663289486 ], [ 112.82600733781527, 27.945624437367744 ], [ 112.827726472041135, 27.945475640178195 ], [ 112.827555018628104, 27.947295628060647 ], [ 112.827899548075251, 27.94850948008855 ], [ 112.832025912098104, 27.949275298664297 ], [ 112.833573781012277, 27.947761896570302 ], [ 112.834261972623935, 27.948066211089099 ], [ 112.834089585628064, 27.949127075212736 ], [ 112.834776795444185, 27.9491293334384 ], [ 112.835121352720023, 27.949736065352525 ], [ 112.835795388487583, 27.951568603019584 ], [ 112.838632205521137, 27.95263389374643 ], [ 112.840609547880504, 27.952714411103138 ], [ 112.841382923818983, 27.951653587338853 ], [ 112.843016479353238, 27.953475730449068 ], [ 112.843317972087135, 27.953476249207036 ], [ 112.843310961899377, 27.953460234455182 ], [ 112.84323084439751, 27.95329006797769 ], [ 112.843209818650621, 27.95318001320824 ], [ 112.84320982882555, 27.953049991230525 ], [ 112.843280955124925, 27.95292009152687 ], [ 112.843391147453715, 27.952759253584393 ], [ 112.843421201910061, 27.952689293335109 ], [ 112.843411196464714, 27.952550252632548 ], [ 112.843371149150627, 27.952320144934703 ], [ 112.843351125873923, 27.952200090227628 ], [ 112.843381181917394, 27.952110126609064 ], [ 112.84350640124326, 27.951914308321587 ], [ 112.843576522001058, 27.951829414157555 ], [ 112.8436416310048, 27.951789518949298 ], [ 112.843690713112608, 27.951759597926387 ], [ 112.84378086105859, 27.951739748823861 ], [ 112.843851977916245, 27.951720867225738 ], [ 112.843892043654549, 27.951710934013544 ], [ 112.844007232972444, 27.951676124822857 ], [ 112.844009236449835, 27.951673127734637 ], [ 112.84403527930148, 27.951664170658848 ], [ 112.845191169610089, 27.951247060978357 ], [ 112.845545769662493, 27.950793581111139 ], [ 112.845761146883405, 27.950338865546758 ], [ 112.845675084580733, 27.949389560228738 ], [ 112.845965575441497, 27.948992979663192 ], [ 112.846706783061933, 27.948454123172301 ], [ 112.846901103796654, 27.948235408138714 ], [ 112.847018316071143, 27.947857537929199 ], [ 112.847404983631947, 27.947003030752523 ], [ 112.848501774285296, 27.945668597873048 ], [ 112.849188856085959, 27.945167624365748 ], [ 112.850016161406018, 27.944342809844134 ], [ 112.850801372105423, 27.943727950281517 ], [ 112.851154937994451, 27.943122403520839 ], [ 112.852251528817689, 27.943096107050401 ], [ 112.852746331872794, 27.941862658842847 ], [ 112.85319697660799, 27.941779333652825 ], [ 112.853520418801708, 27.941940852793323 ], [ 112.853905976509495, 27.941694393636293 ], [ 112.854046182474377, 27.941551580375595 ], [ 112.854121359859974, 27.940613533480686 ], [ 112.854389756568636, 27.940282879378316 ], [ 112.854797333815256, 27.940055448159868 ], [ 112.855561376831346, 27.939971561877883 ], [ 112.855786664486459, 27.940161924197909 ], [ 112.85590180916796, 27.940282112793284 ], [ 112.855938869893137, 27.940138142280627 ], [ 112.856089104058668, 27.939703286815917 ], [ 112.856175261486882, 27.939153318168259 ], [ 112.856175323700114, 27.938356182248217 ], [ 112.856013217287185, 27.936953707187275 ], [ 112.855723814907364, 27.937151318598076 ], [ 112.855100914871329, 27.937909531966493 ], [ 112.854369945399, 27.93751037670858 ], [ 112.853779108968311, 27.937728525855718 ], [ 112.853242341038253, 27.937925745553681 ], [ 112.852855811606972, 27.937705117598135 ], [ 112.851533972277863, 27.936945943635155 ], [ 112.850813924255633, 27.936885803449655 ], [ 112.848869030811429, 27.936724668948472 ], [ 112.847974713359207, 27.936106108736066 ], [ 112.847505014207911, 27.935782283200556 ], [ 112.847235623822357, 27.935432779824108 ], [ 112.84682703261052, 27.934853005214698 ], [ 112.845279687139964, 27.933617207929725 ], [ 112.843141305137621, 27.932712411021402 ], [ 112.842453154527533, 27.932987270143165 ], [ 112.842408080045132, 27.932990192577908 ], [ 112.841486548738175, 27.933060601869613 ], [ 112.840685228674573, 27.93282615795157 ], [ 112.839659524019325, 27.932525296464576 ], [ 112.838499492727053, 27.933262358723308 ], [ 112.838328103134756, 27.934495263199388 ], [ 112.836909665234728, 27.934435704088934 ], [ 112.836516994835961, 27.934301971536946 ], [ 112.835726639480313, 27.934035492511502 ], [ 112.835039477097595, 27.933522153211015 ], [ 112.834278128299999, 27.933653783763155 ], [ 112.8342631015867, 27.933656756744266 ], [ 112.8325429606315, 27.934866799624029 ], [ 112.832026898955661, 27.936686156647607 ], [ 112.830651437851074, 27.93668460467692 ], [ 112.830135451577746, 27.93744177359828 ], [ 112.828931293377877, 27.937286499870925 ], [ 112.828758827419833, 27.939258514063045 ], [ 112.825836573664972, 27.938646927285632 ], [ 112.824115294549543, 27.940463996814273 ] ] ] } }
]
}
