{
"type": "FeatureCollection",
"name": "板塘村村委会",
"crs": { "type": "name", "properties": { "name": "urn:ogc:def:crs:OGC:1.3:CRS84" } },
"features": [
{ "type": "Feature", "properties": { "adcode": "430371001202", "fullName": "湖南省湘潭市岳塘区板塘街道板塘村村委会", "level": "居委会/社区", "location": "112.966674,27.854344", "name": "板塘村村委会", "OBJECTID": 4120, "SHAPE_Leng": 0.0197615320996, "SHAPE_Area": 1.7544577500299999e-05 }, "geometry": { "type": "Polygon", "coordinates": [ [ [ 112.95829024300096, 27.856794081419974 ], [ 112.958313137608172, 27.857218093817252 ], [ 112.959008922753313, 27.857491381137979 ], [ 112.959586064332086, 27.857841970763765 ], [ 112.959757437069698, 27.858875703957857 ], [ 112.959492243213958, 27.859353460102984 ], [ 112.960198966982887, 27.859638698738326 ], [ 112.963278874276284, 27.86088386891517 ], [ 112.963498272606188, 27.859360034711791 ], [ 112.962686031202921, 27.858204991147907 ], [ 112.962461858560488, 27.857010383561668 ], [ 112.962696260418653, 27.854884416307115 ], [ 112.961722441053027, 27.85479195404228 ], [ 112.960942915506777, 27.855373075647968 ], [ 112.960472365207494, 27.856170422221258 ], [ 112.959820474447127, 27.855860044630685 ], [ 112.959049943482398, 27.855585962670851 ], [ 112.958450784249919, 27.856213581357132 ], [ 112.95843979779545, 27.856479652940944 ], [ 112.95829024300096, 27.856794081419974 ] ] ] } }
]
}
