{
"type": "FeatureCollection",
"name": "板塘社区居委会",
"crs": { "type": "name", "properties": { "name": "urn:ogc:def:crs:OGC:1.3:CRS84" } },
"features": [
{ "type": "Feature", "properties": { "adcode": "430304008002", "fullName": "湖南省湘潭市岳塘区五里堆街道板塘社区居委会", "level": "居委会/社区", "location": "112.966091,27.857975", "name": "板塘社区居委会", "OBJECTID": 4074, "SHAPE_Leng": 0.035939621444499997, "SHAPE_Area": 4.2672915500099999e-05 }, "geometry": { "type": "Polygon", "coordinates": [ [ [ 112.962343652224533, 27.864495935251103 ], [ 112.962336684216709, 27.864378934062298 ], [ 112.962331707732176, 27.864286931808859 ], [ 112.964415906961122, 27.86353328145713 ], [ 112.965619928479427, 27.863048961174798 ], [ 112.966710279608805, 27.862781953864847 ], [ 112.967668042865398, 27.862636305030772 ], [ 112.968287923463876, 27.862701606530354 ], [ 112.968244159963206, 27.861605545457138 ], [ 112.968037886539634, 27.861325068444192 ], [ 112.967951191522204, 27.8612082881669 ], [ 112.966475222864347, 27.860895281677855 ], [ 112.963278874276284, 27.86088386891517 ], [ 112.960198966982887, 27.859638698738326 ], [ 112.959492243213958, 27.859353460102984 ], [ 112.957398894389527, 27.858507595831092 ], [ 112.957365000870226, 27.858494678089261 ], [ 112.957059949734443, 27.858477433317486 ], [ 112.955242539121286, 27.858376876399532 ], [ 112.954167781324884, 27.858454479804131 ], [ 112.954143853109599, 27.858455537251515 ], [ 112.954174753128257, 27.858546478331185 ], [ 112.954278417566144, 27.858850280245939 ], [ 112.95419666293779, 27.858855476993096 ], [ 112.955304034293405, 27.862405394908865 ], [ 112.956871227111336, 27.862370546320161 ], [ 112.956941011217481, 27.862368373160059 ], [ 112.958129309860325, 27.862342404770253 ], [ 112.960589504856642, 27.862298134608313 ], [ 112.960657115914671, 27.864470321414231 ], [ 112.960734857549184, 27.864577138465584 ], [ 112.960939185633848, 27.864756640001385 ], [ 112.962343652224533, 27.864495935251103 ] ] ] } }
]
}
