{
"type": "FeatureCollection",
"name": "果沙社区居委会",
"crs": { "type": "name", "properties": { "name": "urn:ogc:def:crs:OGC:1.3:CRS84" } },
"features": [
{ "type": "Feature", "properties": { "adcode": "430302100001", "fullName": "湖南省湘潭市雨湖区鹤岭镇果沙社区居委会", "level": "居委会/社区", "location": "112.854859,27.9644", "name": "果沙社区居委会", "OBJECTID": 3893, "SHAPE_Leng": 0.047821505936599999, "SHAPE_Area": 7.3400659e-05 }, "geometry": { "type": "Polygon", "coordinates": [ [ [ 112.843115671966743, 27.965883988520243 ], [ 112.843169729934743, 27.966273146600503 ], [ 112.843342000204672, 27.96641446633625 ], [ 112.843492233108776, 27.966567749798639 ], [ 112.843589374175068, 27.966785952786399 ], [ 112.843599371204633, 27.967032011017178 ], [ 112.843708539044314, 27.967155218540739 ], [ 112.844051094429886, 27.967155803987744 ], [ 112.844437719375193, 27.967146460741994 ], [ 112.844598972833921, 27.96722374747473 ], [ 112.844899473554548, 27.966987217076767 ], [ 112.84492250535871, 27.967052266897372 ], [ 112.845050697880623, 27.96721351048301 ], [ 112.84528705142904, 27.967517960026044 ], [ 112.845898989652341, 27.967947059370999 ], [ 112.846028185774514, 27.968050292721433 ], [ 112.846231487135384, 27.968296673303186 ], [ 112.846277552780194, 27.968384764813266 ], [ 112.846350656759469, 27.96852591017775 ], [ 112.846608037933024, 27.968818387084177 ], [ 112.846328604340798, 27.968752911282934 ], [ 112.846039146027536, 27.968780432801307 ], [ 112.845759689174926, 27.968969996582878 ], [ 112.845586406799086, 27.969065721757296 ], [ 112.845448184996016, 27.969092493892312 ], [ 112.845254863638488, 27.969264196998484 ], [ 112.845071562867091, 27.969367905041235 ], [ 112.844899265688838, 27.96964265960192 ], [ 112.844835142302443, 27.969906595043042 ], [ 112.844705915680166, 27.970153417243687 ], [ 112.844555660932627, 27.970323190635881 ], [ 112.844351309481496, 27.970608890935882 ], [ 112.844093877504505, 27.970816487038338 ], [ 112.843889528788054, 27.971044176093944 ], [ 112.843835415857313, 27.971366137134332 ], [ 112.844071777331948, 27.971640586341021 ], [ 112.844134848051169, 27.972040760355291 ], [ 112.844179898731198, 27.972323884140824 ], [ 112.845060290003815, 27.972628428144912 ], [ 112.845522996439172, 27.973027273876994 ], [ 112.845931612992615, 27.973427025452072 ], [ 112.847555139659462, 27.973590745218608 ], [ 112.8477814845658, 27.97365012651214 ], [ 112.848446538954192, 27.973216140209178 ], [ 112.848628848662358, 27.972810368987236 ], [ 112.849053516692976, 27.972511006422405 ], [ 112.849707553461073, 27.971843946730676 ], [ 112.850067159654074, 27.970959373863963 ], [ 112.850384644673454, 27.97078784997462 ], [ 112.850733174251346, 27.970600370307125 ], [ 112.851242943632016, 27.970324126307066 ], [ 112.851635502093671, 27.970490767735111 ], [ 112.851995011551423, 27.970625349171247 ], [ 112.852752090185831, 27.97069652880424 ], [ 112.853031504582759, 27.970465918144242 ], [ 112.853155689378625, 27.970347087886459 ], [ 112.853203792387205, 27.969897086307093 ], [ 112.853160750867005, 27.969650979737708 ], [ 112.853031580272727, 27.969497757108737 ], [ 112.85291442690739, 27.969336551150597 ], [ 112.853245943630426, 27.968720954587397 ], [ 112.853498338049604, 27.968214253638202 ], [ 112.853890913914739, 27.967864788929141 ], [ 112.854340564274096, 27.967517406358887 ], [ 112.854458744092994, 27.967300546870149 ], [ 112.854512829905275, 27.967154603264678 ], [ 112.854517854611814, 27.966926572685349 ], [ 112.854537937249731, 27.966221484851676 ], [ 112.854538940658273, 27.966195482002664 ], [ 112.854544997453942, 27.965574387195424 ], [ 112.854566150461437, 27.963986152899984 ], [ 112.854651333165947, 27.963143138561968 ], [ 112.854749506133601, 27.962650201979887 ], [ 112.853787179806147, 27.96260575257287 ], [ 112.853723163362872, 27.961671499076175 ], [ 112.853680131342955, 27.961311373540816 ], [ 112.853572992064983, 27.961175188494433 ], [ 112.853222503018074, 27.961130648617864 ], [ 112.85279388964895, 27.961216008018308 ], [ 112.85247142273677, 27.961309528206613 ], [ 112.852477396850531, 27.961750611478216 ], [ 112.852412285628006, 27.961982550082983 ], [ 112.852180948693359, 27.962049204022602 ], [ 112.852072772817124, 27.962309080169199 ], [ 112.851951581458209, 27.962522928122365 ], [ 112.85166710647924, 27.963336622169155 ], [ 112.851472804931134, 27.963584360488976 ], [ 112.850699668433748, 27.963639155031697 ], [ 112.850071725288871, 27.963803186539632 ], [ 112.849550930989594, 27.964002387597422 ], [ 112.849536775320885, 27.965723653006826 ], [ 112.84736646352188, 27.96570512172886 ], [ 112.846372905542665, 27.965789490287918 ], [ 112.846020348609045, 27.965807905074161 ], [ 112.84437471595858, 27.965891143863434 ], [ 112.844074299490686, 27.965012485241481 ], [ 112.843671657355401, 27.964874774120478 ], [ 112.843208902301768, 27.964886982105948 ], [ 112.843255970107919, 27.965003082461987 ], [ 112.843158792034927, 27.965249956662142 ], [ 112.843137731727893, 27.965580975805956 ], [ 112.843115671966743, 27.965883988520243 ] ] ] } }
]
}
