{
"type": "FeatureCollection",
"name": "柴山村委会",
"crs": { "type": "name", "properties": { "name": "urn:ogc:def:crs:OGC:1.3:CRS84" } },
"features": [
{ "type": "Feature", "properties": { "adcode": "430302100250", "fullName": "湖南省湘潭市雨湖区鹤岭镇柴山村委会", "level": "居委会/社区", "location": "112.823541,27.972577", "name": "柴山村委会", "OBJECTID": 3930, "SHAPE_Leng": 0.101087139184, "SHAPE_Area": 0.000286221987 }, "geometry": { "type": "Polygon", "coordinates": [ [ [ 112.803007955919327, 27.976430237369041 ], [ 112.803181077434346, 27.978553888741406 ], [ 112.805587098296982, 27.979089204062163 ], [ 112.805546964268345, 27.979921269816394 ], [ 112.806876226030695, 27.98015167513454 ], [ 112.806789963845205, 27.981592757507212 ], [ 112.808253594740648, 27.98038218845489 ], [ 112.809541668341467, 27.982657895682948 ], [ 112.811519244857465, 27.981601337420305 ], [ 112.81229370054831, 27.980617601029337 ], [ 112.813325508847782, 27.981074582129207 ], [ 112.8134966785438, 27.982817184845452 ], [ 112.815044437929686, 27.983124110082219 ], [ 112.814958151216885, 27.984791221988022 ], [ 112.816764423253701, 27.98471958225937 ], [ 112.817194149163313, 27.985402498316247 ], [ 112.817623965529165, 27.984947229542168 ], [ 112.823299362895966, 27.984352812967948 ], [ 112.82347189813035, 27.981547678812799 ], [ 112.824847395922944, 27.981701295228948 ], [ 112.82544463312253, 27.979807108311864 ], [ 112.827163760006414, 27.979810339867033 ], [ 112.826734050909153, 27.978898382997993 ], [ 112.827593611421719, 27.978900996628809 ], [ 112.828194647206942, 27.979583235251258 ], [ 112.828454188191827, 27.978675571738997 ], [ 112.828454319319547, 27.977006296727527 ], [ 112.827852258797648, 27.976626106353276 ], [ 112.827938450676996, 27.976171192721463 ], [ 112.829570400409551, 27.976174245110208 ], [ 112.830345813913567, 27.97594965321888 ], [ 112.831119279213311, 27.974964928323168 ], [ 112.831361885970452, 27.972766014134912 ], [ 112.829298182849868, 27.972686159269962 ], [ 112.828352592945578, 27.971168139024169 ], [ 112.821817770613734, 27.970170680546754 ], [ 112.819410461586514, 27.969104970033339 ], [ 112.81880847221295, 27.967738610429294 ], [ 112.819581952733415, 27.966830913101404 ], [ 112.818980046644597, 27.964402374986026 ], [ 112.818464137247517, 27.964022342018488 ], [ 112.818291698490398, 27.965614284781399 ], [ 112.81665872736771, 27.965687236269339 ], [ 112.813906797572315, 27.965227031005501 ], [ 112.813133309734624, 27.966513813345426 ], [ 112.814336420648814, 27.967123145691474 ], [ 112.813562864552708, 27.969245064422523 ], [ 112.811842780400667, 27.969392913066073 ], [ 112.811670348576087, 27.970984860989685 ], [ 112.812100959672662, 27.972956980928526 ], [ 112.810553291583986, 27.971968976639438 ], [ 112.8110699311151, 27.97545850090934 ], [ 112.810294548454365, 27.975608107112038 ], [ 112.809348825282612, 27.97636450971337 ], [ 112.808403183794553, 27.976210771116737 ], [ 112.805480095114589, 27.976812639039739 ], [ 112.80436225230028, 27.976127553605945 ], [ 112.803245376146961, 27.97612660011379 ], [ 112.803007955919327, 27.976430237369041 ] ] ] } }
]
}
