{
"type": "FeatureCollection",
"name": "栗塘村委会",
"crs": { "type": "name", "properties": { "name": "urn:ogc:def:crs:OGC:1.3:CRS84" } },
"features": [
{ "type": "Feature", "properties": { "adcode": "430302102233", "fullName": "湖南省湘潭市雨湖区姜畲镇栗塘村委会", "level": "居委会/社区", "location": "112.835199,27.885346", "name": "栗塘村委会", "OBJECTID": 3978, "SHAPE_Leng": 0.071238427510800006, "SHAPE_Area": 0.000213244945 }, "geometry": { "type": "Polygon", "coordinates": [ [ [ 112.819381170528487, 27.882842221936535 ], [ 112.820144442212126, 27.884362916249099 ], [ 112.820841604925533, 27.885749464621284 ], [ 112.82316459087555, 27.88897839176331 ], [ 112.823723381591066, 27.891901943100248 ], [ 112.823894682263045, 27.892052291535656 ], [ 112.82389467630675, 27.892128304489006 ], [ 112.822733489705769, 27.892999264609177 ], [ 112.82200310645176, 27.893642997808701 ], [ 112.821444062597038, 27.893945995984584 ], [ 112.821068356279739, 27.894212333574131 ], [ 112.821919850670042, 27.894970067474958 ], [ 112.824241067502825, 27.895202481835788 ], [ 112.826390948934176, 27.895623599753193 ], [ 112.827335565952296, 27.896878588096516 ], [ 112.827478814049059, 27.89702788235012 ], [ 112.828239128682199, 27.897827444044108 ], [ 112.831764435141096, 27.898251085173452 ], [ 112.834258827351817, 27.898674753791564 ], [ 112.835204574561118, 27.897576294476004 ], [ 112.834473454004311, 27.895488602241731 ], [ 112.833098137123329, 27.894043830148703 ], [ 112.832925929462846, 27.89279029888845 ], [ 112.832711613914185, 27.891956761439332 ], [ 112.833441998151528, 27.890818913020372 ], [ 112.835248326420881, 27.888924898118805 ], [ 112.836393337723777, 27.888742947508906 ], [ 112.837612461254849, 27.888550114187669 ], [ 112.840001554633304, 27.888283327430123 ], [ 112.839844325956719, 27.88781196921536 ], [ 112.840035699324147, 27.88716619770247 ], [ 112.84057474777623, 27.885348839109845 ], [ 112.840145137963461, 27.883905837008385 ], [ 112.838726807377355, 27.88295515874881 ], [ 112.83731339722182, 27.882762592755853 ], [ 112.835630493455994, 27.882532507700866 ], [ 112.832405865733875, 27.881766464079689 ], [ 112.830684762325362, 27.882125334326737 ], [ 112.828794328463275, 27.88251987538257 ], [ 112.826128558944774, 27.881717739429597 ], [ 112.82533510733812, 27.881819264019867 ], [ 112.824308226090622, 27.88195235293335 ], [ 112.823807307730704, 27.882016420001701 ], [ 112.821828632634109, 27.882847831657514 ], [ 112.820857861743022, 27.882846002210293 ], [ 112.819381170528487, 27.882842221936535 ] ] ] } }
]
}
