{
"type": "FeatureCollection",
"name": "栲木村委会",
"crs": { "type": "name", "properties": { "name": "urn:ogc:def:crs:OGC:1.3:CRS84" } },
"features": [
{ "type": "Feature", "properties": { "adcode": "430302100211", "fullName": "湖南省湘潭市雨湖区鹤岭镇栲木村委会", "level": "居委会/社区", "location": "112.756921,27.951516", "name": "栲木村委会", "OBJECTID": 3902, "SHAPE_Leng": 0.076425575557700007, "SHAPE_Area": 0.0002497573365 }, "geometry": { "type": "Polygon", "coordinates": [ [ [ 112.740736944370298, 27.950608889994609 ], [ 112.7414925249644, 27.95193901086823 ], [ 112.742831840502816, 27.954299278277553 ], [ 112.744431163531331, 27.956598598399182 ], [ 112.746540434384997, 27.959650171331205 ], [ 112.74915978927217, 27.963451117833799 ], [ 112.750476671349929, 27.964134485435224 ], [ 112.751219636863468, 27.964520721782101 ], [ 112.753049669346652, 27.965232352243582 ], [ 112.753278574878095, 27.966687668333346 ], [ 112.753710626680146, 27.966607797728621 ], [ 112.75448379350135, 27.965773931173853 ], [ 112.7544838415714, 27.96516782981244 ], [ 112.756544104191605, 27.96675993136132 ], [ 112.756974207288792, 27.966761125749873 ], [ 112.756114092683433, 27.965699566807096 ], [ 112.757917688629121, 27.963879093384765 ], [ 112.756807519603953, 27.962306303823066 ], [ 112.756636647288332, 27.960181870065398 ], [ 112.758868453225702, 27.957909576552801 ], [ 112.760758309022521, 27.955787282559825 ], [ 112.758867741511409, 27.954268961835805 ], [ 112.756809169144915, 27.9541169252496 ], [ 112.761101858041229, 27.95062961744415 ], [ 112.758869114512507, 27.949567166546736 ], [ 112.756948682870714, 27.948064963667051 ], [ 112.754405343540569, 27.94607657943985 ], [ 112.748741130226037, 27.946985271525051 ], [ 112.747024353075929, 27.946986067499608 ], [ 112.744106017366519, 27.946985977174361 ], [ 112.741875695470966, 27.947895280763959 ], [ 112.743420117651041, 27.948349234371342 ], [ 112.741360742260269, 27.949866676475384 ], [ 112.740736944370298, 27.950608889994609 ] ] ] } }
]
}
