{
"type": "FeatureCollection",
"name": "桃李村",
"crs": { "type": "name", "properties": { "name": "urn:ogc:def:crs:OGC:1.3:CRS84" } },
"features": [
{ "type": "Feature", "properties": { "adcode": "430373001206", "fullName": "湖南省湘潭市雨湖区和平街道桃李村", "level": "居委会/社区", "location": "112.944349,27.967006", "name": "桃李村", "OBJECTID": 4002, "SHAPE_Leng": 0.0018841070407, "SHAPE_Area": 1.72987499988e-07 }, "geometry": { "type": "Polygon", "coordinates": [ [ [ 112.938534291714774, 27.970557747169224 ], [ 112.938763724399749, 27.970788361555943 ], [ 112.939219663645346, 27.970313434256614 ], [ 112.939125902645614, 27.970155583184912 ], [ 112.938534291714774, 27.970557747169224 ] ] ] } }
]
}
