{
"type": "FeatureCollection",
"name": "桃源路社区居委会",
"crs": { "type": "name", "properties": { "name": "urn:ogc:def:crs:OGC:1.3:CRS84" } },
"features": [
{ "type": "Feature", "properties": { "adcode": "430302002007", "fullName": "湖南省湘潭市雨湖区城正街街道桃源路社区居委会", "level": "居委会/社区", "location": "112.92177,27.861884", "name": "桃源路社区居委会", "OBJECTID": 3838, "SHAPE_Leng": 0.0075719944778000004, "SHAPE_Area": 3.4933925000500001e-06 }, "geometry": { "type": "Polygon", "coordinates": [ [ [ 112.915383146505249, 27.866267536167058 ], [ 112.916058250204586, 27.866589003425069 ], [ 112.916454710055589, 27.866816687517915 ], [ 112.916775329414051, 27.866205294017522 ], [ 112.917065978163521, 27.865672937019056 ], [ 112.91725875088656, 27.865216680969048 ], [ 112.917408573390176, 27.86485647990818 ], [ 112.917483487098522, 27.864639372838447 ], [ 112.917139969951165, 27.864486670337705 ], [ 112.91685137135056, 27.864353915441733 ], [ 112.916551782409016, 27.864231168436369 ], [ 112.916241204103301, 27.864099425707899 ], [ 112.916047463413008, 27.86403358672284 ], [ 112.915844700887291, 27.864373821590153 ], [ 112.915715841692631, 27.864705989227634 ], [ 112.915618940608013, 27.865038128542039 ], [ 112.915512051055856, 27.865380277707722 ], [ 112.915596922766198, 27.865630246322631 ], [ 112.915383146505249, 27.866267536167058 ] ] ] } }
]
}
