{
"type": "FeatureCollection",
"name": "桐塘村委会",
"crs": { "type": "name", "properties": { "name": "urn:ogc:def:crs:OGC:1.3:CRS84" } },
"features": [
{ "type": "Feature", "properties": { "adcode": "430373200246", "fullName": "湖南省湘潭市雨湖区响水乡桐塘村委会", "level": "居委会/社区", "location": "112.867637,27.943052", "name": "桐塘村委会", "OBJECTID": 4032, "SHAPE_Leng": 0.088586670994399999, "SHAPE_Area": 0.000309418309 }, "geometry": { "type": "Polygon", "coordinates": [ [ [ 112.85327302365593, 27.955370755432586 ], [ 112.853756580476386, 27.956923750677387 ], [ 112.855546027122102, 27.957015430864249 ], [ 112.855932530559159, 27.957206028255019 ], [ 112.856577415283539, 27.956828899454251 ], [ 112.8570069724381, 27.956904528991334 ], [ 112.857608719428868, 27.957323455625922 ], [ 112.858382700473427, 27.957399555509706 ], [ 112.858983377083121, 27.958385554259714 ], [ 112.859543089751241, 27.958122276985414 ], [ 112.860531279013856, 27.958235629283912 ], [ 112.861776782862506, 27.957746188055971 ], [ 112.863366535362516, 27.958315313515509 ], [ 112.863538780998823, 27.957596407836746 ], [ 112.863066285127758, 27.957254757229428 ], [ 112.86448388007345, 27.95661140786482 ], [ 112.86439885445229, 27.955776163170729 ], [ 112.864956483115307, 27.955284756926897 ], [ 112.865687349631912, 27.953883392622512 ], [ 112.866245936299748, 27.95361900345037 ], [ 112.86706171035226, 27.95403701369257 ], [ 112.86835101555981, 27.953013282016425 ], [ 112.87105643775908, 27.952334013040034 ], [ 112.870068699581822, 27.951119796996267 ], [ 112.870370052169918, 27.949905903169537 ], [ 112.869810638451895, 27.949032173759232 ], [ 112.869854762566519, 27.947932033354441 ], [ 112.870283178957152, 27.947327376195872 ], [ 112.869853859223113, 27.946680819979253 ], [ 112.870198218599398, 27.945885043360651 ], [ 112.869940055042107, 27.945127646181589 ], [ 112.870498571702697, 27.944634140196346 ], [ 112.871014037749944, 27.944180587035223 ], [ 112.871272353054025, 27.94285362040063 ], [ 112.870411666298395, 27.94247368334333 ], [ 112.870369760586229, 27.940805356048447 ], [ 112.871400628581654, 27.940654373666209 ], [ 112.871615834658343, 27.940236515658892 ], [ 112.869125909518786, 27.93777053167474 ], [ 112.869597399482771, 27.936859877708081 ], [ 112.868908870398172, 27.935758954910597 ], [ 112.86912511848945, 27.935077070909497 ], [ 112.868480543945964, 27.934924347291272 ], [ 112.868051023460879, 27.93648014063756 ], [ 112.866847836346594, 27.936894856266917 ], [ 112.866761725051035, 27.937236815871394 ], [ 112.866204179384169, 27.937121150890146 ], [ 112.86637643455262, 27.936060170124662 ], [ 112.865946025117481, 27.935755615619811 ], [ 112.865645718945927, 27.935756261685061 ], [ 112.864958082866082, 27.934769271790906 ], [ 112.863883895046925, 27.935298050103494 ], [ 112.863454428452599, 27.935260509344666 ], [ 112.863454395937055, 27.935677580556209 ], [ 112.863067968243328, 27.935676094789859 ], [ 112.862766607396082, 27.935980765122039 ], [ 112.86182057990888, 27.93533343895567 ], [ 112.861565263336416, 27.935598151660926 ], [ 112.861134765401673, 27.935522573838995 ], [ 112.860187600511523, 27.93597739013812 ], [ 112.859414690388519, 27.935559270829902 ], [ 112.860231783862147, 27.934308164317123 ], [ 112.858943129930438, 27.935253571225687 ], [ 112.858641622670817, 27.936923439382905 ], [ 112.857954720680198, 27.937339551145101 ], [ 112.857868539664153, 27.938249585241536 ], [ 112.85730984724519, 27.937906736030126 ], [ 112.856752102439032, 27.938133977367769 ], [ 112.856707022623027, 27.938398957785946 ], [ 112.857352837978311, 27.93873993935221 ], [ 112.857352817217915, 27.939005984712992 ], [ 112.856706963458549, 27.939157087053147 ], [ 112.856089104058668, 27.939703286815917 ], [ 112.855938869893137, 27.940138142280627 ], [ 112.85590180916796, 27.940282112793284 ], [ 112.855809657931758, 27.940641039477903 ], [ 112.855647409239083, 27.941039870120964 ], [ 112.855304912095974, 27.941493444263241 ], [ 112.855013479648676, 27.941967094548922 ], [ 112.85489629180357, 27.942327982363217 ], [ 112.854795115879895, 27.942811914577415 ], [ 112.854734958878666, 27.943769988251717 ], [ 112.854305281079746, 27.944886536954968 ], [ 112.85424081926682, 27.949666252102201 ], [ 112.854197619103402, 27.951466492378056 ], [ 112.854390805922932, 27.952491955332764 ], [ 112.853597415061557, 27.956192386582348 ], [ 112.85327302365593, 27.955370755432586 ] ] ] } }
]
}
