{
"type": "FeatureCollection",
"name": "桐梓村村委会",
"crs": { "type": "name", "properties": { "name": "urn:ogc:def:crs:OGC:1.3:CRS84" } },
"features": [
{ "type": "Feature", "properties": { "adcode": "430302008204", "fullName": "湖南省湘潭市雨湖区先锋街道桐梓村村委会", "level": "居委会/社区", "location": "112.892999,27.891334", "name": "桐梓村村委会", "OBJECTID": 3890, "SHAPE_Leng": 0.080168669275400006, "SHAPE_Area": 0.0001909070675 }, "geometry": { "type": "Polygon", "coordinates": [ [ [ 112.901295676744155, 27.896652214773479 ], [ 112.899497642493046, 27.896093439477152 ], [ 112.893936610381672, 27.894361229746441 ], [ 112.895781305865455, 27.892636057550071 ], [ 112.896017250914625, 27.892466033467905 ], [ 112.893484889897039, 27.891820744450484 ], [ 112.889954250539745, 27.891049902214139 ], [ 112.889010274007219, 27.890480525491053 ], [ 112.887723230915682, 27.88979696751629 ], [ 112.886735140589224, 27.889330502377106 ], [ 112.886728137276492, 27.889359504432871 ], [ 112.886446105468394, 27.889195358922009 ], [ 112.885792011969627, 27.888886021024831 ], [ 112.883731575208017, 27.888088872994317 ], [ 112.881670966859005, 27.887025509396583 ], [ 112.880854691064528, 27.886378884632485 ], [ 112.879610034513206, 27.88770627516903 ], [ 112.878020123851897, 27.889071354203974 ], [ 112.877333654734187, 27.890208020197736 ], [ 112.876389021469933, 27.89119543374208 ], [ 112.875930723263835, 27.891385088039463 ], [ 112.875686500974496, 27.892256031845868 ], [ 112.875948664279207, 27.892289257042769 ], [ 112.876432930988869, 27.892703726558949 ], [ 112.87629378495501, 27.893490747014997 ], [ 112.876341756569815, 27.894233913050421 ], [ 112.876306700080292, 27.89468496129577 ], [ 112.877373251410347, 27.895688985444774 ], [ 112.877949529327623, 27.896231521165387 ], [ 112.879195244976586, 27.895302277523076 ], [ 112.879287288079098, 27.895325346720327 ], [ 112.879420349684054, 27.895359446309389 ], [ 112.879731524834767, 27.895000601713679 ], [ 112.880160818364701, 27.89374868091814 ], [ 112.880428923552671, 27.89391988933383 ], [ 112.880450793197966, 27.89572021097722 ], [ 112.88080293358459, 27.895850464063585 ], [ 112.88096599668458, 27.895911579760838 ], [ 112.88220048908822, 27.895694305832315 ], [ 112.882344553683765, 27.895520361298271 ], [ 112.882682701392227, 27.895115488850582 ], [ 112.883153865135952, 27.894982732616359 ], [ 112.883370899256235, 27.895409925249062 ], [ 112.884358127691343, 27.896064557826829 ], [ 112.885464376833596, 27.896207119073569 ], [ 112.885806437055066, 27.896321294507651 ], [ 112.88626646532984, 27.89704362000337 ], [ 112.886493487278145, 27.897250751948011 ], [ 112.886225330781883, 27.89868288225308 ], [ 112.886010317254232, 27.898359733267075 ], [ 112.885656258463982, 27.898237553845423 ], [ 112.885409194886037, 27.89839846766408 ], [ 112.885163125848479, 27.898596385792786 ], [ 112.885109087033584, 27.898939418666888 ], [ 112.885141072167656, 27.899223482452403 ], [ 112.885324086710483, 27.899555625650816 ], [ 112.88565614798442, 27.899658796633336 ], [ 112.885935194191973, 27.89976293981923 ], [ 112.886245225108297, 27.900087130801928 ], [ 112.886504219899606, 27.900713348081744 ], [ 112.886707177456387, 27.901669596040055 ], [ 112.886354091304028, 27.90204851282979 ], [ 112.887502214587045, 27.90256106296393 ], [ 112.887493198617975, 27.902753092392199 ], [ 112.887490193294084, 27.902817102201286 ], [ 112.887778203488736, 27.903090256529886 ], [ 112.888135215578245, 27.903366432372522 ], [ 112.889175368214424, 27.902220580700448 ], [ 112.891032255124031, 27.903492299775412 ], [ 112.89206627661963, 27.902193293410775 ], [ 112.892309274092071, 27.901889285510915 ], [ 112.892668268232455, 27.901400262393231 ], [ 112.893124251773742, 27.900779225079884 ], [ 112.895177924186569, 27.899626226749906 ], [ 112.895602830639078, 27.89938720414122 ], [ 112.895708779747281, 27.899664254794512 ], [ 112.895794738030389, 27.899889295578276 ], [ 112.897747115561955, 27.899556204359083 ], [ 112.899087616061266, 27.898844962042716 ], [ 112.899466506008764, 27.898034775108041 ], [ 112.899623458508572, 27.897696695396647 ], [ 112.899694436478825, 27.897545659308467 ], [ 112.900959827259314, 27.897090360276973 ], [ 112.901295676744155, 27.896652214773479 ] ] ] } }
]
}
