{
"type": "FeatureCollection",
"name": "梅花村委会",
"crs": { "type": "name", "properties": { "name": "urn:ogc:def:crs:OGC:1.3:CRS84" } },
"features": [
{ "type": "Feature", "properties": { "adcode": "430302102221", "fullName": "湖南省湘潭市雨湖区姜畲镇梅花村委会", "level": "居委会/社区", "location": "112.823466,27.845462", "name": "梅花村委会", "OBJECTID": 3966, "SHAPE_Leng": 0.068789525926400003, "SHAPE_Area": 0.00021415201 }, "geometry": { "type": "Polygon", "coordinates": [ [ [ 112.808698279134916, 27.8414455457191 ], [ 112.80917007660409, 27.841788456383039 ], [ 112.811448018644882, 27.842702764104423 ], [ 112.812523931630849, 27.842704745037395 ], [ 112.81239457031316, 27.844375778121464 ], [ 112.812351332994609, 27.846424032360332 ], [ 112.81226597903094, 27.849004297117325 ], [ 112.812093663409669, 27.849117998266063 ], [ 112.810846421782927, 27.84949576963001 ], [ 112.809600203259194, 27.849796544353818 ], [ 112.809782443935347, 27.850809042277103 ], [ 112.810244055734273, 27.85336630474475 ], [ 112.811792783857641, 27.853520168189245 ], [ 112.812092277707336, 27.854013800828934 ], [ 112.812008044716947, 27.855075821046281 ], [ 112.811921736675572, 27.857049988701288 ], [ 112.813124828164575, 27.857735322114436 ], [ 112.813948273451501, 27.858113910459473 ], [ 112.814168661269051, 27.858213336046528 ], [ 112.814372019214886, 27.858307729471491 ], [ 112.815202531272931, 27.858088238570101 ], [ 112.816092155493664, 27.857854859780339 ], [ 112.817682044380106, 27.857744817698499 ], [ 112.817897456332759, 27.857478177571082 ], [ 112.817940683122771, 27.855581944874114 ], [ 112.820864019336739, 27.855396411699516 ], [ 112.822971013619068, 27.853465063763021 ], [ 112.827532366385739, 27.852790535398952 ], [ 112.827484353450515, 27.851841289100594 ], [ 112.82727105851869, 27.850665695690065 ], [ 112.827055816286702, 27.848766980248655 ], [ 112.825294886804784, 27.845296102507085 ], [ 112.824403269636107, 27.845210409576179 ], [ 112.823543892883976, 27.842779394763252 ], [ 112.822082295420103, 27.841903497655178 ], [ 112.820533551311186, 27.840876413078657 ], [ 112.820040698146784, 27.840300391907835 ], [ 112.817974871505001, 27.841174650415567 ], [ 112.817874686550425, 27.841213468731798 ], [ 112.81776348390278, 27.841223261717047 ], [ 112.814698971543748, 27.840867477654466 ], [ 112.813286459327429, 27.840584810554812 ], [ 112.812654339464331, 27.840464622559505 ], [ 112.81219351687723, 27.840482775546668 ], [ 112.811813839398638, 27.840512081286523 ], [ 112.810771977168216, 27.84072020316075 ], [ 112.809027911052269, 27.840727026484025 ], [ 112.808798512689052, 27.840696605855655 ], [ 112.808717371409884, 27.840692458277253 ], [ 112.808698279134916, 27.8414455457191 ] ] ] } }
]
}
