{
"type": "FeatureCollection",
"name": "棋盘村委会",
"crs": { "type": "name", "properties": { "name": "urn:ogc:def:crs:OGC:1.3:CRS84" } },
"features": [
{ "type": "Feature", "properties": { "adcode": "430302102219", "fullName": "湖南省湘潭市雨湖区姜畲镇棋盘村委会", "level": "居委会/社区", "location": "112.807927,27.85418", "name": "棋盘村委会", "OBJECTID": 3964, "SHAPE_Leng": 0.066377512479400005, "SHAPE_Area": 0.0002191305855 }, "geometry": { "type": "Polygon", "coordinates": [ [ [ 112.790777479737699, 27.856287936054752 ], [ 112.791293165630307, 27.856857810236828 ], [ 112.79253989047308, 27.857733865315808 ], [ 112.792453735439295, 27.858113795211235 ], [ 112.793312818466561, 27.860315494991692 ], [ 112.793565156978886, 27.860744961305944 ], [ 112.793914628179607, 27.861340609535588 ], [ 112.793871495475969, 27.862213686999208 ], [ 112.795418781995167, 27.862709229732371 ], [ 112.79528854538718, 27.863203103130484 ], [ 112.795653039834662, 27.863967816335734 ], [ 112.795848305702236, 27.864380199989085 ], [ 112.797868411867242, 27.864724557341276 ], [ 112.798513426863252, 27.864763633481918 ], [ 112.799803472303651, 27.864955826950798 ], [ 112.800347365628014, 27.864762714490034 ], [ 112.802038176775653, 27.864161504381109 ], [ 112.802983794386549, 27.863519033075018 ], [ 112.806939520220865, 27.863260969769065 ], [ 112.808829906863267, 27.861897146751822 ], [ 112.809433021473168, 27.86114011502373 ], [ 112.811624978084524, 27.860004933115501 ], [ 112.813583530701194, 27.859248422352383 ], [ 112.813637638916106, 27.859104498733974 ], [ 112.813731825642435, 27.858875635345804 ], [ 112.813798953345199, 27.858781744239721 ], [ 112.81391016586862, 27.858614922849608 ], [ 112.814051436026773, 27.858402149717467 ], [ 112.814168661269051, 27.858213336046528 ], [ 112.813948273451501, 27.858113910459473 ], [ 112.813124828164575, 27.857735322114436 ], [ 112.811921736675572, 27.857049988701288 ], [ 112.812008044716947, 27.855075821046281 ], [ 112.812092277707336, 27.854013800828934 ], [ 112.811792783857641, 27.853520168189245 ], [ 112.810244055734273, 27.85336630474475 ], [ 112.809782443935347, 27.850809042277103 ], [ 112.808267860611068, 27.849984160530664 ], [ 112.807665824489263, 27.849870057021125 ], [ 112.806375588675564, 27.850017770576166 ], [ 112.8050852590152, 27.851647748095889 ], [ 112.802722314885898, 27.851340561900283 ], [ 112.797518885604532, 27.851710823062763 ], [ 112.796143473198029, 27.855277164945001 ], [ 112.793778951282505, 27.854665289362003 ], [ 112.791587851139198, 27.853486701598356 ], [ 112.791422609591365, 27.853556461458961 ], [ 112.790777479737699, 27.856287936054752 ] ] ] } }
]
}
