{
"type": "FeatureCollection",
"name": "棠华村委会",
"crs": { "type": "name", "properties": { "name": "urn:ogc:def:crs:OGC:1.3:CRS84" } },
"features": [
{ "type": "Feature", "properties": { "adcode": "430373200216", "fullName": "湖南省湘潭市雨湖区响水乡棠华村委会", "level": "居委会/社区", "location": "112.889428,27.948183", "name": "棠华村委会", "OBJECTID": 4018, "SHAPE_Leng": 0.074211182250800006, "SHAPE_Area": 9.7573188000400006e-05 }, "geometry": { "type": "Polygon", "coordinates": [ [ [ 112.87453621367051, 27.950441982961113 ], [ 112.874621112358085, 27.952488404278565 ], [ 112.875481524487441, 27.954537494970204 ], [ 112.876080928365511, 27.954233946291829 ], [ 112.877970946011885, 27.955297623532157 ], [ 112.876639011997639, 27.957532958854365 ], [ 112.876638952909218, 27.958291086476454 ], [ 112.877798674742877, 27.957572876183843 ], [ 112.879517559198518, 27.957535126264759 ], [ 112.879945803198183, 27.956967326066554 ], [ 112.882392810859997, 27.95670283310514 ], [ 112.885010691110239, 27.955150968767938 ], [ 112.884839692388894, 27.95461979624972 ], [ 112.88514078279789, 27.954353896454002 ], [ 112.885655865719485, 27.954696193929038 ], [ 112.886385038306386, 27.954203431498051 ], [ 112.887973182992013, 27.955000188883986 ], [ 112.890940463977017, 27.952262607976127 ], [ 112.893383376990542, 27.950030675484676 ], [ 112.893340443293596, 27.949270541089046 ], [ 112.898198735932368, 27.940693209736231 ], [ 112.896406425340857, 27.940098182085752 ], [ 112.894861547840023, 27.944003797271034 ], [ 112.892073712060679, 27.947985121842315 ], [ 112.889582561266678, 27.951282084635981 ], [ 112.88597811430985, 27.952304934311908 ], [ 112.883015459624247, 27.951052235745784 ], [ 112.876059343236037, 27.948733997464306 ], [ 112.876295459364073, 27.949116256832003 ], [ 112.87543789775701, 27.949381585442829 ], [ 112.875093613011657, 27.950139418709558 ], [ 112.874793412305138, 27.950138157603039 ], [ 112.87453621367051, 27.950441982961113 ] ] ] } }
]
}
