{
"type": "FeatureCollection",
"name": "楠木村村委会",
"crs": { "type": "name", "properties": { "name": "urn:ogc:def:crs:OGC:1.3:CRS84" } },
"features": [
{ "type": "Feature", "properties": { "adcode": "430372100213", "fullName": "湖南省湘潭市岳塘区昭山镇楠木村村委会", "level": "居委会/社区", "location": "113.051412,27.912115", "name": "楠木村村委会", "OBJECTID": 4159, "SHAPE_Leng": 0.096552206254500006, "SHAPE_Area": 0.000369832093 }, "geometry": { "type": "Polygon", "coordinates": [ [ [ 113.053852677487342, 27.924473817326167 ], [ 113.053994411007338, 27.923956488801558 ], [ 113.054024354071629, 27.923856421077293 ], [ 113.054185040483219, 27.923426076500181 ], [ 113.054205005347953, 27.923327025964976 ], [ 113.054224965477204, 27.923285985374761 ], [ 113.054264889725516, 27.923155896025488 ], [ 113.055263026516371, 27.91982466975373 ], [ 113.055767105249245, 27.91811855683142 ], [ 113.056201321038401, 27.916651606997153 ], [ 113.056479823458346, 27.915702000391338 ], [ 113.055842291005376, 27.913941720548607 ], [ 113.05560284864481, 27.913261992183429 ], [ 113.055556951214982, 27.91318805416471 ], [ 113.055453179271424, 27.913072203402287 ], [ 113.05457513953715, 27.911964462024915 ], [ 113.054483346876935, 27.911844594732489 ], [ 113.052699450277956, 27.909556248762204 ], [ 113.047282808248951, 27.902386043300414 ], [ 113.047042396378629, 27.902490532109546 ], [ 113.043924247457866, 27.90384006605295 ], [ 113.04136699995847, 27.904784660183537 ], [ 113.036635235128585, 27.905766474310077 ], [ 113.039568688228243, 27.908098183936481 ], [ 113.032363419793455, 27.91243984681255 ], [ 113.032160800624339, 27.91536484621847 ], [ 113.032303346843904, 27.915582532226022 ], [ 113.033255431522761, 27.915837245344193 ], [ 113.03450674708121, 27.914952072609939 ], [ 113.034677173122674, 27.915766804203887 ], [ 113.033501593014208, 27.917002846618196 ], [ 113.034474636031803, 27.917483582602905 ], [ 113.036165686472515, 27.91697748832587 ], [ 113.036989364469093, 27.916103419570042 ], [ 113.037674423311103, 27.915731776475731 ], [ 113.038476131590016, 27.915814961786921 ], [ 113.038679485413127, 27.916676648680632 ], [ 113.039140115096927, 27.917557761372514 ], [ 113.037438831836099, 27.91900387770362 ], [ 113.037502626904711, 27.919268776215361 ], [ 113.038411956058837, 27.920186855295189 ], [ 113.040026283789487, 27.921916530057821 ], [ 113.041202941312349, 27.923185163553359 ], [ 113.042647947161043, 27.924310249225375 ], [ 113.043547505681616, 27.924981467332529 ], [ 113.043043835375073, 27.925011530853524 ], [ 113.041994615397442, 27.925355823507275 ], [ 113.041984586593159, 27.92603796163986 ], [ 113.042379492527246, 27.926425182341884 ], [ 113.043161453492516, 27.925864428673965 ], [ 113.043482579713356, 27.926166805863225 ], [ 113.043878480558334, 27.926878100980719 ], [ 113.04489477246041, 27.92768114271777 ], [ 113.045665795217786, 27.927698581174081 ], [ 113.046340128392629, 27.927203146240426 ], [ 113.04706733836322, 27.926842647523653 ], [ 113.048468917078054, 27.926582889743063 ], [ 113.048950782169896, 27.926230914058014 ], [ 113.04936878940498, 27.926127109366707 ], [ 113.050106975581215, 27.926912870494608 ], [ 113.051242254991536, 27.927858961930511 ], [ 113.052310752264248, 27.928691202204075 ], [ 113.052847566804587, 27.928472226461974 ], [ 113.052547275704285, 27.928017672276273 ], [ 113.05241864944027, 27.926984721094602 ], [ 113.051958781197172, 27.925856339247346 ], [ 113.052099499591094, 27.925401012343958 ], [ 113.053340782714471, 27.924697729416081 ], [ 113.053852677487342, 27.924473817326167 ] ] ] } }
]
}
