{
"type": "FeatureCollection",
"name": "楠竹社区居委会",
"crs": { "type": "name", "properties": { "name": "urn:ogc:def:crs:OGC:1.3:CRS84" } },
"features": [
{ "type": "Feature", "properties": { "adcode": "430302101002", "fullName": "湖南省湘潭市雨湖区楠竹山镇楠竹社区居委会", "level": "居委会/社区", "location": "112.681483,27.828751", "name": "楠竹社区居委会", "OBJECTID": 3941, "SHAPE_Leng": 0.15806055797400001, "SHAPE_Area": 0.000297942338 }, "geometry": { "type": "MultiPolygon", "coordinates": [ [ [ [ 112.667683676871519, 27.831910448275547 ], [ 112.667693642399129, 27.83205045149861 ], [ 112.667713536163774, 27.832810534642171 ], [ 112.669918100686175, 27.83567677301226 ], [ 112.670070729476535, 27.835813503160779 ], [ 112.671095240428983, 27.836717691612645 ], [ 112.672522778444915, 27.837975174024521 ], [ 112.672860959697545, 27.838271578780159 ], [ 112.673579251442163, 27.838531256889734 ], [ 112.674396328908742, 27.838606721306448 ], [ 112.674527021719072, 27.83861947617439 ], [ 112.678298376553911, 27.836881116977512 ], [ 112.678408128726645, 27.836805900638609 ], [ 112.678557790948517, 27.836703605858265 ], [ 112.680136241782463, 27.835634511993661 ], [ 112.681241772418659, 27.83488636096677 ], [ 112.681820515322016, 27.834114179583693 ], [ 112.681601070558429, 27.83339546526533 ], [ 112.680094623786033, 27.831967002211432 ], [ 112.680354120529685, 27.830796337714588 ], [ 112.683506129379879, 27.828660253522624 ], [ 112.684085880473503, 27.82797910247811 ], [ 112.684105894972618, 27.827219946473008 ], [ 112.683896400138536, 27.826769251645469 ], [ 112.683418487100269, 27.82660808700593 ], [ 112.683127151143509, 27.826511597992177 ], [ 112.681172635943355, 27.825854051870088 ], [ 112.68105291210621, 27.825815265149611 ], [ 112.679676101599142, 27.82534772582579 ], [ 112.67942668211407, 27.825257172824649 ], [ 112.678519774871631, 27.825228850746889 ], [ 112.678329204253998, 27.825369227380001 ], [ 112.677780442884156, 27.825770313321719 ], [ 112.676782660386095, 27.827033378990357 ], [ 112.676681885482864, 27.827152586786205 ], [ 112.675704070298693, 27.828354614529655 ], [ 112.674178561634406, 27.829347652390265 ], [ 112.672475518683754, 27.829907973598988 ], [ 112.671942759600938, 27.830082015401931 ], [ 112.670497150934054, 27.830314810112991 ], [ 112.669988337642408, 27.830505812831948 ], [ 112.669400708894372, 27.830726971873577 ], [ 112.669359804008522, 27.830747053332516 ], [ 112.668470875904276, 27.831128815757502 ], [ 112.668012943277674, 27.831329724895866 ], [ 112.667683676871519, 27.831910448275547 ] ] ], [ [ [ 112.661049520491105, 27.829492758665957 ], [ 112.661089422073871, 27.829553692315198 ], [ 112.6616679960174, 27.83041172555329 ], [ 112.663254204416972, 27.831138811004703 ], [ 112.663543518918118, 27.831179263969435 ], [ 112.664740675770275, 27.83139600640985 ], [ 112.664930234162725, 27.831315630470097 ], [ 112.66544902448716, 27.831104602812442 ], [ 112.666177338316061, 27.830644133682128 ], [ 112.667065318429707, 27.829612267725267 ], [ 112.667351671507035, 27.829221656939868 ], [ 112.667733808249281, 27.828699841926856 ], [ 112.668201750622998, 27.828068845489362 ], [ 112.66849809851962, 27.827443178908261 ], [ 112.669280378006491, 27.825787419950352 ], [ 112.669381232341166, 27.824597039552113 ], [ 112.669400204718585, 27.824375968492674 ], [ 112.669344338611339, 27.824352071627803 ], [ 112.668661974562994, 27.824058331608125 ], [ 112.667734198925658, 27.823669047631512 ], [ 112.667116680334431, 27.823401188979517 ], [ 112.666676722466178, 27.823381029067949 ], [ 112.665747921727871, 27.823342803304243 ], [ 112.66387324265898, 27.824726611774295 ], [ 112.663374386796932, 27.825147632627154 ], [ 112.662895483049581, 27.82556861477584 ], [ 112.662838613161952, 27.825618731387962 ], [ 112.662235991061578, 27.826149966542914 ], [ 112.661448728207048, 27.827621701330731 ], [ 112.661219243202112, 27.827932187930664 ], [ 112.661179332963513, 27.827983272075969 ], [ 112.661049520491105, 27.829492758665957 ] ] ], [ [ [ 112.655262207436479, 27.852389389653851 ], [ 112.6555395695801, 27.852380870094482 ], [ 112.655924667541285, 27.852563179551225 ], [ 112.655940618928142, 27.852715174685006 ], [ 112.656282823376415, 27.85278254440572 ], [ 112.656395584541585, 27.852501286584964 ], [ 112.656481399756927, 27.852325096542963 ], [ 112.65666897667289, 27.852183721036042 ], [ 112.656513345358121, 27.852073995282773 ], [ 112.656315802146295, 27.852074366067754 ], [ 112.655791037997886, 27.85176229803939 ], [ 112.655683282700295, 27.851810507580669 ], [ 112.655619402274681, 27.852166685608168 ], [ 112.655560526507472, 27.852313819889122 ], [ 112.655046719755703, 27.852172756123995 ], [ 112.655094620376531, 27.852034644072237 ], [ 112.65510460882949, 27.851887601268608 ], [ 112.655148522314533, 27.851701488752429 ], [ 112.65528223388533, 27.851455198713275 ], [ 112.655384001946615, 27.851426003858872 ], [ 112.655560593367397, 27.85145067789939 ], [ 112.655711248057315, 27.85142639215417 ], [ 112.656224075941239, 27.851278407314531 ], [ 112.656367744986468, 27.851264135487995 ], [ 112.656609182800935, 27.851311690056249 ], [ 112.656892519025604, 27.851410173754072 ], [ 112.657133951220587, 27.851514736720627 ], [ 112.657357422087685, 27.851651338358788 ], [ 112.657582890042349, 27.851759931271111 ], [ 112.658170523776704, 27.851753821110041 ], [ 112.658298227793836, 27.851735576764224 ], [ 112.658684336811675, 27.851619827400658 ], [ 112.658924817311089, 27.851084284092828 ], [ 112.658964732921874, 27.850971189912151 ], [ 112.659026602238782, 27.850794043615004 ], [ 112.65910044488723, 27.850599871816428 ], [ 112.65911243088614, 27.850419819560759 ], [ 112.659069552473625, 27.850143855564944 ], [ 112.658956861976776, 27.849546971251595 ], [ 112.657838465479585, 27.849578091143183 ], [ 112.657645934306643, 27.849304409534483 ], [ 112.657715797817986, 27.848971223201755 ], [ 112.65804210258176, 27.848151473168414 ], [ 112.658207751965563, 27.847701086600889 ], [ 112.658352462494889, 27.847088713037209 ], [ 112.658476219051693, 27.846510384614636 ], [ 112.658748630062817, 27.845915772160787 ], [ 112.659486011443747, 27.844583157553675 ], [ 112.659881145442938, 27.843831285123219 ], [ 112.660513754338027, 27.842659892217736 ], [ 112.661075514433094, 27.841652659341307 ], [ 112.661641269454364, 27.84056740513029 ], [ 112.662199040260788, 27.839500168146937 ], [ 112.661428882567421, 27.839102573594392 ], [ 112.660171842396252, 27.838970945778385 ], [ 112.658258327716311, 27.838772541432949 ], [ 112.658256332362626, 27.838772545204858 ], [ 112.655943712751267, 27.838532858399194 ], [ 112.655081730093755, 27.838117402596204 ], [ 112.654314444378301, 27.838708926422544 ], [ 112.653629994682689, 27.838890225152387 ], [ 112.653201931775754, 27.839385096541438 ], [ 112.652729938371223, 27.840240105178029 ], [ 112.652452486778913, 27.841283784600208 ], [ 112.652354647262939, 27.842073092309928 ], [ 112.650876841783486, 27.843851084005649 ], [ 112.650834908669935, 27.844202217407322 ], [ 112.651124246478403, 27.844361716297612 ], [ 112.652268634506399, 27.844749685044217 ], [ 112.652183780182753, 27.845347938258975 ], [ 112.652301468880154, 27.845926816456334 ], [ 112.652783367292329, 27.846039948309045 ], [ 112.65287913069416, 27.846285811914488 ], [ 112.652772352586879, 27.846552052127187 ], [ 112.653114574847564, 27.846550420748233 ], [ 112.653799989745409, 27.846843200812124 ], [ 112.654462452154121, 27.847128017553498 ], [ 112.65467793375889, 27.847441667860767 ], [ 112.656004745144557, 27.849183474832742 ], [ 112.656005729593332, 27.849354500999461 ], [ 112.655406028656699, 27.850428799018889 ], [ 112.654838248448144, 27.851531039257281 ], [ 112.654860135622371, 27.852337130974838 ], [ 112.654565767466138, 27.852898771466883 ], [ 112.654174612937595, 27.853549605655644 ], [ 112.654628560513956, 27.853709788164188 ], [ 112.654806171778645, 27.853467417532805 ], [ 112.655057611181078, 27.853248912878843 ], [ 112.655239211339946, 27.853020536430162 ], [ 112.655325023462666, 27.852897355934527 ], [ 112.655356967265334, 27.852674259563798 ], [ 112.655336027646442, 27.852517272846185 ], [ 112.655262207436479, 27.852389389653851 ] ] ], [ [ [ 112.649446829894742, 27.820683980402475 ], [ 112.650029498184466, 27.821127997608951 ], [ 112.650374706677923, 27.821391413331668 ], [ 112.651492171375111, 27.821739432909936 ], [ 112.652889001240069, 27.82186788874294 ], [ 112.654434464920968, 27.822004048513282 ], [ 112.657787702317094, 27.822288809731681 ], [ 112.659493733093854, 27.822185565114513 ], [ 112.660541291544874, 27.822043552265722 ], [ 112.660728860240695, 27.821933177996559 ], [ 112.660830626250601, 27.821871974663342 ], [ 112.661239684703915, 27.821631157710605 ], [ 112.661359462417593, 27.820870810595451 ], [ 112.661309708945879, 27.819201645294253 ], [ 112.660705148103446, 27.818942756685903 ], [ 112.660242247172931, 27.818762609360892 ], [ 112.657442791436523, 27.818577881284501 ], [ 112.657169427179525, 27.818558393125741 ], [ 112.656015140304788, 27.818006475177654 ], [ 112.654814946936071, 27.817432628382274 ], [ 112.653966920589284, 27.817024141416759 ], [ 112.653098933256558, 27.81658667972615 ], [ 112.652520269608033, 27.81629670115672 ], [ 112.651502614145613, 27.815718477914022 ], [ 112.650844098313996, 27.815669671434282 ], [ 112.649846318152768, 27.815811502880969 ], [ 112.649566873495289, 27.816673140602781 ], [ 112.649545872197763, 27.817293274523362 ], [ 112.649538868880072, 27.817537324984936 ], [ 112.649446829894742, 27.820683980402475 ] ] ] ] } }
]
}
