{
"type": "FeatureCollection",
"name": "正江村村委会",
"crs": { "type": "name", "properties": { "name": "urn:ogc:def:crs:OGC:1.3:CRS84" } },
"features": [
{ "type": "Feature", "properties": { "adcode": "430304015209", "fullName": "湖南省湘潭市岳塘区荷塘街道正江村村委会", "level": "居委会/社区", "location": "112.988398,27.92273", "name": "正江村村委会", "OBJECTID": 4110, "SHAPE_Leng": 0.085229645783400004, "SHAPE_Area": 0.000328715792 }, "geometry": { "type": "Polygon", "coordinates": [ [ [ 112.987196277355167, 27.922347537120149 ], [ 112.989827679803554, 27.92009117308908 ], [ 112.988786585018872, 27.919690265066851 ], [ 112.988786569350452, 27.919886298640446 ], [ 112.988776603189834, 27.919926335719524 ], [ 112.988736747335906, 27.919976465189187 ], [ 112.988668001185403, 27.919997677329757 ], [ 112.98854744930712, 27.919997042810174 ], [ 112.988427897567803, 27.919947396804996 ], [ 112.988348195300304, 27.919927635045816 ], [ 112.988298381885031, 27.919908782816655 ], [ 112.988228642633473, 27.919887990633661 ], [ 112.988119049689089, 27.919888322805001 ], [ 112.98806325601258, 27.919899493770405 ], [ 112.986997133838997, 27.920874887577131 ], [ 112.985855418538762, 27.920168214669381 ], [ 112.985457912711055, 27.919863360854979 ], [ 112.985347328065615, 27.919779679703481 ], [ 112.984480554532325, 27.919442230022906 ], [ 112.983175428824438, 27.918568995685387 ], [ 112.983379699717034, 27.918297337475348 ], [ 112.983519237431651, 27.91766181066598 ], [ 112.982861665403817, 27.917517754759203 ], [ 112.981995845472085, 27.917450329026874 ], [ 112.980925792913794, 27.917002437347872 ], [ 112.979938417383295, 27.916656305571355 ], [ 112.978918171228528, 27.916018208933213 ], [ 112.978271567793584, 27.915298988250861 ], [ 112.977635921986376, 27.914537722667134 ], [ 112.974982345262816, 27.915551617030324 ], [ 112.974780036890749, 27.915903261373902 ], [ 112.974682380643841, 27.915945550365215 ], [ 112.974448191039727, 27.916213271210307 ], [ 112.974197051669961, 27.916592058907714 ], [ 112.97375362128507, 27.916597333639935 ], [ 112.973630995411256, 27.917342812841014 ], [ 112.972723123266391, 27.918256564707729 ], [ 112.972045454035197, 27.918855595048157 ], [ 112.96917227773568, 27.92078000145397 ], [ 112.968043087989514, 27.921536259789203 ], [ 112.969425213857576, 27.923204711602846 ], [ 112.970456556614494, 27.924345020540571 ], [ 112.971409157778439, 27.925399516589341 ], [ 112.973013395089069, 27.927125252812466 ], [ 112.974886607272765, 27.929079206426465 ], [ 112.976630271414209, 27.930404373615001 ], [ 112.978005244448667, 27.931391520915952 ], [ 112.980456269590391, 27.932454471503906 ], [ 112.983096508835558, 27.933685814593488 ], [ 112.986384282091905, 27.934877130785885 ], [ 112.989452765342492, 27.936407097765567 ], [ 112.990488864976271, 27.936935039539069 ], [ 112.990568564851358, 27.93697480398852 ], [ 112.991160335476224, 27.937274055096967 ], [ 112.991724210193681, 27.937560387958754 ], [ 112.99210277838138, 27.937809277926764 ], [ 112.992142627673147, 27.937835161010486 ], [ 112.992230316391172, 27.937638860612807 ], [ 112.99387248578023, 27.933958231791099 ], [ 112.997095758536176, 27.930295789774174 ], [ 112.997010187301768, 27.928931817350982 ], [ 112.996732299414006, 27.927983501277918 ], [ 112.996842951518545, 27.927182027536542 ], [ 112.994126065328274, 27.927423343942852 ], [ 112.987196277355167, 27.922347537120149 ] ] ] } }
]
}
