{
"type": "FeatureCollection",
"name": "民乐村",
"crs": { "type": "name", "properties": { "name": "urn:ogc:def:crs:OGC:1.3:CRS84" } },
"features": [
{ "type": "Feature", "properties": { "adcode": "430373001210", "fullName": "湖南省湘潭市雨湖区和平街道民乐村", "level": "居委会/社区", "location": "112.943613,27.967732", "name": "民乐村", "OBJECTID": 4004, "SHAPE_Leng": 0.00152816343087, "SHAPE_Area": 1.3941600001600001e-07 }, "geometry": { "type": "Polygon", "coordinates": [ [ [ 112.937908729372396, 27.971165993395044 ], [ 112.93808329069202, 27.971494729871136 ], [ 112.938435482528305, 27.971129023891617 ], [ 112.938155162316974, 27.970961510128877 ], [ 112.937908729372396, 27.971165993395044 ] ] ] } }
]
}
