{
"type": "FeatureCollection",
"name": "水井村委会",
"crs": { "type": "name", "properties": { "name": "urn:ogc:def:crs:OGC:1.3:CRS84" } },
"features": [
{ "type": "Feature", "properties": { "adcode": "430302100235", "fullName": "湖南省湘潭市雨湖区鹤岭镇水井村委会", "level": "居委会/社区", "location": "112.791893,27.981609", "name": "水井村委会", "OBJECTID": 3915, "SHAPE_Leng": 0.096535675624899994, "SHAPE_Area": 0.000291864682 }, "geometry": { "type": "Polygon", "coordinates": [ [ [ 112.774664935828412, 27.977009477144904 ], [ 112.776037955684757, 27.980573558715751 ], [ 112.778443390475985, 27.980577316403167 ], [ 112.777928625072306, 27.983458184081851 ], [ 112.779223915193, 27.984449882457714 ], [ 112.782144029810411, 27.986575870282248 ], [ 112.784035272463527, 27.986882405074162 ], [ 112.78334730359704, 27.988547760644462 ], [ 112.784894073170292, 27.990218106703281 ], [ 112.782831469295388, 27.991276524895685 ], [ 112.782129483283413, 27.993265935222276 ], [ 112.785704837223662, 27.993513751822931 ], [ 112.785875899955883, 27.995484305600829 ], [ 112.785017679582694, 27.997151391365755 ], [ 112.78725249738973, 27.997912628750736 ], [ 112.787252425372088, 27.998821773800781 ], [ 112.788969706813845, 27.999127301449466 ], [ 112.789828769777159, 28.000643809591555 ], [ 112.790861192495342, 28.000949403272429 ], [ 112.793656516632453, 27.997483153960026 ], [ 112.791592644223996, 27.995758683905343 ], [ 112.793227186152507, 27.993638865124513 ], [ 112.792280833733429, 27.99325733646393 ], [ 112.793569865662022, 27.991441046622949 ], [ 112.792022663936734, 27.990680523536792 ], [ 112.792710824544699, 27.988634253032302 ], [ 112.79580575274781, 27.984848532580568 ], [ 112.795290164106092, 27.982346294055549 ], [ 112.793828974409081, 27.982268960572831 ], [ 112.793735981329846, 27.980432512978982 ], [ 112.793656988579144, 27.978857129771836 ], [ 112.79056242164917, 27.980065575017441 ], [ 112.79039038983845, 27.977409879644988 ], [ 112.788844306682748, 27.976726479284537 ], [ 112.788586075699328, 27.975209852040134 ], [ 112.784547948919879, 27.973687927142457 ], [ 112.783430513735041, 27.974520569784897 ], [ 112.780937655184957, 27.973759230392918 ], [ 112.777414715529673, 27.975650304013726 ], [ 112.776555997702047, 27.973829024805468 ], [ 112.77500729645071, 27.976478756746271 ], [ 112.774664935828412, 27.977009477144904 ] ] ] } }
]
}
