{
"type": "FeatureCollection",
"name": "水库村委会",
"crs": { "type": "name", "properties": { "name": "urn:ogc:def:crs:OGC:1.3:CRS84" } },
"features": [
{ "type": "Feature", "properties": { "adcode": "430302102216", "fullName": "湖南省湘潭市雨湖区姜畲镇水库村委会", "level": "居委会/社区", "location": "112.80419,27.86938", "name": "水库村委会", "OBJECTID": 3961, "SHAPE_Leng": 0.047174199834900003, "SHAPE_Area": 0.0001146685135 }, "geometry": { "type": "Polygon", "coordinates": [ [ [ 112.792703492440097, 27.878543605301392 ], [ 112.794078447850069, 27.879455909970261 ], [ 112.795429511701329, 27.879078997372446 ], [ 112.796915828413205, 27.878664335643133 ], [ 112.798806725810152, 27.879616620913598 ], [ 112.802484740918842, 27.879119790301711 ], [ 112.801987990621654, 27.878217780415945 ], [ 112.804523667403828, 27.872567241440436 ], [ 112.803708450262206, 27.870592480011453 ], [ 112.802333248942276, 27.869452899138913 ], [ 112.801559062756922, 27.868311375014738 ], [ 112.801043263270145, 27.867741396842092 ], [ 112.800347365628014, 27.864762714490034 ], [ 112.799803472303651, 27.864955826950798 ], [ 112.798513426863252, 27.864763633481918 ], [ 112.797868411867242, 27.864724557341276 ], [ 112.795848305702236, 27.864380199989085 ], [ 112.795653039834662, 27.863967816335734 ], [ 112.795454572827055, 27.866063847364476 ], [ 112.795540596383447, 27.867430214332948 ], [ 112.795283079660251, 27.86902406807026 ], [ 112.794767204567179, 27.870236447339103 ], [ 112.795455114371009, 27.871907828559952 ], [ 112.795025379271806, 27.872969318731446 ], [ 112.794251060434561, 27.874941419968888 ], [ 112.792703492440097, 27.878543605301392 ] ] ] } }
]
}
