{
"type": "FeatureCollection",
"name": "永丰社区居委会",
"crs": { "type": "name", "properties": { "name": "urn:ogc:def:crs:OGC:1.3:CRS84" } },
"features": [
{ "type": "Feature", "properties": { "adcode": "430302101001", "fullName": "湖南省湘潭市雨湖区楠竹山镇永丰社区居委会", "level": "居委会/社区", "location": "112.667205,27.841937", "name": "永丰社区居委会", "OBJECTID": 3940, "SHAPE_Leng": 0.0283413309955, "SHAPE_Area": 4.5235071999900003e-05 }, "geometry": { "type": "Polygon", "coordinates": [ [ [ 112.658956861976776, 27.849546971251595 ], [ 112.659943558334831, 27.849505092395997 ], [ 112.661012059697313, 27.849418045271847 ], [ 112.661677499878294, 27.849368768615179 ], [ 112.662255153291767, 27.849206639459506 ], [ 112.662651241180853, 27.848939839085638 ], [ 112.662961544566969, 27.848494173011385 ], [ 112.663283823774989, 27.847991474483948 ], [ 112.663667935469832, 27.84776170202597 ], [ 112.664073985939325, 27.847646906038655 ], [ 112.664546868336103, 27.847657002148619 ], [ 112.664995801014811, 27.847741155909524 ], [ 112.66504482560714, 27.84593676746956 ], [ 112.664513369033017, 27.842240184610684 ], [ 112.663958772880719, 27.841029050390553 ], [ 112.663229570810259, 27.840033284715691 ], [ 112.662199040260788, 27.839500168146937 ], [ 112.661641269454364, 27.84056740513029 ], [ 112.661075514433094, 27.841652659341307 ], [ 112.660513754338027, 27.842659892217736 ], [ 112.659881145442938, 27.843831285123219 ], [ 112.659486011443747, 27.844583157553675 ], [ 112.658748630062817, 27.845915772160787 ], [ 112.658476219051693, 27.846510384614636 ], [ 112.658352462494889, 27.847088713037209 ], [ 112.658207751965563, 27.847701086600889 ], [ 112.65804210258176, 27.848151473168414 ], [ 112.657715797817986, 27.848971223201755 ], [ 112.657645934306643, 27.849304409534483 ], [ 112.657838465479585, 27.849578091143183 ], [ 112.658956861976776, 27.849546971251595 ] ] ] } }
]
}
