{
"type": "FeatureCollection",
"name": "永兴村委会",
"crs": { "type": "name", "properties": { "name": "urn:ogc:def:crs:OGC:1.3:CRS84" } },
"features": [
{ "type": "Feature", "properties": { "adcode": "430302102231", "fullName": "湖南省湘潭市雨湖区姜畲镇永兴村委会", "level": "居委会/社区", "location": "112.844818,27.917831", "name": "永兴村委会", "OBJECTID": 3976, "SHAPE_Leng": 0.078090829232999995, "SHAPE_Area": 0.0002392430885 }, "geometry": { "type": "Polygon", "coordinates": [ [ [ 112.832464068903079, 27.918897918030659 ], [ 112.832599291078537, 27.919133208091079 ], [ 112.832826597180031, 27.920385842378526 ], [ 112.833128106428006, 27.920717454951312 ], [ 112.833836279812004, 27.92174293305025 ], [ 112.833987549169791, 27.921714205722406 ], [ 112.833718004836953, 27.922586860590922 ], [ 112.832794274473315, 27.923779364746235 ], [ 112.832729117096932, 27.924311335754993 ], [ 112.833406308824976, 27.924435604639136 ], [ 112.835405813271365, 27.92463729939281 ], [ 112.835512956879612, 27.925197590499362 ], [ 112.834996988135373, 27.926030792927179 ], [ 112.834115378186752, 27.926787309891054 ], [ 112.834330692477792, 27.92762184741645 ], [ 112.833814721507395, 27.928398034263832 ], [ 112.834996758061777, 27.92896929597546 ], [ 112.835039477097595, 27.933522153211015 ], [ 112.835726639480313, 27.934035492511502 ], [ 112.836516994835961, 27.934301971536946 ], [ 112.836909665234728, 27.934435704088934 ], [ 112.838328103134756, 27.934495263199388 ], [ 112.838499492727053, 27.933262358723308 ], [ 112.839659524019325, 27.932525296464576 ], [ 112.840685228674573, 27.93282615795157 ], [ 112.841486548738175, 27.933060601869613 ], [ 112.841475560840522, 27.932671516124561 ], [ 112.841671903244261, 27.932465823513979 ], [ 112.841755048026442, 27.932378953551495 ], [ 112.841915349263729, 27.9319241548077 ], [ 112.842496328450409, 27.931670119534349 ], [ 112.842541407945646, 27.931602185921605 ], [ 112.843485062677189, 27.930192570380267 ], [ 112.843742538269936, 27.92946288655526 ], [ 112.843226716213493, 27.929233962565476 ], [ 112.843055494905556, 27.928483539405853 ], [ 112.843280905298428, 27.92794483492349 ], [ 112.844076279541838, 27.926894016691168 ], [ 112.844710351387974, 27.926249984453026 ], [ 112.844549162757332, 27.925348556542321 ], [ 112.844495111398928, 27.924892386568395 ], [ 112.845408644091691, 27.923984775568748 ], [ 112.845790283149412, 27.923558343415628 ], [ 112.845848380329798, 27.92349142928915 ], [ 112.846220035577957, 27.922611899787185 ], [ 112.84568328962925, 27.921301777063576 ], [ 112.845661322822082, 27.920429590624643 ], [ 112.846221248102808, 27.91991143872189 ], [ 112.846521741876799, 27.919634891785861 ], [ 112.84591985634016, 27.918837750931612 ], [ 112.845652422988238, 27.918964324379534 ], [ 112.844372328658309, 27.919573265821558 ], [ 112.843684284919718, 27.918681938849641 ], [ 112.843963764850216, 27.918340358115305 ], [ 112.843556177330626, 27.917391498035908 ], [ 112.843233715487699, 27.916574804349288 ], [ 112.844069090930432, 27.916345195636321 ], [ 112.844765227228635, 27.916151345766846 ], [ 112.84616344783673, 27.916182702706394 ], [ 112.84615648115799, 27.915614593629677 ], [ 112.84612263830175, 27.912915074099004 ], [ 112.844446097134281, 27.911243962586205 ], [ 112.843094028624748, 27.909634373666247 ], [ 112.842166464571079, 27.910141857053961 ], [ 112.839414818895122, 27.910630109131212 ], [ 112.835803531821256, 27.911533775335478 ], [ 112.83412658722186, 27.911568720341783 ], [ 112.833524360519519, 27.91365297222875 ], [ 112.833482110841956, 27.915891278528676 ], [ 112.833911739958396, 27.917560354101614 ], [ 112.833481920806733, 27.91831869461268 ], [ 112.832464068903079, 27.918897918030659 ] ] ] } }
]
}
