{
"type": "FeatureCollection",
"name": "永红村村委会",
"crs": { "type": "name", "properties": { "name": "urn:ogc:def:crs:OGC:1.3:CRS84" } },
"features": [
{ "type": "Feature", "properties": { "adcode": "430302007204", "fullName": "湖南省湘潭市雨湖区万楼街道永红村村委会", "level": "居委会/社区", "location": "112.93722,27.878134", "name": "永红村村委会", "OBJECTID": 3881, "SHAPE_Leng": 0.080452135020700005, "SHAPE_Area": 0.000149384188 }, "geometry": { "type": "Polygon", "coordinates": [ [ [ 112.92290979534836, 27.883428731806188 ], [ 112.923048554654159, 27.883570590414795 ], [ 112.923284082755472, 27.884594481179946 ], [ 112.923711205037435, 27.886642309575812 ], [ 112.924126349955358, 27.888547120984562 ], [ 112.924198201229899, 27.888875087323374 ], [ 112.926912416541725, 27.888229436575234 ], [ 112.92724879894304, 27.888144961171747 ], [ 112.934088074422206, 27.886416254189214 ], [ 112.935075810808101, 27.887457766553236 ], [ 112.935864970270117, 27.888290549778681 ], [ 112.93633492643707, 27.887949671188654 ], [ 112.937276804797747, 27.887263883375926 ], [ 112.939321115071166, 27.885132773764219 ], [ 112.938850508266455, 27.881834092607516 ], [ 112.937479997129984, 27.87876207927053 ], [ 112.937107919920464, 27.878055627564542 ], [ 112.936280948517535, 27.876487827107301 ], [ 112.933083317218589, 27.872763601269966 ], [ 112.931798057990108, 27.872393591797049 ], [ 112.932940851223165, 27.869830340240298 ], [ 112.931555823226333, 27.869035408079224 ], [ 112.929982730746872, 27.872720428546089 ], [ 112.929049486570051, 27.873803986717487 ], [ 112.93028995643553, 27.874757309831843 ], [ 112.931980263268102, 27.877695197007746 ], [ 112.931467318054629, 27.877828023360575 ], [ 112.930909448980714, 27.878000914413658 ], [ 112.930309646751112, 27.878209861782409 ], [ 112.92966890263483, 27.878494867513357 ], [ 112.929132935938384, 27.878761700252916 ], [ 112.929947211765551, 27.880259751683418 ], [ 112.93029943866911, 27.881131370567957 ], [ 112.930417173499208, 27.881492253790004 ], [ 112.930577820213443, 27.881862072794238 ], [ 112.931337189079457, 27.882903083067493 ], [ 112.93080326133304, 27.883160948995314 ], [ 112.930502868597586, 27.883179409485823 ], [ 112.930235383989512, 27.883473863409918 ], [ 112.930289255788693, 27.883729825619955 ], [ 112.930737327817113, 27.884023195727554 ], [ 112.930321150826416, 27.884251865955228 ], [ 112.929775236210219, 27.884318694563465 ], [ 112.929775255502548, 27.884071652681165 ], [ 112.929645533300032, 27.883806800173037 ], [ 112.929282272587386, 27.883504283800249 ], [ 112.928811218666581, 27.883152909540478 ], [ 112.928629586202334, 27.882946136232455 ], [ 112.928286312620244, 27.882093482684525 ], [ 112.928061758930056, 27.881865762464532 ], [ 112.927568731293618, 27.881353367097713 ], [ 112.926582600726462, 27.88084263212086 ], [ 112.925919843742818, 27.880331430383563 ], [ 112.924998547182767, 27.879478484433019 ], [ 112.924088197428176, 27.878534472666125 ], [ 112.923766751046983, 27.878448854786878 ], [ 112.924664973733442, 27.881473246265291 ], [ 112.925041228376898, 27.882599957494438 ], [ 112.924430278081502, 27.882780763412647 ], [ 112.92452610127269, 27.882923667078661 ], [ 112.924301469625945, 27.883169990693265 ], [ 112.92373341632198, 27.883456742308674 ], [ 112.923187372200616, 27.882953319551564 ], [ 112.92290979534836, 27.883428731806188 ] ] ] } }
]
}
