{
"type": "FeatureCollection",
"name": "江滨社区居委会",
"crs": { "type": "name", "properties": { "name": "urn:ogc:def:crs:OGC:1.3:CRS84" } },
"features": [
{ "type": "Feature", "properties": { "adcode": "430304015003", "fullName": "湖南省湘潭市岳塘区荷塘街道江滨社区居委会", "level": "居委会/社区", "location": "112.975737,27.874518", "name": "江滨社区居委会", "OBJECTID": 4102, "SHAPE_Leng": 0.039993576189199999, "SHAPE_Area": 5.2342292000200001e-05 }, "geometry": { "type": "Polygon", "coordinates": [ [ [ 112.970554197626242, 27.874291226223516 ], [ 112.970087793836782, 27.874540576760378 ], [ 112.97007174885897, 27.875805834483007 ], [ 112.968921672461931, 27.876311127391627 ], [ 112.96846723680008, 27.876229373671837 ], [ 112.968317750306554, 27.876202782737806 ], [ 112.967605190834277, 27.876074725864896 ], [ 112.967486600293967, 27.875997038706323 ], [ 112.966109330697464, 27.875087647995073 ], [ 112.966794083969219, 27.874288648436774 ], [ 112.965580240461847, 27.873409799933391 ], [ 112.965591217231989, 27.873238741527327 ], [ 112.964289560143143, 27.873206236162648 ], [ 112.963527082985564, 27.873187264338092 ], [ 112.963535057965416, 27.873171240474818 ], [ 112.963460304301918, 27.873171438910898 ], [ 112.96336063322137, 27.873162701764628 ], [ 112.963250994802308, 27.87315199043481 ], [ 112.963121421458681, 27.873142331710216 ], [ 112.962971913762743, 27.873123723715189 ], [ 112.962792502771308, 27.873113195366741 ], [ 112.962633022357508, 27.873144620789251 ], [ 112.96251340717744, 27.873223948808569 ], [ 112.962463565736101, 27.873278088921836 ], [ 112.962403755818968, 27.873344257176836 ], [ 112.962263201649222, 27.873505653212998 ], [ 112.962166506353185, 27.873637928945875 ], [ 112.962154543977164, 27.873654963153463 ], [ 112.962134606543131, 27.873685020438433 ], [ 112.962104700765494, 27.873725105505873 ], [ 112.962094725329138, 27.873825148436147 ], [ 112.962129604864032, 27.873912071684011 ], [ 112.962134587606769, 27.873925060813072 ], [ 112.962174452915875, 27.873985966588766 ], [ 112.962203355648768, 27.874024897371896 ], [ 112.962253189251044, 27.874074775081642 ], [ 112.962313987806766, 27.874114622268458 ], [ 112.962373790299495, 27.874144470296294 ], [ 112.962443560929287, 27.874164290356443 ], [ 112.962582108190517, 27.874163925998129 ], [ 112.962672811499317, 27.874163687198337 ], [ 112.962772485986861, 27.874153422858843 ], [ 112.963071505331072, 27.874153633560326 ], [ 112.963121340948376, 27.874162503279702 ], [ 112.963191111691117, 27.874162318662549 ], [ 112.963280815943733, 27.874172082802605 ], [ 112.963330651981806, 27.874171950748167 ], [ 112.963390453952684, 27.874186794725905 ], [ 112.963419356012565, 27.874221723953397 ], [ 112.963399420075575, 27.87424178019204 ], [ 112.96335456772978, 27.874241899120168 ], [ 112.963833945548274, 27.874760712875901 ], [ 112.965650731213415, 27.876853188351976 ], [ 112.96678580079724, 27.878212331515943 ], [ 112.968458981803124, 27.879797998039251 ], [ 112.969260154093419, 27.88078093979237 ], [ 112.970998092558887, 27.881372170113021 ], [ 112.972179939544233, 27.881696880224531 ], [ 112.974670149319337, 27.881732756772927 ], [ 112.976145936420338, 27.88112137974877 ], [ 112.976658147734028, 27.880541790709646 ], [ 112.975435658794055, 27.87879404806786 ], [ 112.970554197626242, 27.874291226223516 ] ] ] } }
]
}
