{
"type": "FeatureCollection",
"name": "沅湘村委会",
"crs": { "type": "name", "properties": { "name": "urn:ogc:def:crs:OGC:1.3:CRS84" } },
"features": [
{ "type": "Feature", "properties": { "adcode": "430302102226", "fullName": "湖南省湘潭市雨湖区姜畲镇沅湘村委会", "level": "居委会/社区", "location": "112.850498,27.828689", "name": "沅湘村委会", "OBJECTID": 3971, "SHAPE_Leng": 0.072269144653099998, "SHAPE_Area": 0.0001160583915 }, "geometry": { "type": "Polygon", "coordinates": [ [ [ 112.835345292612928, 27.827384904385998 ], [ 112.83538828213527, 27.828485156963623 ], [ 112.836023357847282, 27.82890037754407 ], [ 112.83620466408361, 27.829018725217587 ], [ 112.837279516819407, 27.829133685960844 ], [ 112.838053818909643, 27.829515137736617 ], [ 112.839214764418415, 27.829973282812908 ], [ 112.839214702294456, 27.830770409508283 ], [ 112.839687485735652, 27.830998284783202 ], [ 112.840632076017016, 27.830999952328995 ], [ 112.841492485548514, 27.831343514897863 ], [ 112.842481111406883, 27.831460252612235 ], [ 112.842824669780171, 27.83153485842611 ], [ 112.843126177821688, 27.831346348089998 ], [ 112.843255240972013, 27.83324387297613 ], [ 112.843555677101989, 27.833927498131267 ], [ 112.843255004458086, 27.836280359275008 ], [ 112.844285477801691, 27.838825532126389 ], [ 112.845145798481127, 27.839586113226805 ], [ 112.847338149483178, 27.840841973179675 ], [ 112.848104299082948, 27.841247295604706 ], [ 112.850257458952967, 27.842383949365772 ], [ 112.850320555756923, 27.842342042796751 ], [ 112.850430731294892, 27.842182191679907 ], [ 112.850509853686631, 27.84211230572809 ], [ 112.850550915875672, 27.842092367511917 ], [ 112.850640045717171, 27.842113511943811 ], [ 112.850660071344294, 27.842163551716204 ], [ 112.850660064339792, 27.842253566305047 ], [ 112.850609968732883, 27.842533532518413 ], [ 112.850604958546185, 27.842569530435316 ], [ 112.852237266297536, 27.843431223352532 ], [ 112.852366451435785, 27.843430422750451 ], [ 112.852498632652697, 27.843529642638696 ], [ 112.853774590405195, 27.841502260003001 ], [ 112.853486197162582, 27.84137480275049 ], [ 112.853258885722454, 27.841273440829426 ], [ 112.851797866298668, 27.840436056307606 ], [ 112.848058303874382, 27.840278063612356 ], [ 112.848034413045625, 27.838401721580794 ], [ 112.84801550372552, 27.836861442630831 ], [ 112.847293444149088, 27.836159144329493 ], [ 112.845866317172607, 27.834770549737325 ], [ 112.84681289856492, 27.833557932934241 ], [ 112.849564160435818, 27.832916318028392 ], [ 112.852741968293472, 27.830794967992411 ], [ 112.852183237225972, 27.829931969789943 ], [ 112.850808313561629, 27.828980670475076 ], [ 112.850547063126683, 27.827249983496063 ], [ 112.848779412909551, 27.827297159975931 ], [ 112.846154346585237, 27.82737285334548 ], [ 112.843671405377037, 27.826978590974797 ], [ 112.842097838386792, 27.826845855497943 ], [ 112.841638088105242, 27.826705032953605 ], [ 112.838151304742169, 27.825418664163589 ], [ 112.836780971469139, 27.825069143813206 ], [ 112.835688981638, 27.826246350003643 ], [ 112.835345292612928, 27.827384904385998 ] ] ] } }
]
}
