{
"type": "FeatureCollection",
"name": "沙塘村委会",
"crs": { "type": "name", "properties": { "name": "urn:ogc:def:crs:OGC:1.3:CRS84" } },
"features": [
{ "type": "Feature", "properties": { "adcode": "430373200205", "fullName": "湖南省湘潭市雨湖区响水乡沙塘村委会", "level": "居委会/社区", "location": "112.871465,27.962725", "name": "沙塘村委会", "OBJECTID": 4012, "SHAPE_Leng": 0.106492885119, "SHAPE_Area": 0.0001853985815 }, "geometry": { "type": "Polygon", "coordinates": [ [ [ 112.852371672561972, 27.956279527663018 ], [ 112.852662952041584, 27.958029271016443 ], [ 112.852371521477124, 27.958212853344541 ], [ 112.852692971530317, 27.958327367326955 ], [ 112.855107225544629, 27.95968223374155 ], [ 112.854217992181148, 27.959863940303961 ], [ 112.854703606154317, 27.960562783213678 ], [ 112.854704512892241, 27.961773988019132 ], [ 112.854167820363685, 27.961176085581766 ], [ 112.853705217672427, 27.960654301078613 ], [ 112.853983564727386, 27.961176808761671 ], [ 112.854119753785, 27.961176013402117 ], [ 112.85415580028625, 27.961220074929031 ], [ 112.854096701384563, 27.961438022778214 ], [ 112.854069626844478, 27.961912061680241 ], [ 112.854037555338337, 27.962258071531213 ], [ 112.854182738932252, 27.96248432758976 ], [ 112.854470166149554, 27.962093692329454 ], [ 112.854874760452034, 27.961585209287556 ], [ 112.854779555675464, 27.962542228535078 ], [ 112.855060130705567, 27.960077230532647 ], [ 112.855477682792113, 27.960248874921412 ], [ 112.858155008969248, 27.962567106284919 ], [ 112.85574586468347, 27.962539652696055 ], [ 112.855697782079687, 27.962771621264867 ], [ 112.856255504031381, 27.963056481374437 ], [ 112.857018507075225, 27.963063581139703 ], [ 112.857136660879078, 27.963064750118598 ], [ 112.857522159856785, 27.963068298881748 ], [ 112.858200020326251, 27.963154267751129 ], [ 112.85994213968705, 27.963733761332598 ], [ 112.860190434013802, 27.963817110082093 ], [ 112.861199658796437, 27.963532405369627 ], [ 112.861652144387435, 27.964083090364209 ], [ 112.861994473332174, 27.964935677617714 ], [ 112.861392682504331, 27.9661300936766 ], [ 112.860769828422846, 27.967663527718649 ], [ 112.861199325745801, 27.967798118199912 ], [ 112.861585724355308, 27.968479738406 ], [ 112.862038239782351, 27.968575342086584 ], [ 112.862230442033976, 27.968803627977611 ], [ 112.863218525672835, 27.969165945369319 ], [ 112.862724912322335, 27.969960453284543 ], [ 112.862595669112579, 27.97121049650789 ], [ 112.863540694916267, 27.971553746177907 ], [ 112.865580819982299, 27.972106320681661 ], [ 112.867879035616468, 27.972753069079168 ], [ 112.870970710614799, 27.973590488604813 ], [ 112.872582911010156, 27.974653246558987 ], [ 112.872819053471801, 27.975126548962916 ], [ 112.872487731984364, 27.976014380702711 ], [ 112.872238487345967, 27.976681251312321 ], [ 112.873072161052221, 27.976180961242644 ], [ 112.873716694749604, 27.975385425704062 ], [ 112.873930815219438, 27.975802689357042 ], [ 112.875519815313808, 27.976790245677645 ], [ 112.876850906133171, 27.973341771597951 ], [ 112.876851983551234, 27.972356609103798 ], [ 112.877153209449418, 27.971712741190366 ], [ 112.876896172006695, 27.970272298129135 ], [ 112.876251790402634, 27.970196764134691 ], [ 112.876208719690965, 27.970763823025386 ], [ 112.875264130547635, 27.970612004279719 ], [ 112.875478323284682, 27.96992907349005 ], [ 112.874490767695505, 27.968602995990288 ], [ 112.873073759009557, 27.968524692415571 ], [ 112.872558411308944, 27.967994116946056 ], [ 112.872944783769782, 27.966970312134233 ], [ 112.871656797098893, 27.966817046120727 ], [ 112.871012243331478, 27.967196467092712 ], [ 112.870797079579305, 27.967006217725295 ], [ 112.871141408747008, 27.966438470397581 ], [ 112.872257365312421, 27.965605429284931 ], [ 112.872644775669684, 27.96416455929786 ], [ 112.871958264184727, 27.963897853469124 ], [ 112.870840337217473, 27.964162786199381 ], [ 112.869294030865902, 27.963820121001074 ], [ 112.86882164993807, 27.963250518413123 ], [ 112.868778652200817, 27.962719382842934 ], [ 112.869166028693485, 27.962379742871757 ], [ 112.869123031510043, 27.961848607718096 ], [ 112.867963018109208, 27.96116422771297 ], [ 112.867790932399558, 27.960178870725805 ], [ 112.867190342087881, 27.960367226757235 ], [ 112.867274384997287, 27.960860404867699 ], [ 112.866975064525974, 27.961240128400529 ], [ 112.867104163791623, 27.961581332792235 ], [ 112.866159231722676, 27.96154223723541 ], [ 112.865085180527501, 27.960895856722875 ], [ 112.864225269524127, 27.960894812455802 ], [ 112.862635601526648, 27.959830644569589 ], [ 112.864140287404922, 27.959492472309286 ], [ 112.863366535362516, 27.958315313515509 ], [ 112.861776782862506, 27.957746188055971 ], [ 112.860531279013856, 27.958235629283912 ], [ 112.859543089751241, 27.958122276985414 ], [ 112.858983377083121, 27.958385554259714 ], [ 112.858382700473427, 27.957399555509706 ], [ 112.857608719428868, 27.957323455625922 ], [ 112.8570069724381, 27.956904528991334 ], [ 112.856577415283539, 27.956828899454251 ], [ 112.855932530559159, 27.957206028255019 ], [ 112.855546027122102, 27.957015430864249 ], [ 112.853756580476386, 27.956923750677387 ], [ 112.852371672561972, 27.956279527663018 ] ] ] } }
]
}
