{
"type": "FeatureCollection",
"name": "沙林村委会",
"crs": { "type": "name", "properties": { "name": "urn:ogc:def:crs:OGC:1.3:CRS84" } },
"features": [
{ "type": "Feature", "properties": { "adcode": "430302100221", "fullName": "湖南省湘潭市雨湖区鹤岭镇沙林村委会", "level": "居委会/社区", "location": "112.810625,27.964962", "name": "沙林村委会", "OBJECTID": 3908, "SHAPE_Leng": 0.065362698956900001, "SHAPE_Area": 0.0001946707295 }, "geometry": { "type": "Polygon", "coordinates": [ [ [ 112.795983334399125, 27.968255079157615 ], [ 112.796843566241279, 27.969468679471778 ], [ 112.79684345837758, 27.970833906570611 ], [ 112.798562066773769, 27.971973930642033 ], [ 112.799507671911883, 27.97076331167035 ], [ 112.800453168414862, 27.971142972275356 ], [ 112.800452982736189, 27.973494362418243 ], [ 112.801030919760109, 27.973546354804188 ], [ 112.803007955919327, 27.976430237369041 ], [ 112.803245376146961, 27.97612660011379 ], [ 112.80436225230028, 27.976127553605945 ], [ 112.805480095114589, 27.976812639039739 ], [ 112.808403183794553, 27.976210771116737 ], [ 112.809348825282612, 27.97636450971337 ], [ 112.810294548454365, 27.975608107112038 ], [ 112.8110699311151, 27.97545850090934 ], [ 112.810553291583986, 27.971968976639438 ], [ 112.812100959672662, 27.972956980928526 ], [ 112.811670348576087, 27.970984860989685 ], [ 112.811842780400667, 27.969392913066073 ], [ 112.813562864552708, 27.969245064422523 ], [ 112.814336420648814, 27.967123145691474 ], [ 112.813133309734624, 27.966513813345426 ], [ 112.811888169079452, 27.965477342751928 ], [ 112.812146724699062, 27.964265615889914 ], [ 112.812060678791255, 27.962900228502196 ], [ 112.810169351570337, 27.962593709728676 ], [ 112.809051328226772, 27.963348802503781 ], [ 112.809051316324144, 27.963499827805972 ], [ 112.807417520070771, 27.962890777118051 ], [ 112.806729475507581, 27.961070238770777 ], [ 112.805267973799872, 27.961066639132504 ], [ 112.804838279752303, 27.960611803779823 ], [ 112.803892779133989, 27.959396938357106 ], [ 112.801141197597971, 27.959619215840174 ], [ 112.801055854870199, 27.962198503613624 ], [ 112.797531002891645, 27.964846034649927 ], [ 112.796974036772241, 27.96607332599925 ], [ 112.795983334399125, 27.968255079157615 ] ] ] } }
]
}
