{
"type": "FeatureCollection",
"name": "河头村委会",
"crs": { "type": "name", "properties": { "name": "urn:ogc:def:crs:OGC:1.3:CRS84" } },
"features": [
{ "type": "Feature", "properties": { "adcode": "430302102213", "fullName": "湖南省湘潭市雨湖区姜畲镇河头村委会", "level": "居委会/社区", "location": "112.758538,27.831461", "name": "河头村委会", "OBJECTID": 3958, "SHAPE_Leng": 0.054018498513499998, "SHAPE_Area": 0.00012534768 }, "geometry": { "type": "Polygon", "coordinates": [ [ [ 112.744605397610414, 27.839265770858137 ], [ 112.745010280979145, 27.839411795228322 ], [ 112.750513380116303, 27.84140474529881 ], [ 112.754418741923061, 27.839887638355361 ], [ 112.757938428346975, 27.84080029858827 ], [ 112.760869413947134, 27.841186966994119 ], [ 112.760211243528232, 27.840073399077117 ], [ 112.758350879110495, 27.836632833187487 ], [ 112.757660779954776, 27.835351284325604 ], [ 112.757455754182502, 27.834971124799871 ], [ 112.757120715599712, 27.834351867835167 ], [ 112.757020721164508, 27.833961759088918 ], [ 112.756960729907306, 27.833661683476556 ], [ 112.756611774207286, 27.832036265930746 ], [ 112.756390804676371, 27.831009004548338 ], [ 112.756220829395744, 27.830219805073579 ], [ 112.754060787428429, 27.826018293979551 ], [ 112.75240075233873, 27.824488521316709 ], [ 112.751700686338907, 27.82492839734315 ], [ 112.751210652146952, 27.825238321873311 ], [ 112.750820631846409, 27.825488268802349 ], [ 112.750070506707885, 27.827287391212106 ], [ 112.750111473390007, 27.827690463285879 ], [ 112.750370263649046, 27.830247922921863 ], [ 112.749986153846166, 27.831803091674782 ], [ 112.749480018907079, 27.833848322934184 ], [ 112.749290004773584, 27.834188344011661 ], [ 112.748964982420603, 27.834791386738218 ], [ 112.748739969580456, 27.83520841864361 ], [ 112.748059943648428, 27.836469527123985 ], [ 112.747889953243913, 27.836619530469662 ], [ 112.745320244022878, 27.838919720592319 ], [ 112.744605397610414, 27.839265770858137 ] ] ] } }
]
}
