{
"type": "FeatureCollection",
"name": "泉塘子村委会",
"crs": { "type": "name", "properties": { "name": "urn:ogc:def:crs:OGC:1.3:CRS84" } },
"features": [
{ "type": "Feature", "properties": { "adcode": "430302102218", "fullName": "湖南省湘潭市雨湖区姜畲镇泉塘子村委会", "level": "居委会/社区", "location": "112.830684,27.859152", "name": "泉塘子村委会", "OBJECTID": 3963, "SHAPE_Leng": 0.079937468138100001, "SHAPE_Area": 0.000220891014 }, "geometry": { "type": "Polygon", "coordinates": [ [ [ 112.813583530701194, 27.859248422352383 ], [ 112.814278713011859, 27.860077849973248 ], [ 112.815196323244493, 27.860603644668437 ], [ 112.816205098872118, 27.861188624469733 ], [ 112.816462497180538, 27.862049248921281 ], [ 112.816623742626319, 27.862642649380813 ], [ 112.818140327989681, 27.864759844784029 ], [ 112.819175104533414, 27.866108014145485 ], [ 112.819411479232386, 27.866819577718058 ], [ 112.819902249131502, 27.868405766776895 ], [ 112.820432086539455, 27.870046039402844 ], [ 112.820436092825872, 27.870059049131186 ], [ 112.820751594445781, 27.871000801504632 ], [ 112.822947534571938, 27.871845081731326 ], [ 112.823591682764814, 27.872188353537638 ], [ 112.823641787506617, 27.872017419208493 ], [ 112.823684885330053, 27.871771459059811 ], [ 112.823793110820574, 27.871411602499624 ], [ 112.823921398197029, 27.870727729305745 ], [ 112.824071722593146, 27.87008390441359 ], [ 112.824179961483054, 27.869552019058347 ], [ 112.824330278448727, 27.869002209996601 ], [ 112.824479609906874, 27.868243364056891 ], [ 112.824565808470751, 27.867712437449981 ], [ 112.824664010053567, 27.867422573852391 ], [ 112.824674030732268, 27.867391587535309 ], [ 112.824653032640541, 27.866877461908697 ], [ 112.824889485484363, 27.86659485989308 ], [ 112.825276180712862, 27.86670960709381 ], [ 112.825640829657075, 27.866898324892592 ], [ 112.82641522271588, 27.867090813322733 ], [ 112.827124495631836, 27.867281177405033 ], [ 112.828006076791027, 27.867491866048798 ], [ 112.828780457602889, 27.867739357142195 ], [ 112.829854368175234, 27.868064417114443 ], [ 112.830844124811719, 27.868331304450447 ], [ 112.832219548226519, 27.868769927966785 ], [ 112.833293437760361, 27.868999947729971 ], [ 112.834069797352399, 27.869160400993287 ], [ 112.834132907598942, 27.869173518909655 ], [ 112.83490724127266, 27.869533996193496 ], [ 112.835614458381443, 27.869801330041319 ], [ 112.836024168401309, 27.869859084174479 ], [ 112.836621188162354, 27.870087204089128 ], [ 112.839463019646359, 27.870634388319854 ], [ 112.838790938357675, 27.869849061046533 ], [ 112.837888462101361, 27.868975300330987 ], [ 112.837823383827569, 27.868545111424101 ], [ 112.837848427634583, 27.868535154699831 ], [ 112.837878481519212, 27.868506203773123 ], [ 112.837898524593143, 27.868395221128011 ], [ 112.837878494871589, 27.868335175130181 ], [ 112.837818397085073, 27.868265055532888 ], [ 112.83777532555591, 27.868232972838033 ], [ 112.837715253218946, 27.867835798417417 ], [ 112.837683220730639, 27.867545692287123 ], [ 112.837587124353945, 27.866660371399171 ], [ 112.836901049741371, 27.865253900249151 ], [ 112.835836300537494, 27.863964756527015 ], [ 112.832772907936288, 27.863956144728768 ], [ 112.831095973835801, 27.863231919794092 ], [ 112.830537054908646, 27.862169703859138 ], [ 112.830192542922035, 27.860802835027144 ], [ 112.829461304302242, 27.859814307149904 ], [ 112.8293762457848, 27.858599946767423 ], [ 112.827485040676834, 27.855864953964932 ], [ 112.827614384640114, 27.854460964628405 ], [ 112.827532366385739, 27.852790535398952 ], [ 112.822971013619068, 27.853465063763021 ], [ 112.820864019336739, 27.855396411699516 ], [ 112.817940683122771, 27.855581944874114 ], [ 112.817897456332759, 27.857478177571082 ], [ 112.817682044380106, 27.857744817698499 ], [ 112.816092155493664, 27.857854859780339 ], [ 112.815202531272931, 27.858088238570101 ], [ 112.814372019214886, 27.858307729471491 ], [ 112.814168661269051, 27.858213336046528 ], [ 112.814051436026773, 27.858402149717467 ], [ 112.81391016586862, 27.858614922849608 ], [ 112.813798953345199, 27.858781744239721 ], [ 112.813731825642435, 27.858875635345804 ], [ 112.813637638916106, 27.859104498733974 ], [ 112.813583530701194, 27.859248422352383 ] ] ] } }
]
}
