{
"type": "FeatureCollection",
"name": "泗洲庵社区居委会",
"crs": { "type": "name", "properties": { "name": "urn:ogc:def:crs:OGC:1.3:CRS84" } },
"features": [
{ "type": "Feature", "properties": { "adcode": "430302002003", "fullName": "湖南省湘潭市雨湖区城正街街道泗洲庵社区居委会", "level": "居委会/社区", "location": "112.92376,27.863419", "name": "泗洲庵社区居委会", "OBJECTID": 3835, "SHAPE_Leng": 0.026855118328799998, "SHAPE_Area": 2.0252195e-05 }, "geometry": { "type": "Polygon", "coordinates": [ [ [ 112.914204757491447, 27.864398198747587 ], [ 112.914729102970568, 27.864541796836676 ], [ 112.915157555970652, 27.864682463114818 ], [ 112.915125572697661, 27.864985540590897 ], [ 112.915039643020407, 27.865470693680429 ], [ 112.915596922766198, 27.865630246322631 ], [ 112.915512051055856, 27.865380277707722 ], [ 112.915618940608013, 27.865038128542039 ], [ 112.915715841692631, 27.864705989227634 ], [ 112.915844700887291, 27.864373821590153 ], [ 112.916047463413008, 27.86403358672284 ], [ 112.916241204103301, 27.864099425707899 ], [ 112.916551782409016, 27.864231168436369 ], [ 112.91685137135056, 27.864353915441733 ], [ 112.917139969951165, 27.864486670337705 ], [ 112.917483487098522, 27.864639372838447 ], [ 112.917408573390176, 27.86485647990818 ], [ 112.91725875088656, 27.865216680969048 ], [ 112.917065978163521, 27.865672937019056 ], [ 112.916775329414051, 27.866205294017522 ], [ 112.916454710055589, 27.866816687517915 ], [ 112.916197004689337, 27.867405016698594 ], [ 112.915777492348028, 27.868167513640341 ], [ 112.916859029213427, 27.868611619399953 ], [ 112.917866611963518, 27.869037741148642 ], [ 112.918279017484778, 27.869207367764769 ], [ 112.919969490203414, 27.869916760235565 ], [ 112.920242145431274, 27.869053325264396 ], [ 112.920370961301813, 27.868901161459583 ], [ 112.920477799605209, 27.868882042967794 ], [ 112.920595624913432, 27.868805902488191 ], [ 112.920713454671329, 27.868663750341696 ], [ 112.92092716912957, 27.868085419211063 ], [ 112.921184825299093, 27.867344009996927 ], [ 112.921516384813458, 27.866302464613657 ], [ 112.921245816738775, 27.866228755762137 ], [ 112.921042138018237, 27.866191975917637 ], [ 112.920785544375136, 27.866087240903457 ], [ 112.920592847781208, 27.866003437123474 ], [ 112.920399153273252, 27.865888627597428 ], [ 112.920196471918388, 27.865755823012471 ], [ 112.91997082377857, 27.865614039438121 ], [ 112.919713221559761, 27.865462285431978 ], [ 112.919360760509306, 27.865253617055064 ], [ 112.919061211496, 27.86510389915216 ], [ 112.918727707988211, 27.864941209184977 ], [ 112.918343269789872, 27.864799568057979 ], [ 112.91800975261792, 27.864657870907816 ], [ 112.917646271369222, 27.864517197591226 ], [ 112.917324725439428, 27.86438348010692 ], [ 112.916971220463054, 27.864212781407346 ], [ 112.916671634111225, 27.864080034349207 ], [ 112.91623123266065, 27.863901401616506 ], [ 112.915942617855052, 27.863806641290999 ], [ 112.915706932973947, 27.863681826334044 ], [ 112.91543928663792, 27.863550035098754 ], [ 112.915214578047198, 27.863474213680796 ], [ 112.914945921229929, 27.863407428177826 ], [ 112.914659282139311, 27.863351656023017 ], [ 112.914656285922163, 27.863350658316072 ], [ 112.914656285533141, 27.863355659148805 ], [ 112.914643275752383, 27.863687725106736 ], [ 112.914483448238357, 27.86400090776328 ], [ 112.914386552936961, 27.864181016320575 ], [ 112.914204757491447, 27.864398198747587 ] ] ] } }
]
}
