{
"type": "FeatureCollection",
"name": "泗神庙社区居委会",
"crs": { "type": "name", "properties": { "name": "urn:ogc:def:crs:OGC:1.3:CRS84" } },
"features": [
{ "type": "Feature", "properties": { "adcode": "430304001004", "fullName": "湖南省湘潭市岳塘区岳塘街道泗神庙社区居委会", "level": "居委会/社区", "location": "112.910096,27.826238", "name": "泗神庙社区居委会", "OBJECTID": 4038, "SHAPE_Leng": 0.017625617487399999, "SHAPE_Area": 8.9386450001e-06 }, "geometry": { "type": "Polygon", "coordinates": [ [ [ 112.90650631863268, 27.82931630440758 ], [ 112.906424391410511, 27.829243329723852 ], [ 112.904762677846151, 27.829258014770961 ], [ 112.904869675423214, 27.828275819015026 ], [ 112.905679062515006, 27.828261495867974 ], [ 112.905613120772031, 27.828171508879681 ], [ 112.905433278574947, 27.827925543295006 ], [ 112.905390315969782, 27.8278675514245 ], [ 112.905362340287653, 27.827829556637091 ], [ 112.905192485626344, 27.827617590495063 ], [ 112.904944695002868, 27.827308637621798 ], [ 112.904259191316697, 27.827312889286947 ], [ 112.904259188601074, 27.827347894817013 ], [ 112.90425818504022, 27.827402903858278 ], [ 112.904257177367043, 27.827510921276886 ], [ 112.904257177211861, 27.827512921592991 ], [ 112.904256162865835, 27.827706952611582 ], [ 112.90425616108125, 27.827729956248227 ], [ 112.904255153873422, 27.827831972728173 ], [ 112.904253132241479, 27.828129020411719 ], [ 112.903040951414724, 27.828134413029193 ], [ 112.903059856832712, 27.829195575454413 ], [ 112.903597501984763, 27.829195409357659 ], [ 112.903453467419837, 27.830883723120099 ], [ 112.903418481383838, 27.83100375317979 ], [ 112.903361503793093, 27.831201802434467 ], [ 112.904819481915467, 27.831244308896022 ], [ 112.904856449641258, 27.83130930530676 ], [ 112.904968351272274, 27.831509294590223 ], [ 112.904962343619843, 27.831665321723165 ], [ 112.904953331904849, 27.831902362910409 ], [ 112.904636564198853, 27.831906482308828 ], [ 112.904802424945004, 27.832139457810079 ], [ 112.905365998719319, 27.832192247615076 ], [ 112.905543897469059, 27.831737103143581 ], [ 112.905848714222401, 27.831034864761641 ], [ 112.906554253576545, 27.829646335018179 ], [ 112.906596238371307, 27.829396276255007 ], [ 112.90650631863268, 27.82931630440758 ] ] ] } }
]
}
