{
"type": "FeatureCollection",
"name": "洗脚桥社区居委会",
"crs": { "type": "name", "properties": { "name": "urn:ogc:def:crs:OGC:1.3:CRS84" } },
"features": [
{ "type": "Feature", "properties": { "adcode": "430302002005", "fullName": "湖南省湘潭市雨湖区城正街街道洗脚桥社区居委会", "level": "居委会/社区", "location": "112.927658,27.86557", "name": "洗脚桥社区居委会", "OBJECTID": 3837, "SHAPE_Leng": 0.0148244438594, "SHAPE_Area": 1.23841429998e-05 }, "geometry": { "type": "Polygon", "coordinates": [ [ [ 112.919969490203414, 27.869916760235565 ], [ 112.920990895077011, 27.870328724516884 ], [ 112.921712736212427, 27.870621965022458 ], [ 112.922596282381022, 27.870982004243832 ], [ 112.923013582391519, 27.871150538256764 ], [ 112.923605574654033, 27.871388863944613 ], [ 112.923752333885929, 27.871297669190906 ], [ 112.924106743570476, 27.871135204682655 ], [ 112.924373297095457, 27.870992848324565 ], [ 112.924256509093382, 27.870850970591217 ], [ 112.923870282821014, 27.869390204600574 ], [ 112.923774466020177, 27.869125278011037 ], [ 112.923560848083156, 27.868851493287107 ], [ 112.923368196562052, 27.868529673194967 ], [ 112.923336264110333, 27.868348681505157 ], [ 112.92328140159519, 27.867761649529822 ], [ 112.923238482952428, 27.867636680329525 ], [ 112.922617592933491, 27.866556238554004 ], [ 112.922531738398476, 27.86649032836317 ], [ 112.92221126563625, 27.86640468750976 ], [ 112.921856839744819, 27.866349085961122 ], [ 112.921516384813458, 27.866302464613657 ], [ 112.921184825299093, 27.867344009996927 ], [ 112.92092716912957, 27.868085419211063 ], [ 112.920713454671329, 27.868663750341696 ], [ 112.920595624913432, 27.868805902488191 ], [ 112.920477799605209, 27.868882042967794 ], [ 112.920370961301813, 27.868901161459583 ], [ 112.920242145431274, 27.869053325264396 ], [ 112.919969490203414, 27.869916760235565 ] ] ] } }
]
}
