{
"type": "FeatureCollection",
"name": "洪桥村村委会",
"crs": { "type": "name", "properties": { "name": "urn:ogc:def:crs:OGC:1.3:CRS84" } },
"features": [
{ "type": "Feature", "properties": { "adcode": "430302202211", "fullName": "湖南省湘潭市雨湖区长城乡洪桥村村委会", "level": "居委会/社区", "location": "112.863566,27.867417", "name": "洪桥村村委会", "OBJECTID": 3990, "SHAPE_Leng": 0.031818842883500002, "SHAPE_Area": 4.1136878000199997e-05 }, "geometry": { "type": "Polygon", "coordinates": [ [ [ 112.853812267289953, 27.872071370826912 ], [ 112.854069583599426, 27.872602847857127 ], [ 112.853812166820532, 27.873361587739065 ], [ 112.855682702142076, 27.8736604196292 ], [ 112.856326533516651, 27.874003414871694 ], [ 112.857745402580562, 27.873740399278741 ], [ 112.858690597928671, 27.873778727933978 ], [ 112.859315385320741, 27.873647566687499 ], [ 112.859591729713586, 27.873589934344285 ], [ 112.862195814624201, 27.873581383955706 ], [ 112.862066808510647, 27.871759911173157 ], [ 112.860434141124358, 27.868571228715151 ], [ 112.860219927823493, 27.868000845818383 ], [ 112.860004685172711, 27.867773517736939 ], [ 112.860134863361395, 27.867508648945517 ], [ 112.860425214416352, 27.867490035684561 ], [ 112.862926168168059, 27.866782175855334 ], [ 112.861443459667129, 27.866969296971128 ], [ 112.860037764433088, 27.867269478014144 ], [ 112.859843528420726, 27.867270215502501 ], [ 112.859393977837726, 27.8672696035506 ], [ 112.858361704819131, 27.867077145569588 ], [ 112.856213860889852, 27.867871221624036 ], [ 112.855699177298675, 27.867832465068282 ], [ 112.85574518650094, 27.868507645496784 ], [ 112.855229447387103, 27.869076983299202 ], [ 112.855187334264613, 27.86979804208649 ], [ 112.855101143687278, 27.870745073711124 ], [ 112.853812267289953, 27.872071370826912 ] ] ] } }
]
}
