{
"type": "FeatureCollection",
"name": "清泉村委会",
"crs": { "type": "name", "properties": { "name": "urn:ogc:def:crs:OGC:1.3:CRS84" } },
"features": [
{ "type": "Feature", "properties": { "adcode": "430302102202", "fullName": "湖南省湘潭市雨湖区姜畲镇清泉村委会", "level": "居委会/社区", "location": "112.791491,27.866918", "name": "清泉村委会", "OBJECTID": 3948, "SHAPE_Leng": 0.089215136134999998, "SHAPE_Area": 0.00039619945200100002 }, "geometry": { "type": "Polygon", "coordinates": [ [ [ 112.772531365502658, 27.871722390683356 ], [ 112.775659111348091, 27.872739843230971 ], [ 112.775185419207304, 27.875811844342184 ], [ 112.775185374201271, 27.87638194052419 ], [ 112.778537711886102, 27.876498763476125 ], [ 112.779010147763103, 27.877333467485091 ], [ 112.781115446413665, 27.877641107077611 ], [ 112.782274809001791, 27.877338534591011 ], [ 112.783305848815942, 27.879691278691922 ], [ 112.784379011374625, 27.881552025634868 ], [ 112.785239996449732, 27.882691389606965 ], [ 112.787817342822137, 27.882658002521101 ], [ 112.789708873498384, 27.883152846556083 ], [ 112.793061632278039, 27.883423988450033 ], [ 112.794652059920708, 27.882591350031984 ], [ 112.795429511701329, 27.879078997372446 ], [ 112.794078447850069, 27.879455909970261 ], [ 112.792703492440097, 27.878543605301392 ], [ 112.794251060434561, 27.874941419968888 ], [ 112.795025379271806, 27.872969318731446 ], [ 112.795455114371009, 27.871907828559952 ], [ 112.794767204567179, 27.870236447339103 ], [ 112.795283079660251, 27.86902406807026 ], [ 112.795540596383447, 27.867430214332948 ], [ 112.795454572827055, 27.866063847364476 ], [ 112.795653039834662, 27.863967816335734 ], [ 112.79528854538718, 27.863203103130484 ], [ 112.795418781995167, 27.862709229732371 ], [ 112.793871495475969, 27.862213686999208 ], [ 112.793914628179607, 27.861340609535588 ], [ 112.793565156978886, 27.860744961305944 ], [ 112.79223223758666, 27.860363827372531 ], [ 112.791116693107995, 27.859678010392322 ], [ 112.790385647609696, 27.859866940960625 ], [ 112.789869922719944, 27.859943184440059 ], [ 112.787377592245775, 27.85936946093474 ], [ 112.785787629029585, 27.858078012048033 ], [ 112.784499104197067, 27.856861047071174 ], [ 112.783467907992545, 27.856025529178051 ], [ 112.782952265123654, 27.856326899881367 ], [ 112.782737965545635, 27.856893713570063 ], [ 112.782008047863229, 27.857652894663801 ], [ 112.78132015281335, 27.858942231749044 ], [ 112.780505118294556, 27.860382449419269 ], [ 112.779086496622114, 27.861254861768998 ], [ 112.778343707356882, 27.861280982210516 ], [ 112.776497288861492, 27.868139001525662 ], [ 112.772888783443364, 27.870297510530573 ], [ 112.772531365502658, 27.871722390683356 ] ] ] } }
]
}
