{
"type": "FeatureCollection",
"name": "清水村委会",
"crs": { "type": "name", "properties": { "name": "urn:ogc:def:crs:OGC:1.3:CRS84" } },
"features": [
{ "type": "Feature", "properties": { "adcode": "430304015217", "fullName": "湖南省湘潭市岳塘区荷塘街道清水村委会", "level": "居委会/社区", "location": "112.994389,27.87544", "name": "清水村委会", "OBJECTID": 4116, "SHAPE_Leng": 0.091960890832299996, "SHAPE_Area": 0.0002697776085 }, "geometry": { "type": "Polygon", "coordinates": [ [ [ 112.996770745535358, 27.883373775575592 ], [ 112.996427058768219, 27.882968753411486 ], [ 112.997323754191342, 27.882519948058473 ], [ 112.997467262108827, 27.88199342239394 ], [ 112.998039171713245, 27.88151260154596 ], [ 112.997622762448529, 27.881006782604409 ], [ 112.997354799821323, 27.880514514738028 ], [ 112.996094493012123, 27.880545356556734 ], [ 112.995163908045129, 27.881221305188003 ], [ 112.994448536692616, 27.881707566734082 ], [ 112.992834624687958, 27.880844337362873 ], [ 112.992432190542772, 27.880029425323926 ], [ 112.99265438640775, 27.879726697599434 ], [ 112.993547113647935, 27.879026860364124 ], [ 112.994144899792829, 27.878834006691367 ], [ 112.994444786076883, 27.878776083287811 ], [ 112.994647105124741, 27.87786031253048 ], [ 112.994942009670552, 27.877807405179816 ], [ 112.995118397222754, 27.877243772875094 ], [ 112.99543423567772, 27.877043777068398 ], [ 112.994878374090774, 27.876224332455301 ], [ 112.993836315783454, 27.875530390409523 ], [ 112.993056271202619, 27.87494966895613 ], [ 112.99356347101704, 27.87381393311243 ], [ 112.993455906613704, 27.873384188621824 ], [ 112.993051513060536, 27.872156214382034 ], [ 112.993246821683428, 27.871696542398169 ], [ 112.994401581672349, 27.870872886461584 ], [ 112.993103473703584, 27.870231733638732 ], [ 112.992712918063162, 27.870378947805932 ], [ 112.991921788489265, 27.871359520912844 ], [ 112.991109844113254, 27.870981928516024 ], [ 112.991537313298394, 27.870211498831466 ], [ 112.991562254446123, 27.869786351767697 ], [ 112.990885784899987, 27.869656388126526 ], [ 112.989307682213564, 27.869353132956462 ], [ 112.988010522345661, 27.869092023284665 ], [ 112.986781100809083, 27.868844702180606 ], [ 112.98700830680967, 27.868247915580397 ], [ 112.987201631656603, 27.86773124458875 ], [ 112.987923108413753, 27.865822742213417 ], [ 112.988900685389567, 27.863230347044702 ], [ 112.988616750068545, 27.863109188168199 ], [ 112.98635620931141, 27.862149870137394 ], [ 112.985891857748086, 27.863015415290999 ], [ 112.985695553992841, 27.863383068374006 ], [ 112.98486848437004, 27.864927816338568 ], [ 112.982912457374226, 27.867742154101755 ], [ 112.981965911074809, 27.867935013250513 ], [ 112.981832219485085, 27.870199790551844 ], [ 112.982793655219922, 27.870724008155889 ], [ 112.982862374965094, 27.871075861597763 ], [ 112.982488604011422, 27.872852276664521 ], [ 112.982510411938662, 27.874256447312813 ], [ 112.982192419834604, 27.876226728081104 ], [ 112.981433063434523, 27.877909274447013 ], [ 112.982941307406307, 27.880814263967313 ], [ 112.983057727682393, 27.882720237743118 ], [ 112.98688313361049, 27.888703741584091 ], [ 112.99018149913789, 27.89346054984399 ], [ 112.992159189661464, 27.89272440814787 ], [ 112.99307888396666, 27.891183345384391 ], [ 112.993964658166348, 27.890214482434093 ], [ 112.995087475476268, 27.890153051269845 ], [ 112.994798735818037, 27.887868543082494 ], [ 112.995664625192276, 27.886397655918344 ], [ 112.996028433635274, 27.884348200698899 ], [ 112.996770745535358, 27.883373775575592 ] ] ] } }
]
}
