{
"type": "FeatureCollection",
"name": "清联村委会",
"crs": { "type": "name", "properties": { "name": "urn:ogc:def:crs:OGC:1.3:CRS84" } },
"features": [
{ "type": "Feature", "properties": { "adcode": "430302102215", "fullName": "湖南省湘潭市雨湖区姜畲镇清联村委会", "level": "居委会/社区", "location": "112.767099,27.855769", "name": "清联村委会", "OBJECTID": 3960, "SHAPE_Leng": 0.050463843594200003, "SHAPE_Area": 0.000140697625 }, "geometry": { "type": "Polygon", "coordinates": [ [ [ 112.75085394670532, 27.859507792900033 ], [ 112.754254055730385, 27.860957036420487 ], [ 112.756186351350394, 27.861525893121094 ], [ 112.758503829676897, 27.863197267220254 ], [ 112.759287056902778, 27.863556741889845 ], [ 112.762324171267025, 27.86494579151146 ], [ 112.76335366329242, 27.865021495116732 ], [ 112.767306008415702, 27.864380385180571 ], [ 112.767477363988775, 27.861306014861078 ], [ 112.770366547197909, 27.859879322789549 ], [ 112.769979299696658, 27.859270864438216 ], [ 112.769979440442782, 27.857487568814371 ], [ 112.769937516528088, 27.856121304265603 ], [ 112.76864861690099, 27.855589064733714 ], [ 112.767188658240229, 27.855170758706649 ], [ 112.765814837850783, 27.854675579354065 ], [ 112.765470648770474, 27.854486283306741 ], [ 112.763838785792544, 27.853953996099467 ], [ 112.762422116901405, 27.853541962768219 ], [ 112.759440797842686, 27.854843379682443 ], [ 112.757809247320438, 27.855299607244767 ], [ 112.754118445616115, 27.855790131396116 ], [ 112.753259381472432, 27.855373772737138 ], [ 112.752572212063413, 27.856815799200657 ], [ 112.752101143491274, 27.857345751834782 ], [ 112.751928052120221, 27.85840788029607 ], [ 112.75085394670532, 27.859507792900033 ] ] ] } }
]
}
