{
"type": "FeatureCollection",
"name": "渔业村",
"crs": { "type": "name", "properties": { "name": "urn:ogc:def:crs:OGC:1.3:CRS84" } },
"features": [
{ "type": "Feature", "properties": { "adcode": "430373001212", "fullName": "湖南省湘潭市雨湖区和平街道渔业村", "level": "居委会/社区", "location": "113.009495,27.955971", "name": "渔业村", "OBJECTID": 4006, "SHAPE_Leng": 0.0084461034867199993, "SHAPE_Area": 3.7524770000299999e-06 }, "geometry": { "type": "Polygon", "coordinates": [ [ [ 113.002192436384192, 27.959863337197042 ], [ 113.004065512986486, 27.959956707444551 ], [ 113.004858591412997, 27.959995331938615 ], [ 113.005451517571004, 27.958712339478765 ], [ 113.005473448435296, 27.958572250288711 ], [ 113.004276844222275, 27.958602845053122 ], [ 113.002534270256007, 27.95864810113061 ], [ 113.002192436384192, 27.959863337197042 ] ] ] } }
]
}
