{
"type": "FeatureCollection",
"name": "湘江村委会",
"crs": { "type": "name", "properties": { "name": "urn:ogc:def:crs:OGC:1.3:CRS84" } },
"features": [
{ "type": "Feature", "properties": { "adcode": "430373200231", "fullName": "湖南省湘潭市雨湖区响水乡湘江村委会", "level": "居委会/社区", "location": "112.980161,27.971118", "name": "湘江村委会", "OBJECTID": 4025, "SHAPE_Leng": 0.082485090058000005, "SHAPE_Area": 0.000294642204 }, "geometry": { "type": "Polygon", "coordinates": [ [ [ 112.960447233285763, 27.972466156898285 ], [ 112.961388072902324, 27.974055984711381 ], [ 112.962243292445777, 27.974054750866195 ], [ 112.962756349328046, 27.977387951413665 ], [ 112.966776919766673, 27.977757218280981 ], [ 112.967461524104024, 27.978664492152948 ], [ 112.968316606288752, 27.97866213524529 ], [ 112.968401262029403, 27.979345013182918 ], [ 112.967888971054023, 27.979876514995869 ], [ 112.968743821664305, 27.982679609974245 ], [ 112.970453827720647, 27.983811021037955 ], [ 112.970121912883613, 27.984637086779614 ], [ 112.971182146879343, 27.985649269574839 ], [ 112.97152397760739, 27.985348254627056 ], [ 112.973218138649258, 27.983964209905775 ], [ 112.976068136978398, 27.982335725805861 ], [ 112.977732240044688, 27.981290698040631 ], [ 112.980144624738955, 27.979683326743203 ], [ 112.983043150333415, 27.978043426566828 ], [ 112.983102933726641, 27.978004241198956 ], [ 112.983142788022789, 27.977994120235021 ], [ 112.985284927015186, 27.977536612019584 ], [ 112.987656209246367, 27.976679309243192 ], [ 112.988518046741319, 27.976180615734208 ], [ 112.985935913756094, 27.972619838723457 ], [ 112.980676768971037, 27.966153511593582 ], [ 112.977127775690562, 27.964308658236948 ], [ 112.977127751548494, 27.964611708909871 ], [ 112.976442201444016, 27.964764734204618 ], [ 112.97558719449033, 27.965600357846569 ], [ 112.9755879553786, 27.968558848290858 ], [ 112.972595554792136, 27.968642463713461 ], [ 112.970969257249109, 27.968495047914598 ], [ 112.96797564758154, 27.967669258943125 ], [ 112.967119591509501, 27.967292549082732 ], [ 112.966264429796425, 27.967977997404205 ], [ 112.966349978304564, 27.970025104849917 ], [ 112.965494806167598, 27.970633525151506 ], [ 112.964809993162717, 27.971923584048206 ], [ 112.964382428321656, 27.971773705544951 ], [ 112.962928183295816, 27.97238467235908 ], [ 112.962157782230634, 27.97140153597654 ], [ 112.960447233285763, 27.972466156898285 ] ] ] } }
]
}
