{
"type": "FeatureCollection",
"name": "湘竹村村委会",
"crs": { "type": "name", "properties": { "name": "urn:ogc:def:crs:OGC:1.3:CRS84" } },
"features": [
{ "type": "Feature", "properties": { "adcode": "430302007207", "fullName": "湖南省湘潭市雨湖区万楼街道湘竹村村委会", "level": "居委会/社区", "location": "112.950675,27.880472", "name": "湘竹村村委会", "OBJECTID": 3884, "SHAPE_Leng": 0.0619623045552, "SHAPE_Area": 0.0001628007425 }, "geometry": { "type": "Polygon", "coordinates": [ [ [ 112.955666883855997, 27.888299865488761 ], [ 112.955374851894376, 27.887324411106466 ], [ 112.955144629549181, 27.886345803950714 ], [ 112.954039338457306, 27.88163666705579 ], [ 112.953902763796677, 27.881434959080362 ], [ 112.951866744068127, 27.882009848400578 ], [ 112.947625712842324, 27.88320759747954 ], [ 112.946791172688975, 27.881085044865642 ], [ 112.94637335953658, 27.880458834236546 ], [ 112.946010370402561, 27.880100546423641 ], [ 112.945817919918881, 27.879710888400925 ], [ 112.945516768314022, 27.879209439198299 ], [ 112.944940387628932, 27.878176472047453 ], [ 112.944340037131056, 27.877390584113012 ], [ 112.943891250090445, 27.876936429375139 ], [ 112.942800143623359, 27.87609649813044 ], [ 112.9418905276234, 27.875272168166244 ], [ 112.941463637432875, 27.874846934799582 ], [ 112.940756465307174, 27.874060175817764 ], [ 112.940345425046999, 27.874786087351829 ], [ 112.940013198212242, 27.875337813545183 ], [ 112.940013181143087, 27.875555850270885 ], [ 112.939414613975075, 27.875889036770236 ], [ 112.938718258954083, 27.876306404674207 ], [ 112.939135216099814, 27.876826717601638 ], [ 112.938311158420774, 27.877218308166377 ], [ 112.937107919920464, 27.878055627564542 ], [ 112.937479997129984, 27.87876207927053 ], [ 112.938850508266455, 27.881834092607516 ], [ 112.939321115071166, 27.885132773764219 ], [ 112.937276804797747, 27.887263883375926 ], [ 112.938840968304874, 27.889006326074945 ], [ 112.944685154047932, 27.889753963077293 ], [ 112.949436120853505, 27.889875727056673 ], [ 112.950741411531837, 27.88960872803754 ], [ 112.951511277696298, 27.888391752866177 ], [ 112.955365801898083, 27.888306599791235 ], [ 112.955666883855997, 27.888299865488761 ] ] ] } }
]
}
