{
"type": "FeatureCollection",
"name": "滴水埠村村委会",
"crs": { "type": "name", "properties": { "name": "urn:ogc:def:crs:OGC:1.3:CRS84" } },
"features": [
{ "type": "Feature", "properties": { "adcode": "430304015201", "fullName": "湖南省湘潭市岳塘区荷塘街道滴水埠村村委会", "level": "居委会/社区", "location": "112.97521,27.881897", "name": "滴水埠村村委会", "OBJECTID": 4105, "SHAPE_Leng": 0.058393542488099998, "SHAPE_Area": 0.0001169971375 }, "geometry": { "type": "Polygon", "coordinates": [ [ [ 112.97834241874817, 27.888894275162883 ], [ 112.977842299421624, 27.887945582151897 ], [ 112.978024699169637, 27.887222924555768 ], [ 112.978249899687967, 27.88705423477651 ], [ 112.977971936164366, 27.886637980172083 ], [ 112.977876331981932, 27.885998152121374 ], [ 112.977806613860693, 27.885615291646776 ], [ 112.977913256965962, 27.885268920272534 ], [ 112.977993986527395, 27.885008639370334 ], [ 112.978356692285772, 27.884817541946397 ], [ 112.978628713936374, 27.884754731382134 ], [ 112.978282035412448, 27.883896605397158 ], [ 112.978393653411487, 27.883630232314282 ], [ 112.978228275644526, 27.883318665516779 ], [ 112.976292171874377, 27.884148466348432 ], [ 112.974800444539028, 27.884769894683945 ], [ 112.973482070670116, 27.885326779800728 ], [ 112.972246496385779, 27.884336137555394 ], [ 112.970931202611212, 27.882915619574369 ], [ 112.970362223961942, 27.882340122310566 ], [ 112.969260154093419, 27.88078093979237 ], [ 112.968458981803124, 27.879797998039251 ], [ 112.96678580079724, 27.878212331515943 ], [ 112.966432986313833, 27.878290306973113 ], [ 112.96534256720193, 27.879327438128382 ], [ 112.964366789541188, 27.879698122554903 ], [ 112.962672324112987, 27.880339728931279 ], [ 112.96218178589821, 27.882110316873202 ], [ 112.961753057656409, 27.88366070047265 ], [ 112.960640707499948, 27.882943466045838 ], [ 112.95957221982826, 27.881733003347136 ], [ 112.958981929008473, 27.883798854269685 ], [ 112.960340586791162, 27.884003418731709 ], [ 112.962907200391598, 27.884812866236089 ], [ 112.964340374457564, 27.886042266372783 ], [ 112.964276574090022, 27.886194462769716 ], [ 112.965999717084088, 27.887475038462014 ], [ 112.967255409537231, 27.888297752651471 ], [ 112.969424875952697, 27.889731997198297 ], [ 112.970495122061678, 27.890407116670445 ], [ 112.972060593645594, 27.891303847812821 ], [ 112.973145836697043, 27.890603637247235 ], [ 112.973675980177489, 27.890423088777556 ], [ 112.974413350826069, 27.890653008804804 ], [ 112.975332086243952, 27.890620350484092 ], [ 112.976353483430387, 27.890033285928386 ], [ 112.977235290801673, 27.890382773080894 ], [ 112.977871045134776, 27.889834818593741 ], [ 112.978352297466728, 27.889967428369683 ], [ 112.97834241874817, 27.888894275162883 ] ] ] } }
]
}
