{
"type": "FeatureCollection",
"name": "火车站社区居委会",
"crs": { "type": "name", "properties": { "name": "urn:ogc:def:crs:OGC:1.3:CRS84" } },
"features": [
{ "type": "Feature", "properties": { "adcode": "430302003005", "fullName": "湖南省湘潭市雨湖区云塘街道火车站社区居委会", "level": "居委会/社区", "location": "112.913433,27.871147", "name": "火车站社区居委会", "OBJECTID": 3844, "SHAPE_Leng": 0.029922954509499999, "SHAPE_Area": 2.4178322e-05 }, "geometry": { "type": "Polygon", "coordinates": [ [ [ 112.905750715643407, 27.870606386963178 ], [ 112.90575870658202, 27.870642389658737 ], [ 112.905913531578463, 27.87132443875424 ], [ 112.906015415266495, 27.871779471552014 ], [ 112.906101310073794, 27.872249513377227 ], [ 112.906256131200607, 27.872946562765538 ], [ 112.906341036883646, 27.873273580132523 ], [ 112.906501855237039, 27.87391861648965 ], [ 112.906640692286786, 27.874540657953222 ], [ 112.9068334685727, 27.875350705134643 ], [ 112.907085169231777, 27.876464773856263 ], [ 112.907234991702694, 27.877099808742631 ], [ 112.907420768607366, 27.877904853638313 ], [ 112.907201940748536, 27.878118996703556 ], [ 112.907105012155142, 27.878266068198133 ], [ 112.907068033673156, 27.878394107505208 ], [ 112.906339620463541, 27.878640485029852 ], [ 112.906670260812362, 27.879770526405508 ], [ 112.909201045692754, 27.879141111982886 ], [ 112.909211086361239, 27.878494997111915 ], [ 112.90887148325254, 27.877545029307697 ], [ 112.908940551961877, 27.875824700561942 ], [ 112.908953542241534, 27.875791687692193 ], [ 112.90897352269927, 27.875799677782364 ], [ 112.909217341573481, 27.875139427778027 ], [ 112.911369103392943, 27.875843204639455 ], [ 112.911382089189246, 27.875847196578956 ], [ 112.911395077233138, 27.875822183623306 ], [ 112.911516964719937, 27.875586061438796 ], [ 112.909254339815291, 27.874705333405515 ], [ 112.909443203677597, 27.874109123398704 ], [ 112.90992679744717, 27.873216685117139 ], [ 112.91029647818408, 27.8725433445099 ], [ 112.910585224004592, 27.872017074160823 ], [ 112.9104084104507, 27.871950174801491 ], [ 112.909771070417008, 27.871694523397395 ], [ 112.909192649634505, 27.871485827775796 ], [ 112.908090703645655, 27.871117370654186 ], [ 112.907576174427263, 27.870947605716083 ], [ 112.906976706462089, 27.870742863324654 ], [ 112.906451157867039, 27.870563075764842 ], [ 112.906225346234265, 27.870502165953365 ], [ 112.906027504280559, 27.870511253551946 ], [ 112.90586163101878, 27.870573334767457 ], [ 112.905750715643407, 27.870606386963178 ] ] ] } }
]
}
