{
"type": "FeatureCollection",
"name": "熙春路社区居委会",
"crs": { "type": "name", "properties": { "name": "urn:ogc:def:crs:OGC:1.3:CRS84" } },
"features": [
{ "type": "Feature", "properties": { "adcode": "430302002001", "fullName": "湖南省湘潭市雨湖区城正街街道熙春路社区居委会", "level": "居委会/社区", "location": "112.918525,27.864989", "name": "熙春路社区居委会", "OBJECTID": 3833, "SHAPE_Leng": 0.021721342467600002, "SHAPE_Area": 1.58434339998e-05 }, "geometry": { "type": "Polygon", "coordinates": [ [ [ 112.910166112012575, 27.866094345330737 ], [ 112.910172105813984, 27.866096341960741 ], [ 112.910552711102525, 27.866189118959753 ], [ 112.910762483724895, 27.866326007569388 ], [ 112.910712517409209, 27.866559078652898 ], [ 112.91154361631159, 27.866848577441463 ], [ 112.911638504194499, 27.866971533252407 ], [ 112.911714403079344, 27.867212521453578 ], [ 112.911832262395762, 27.867369466310183 ], [ 112.912041008455574, 27.867686373621346 ], [ 112.91230269098314, 27.86803224606825 ], [ 112.912437521082822, 27.868274189809213 ], [ 112.912683213462188, 27.868659075830564 ], [ 112.912823036485676, 27.868885010912184 ], [ 112.912941893917065, 27.868965936432552 ], [ 112.912914923108403, 27.868988960318273 ], [ 112.912721132020124, 27.869151130432083 ], [ 112.912410492327183, 27.86903333632689 ], [ 112.911326716850766, 27.868546007726792 ], [ 112.911310731490204, 27.868577023626244 ], [ 112.911192838558605, 27.868812141600205 ], [ 112.911182848915402, 27.868815148736484 ], [ 112.910829213145135, 27.868910396578453 ], [ 112.910830210937675, 27.868925398443711 ], [ 112.91084518318641, 27.869081414862375 ], [ 112.911027973679197, 27.869313334410592 ], [ 112.911011978275511, 27.869470371212799 ], [ 112.911166786901418, 27.869830329419344 ], [ 112.911112829567344, 27.870015396142321 ], [ 112.911752119170856, 27.870332017661919 ], [ 112.913829679847524, 27.871193632082825 ], [ 112.914153280169998, 27.871327398649555 ], [ 112.914160271468148, 27.87133039357176 ], [ 112.914825555212786, 27.870034635191292 ], [ 112.915237101207552, 27.869229155544073 ], [ 112.915467844281224, 27.868759880369893 ], [ 112.915759512944547, 27.868201534987978 ], [ 112.915777492348028, 27.868167513640341 ], [ 112.913971838194229, 27.866973813722879 ], [ 112.913288685334891, 27.866486261303599 ], [ 112.911590687818816, 27.86527728306099 ], [ 112.911569708531474, 27.865302301536204 ], [ 112.911158111570131, 27.865777657415762 ], [ 112.911140129585036, 27.865790671495628 ], [ 112.911083186303628, 27.865834716458842 ], [ 112.910825455365952, 27.865848887224548 ], [ 112.910476807413744, 27.865952127479268 ], [ 112.910235047228113, 27.866032292280288 ], [ 112.910166112012575, 27.866094345330737 ] ] ] } }
]
}
