{
"type": "FeatureCollection",
"name": "燕山村委会",
"crs": { "type": "name", "properties": { "name": "urn:ogc:def:crs:OGC:1.3:CRS84" } },
"features": [
{ "type": "Feature", "properties": { "adcode": "430302100254", "fullName": "湖南省湘潭市雨湖区鹤岭镇燕山村委会", "level": "居委会/社区", "location": "112.797696,28.06365", "name": "燕山村委会", "OBJECTID": 3934, "SHAPE_Leng": 0.139764473316, "SHAPE_Area": 0.00049384438300099996 }, "geometry": { "type": "Polygon", "coordinates": [ [ [ 112.812211201029712, 28.073894296066218 ], [ 112.812449689700088, 28.073096633915288 ], [ 112.812957732661459, 28.071392353264606 ], [ 112.812436070165319, 28.067969945910335 ], [ 112.812428062895364, 28.067880919503743 ], [ 112.812207826208422, 28.065900253473934 ], [ 112.812156769976568, 28.065459101206901 ], [ 112.811896454458619, 28.063579372783256 ], [ 112.811626124189615, 28.061668620503593 ], [ 112.811966804843067, 28.060728120820848 ], [ 112.812046964955726, 28.06050923894054 ], [ 112.812732336286231, 28.058636249755601 ], [ 112.810056598505284, 28.058454313418387 ], [ 112.808309544684178, 28.058335126649219 ], [ 112.808309526087726, 28.05857015850362 ], [ 112.808309427800566, 28.05981232639158 ], [ 112.807406823525668, 28.060263762032584 ], [ 112.806461194297228, 28.060225064243422 ], [ 112.805301280658327, 28.059313880171043 ], [ 112.804655111041228, 28.060221862152034 ], [ 112.804698004011087, 28.062495242747204 ], [ 112.802936038774661, 28.062529165408606 ], [ 112.799625508180839, 28.063849678153147 ], [ 112.798981424754928, 28.064492682674523 ], [ 112.798336446893728, 28.06388552707481 ], [ 112.79812122041028, 28.062444978056938 ], [ 112.798896511195053, 28.061688166937021 ], [ 112.798852542869867, 28.060401920686573 ], [ 112.799669933448399, 28.059379153706473 ], [ 112.800401169510749, 28.058699297865022 ], [ 112.799539819975067, 28.058167770542912 ], [ 112.798466099219226, 28.058240984358783 ], [ 112.79644681662829, 28.059753867807704 ], [ 112.795543468466462, 28.0592603403108 ], [ 112.794553903520253, 28.060091870943328 ], [ 112.792491894040367, 28.059558568231505 ], [ 112.791073809550923, 28.060124476098252 ], [ 112.789280322138083, 28.059875765367941 ], [ 112.786266052520162, 28.063006859293083 ], [ 112.782330946423258, 28.066091970575229 ], [ 112.780498870732771, 28.065739601495878 ], [ 112.779447811834117, 28.064478145246476 ], [ 112.779307989221195, 28.060336422753181 ], [ 112.778056775350038, 28.058905741503079 ], [ 112.775118862239651, 28.058919433706393 ], [ 112.774663436975572, 28.058921944690852 ], [ 112.771610775504968, 28.058927834574309 ], [ 112.770489681761489, 28.061448107056176 ], [ 112.770750728329887, 28.063427616265567 ], [ 112.771713435766898, 28.064259648860212 ], [ 112.77176147206211, 28.06429970097069 ], [ 112.772822291816553, 28.065220875388444 ], [ 112.774102265062055, 28.067202453969131 ], [ 112.774753734639049, 28.068813354989445 ], [ 112.774882554840843, 28.072583980137434 ], [ 112.775592968850276, 28.075825163471507 ], [ 112.777843139276982, 28.076710819119437 ], [ 112.778346648170981, 28.07690843407434 ], [ 112.780649153614064, 28.076891224980429 ], [ 112.780798330507153, 28.076780397270515 ], [ 112.782630557815409, 28.07544356685532 ], [ 112.786795927168498, 28.073268943332614 ], [ 112.788372083834759, 28.072493099043218 ], [ 112.789369483211487, 28.072002494307782 ], [ 112.790761414812806, 28.072134585512082 ], [ 112.79119202240085, 28.072175241446484 ], [ 112.792635046331753, 28.072887543590785 ], [ 112.79430636112302, 28.074869412994996 ], [ 112.79435743768029, 28.074869493899719 ], [ 112.795518194052903, 28.074862345688494 ], [ 112.797081705293749, 28.073603723118627 ], [ 112.798695389151703, 28.071814161059542 ], [ 112.799044977300298, 28.071427695316697 ], [ 112.800245924530003, 28.071249694687509 ], [ 112.804272593171873, 28.071235642070381 ], [ 112.805210161265464, 28.071510329441562 ], [ 112.806717709152508, 28.071951066462745 ], [ 112.807225557513064, 28.072313022180559 ], [ 112.808903383211415, 28.073510200307116 ], [ 112.808980513908566, 28.073565347139503 ], [ 112.811254472739762, 28.074219578343104 ], [ 112.812045862232708, 28.07445106237985 ], [ 112.812211201029712, 28.073894296066218 ] ] ] } }
]
}
