{
"type": "FeatureCollection",
"name": "爱国桥社区居委会",
"crs": { "type": "name", "properties": { "name": "urn:ogc:def:crs:OGC:1.3:CRS84" } },
"features": [
{ "type": "Feature", "properties": { "adcode": "430302101003", "fullName": "湖南省湘潭市雨湖区楠竹山镇爱国桥社区居委会", "level": "居委会/社区", "location": "112.655999,27.84462", "name": "爱国桥社区居委会", "OBJECTID": 3942, "SHAPE_Leng": 0.029251553708900001, "SHAPE_Area": 2.6474729e-05 }, "geometry": { "type": "Polygon", "coordinates": [ [ [ 112.646963873745378, 27.851973432281817 ], [ 112.646964871569935, 27.851973430519312 ], [ 112.647079621273875, 27.851973227729825 ], [ 112.647578549618828, 27.851722302584442 ], [ 112.647817057503346, 27.851321812930326 ], [ 112.647778197108721, 27.850620766957253 ], [ 112.647716351318607, 27.850381837709964 ], [ 112.649186062538718, 27.850979307919534 ], [ 112.65114462896058, 27.851735884824723 ], [ 112.651830189557685, 27.850376408627334 ], [ 112.652665416595809, 27.848856625706919 ], [ 112.653115460958389, 27.847992654669962 ], [ 112.653799989745409, 27.846843200812124 ], [ 112.653114574847564, 27.846550420748233 ], [ 112.652772352586879, 27.846552052127187 ], [ 112.65287913069416, 27.846285811914488 ], [ 112.652783367292329, 27.846039948309045 ], [ 112.652301468880154, 27.845926816456334 ], [ 112.652183780182753, 27.845347938258975 ], [ 112.652268634506399, 27.844749685044217 ], [ 112.651124246478403, 27.844361716297612 ], [ 112.650834908669935, 27.844202217407322 ], [ 112.650876841783486, 27.843851084005649 ], [ 112.650501664288967, 27.844089804870862 ], [ 112.650462757965059, 27.844004861691069 ], [ 112.649864116748844, 27.843725900661134 ], [ 112.649814229396199, 27.843706987737779 ], [ 112.649394178731939, 27.843516714574672 ], [ 112.64922556779014, 27.843326987257782 ], [ 112.649175656197414, 27.843615123826332 ], [ 112.650265181573147, 27.844241258503249 ], [ 112.649515790515423, 27.8450387429565 ], [ 112.649625445086642, 27.846348758678314 ], [ 112.649304063858835, 27.847582539264263 ], [ 112.64776237290333, 27.848799496608819 ], [ 112.647569735019701, 27.849577966351031 ], [ 112.647629544378233, 27.85034698622766 ], [ 112.647677391755252, 27.850963002316576 ], [ 112.647483765978762, 27.851609452248073 ], [ 112.646963873745378, 27.851973432281817 ] ] ] } }
]
}
