{
"type": "FeatureCollection",
"name": "犁头村村委会",
"crs": { "type": "name", "properties": { "name": "urn:ogc:def:crs:OGC:1.3:CRS84" } },
"features": [
{ "type": "Feature", "properties": { "adcode": "430302202206", "fullName": "湖南省湘潭市雨湖区长城乡犁头村村委会", "level": "居委会/社区", "location": "112.878283,27.812559", "name": "犁头村村委会", "OBJECTID": 3986, "SHAPE_Leng": 0.081401538697600001, "SHAPE_Area": 0.0002264841855 }, "geometry": { "type": "Polygon", "coordinates": [ [ [ 112.863816698785186, 27.821050870237471 ], [ 112.863879761167254, 27.821129960742045 ], [ 112.864783655305544, 27.82207021465279 ], [ 112.865695528450004, 27.823020454739879 ], [ 112.86627707131511, 27.823609229490902 ], [ 112.866856604547706, 27.824140982395001 ], [ 112.868337973277079, 27.824711734153986 ], [ 112.869649142771678, 27.824884172394199 ], [ 112.86990636131145, 27.824960454502936 ], [ 112.869992418086156, 27.82518958044361 ], [ 112.869369782925389, 27.826345106752576 ], [ 112.868789262504322, 27.826326480685335 ], [ 112.868509989383085, 27.826553212728655 ], [ 112.868252757199343, 27.82647891896087 ], [ 112.867652153949066, 27.826971329783049 ], [ 112.867243698940911, 27.827785998345437 ], [ 112.867716086792882, 27.828621662482345 ], [ 112.86754382406005, 27.829893671211241 ], [ 112.86786603451155, 27.831127227761996 ], [ 112.868531538244653, 27.832628200671582 ], [ 112.871964488863981, 27.83240371433493 ], [ 112.871990509513338, 27.832401739387059 ], [ 112.871929610440347, 27.830480373967458 ], [ 112.87205897868516, 27.827042955175507 ], [ 112.872059980866524, 27.827024953305415 ], [ 112.87368540253712, 27.824457082218267 ], [ 112.873692408353065, 27.824447087054807 ], [ 112.875365867258793, 27.820423937208105 ], [ 112.877042332987045, 27.814845452606082 ], [ 112.878631447582421, 27.811695180534205 ], [ 112.880348504582656, 27.808620913123658 ], [ 112.880734777063964, 27.807252960156688 ], [ 112.88301990385655, 27.803683808565925 ], [ 112.883009900719031, 27.803682802793237 ], [ 112.881873526470969, 27.803422099166973 ], [ 112.880574028446958, 27.803121231865546 ], [ 112.879712646655804, 27.803061641756582 ], [ 112.879273439639789, 27.803030329723704 ], [ 112.878032793930061, 27.803149439684564 ], [ 112.876561941442091, 27.803318313498107 ], [ 112.874530582012653, 27.803986692120883 ], [ 112.873409742639083, 27.804575766768718 ], [ 112.872478966236116, 27.805595044483113 ], [ 112.871947509488834, 27.806151614764481 ], [ 112.871478096760143, 27.806644227296445 ], [ 112.870965616238422, 27.807441835085495 ], [ 112.870727389245118, 27.807814650089764 ], [ 112.870656290967261, 27.80831465355358 ], [ 112.87055715338704, 27.809014658671437 ], [ 112.870537130385884, 27.809093650187737 ], [ 112.870502089340988, 27.809241636797719 ], [ 112.870106624963256, 27.810884479153163 ], [ 112.870018532014313, 27.811104421111811 ], [ 112.869586071509318, 27.812183132478218 ], [ 112.869556041199402, 27.812233108395109 ], [ 112.86888428366774, 27.814262702289628 ], [ 112.868214546690467, 27.81583321389607 ], [ 112.86735363237139, 27.817111450931446 ], [ 112.866291468456708, 27.818671474845097 ], [ 112.865894026488519, 27.819204092656818 ], [ 112.865381448321273, 27.819889592355061 ], [ 112.865057092265417, 27.820135242285314 ], [ 112.864210145147084, 27.820778313280172 ], [ 112.863816698785186, 27.821050870237471 ] ] ] } }
]
}
