{
"type": "FeatureCollection",
"name": "狮山村委会",
"crs": { "type": "name", "properties": { "name": "urn:ogc:def:crs:OGC:1.3:CRS84" } },
"features": [
{ "type": "Feature", "properties": { "adcode": "430373200249", "fullName": "湖南省湘潭市雨湖区响水乡狮山村委会", "level": "居委会/社区", "location": "112.881476,27.897676", "name": "狮山村委会", "OBJECTID": 4035, "SHAPE_Leng": 0.0918945738801, "SHAPE_Area": 0.000307505335 }, "geometry": { "type": "Polygon", "coordinates": [ [ [ 112.880164393743087, 27.912098822123326 ], [ 112.88786016677895, 27.903668385432315 ], [ 112.888135215578245, 27.903366432372522 ], [ 112.887778203488736, 27.903090256529886 ], [ 112.887490193294084, 27.902817102201286 ], [ 112.887493198617975, 27.902753092392199 ], [ 112.887502214587045, 27.90256106296393 ], [ 112.886354091304028, 27.90204851282979 ], [ 112.886707177456387, 27.901669596040055 ], [ 112.886504219899606, 27.900713348081744 ], [ 112.886245225108297, 27.900087130801928 ], [ 112.885935194191973, 27.89976293981923 ], [ 112.88565614798442, 27.899658796633336 ], [ 112.885324086710483, 27.899555625650816 ], [ 112.885141072167656, 27.899223482452403 ], [ 112.885109087033584, 27.898939418666888 ], [ 112.885163125848479, 27.898596385792786 ], [ 112.885409194886037, 27.89839846766408 ], [ 112.885656258463982, 27.898237553845423 ], [ 112.886010317254232, 27.898359733267075 ], [ 112.886225330781883, 27.89868288225308 ], [ 112.886493487278145, 27.897250751948011 ], [ 112.88626646532984, 27.89704362000337 ], [ 112.885806437055066, 27.896321294507651 ], [ 112.885464376833596, 27.896207119073569 ], [ 112.884358127691343, 27.896064557826829 ], [ 112.883370899256235, 27.895409925249062 ], [ 112.883153865135952, 27.894982732616359 ], [ 112.882682701392227, 27.895115488850582 ], [ 112.882344553683765, 27.895520361298271 ], [ 112.88220048908822, 27.895694305832315 ], [ 112.88096599668458, 27.895911579760838 ], [ 112.88080293358459, 27.895850464063585 ], [ 112.880450793197966, 27.89572021097722 ], [ 112.880428923552671, 27.89391988933383 ], [ 112.880160818364701, 27.89374868091814 ], [ 112.879731524834767, 27.895000601713679 ], [ 112.879420349684054, 27.895359446309389 ], [ 112.879287288079098, 27.895325346720327 ], [ 112.879195244976586, 27.895302277523076 ], [ 112.877949529327623, 27.896231521165387 ], [ 112.877373251410347, 27.895688985444774 ], [ 112.876306700080292, 27.89468496129577 ], [ 112.876341756569815, 27.894233913050421 ], [ 112.87629378495501, 27.893490747014997 ], [ 112.876432930988869, 27.892703726558949 ], [ 112.875948664279207, 27.892289257042769 ], [ 112.875686500974496, 27.892256031845868 ], [ 112.875930723263835, 27.891385088039463 ], [ 112.875629536589443, 27.891328825827976 ], [ 112.875426417454491, 27.891176627656069 ], [ 112.875319362439683, 27.890987504053527 ], [ 112.875319392763444, 27.890597437650811 ], [ 112.875190325820014, 27.890369288066559 ], [ 112.874099554825989, 27.890732389936304 ], [ 112.873827354869348, 27.890823159163144 ], [ 112.873226939440698, 27.890557561455719 ], [ 112.873096847491624, 27.890500430335681 ], [ 112.872756606452398, 27.890317078804237 ], [ 112.871743862023024, 27.889769008059357 ], [ 112.871300467979992, 27.890242649543428 ], [ 112.871281451011612, 27.890261633789272 ], [ 112.870669862702641, 27.891324197540374 ], [ 112.870090373202331, 27.891285594378026 ], [ 112.86976511020967, 27.891040212743672 ], [ 112.869725077628914, 27.891009165383267 ], [ 112.868501030828412, 27.89033573850211 ], [ 112.868293823072619, 27.890543546859842 ], [ 112.867770290731329, 27.891073057179014 ], [ 112.867665182669882, 27.891178957725931 ], [ 112.866765240669466, 27.892089092240802 ], [ 112.866564025000571, 27.892305897461384 ], [ 112.86564502140881, 27.893297991949115 ], [ 112.865132448562662, 27.893852475646543 ], [ 112.86633651150828, 27.895997263673131 ], [ 112.866895037494515, 27.896342966800489 ], [ 112.866938032389228, 27.896950119665817 ], [ 112.867710682997185, 27.89816420058537 ], [ 112.867710594431003, 27.899302395027838 ], [ 112.867968811924413, 27.899644741172683 ], [ 112.869212932642782, 27.899912142040268 ], [ 112.86929895344251, 27.900632357006835 ], [ 112.868526197688709, 27.901352646685766 ], [ 112.869084649522392, 27.902074374510146 ], [ 112.868612191044292, 27.902453928839691 ], [ 112.869342800651893, 27.903099825863443 ], [ 112.868483905092489, 27.904615158860665 ], [ 112.867065555109932, 27.904689588873822 ], [ 112.867064400532342, 27.906662925519296 ], [ 112.867753015214461, 27.9072698060804 ], [ 112.867666883214781, 27.907914820289701 ], [ 112.868954989901468, 27.909054430419832 ], [ 112.869642599671607, 27.909092169729966 ], [ 112.871790273030996, 27.910687629271564 ], [ 112.872606953512701, 27.910120321668582 ], [ 112.872907169045263, 27.910271632000505 ], [ 112.873808880182366, 27.909627356649516 ], [ 112.87419515323792, 27.90962870574068 ], [ 112.874926671608705, 27.909401312742069 ], [ 112.875913318070204, 27.909325140176573 ], [ 112.876298568874304, 27.909175433022778 ], [ 112.876900909823306, 27.909439965326385 ], [ 112.876428609942835, 27.909667623629076 ], [ 112.877200995658811, 27.910579398153146 ], [ 112.878704847609427, 27.910124459894231 ], [ 112.878489689508612, 27.910731406077591 ], [ 112.878060426868615, 27.911187164068977 ], [ 112.878704720639277, 27.911756739520101 ], [ 112.879262036982951, 27.911264055687734 ], [ 112.880164393743087, 27.912098822123326 ] ] ] } }
]
}
