{
"type": "FeatureCollection",
"name": "瓦窑塘社区居委会",
"crs": { "type": "name", "properties": { "name": "urn:ogc:def:crs:OGC:1.3:CRS84" } },
"features": [
{ "type": "Feature", "properties": { "adcode": "430304001006", "fullName": "湖南省湘潭市岳塘区岳塘街道瓦窑塘社区居委会", "level": "居委会/社区", "location": "112.920791,27.81966", "name": "瓦窑塘社区居委会", "OBJECTID": 4040, "SHAPE_Leng": 0.014081933063000001, "SHAPE_Area": 1.07301485e-05 }, "geometry": { "type": "Polygon", "coordinates": [ [ [ 112.915695245089708, 27.821324984433062 ], [ 112.914752392733888, 27.821899871945806 ], [ 112.912835572631622, 27.823251581626099 ], [ 112.91345079406446, 27.824094250994293 ], [ 112.915651992556093, 27.825287642817962 ], [ 112.915875728546624, 27.824965397402476 ], [ 112.915900713459337, 27.824742340459093 ], [ 112.91631316906134, 27.82479798382845 ], [ 112.916580893206714, 27.823778582536551 ], [ 112.916922477318735, 27.823232184399735 ], [ 112.917515755371397, 27.822098451792826 ], [ 112.917724515354081, 27.821465153751696 ], [ 112.916990539350266, 27.821251811859383 ], [ 112.916781786573992, 27.821693072980327 ], [ 112.915695245089708, 27.821324984433062 ] ] ] } }
]
}
