{
"type": "FeatureCollection",
"name": "电化社区居委会",
"crs": { "type": "name", "properties": { "name": "urn:ogc:def:crs:OGC:1.3:CRS84" } },
"features": [
{ "type": "Feature", "properties": { "adcode": "430304015002", "fullName": "湖南省湘潭市岳塘区荷塘街道电化社区居委会", "level": "居委会/社区", "location": "112.963851,27.879397", "name": "电化社区居委会", "OBJECTID": 4101, "SHAPE_Leng": 0.058554319612300003, "SHAPE_Area": 0.000102859991 }, "geometry": { "type": "Polygon", "coordinates": [ [ [ 112.964276574090022, 27.886194462769716 ], [ 112.964340374457564, 27.886042266372783 ], [ 112.962907200391598, 27.884812866236089 ], [ 112.960340586791162, 27.884003418731709 ], [ 112.958981929008473, 27.883798854269685 ], [ 112.95957221982826, 27.881733003347136 ], [ 112.960640707499948, 27.882943466045838 ], [ 112.961753057656409, 27.88366070047265 ], [ 112.96218178589821, 27.882110316873202 ], [ 112.961621661291588, 27.881420664324551 ], [ 112.961390417730911, 27.881327250578053 ], [ 112.960931894132784, 27.881380449179474 ], [ 112.960758505701065, 27.880706783756686 ], [ 112.960683798173903, 27.880046865266117 ], [ 112.961020763105296, 27.879415887278824 ], [ 112.961567053146481, 27.878706348353997 ], [ 112.961635858596466, 27.878346108298011 ], [ 112.96170070035943, 27.877687828240738 ], [ 112.961708679141168, 27.877628797478625 ], [ 112.961743595274754, 27.877256643667803 ], [ 112.961685784766033, 27.877232790471769 ], [ 112.961685805752893, 27.876966745601049 ], [ 112.961626001216246, 27.876947898359937 ], [ 112.961556227455603, 27.876947080031449 ], [ 112.961455554312437, 27.876937340491061 ], [ 112.961336938112353, 27.8769376490173 ], [ 112.961037904635816, 27.876928423492132 ], [ 112.96099305163554, 27.87689853465367 ], [ 112.960968141426747, 27.87677857895995 ], [ 112.960948212773204, 27.876688615406337 ], [ 112.960867496517494, 27.876388773791778 ], [ 112.960828628692852, 27.876299859340889 ], [ 112.960788761743416, 27.876239952316176 ], [ 112.960704042228855, 27.876139154216926 ], [ 112.960669155958271, 27.876119240936241 ], [ 112.960639259157375, 27.876029302961509 ], [ 112.960558520075338, 27.876009507897145 ], [ 112.960459836704345, 27.876010762426095 ], [ 112.960429932618908, 27.876010839453603 ], [ 112.960400027797135, 27.876019917974006 ], [ 112.960310312066909, 27.87606115575116 ], [ 112.960250502103008, 27.876080312744769 ], [ 112.960209633711472, 27.876070416094581 ], [ 112.960179730978581, 27.876050489550281 ], [ 112.960150831338083, 27.87595054693934 ], [ 112.960140882143293, 27.875710532091571 ], [ 112.960140888450994, 27.875630518612205 ], [ 112.960124952859417, 27.875460530919042 ], [ 112.960101031717471, 27.875430587273797 ], [ 112.960041222873514, 27.875430740727619 ], [ 112.960031257087508, 27.875400761240162 ], [ 112.960041228786693, 27.875355728093592 ], [ 112.960081101755677, 27.875350624959498 ], [ 112.96012099005118, 27.875150488937951 ], [ 112.960071150882953, 27.875131613649767 ], [ 112.960041246447261, 27.875131690364594 ], [ 112.960001372720399, 27.875145794971232 ], [ 112.959971466171652, 27.875171876008555 ], [ 112.959951526670537, 27.875211933837733 ], [ 112.959920622154414, 27.875252019746519 ], [ 112.959891713613558, 27.875262095471083 ], [ 112.959860812273902, 27.875261174424029 ], [ 112.959821937752352, 27.875242270726737 ], [ 112.959792034746243, 27.875221343702517 ], [ 112.95969236101574, 27.875111580042869 ], [ 112.959662457024265, 27.875101654765924 ], [ 112.959559786104123, 27.875071911859227 ], [ 112.959532876424035, 27.875011970425017 ], [ 112.959501977031891, 27.874982044192066 ], [ 112.959443168580151, 27.874923184194923 ], [ 112.959383361768431, 27.874882329673124 ], [ 112.959323556344188, 27.874822471854174 ], [ 112.959253781633365, 27.87477264097555 ], [ 112.959203942011854, 27.874742762656609 ], [ 112.959184007560467, 27.874712808279433 ], [ 112.959174041512242, 27.874682828561461 ], [ 112.959193981486933, 27.874642771159262 ], [ 112.959263762631991, 27.874612588683995 ], [ 112.959343512778958, 27.874572379014843 ], [ 112.959363453437973, 27.874522319836824 ], [ 112.959343521448986, 27.874462360498473 ], [ 112.959293681176689, 27.874442483987274 ], [ 112.959193997249741, 27.874442737492416 ], [ 112.959094313725288, 27.874433989208327 ], [ 112.95903450382545, 27.874424139331719 ], [ 112.959004600094985, 27.874403211663186 ], [ 112.958994633912312, 27.874374232065335 ], [ 112.95898466859353, 27.874334250613465 ], [ 112.959024548054856, 27.874263137525944 ], [ 112.959044488042863, 27.874224080376898 ], [ 112.959054458859868, 27.874194050031356 ], [ 112.959094339811458, 27.874102933502712 ], [ 112.959134221423199, 27.874002815416912 ], [ 112.959164132205942, 27.873932727665927 ], [ 112.959188062309764, 27.873857654251363 ], [ 112.959174110079132, 27.873812682147431 ], [ 112.959124270333291, 27.873782803722904 ], [ 112.958963782156331, 27.873733202568339 ], [ 112.95884515939791, 27.873703498078189 ], [ 112.958695634381243, 27.873664869812185 ], [ 112.958585980004656, 27.873665146831076 ], [ 112.958476324463561, 27.873675425195291 ], [ 112.958413520134769, 27.873699587543722 ], [ 112.958376634923852, 27.873714682991714 ], [ 112.958316818954216, 27.873764842010189 ], [ 112.95828691132121, 27.873784920640613 ], [ 112.958265975094591, 27.873809977517435 ], [ 112.958227092740273, 27.873866084723492 ], [ 112.958187211575378, 27.873946198430943 ], [ 112.958137363200038, 27.874006333772854 ], [ 112.958067575736592, 27.87408552229298 ], [ 112.957987821620236, 27.874135730797306 ], [ 112.957936979201193, 27.87415586162642 ], [ 112.957887135944873, 27.874145984836574 ], [ 112.95785723184359, 27.87411605469007 ], [ 112.95780838534472, 27.874106175292169 ], [ 112.957758539442082, 27.874127303536174 ], [ 112.957728629704107, 27.874167385059351 ], [ 112.957698718362252, 27.874227469923028 ], [ 112.957648866850178, 27.874317609623741 ], [ 112.957607988929155, 27.874386723318221 ], [ 112.957559134952405, 27.874466858720474 ], [ 112.957498320535777, 27.874517018840042 ], [ 112.957419560291811, 27.874587226933766 ], [ 112.957339803658158, 27.874648435816123 ], [ 112.95726503061907, 27.874718633634377 ], [ 112.957189259786759, 27.874797835284422 ], [ 112.957119468553316, 27.874898025454907 ], [ 112.957080582885197, 27.874978135436006 ], [ 112.957060634491015, 27.875108206803972 ], [ 112.957010774789907, 27.875289360926967 ], [ 112.957000800965787, 27.875349395752515 ], [ 112.957010762268411, 27.875448387710687 ], [ 112.957030694156629, 27.875528351741721 ], [ 112.95704066080458, 27.875559332236904 ], [ 112.957020719551338, 27.875598388259839 ], [ 112.956965886255958, 27.875639531101751 ], [ 112.956945944166975, 27.875688588766735 ], [ 112.956960893824515, 27.875739560304599 ], [ 112.95697085821125, 27.875799545707697 ], [ 112.956970851123586, 27.875889560874239 ], [ 112.956980817869592, 27.875919541219766 ], [ 112.957035642475091, 27.875988416890678 ], [ 112.957020680962216, 27.876088470833157 ], [ 112.957020678599591, 27.876118475889719 ], [ 112.957050578779089, 27.876208416877596 ], [ 112.957100416205677, 27.876309310208249 ], [ 112.957110380546709, 27.876369295575596 ], [ 112.957100405967225, 27.876439332124878 ], [ 112.957100403683256, 27.876468337014334 ], [ 112.957140272053891, 27.876568254867109 ], [ 112.957149237901447, 27.876648246073682 ], [ 112.95713029031694, 27.876729306772408 ], [ 112.957100376039151, 27.876819396202162 ], [ 112.957090399881324, 27.876909436126056 ], [ 112.957124287695066, 27.87699836699333 ], [ 112.957060480051993, 27.877069537330954 ], [ 112.957030568857292, 27.87711961995663 ], [ 112.956970748822158, 27.877188779901243 ], [ 112.956851109033536, 27.877319098130496 ], [ 112.956811228869228, 27.877364204396006 ], [ 112.956780320121382, 27.877419290115771 ], [ 112.956760378542896, 27.87746034633502 ], [ 112.956731460037659, 27.877560434675338 ], [ 112.956731454525155, 27.877630446488098 ], [ 112.95675138509722, 27.877729413911513 ], [ 112.956741411977106, 27.877779446993866 ], [ 112.956739417825204, 27.877783452597345 ], [ 112.956691558140548, 27.877879587046873 ], [ 112.956601825676486, 27.878000829002673 ], [ 112.956581884926976, 27.878029883095227 ], [ 112.956571910964229, 27.878089917818318 ], [ 112.956571899152138, 27.878239943142567 ], [ 112.956546972893619, 27.878280011368929 ], [ 112.956517066317446, 27.878265082579464 ], [ 112.956482188464491, 27.878080137346537 ], [ 112.956457269219442, 27.878030190312888 ], [ 112.956382505849049, 27.877950360919957 ], [ 112.956312723728544, 27.877911526025819 ], [ 112.956303752043681, 27.87790254657051 ], [ 112.956292786647595, 27.877891571677544 ], [ 112.956272849553613, 27.877871617317595 ], [ 112.956223009989145, 27.877780724446595 ], [ 112.956193103407884, 27.877761794697612 ], [ 112.956143255759429, 27.877771918756224 ], [ 112.956063497539844, 27.877811120979054 ], [ 112.956003678677774, 27.877841272649128 ], [ 112.95596379937038, 27.877861373703595 ], [ 112.95593388867421, 27.877891451995389 ], [ 112.955894006912516, 27.877941558031189 ], [ 112.955869082851251, 27.87794661984865 ], [ 112.95583418999658, 27.877942704505255 ], [ 112.955634807626978, 27.877842174370667 ], [ 112.9555052110764, 27.877742473348938 ], [ 112.955445396530152, 27.877703612376774 ], [ 112.955395549212, 27.877693731948622 ], [ 112.955166246927604, 27.877693288609954 ], [ 112.955086486019312, 27.877733488668785 ], [ 112.955055575894335, 27.877783571962684 ], [ 112.955036631722052, 27.877804621371727 ], [ 112.95499675111985, 27.877824721269018 ], [ 112.954960859161332, 27.877834809785078 ], [ 112.954887076431191, 27.877915001645867 ], [ 112.954706613902431, 27.878024455600585 ], [ 112.954646793881039, 27.878034601452651 ], [ 112.954538120306339, 27.878055866615849 ], [ 112.954418478742909, 27.878085159113432 ], [ 112.954297838822384, 27.878125455420246 ], [ 112.954239014177602, 27.878145599821959 ], [ 112.954119371304586, 27.878175891388871 ], [ 112.954049579124913, 27.8781970618566 ], [ 112.953899025771307, 27.878256431380269 ], [ 112.953839204086023, 27.878266575746135 ], [ 112.953511171358912, 27.878427383133054 ], [ 112.953271877484937, 27.87850796379081 ], [ 112.95311234730211, 27.878559349504584 ], [ 112.952962787634405, 27.878598708895762 ], [ 112.952911936637349, 27.878618832066362 ], [ 112.952782314539093, 27.878689148873416 ], [ 112.952483189183113, 27.878789867540924 ], [ 112.952175086887152, 27.878891604451979 ], [ 112.952252849556274, 27.879006442455484 ], [ 112.953902763796677, 27.881434959080362 ], [ 112.954039338457306, 27.88163666705579 ], [ 112.955144629549181, 27.886345803950714 ], [ 112.955374851894376, 27.887324411106466 ], [ 112.955666883855997, 27.888299865488761 ], [ 112.956291803042106, 27.890382688878198 ], [ 112.956293796198523, 27.890391685507517 ], [ 112.959890587576751, 27.889543513210857 ], [ 112.962480268794948, 27.888968695596873 ], [ 112.963121198973084, 27.888586940831285 ], [ 112.964276574090022, 27.886194462769716 ] ] ] } }
]
}
