{
"type": "FeatureCollection",
"name": "白鹭湖村委会",
"crs": { "type": "name", "properties": { "name": "urn:ogc:def:crs:OGC:1.3:CRS84" } },
"features": [
{ "type": "Feature", "properties": { "adcode": "430302102217", "fullName": "湖南省湘潭市雨湖区姜畲镇白鹭湖村委会", "level": "居委会/社区", "location": "112.816805,27.868998", "name": "白鹭湖村委会", "OBJECTID": 3962, "SHAPE_Leng": 0.079243095614299999, "SHAPE_Area": 0.0003617513575 }, "geometry": { "type": "Polygon", "coordinates": [ [ [ 112.800347365628014, 27.864762714490034 ], [ 112.801043263270145, 27.867741396842092 ], [ 112.801559062756922, 27.868311375014738 ], [ 112.802333248942276, 27.869452899138913 ], [ 112.803708450262206, 27.870592480011453 ], [ 112.804523667403828, 27.872567241440436 ], [ 112.801987990621654, 27.878217780415945 ], [ 112.802484740918842, 27.879119790301711 ], [ 112.803535341162799, 27.881027938759683 ], [ 112.805814046575691, 27.882928273557877 ], [ 112.806788704447641, 27.883101039875612 ], [ 112.809080651283921, 27.883504236857448 ], [ 112.812992522259108, 27.884156515151581 ], [ 112.815373816844058, 27.883932898999234 ], [ 112.816174268580099, 27.883858380392422 ], [ 112.8186909141657, 27.882841924342618 ], [ 112.818432536420914, 27.881664239294928 ], [ 112.818948602723083, 27.88003493284759 ], [ 112.819078007439273, 27.877872810314031 ], [ 112.820496826747373, 27.874876974235978 ], [ 112.820195419859729, 27.873054099582518 ], [ 112.822947534571938, 27.871845081731326 ], [ 112.820751594445781, 27.871000801504632 ], [ 112.820436092825872, 27.870059049131186 ], [ 112.820432086539455, 27.870046039402844 ], [ 112.819902249131502, 27.868405766776895 ], [ 112.819411479232386, 27.866819577718058 ], [ 112.819175104533414, 27.866108014145485 ], [ 112.818140327989681, 27.864759844784029 ], [ 112.816623742626319, 27.862642649380813 ], [ 112.816462497180538, 27.862049248921281 ], [ 112.816205098872118, 27.861188624469733 ], [ 112.815196323244493, 27.860603644668437 ], [ 112.814278713011859, 27.860077849973248 ], [ 112.813583530701194, 27.859248422352383 ], [ 112.811624978084524, 27.860004933115501 ], [ 112.809433021473168, 27.86114011502373 ], [ 112.808829906863267, 27.861897146751822 ], [ 112.806939520220865, 27.863260969769065 ], [ 112.802983794386549, 27.863519033075018 ], [ 112.802038176775653, 27.864161504381109 ], [ 112.800347365628014, 27.864762714490034 ] ] ] } }
]
}
