{
"type": "FeatureCollection",
"name": "白马村委会",
"crs": { "type": "name", "properties": { "name": "urn:ogc:def:crs:OGC:1.3:CRS84" } },
"features": [
{ "type": "Feature", "properties": { "adcode": "430302102227", "fullName": "湖南省湘潭市雨湖区姜畲镇白马村委会", "level": "居委会/社区", "location": "112.79674,27.887383", "name": "白马村委会", "OBJECTID": 3972, "SHAPE_Leng": 0.087017267582900001, "SHAPE_Area": 0.000401087275 }, "geometry": { "type": "Polygon", "coordinates": [ [ [ 112.776520011785792, 27.89729196886659 ], [ 112.777250607309995, 27.899000090508842 ], [ 112.778360601058182, 27.900899706560324 ], [ 112.778734994508937, 27.90091815341453 ], [ 112.779950216961737, 27.902067818649201 ], [ 112.78058890229326, 27.902369659193841 ], [ 112.781174542038841, 27.902646440144768 ], [ 112.783517295066673, 27.902641469378352 ], [ 112.784515524208274, 27.902565792862514 ], [ 112.784999146693039, 27.902320407823101 ], [ 112.78578219065146, 27.901647369260996 ], [ 112.78611662429185, 27.901582822875483 ], [ 112.78696572271916, 27.901631023655714 ], [ 112.787363280097694, 27.901194513512117 ], [ 112.787352299960347, 27.900758423218754 ], [ 112.787577610878969, 27.900597717367855 ], [ 112.788443781120051, 27.900460942128657 ], [ 112.789415117365735, 27.900307337137487 ], [ 112.789632423437794, 27.90022564419878 ], [ 112.791198664742083, 27.899644891191386 ], [ 112.791645306538612, 27.89958956107542 ], [ 112.791822562593538, 27.899567828202144 ], [ 112.792560637288204, 27.899473947360288 ], [ 112.792983258456658, 27.899421593772193 ], [ 112.794785066035402, 27.897770147822474 ], [ 112.797923016551863, 27.896295990920482 ], [ 112.799599846437602, 27.894213432821491 ], [ 112.802780406420268, 27.889628086826534 ], [ 112.803242237568668, 27.888841755318499 ], [ 112.804801068266585, 27.886180033425411 ], [ 112.806788704447641, 27.883101039875612 ], [ 112.805814046575691, 27.882928273557877 ], [ 112.803535341162799, 27.881027938759683 ], [ 112.802484740918842, 27.879119790301711 ], [ 112.798806725810152, 27.879616620913598 ], [ 112.796915828413205, 27.878664335643133 ], [ 112.795429511701329, 27.879078997372446 ], [ 112.794652059920708, 27.882591350031984 ], [ 112.793061632278039, 27.883423988450033 ], [ 112.789708873498384, 27.883152846556083 ], [ 112.787817342822137, 27.882658002521101 ], [ 112.785239996449732, 27.882691389606965 ], [ 112.783352539775962, 27.884327126366554 ], [ 112.782450324100637, 27.88610924843691 ], [ 112.781505068842748, 27.888080370711027 ], [ 112.781117488288317, 27.889825177663312 ], [ 112.780860029128021, 27.891949216466102 ], [ 112.780216186257476, 27.893503681518684 ], [ 112.780000852622521, 27.894716623626145 ], [ 112.77866835642368, 27.895436136714686 ], [ 112.777036607032201, 27.896269378990173 ], [ 112.776520011785792, 27.89729196886659 ] ] ] } }
]
}
