{
"type": "FeatureCollection",
"name": "百冲村委会",
"crs": { "type": "name", "properties": { "name": "urn:ogc:def:crs:OGC:1.3:CRS84" } },
"features": [
{ "type": "Feature", "properties": { "adcode": "430302100204", "fullName": "湖南省湘潭市雨湖区鹤岭镇百冲村委会", "level": "居委会/社区", "location": "112.741776,27.920064", "name": "百冲村委会", "OBJECTID": 3898, "SHAPE_Leng": 0.101899308738, "SHAPE_Area": 0.0004209145395 }, "geometry": { "type": "Polygon", "coordinates": [ [ [ 112.722040047740236, 27.927584314147772 ], [ 112.723149509328181, 27.930633929216871 ], [ 112.723957465507638, 27.93226357440496 ], [ 112.724227123934782, 27.93279245846227 ], [ 112.725339947143411, 27.932411568671125 ], [ 112.725769505967335, 27.932263236680036 ], [ 112.725805469250517, 27.93225220942001 ], [ 112.727174191467498, 27.930801029720861 ], [ 112.728762760541514, 27.929639834225966 ], [ 112.729142433749246, 27.929359561528806 ], [ 112.729631982168399, 27.929488301541497 ], [ 112.730121540108158, 27.929619050626595 ], [ 112.732069877454109, 27.930138138849379 ], [ 112.733968405920294, 27.93065638732029 ], [ 112.735017656955577, 27.930937028506612 ], [ 112.736266752498437, 27.932185811511353 ], [ 112.736310629537286, 27.933396004405111 ], [ 112.736367475623382, 27.934897242899122 ], [ 112.736255497028168, 27.935499381575493 ], [ 112.737508771159582, 27.935276969861679 ], [ 112.739561724119341, 27.934914423715693 ], [ 112.742136613511775, 27.935065067756149 ], [ 112.744366056391456, 27.932941577612851 ], [ 112.744537985089181, 27.933245627651459 ], [ 112.746082724990515, 27.93188042694899 ], [ 112.744710143378043, 27.930666185537902 ], [ 112.748818575790523, 27.928649154259894 ], [ 112.748142810972567, 27.92657270293563 ], [ 112.747456998506479, 27.925359415662033 ], [ 112.747971000328818, 27.924447317160226 ], [ 112.746598249251434, 27.923992107086441 ], [ 112.745740602766872, 27.92171667080796 ], [ 112.747799274766166, 27.921262750777444 ], [ 112.747971372558951, 27.919745511071266 ], [ 112.746941620844623, 27.918532197228899 ], [ 112.74539699315649, 27.917772983855627 ], [ 112.745569361609199, 27.912615104043272 ], [ 112.742823085472168, 27.913373292151757 ], [ 112.741278786196006, 27.911856190566134 ], [ 112.739048741904128, 27.912615709448769 ], [ 112.738361025382474, 27.913525023209562 ], [ 112.734588386894359, 27.912769076289607 ], [ 112.734073614832752, 27.914437565122697 ], [ 112.732015271387667, 27.913073240255546 ], [ 112.731156896598023, 27.913982821624984 ], [ 112.72704066641667, 27.913834210121376 ], [ 112.726608168929289, 27.912971351357918 ], [ 112.726527116980577, 27.914667697151014 ], [ 112.726476081070871, 27.915777922232387 ], [ 112.725986367520974, 27.918518729995544 ], [ 112.725716532462783, 27.919990172055947 ], [ 112.725644573711321, 27.920423297357221 ], [ 112.725566618870289, 27.920889432775347 ], [ 112.725526643620796, 27.921109499048264 ], [ 112.725706449753233, 27.921169381355845 ], [ 112.725825322177201, 27.921210304406248 ], [ 112.726865225054382, 27.921629663214979 ], [ 112.72592709440498, 27.922749496753816 ], [ 112.72474723668401, 27.924161590045088 ], [ 112.72238976203181, 27.925962745956376 ], [ 112.722040047740236, 27.927584314147772 ] ] ] } }
]
}
