{
"type": "FeatureCollection",
"name": "百合村村委会",
"crs": { "type": "name", "properties": { "name": "urn:ogc:def:crs:OGC:1.3:CRS84" } },
"features": [
{ "type": "Feature", "properties": { "adcode": "430372100208", "fullName": "湖南省湘潭市岳塘区昭山镇百合村村委会", "level": "居委会/社区", "location": "113.060811,27.968577", "name": "百合村村委会", "OBJECTID": 4154, "SHAPE_Leng": 0.14259066379, "SHAPE_Area": 0.0004024534465 }, "geometry": { "type": "Polygon", "coordinates": [ [ [ 113.043710424781665, 27.957333621437197 ], [ 113.044023547088187, 27.958024085957053 ], [ 113.044125247086683, 27.958440945133351 ], [ 113.044339679228742, 27.958548519870643 ], [ 113.044782536230173, 27.958481598350449 ], [ 113.044948130255307, 27.958221216086013 ], [ 113.045659337307043, 27.957863713537829 ], [ 113.046115191117067, 27.957734777140562 ], [ 113.046687772108911, 27.957473595261664 ], [ 113.047067808664991, 27.957657877715448 ], [ 113.047404943177838, 27.958016278478304 ], [ 113.047688222257634, 27.958286773130062 ], [ 113.04774805116007, 27.95857870622195 ], [ 113.047480671307966, 27.959048304249585 ], [ 113.047448716313284, 27.959461435812695 ], [ 113.047191322535483, 27.959841002156516 ], [ 113.046860103693447, 27.96036774100719 ], [ 113.046394233455928, 27.960827740068613 ], [ 113.046296433078126, 27.96139602985463 ], [ 113.046361230945749, 27.961869980257504 ], [ 113.046682412955874, 27.962011367036624 ], [ 113.046800131750473, 27.961850107579618 ], [ 113.047034595232418, 27.961263547905475 ], [ 113.047425644210776, 27.961033744396026 ], [ 113.047506459473468, 27.960852556658111 ], [ 113.04738877659554, 27.960531732143448 ], [ 113.047624225049518, 27.96017121355456 ], [ 113.047779862033593, 27.959929871390599 ], [ 113.047736976447311, 27.959819935989941 ], [ 113.047826791249051, 27.959388689813089 ], [ 113.048041289563244, 27.959099227338619 ], [ 113.048443325765192, 27.958908424274711 ], [ 113.048705679034285, 27.959046947720122 ], [ 113.049025877092987, 27.959419403808788 ], [ 113.049161532950365, 27.95964718630232 ], [ 113.049304174158081, 27.959859953868694 ], [ 113.049134575447937, 27.959916282202919 ], [ 113.048668698077819, 27.959903161677804 ], [ 113.048588880330357, 27.960035335739391 ], [ 113.048560927727266, 27.960282430425615 ], [ 113.04865267921484, 27.960604309704589 ], [ 113.048647640787806, 27.96122042252928 ], [ 113.048566830531229, 27.961291588299918 ], [ 113.048256574292736, 27.961411201338606 ], [ 113.047962275378595, 27.961625803185431 ], [ 113.047630076828938, 27.961800475183374 ], [ 113.047393650453074, 27.961920955354088 ], [ 113.047095362042697, 27.962262595917188 ], [ 113.046929754933359, 27.962498960805348 ], [ 113.046843946838678, 27.962769174985997 ], [ 113.046732206134905, 27.963012436130192 ], [ 113.046843903335144, 27.96330026388048 ], [ 113.046994504893519, 27.963579014086047 ], [ 113.047015441430318, 27.963716996009225 ], [ 113.04708525255316, 27.963901889857919 ], [ 113.047324667876381, 27.96378740213262 ], [ 113.047968086492517, 27.963752147671915 ], [ 113.048240394093682, 27.964084679556692 ], [ 113.048348110963801, 27.964339515753647 ], [ 113.047855287335892, 27.964672519148348 ], [ 113.047571977488843, 27.964753081644346 ], [ 113.047250758338734, 27.964915734991898 ], [ 113.04720186318508, 27.965115864051135 ], [ 113.047346470554245, 27.965532650930061 ], [ 113.047660656582678, 27.966000117493472 ], [ 113.048218306590272, 27.965805009049177 ], [ 113.048502611474987, 27.965852473005974 ], [ 113.048747009629963, 27.965980029147559 ], [ 113.048887652695768, 27.966196798660043 ], [ 113.049122063311785, 27.966514408903535 ], [ 113.049582922490757, 27.967006626756039 ], [ 113.049395352740959, 27.967207010836979 ], [ 113.049056132476323, 27.967597713601883 ], [ 113.048703958442758, 27.967868425428929 ], [ 113.048056506527686, 27.968178715311641 ], [ 113.047852991344016, 27.968344135359928 ], [ 113.047719301384859, 27.968567431205532 ], [ 113.047783087346161, 27.969264423511103 ], [ 113.047702276944861, 27.969374598330614 ], [ 113.047403010508447, 27.969430189360981 ], [ 113.047177540961812, 27.969773686971354 ], [ 113.047172534329988, 27.970005735296201 ], [ 113.047194461250641, 27.970232730033423 ], [ 113.047107653928322, 27.970511946436943 ], [ 113.047022841964306, 27.970791159189897 ], [ 113.046783408385977, 27.971166692802967 ], [ 113.046970914752649, 27.971479375309983 ], [ 113.04706665702183, 27.97171522632037 ], [ 113.047066645793095, 27.971852249037859 ], [ 113.047087570338562, 27.972137255177117 ], [ 113.047302033395425, 27.972193844709111 ], [ 113.047798837225329, 27.971837819893249 ], [ 113.04818987986333, 27.971842066952416 ], [ 113.048501104431352, 27.972067508648873 ], [ 113.048629771724876, 27.972323305832422 ], [ 113.048447186097647, 27.972665710589158 ], [ 113.048426205882905, 27.973044813380891 ], [ 113.048297458968634, 27.973774180274109 ], [ 113.047837541679939, 27.97427814861955 ], [ 113.047880406117798, 27.9746481268682 ], [ 113.047815518723567, 27.975215345874258 ], [ 113.047654879302371, 27.975633726041906 ], [ 113.047184009114702, 27.976051712705825 ], [ 113.046456802421119, 27.976336193408784 ], [ 113.045664798737519, 27.976432793429083 ], [ 113.045096263121479, 27.976319926329946 ], [ 113.044708252595115, 27.976458741880176 ], [ 113.04632797958368, 27.978125743866823 ], [ 113.04651939847804, 27.979338562709756 ], [ 113.047098874352741, 27.980265571877986 ], [ 113.047954745197018, 27.980472941158919 ], [ 113.049410220802358, 27.980545186330964 ], [ 113.04928040933325, 27.982022671489069 ], [ 113.049045826357258, 27.98378740110353 ], [ 113.049216369182403, 27.984374175478674 ], [ 113.04932305638043, 27.98507508919328 ], [ 113.050020371953195, 27.985428847890503 ], [ 113.050769623759422, 27.985352461040538 ], [ 113.051219601008029, 27.9851236089807 ], [ 113.051884047046968, 27.985520484975751 ], [ 113.052460694693025, 27.986107563126573 ], [ 113.053575222338992, 27.986047625041206 ], [ 113.054217852840935, 27.98564847110357 ], [ 113.054666871904573, 27.985799744707599 ], [ 113.054869371937968, 27.986604539445064 ], [ 113.055384210046924, 27.987428826515696 ], [ 113.056564668062563, 27.988407084946967 ], [ 113.056790237542614, 27.988014664895335 ], [ 113.058031783532542, 27.987405641945976 ], [ 113.058947996666106, 27.98723823625004 ], [ 113.058263417808064, 27.986273106295968 ], [ 113.058134770819819, 27.98507910732604 ], [ 113.057953177716897, 27.984519292832729 ], [ 113.057577976532428, 27.983931773070847 ], [ 113.057674810327967, 27.983590568230248 ], [ 113.05897032500728, 27.982727469008001 ], [ 113.05958222781959, 27.981730405725052 ], [ 113.060556426035333, 27.981264928970777 ], [ 113.061487796893829, 27.980211455337468 ], [ 113.062033893370938, 27.979206544972715 ], [ 113.062152704228623, 27.978921337652789 ], [ 113.062140748185271, 27.978647308781873 ], [ 113.062044941584574, 27.978381394534487 ], [ 113.061873274932694, 27.978078577681131 ], [ 113.061862306391191, 27.977936569263772 ], [ 113.061756504231283, 27.977851699539553 ], [ 113.061498988890705, 27.977635016965753 ], [ 113.061059809672088, 27.977426591376833 ], [ 113.060620650809142, 27.977085152131494 ], [ 113.060931121839033, 27.976517621692437 ], [ 113.061423244019238, 27.976212887266186 ], [ 113.061926318484012, 27.976392228110406 ], [ 113.062280678283926, 27.976466761820554 ], [ 113.062504296952412, 27.976277431424037 ], [ 113.062568205817541, 27.976012302622607 ], [ 113.062622127055221, 27.975813198129547 ], [ 113.062343643601494, 27.975528522725721 ], [ 113.062119068228782, 27.97523477632938 ], [ 113.062236864168057, 27.975158605056517 ], [ 113.062708025046632, 27.975214985557539 ], [ 113.063445736643146, 27.975262028099891 ], [ 113.063895979247775, 27.975100423962584 ], [ 113.064068724579968, 27.974635127949128 ], [ 113.064539960204741, 27.974302481630914 ], [ 113.065567212473908, 27.975031346464188 ], [ 113.065835768957683, 27.975165047933906 ], [ 113.065964588698662, 27.974850843428847 ], [ 113.065502376062852, 27.974320306951924 ], [ 113.065364637158396, 27.97386639801006 ], [ 113.065054167443776, 27.973591729946566 ], [ 113.064914412684317, 27.973407870781642 ], [ 113.065098118712271, 27.973307629298997 ], [ 113.065380658020814, 27.973297284570211 ], [ 113.065730067320516, 27.973605916244946 ], [ 113.065969631040943, 27.974239736562893 ], [ 113.066248146831597, 27.974741491929599 ], [ 113.066521713217682, 27.974771178488893 ], [ 113.066902133303046, 27.97460871447225 ], [ 113.067623030959666, 27.974584899601414 ], [ 113.068240108183318, 27.974565220491115 ], [ 113.06841486970724, 27.97432499248016 ], [ 113.070442044135319, 27.973632792829346 ], [ 113.072109847994355, 27.97341117834954 ], [ 113.072246676613744, 27.973363046481275 ], [ 113.068951272614356, 27.972070049912727 ], [ 113.067264838411532, 27.971407774041566 ], [ 113.066203593820077, 27.970176788440639 ], [ 113.065701422677918, 27.969855329004467 ], [ 113.065540724311688, 27.969343436384918 ], [ 113.065015660499483, 27.968378912612948 ], [ 113.064951806343743, 27.967884908663798 ], [ 113.064758154488246, 27.96754409030445 ], [ 113.063987462338858, 27.967355023730882 ], [ 113.063398469798116, 27.96735577873568 ], [ 113.062657704983053, 27.968039863393933 ], [ 113.061876098527321, 27.968022910640496 ], [ 113.060997738613707, 27.967540041736491 ], [ 113.061137516453783, 27.967114775923747 ], [ 113.061533803569233, 27.966980205212327 ], [ 113.061597727232325, 27.966498037063708 ], [ 113.061405095604201, 27.96627926575043 ], [ 113.060784252710903, 27.966090099623955 ], [ 113.060227306704519, 27.965920861786085 ], [ 113.059745193362474, 27.966234608963525 ], [ 113.059166295219072, 27.96634047402318 ], [ 113.057902824310645, 27.965744273331111 ], [ 113.056884951717734, 27.964846701935617 ], [ 113.056693388293056, 27.964304913348339 ], [ 113.057067648264621, 27.964011275926545 ], [ 113.057442947301055, 27.963298572665842 ], [ 113.057774338241927, 27.962616947755208 ], [ 113.057635665899269, 27.962010059415462 ], [ 113.057475040964519, 27.96137520109313 ], [ 113.057410215953979, 27.960836211172204 ], [ 113.057473113416776, 27.960542064457769 ], [ 113.058094901061764, 27.960172048373334 ], [ 113.05857698775263, 27.959716243398848 ], [ 113.058855456986961, 27.959553799789152 ], [ 113.058604970944259, 27.959254123862017 ], [ 113.058299577047165, 27.959187572699644 ], [ 113.057480222575606, 27.959041801769256 ], [ 113.056608062375233, 27.958242032628533 ], [ 113.056121103457158, 27.95781773731844 ], [ 113.055891601508421, 27.957575065652883 ], [ 113.055436567870501, 27.95743978119566 ], [ 113.054879753116055, 27.957401689798303 ], [ 113.05440880628656, 27.956890387631709 ], [ 113.053804131146009, 27.956750383712833 ], [ 113.053081703971657, 27.956974659048822 ], [ 113.052332390618432, 27.956842942772418 ], [ 113.050883747410225, 27.956301439814915 ], [ 113.049668626050178, 27.95596661819917 ], [ 113.048497430016454, 27.956040838974268 ], [ 113.047233528421188, 27.956058284003706 ], [ 113.046133280939884, 27.956083463303887 ], [ 113.045207624966082, 27.956246355602882 ], [ 113.044485463751059, 27.956555884521343 ], [ 113.043710424781665, 27.957333621437197 ] ] ] } }
]
}
