{
"type": "FeatureCollection",
"name": "百合村委会",
"crs": { "type": "name", "properties": { "name": "urn:ogc:def:crs:OGC:1.3:CRS84" } },
"features": [
{ "type": "Feature", "properties": { "adcode": "430302100227", "fullName": "湖南省湘潭市雨湖区鹤岭镇百合村委会", "level": "居委会/社区", "location": "112.802347,28.050031", "name": "百合村委会", "OBJECTID": 3911, "SHAPE_Leng": 0.094516951776900004, "SHAPE_Area": 0.000266861981 }, "geometry": { "type": "Polygon", "coordinates": [ [ [ 112.780089429923507, 28.052956367601077 ], [ 112.780118445047066, 28.053170432916438 ], [ 112.780219498588821, 28.053907659263082 ], [ 112.780349561514797, 28.05493796181689 ], [ 112.781400651243047, 28.056189449960033 ], [ 112.782494898142758, 28.056536901014837 ], [ 112.783643245935806, 28.05690245926203 ], [ 112.785445485559322, 28.056904897985845 ], [ 112.78809198116636, 28.056421564182447 ], [ 112.789470878280142, 28.056170542826163 ], [ 112.790902823895365, 28.056882777998471 ], [ 112.790933792552934, 28.057831954042374 ], [ 112.790933782234617, 28.057961971701118 ], [ 112.789391484218612, 28.059760913621083 ], [ 112.789280322138083, 28.059875765367941 ], [ 112.791073809550923, 28.060124476098252 ], [ 112.792491894040367, 28.059558568231505 ], [ 112.794553903520253, 28.060091870943328 ], [ 112.795543468466462, 28.0592603403108 ], [ 112.79644681662829, 28.059753867807704 ], [ 112.798466099219226, 28.058240984358783 ], [ 112.799539819975067, 28.058167770542912 ], [ 112.800401169510749, 28.058699297865022 ], [ 112.799669933448399, 28.059379153706473 ], [ 112.798852542869867, 28.060401920686573 ], [ 112.798896511195053, 28.061688166937021 ], [ 112.79812122041028, 28.062444978056938 ], [ 112.798336446893728, 28.06388552707481 ], [ 112.798981424754928, 28.064492682674523 ], [ 112.799625508180839, 28.063849678153147 ], [ 112.802936038774661, 28.062529165408606 ], [ 112.804698004011087, 28.062495242747204 ], [ 112.804655111041228, 28.060221862152034 ], [ 112.805301280658327, 28.059313880171043 ], [ 112.804268581707134, 28.058647969812103 ], [ 112.803966183360927, 28.057237247821067 ], [ 112.803269056188014, 28.056695956556251 ], [ 112.805214376038492, 28.05623430757981 ], [ 112.806185218221856, 28.053921712774819 ], [ 112.805970040849601, 28.051496994004662 ], [ 112.805411496299044, 28.046306274379258 ], [ 112.804380101699081, 28.041796811931846 ], [ 112.803865263756762, 28.041416854574713 ], [ 112.803692989274268, 28.041226525953153 ], [ 112.803686981399181, 28.041198511424522 ], [ 112.801541246770967, 28.043338102946812 ], [ 112.800658752631108, 28.043976686786213 ], [ 112.798187639919547, 28.045832799377344 ], [ 112.790102168142553, 28.050949758543844 ], [ 112.789612472494198, 28.051141057824463 ], [ 112.785926442621673, 28.052574967687757 ], [ 112.785165477243481, 28.052543913862575 ], [ 112.781881506782696, 28.052408541957799 ], [ 112.780089429923507, 28.052956367601077 ] ] ] } }
]
}
