{
"type": "FeatureCollection",
"name": "益佳村委会",
"crs": { "type": "name", "properties": { "name": "urn:ogc:def:crs:OGC:1.3:CRS84" } },
"features": [
{ "type": "Feature", "properties": { "adcode": "430302100239", "fullName": "湖南省湘潭市雨湖区鹤岭镇益佳村委会", "level": "居委会/社区", "location": "112.788947,28.002447", "name": "益佳村委会", "OBJECTID": 3919, "SHAPE_Leng": 0.096655346370099995, "SHAPE_Area": 0.0002988344025 }, "geometry": { "type": "Polygon", "coordinates": [ [ [ 112.773158891896074, 27.998349372796767 ], [ 112.773674141629101, 28.000926312891153 ], [ 112.775049350686047, 28.001535864408396 ], [ 112.773846150958946, 28.002746780324866 ], [ 112.774877009308739, 28.003809038812431 ], [ 112.774704704969679, 28.005628141120521 ], [ 112.776251010164486, 28.007752164200248 ], [ 112.777798554143999, 28.007903951860829 ], [ 112.777970587768849, 28.009724437105653 ], [ 112.780890754480211, 28.009727973749531 ], [ 112.78329628899354, 28.013217611262068 ], [ 112.782952612509803, 28.016550673764485 ], [ 112.785016057434888, 28.017615598233142 ], [ 112.788796936068834, 28.018530082503727 ], [ 112.787766283369166, 28.021863098436313 ], [ 112.792750230597008, 28.022173591631176 ], [ 112.793093938012177, 28.019597733778376 ], [ 112.793645755866521, 28.019554590018206 ], [ 112.792587340305943, 28.01778166954756 ], [ 112.793190283293356, 28.0170234897694 ], [ 112.793189539807358, 28.01376598639321 ], [ 112.791126627423637, 28.012853673668115 ], [ 112.788893517182359, 28.012850348627357 ], [ 112.788720671715524, 28.007923328133092 ], [ 112.787259931189269, 28.00519279470408 ], [ 112.789064398288062, 28.00466431840519 ], [ 112.788893266529854, 28.00337486410303 ], [ 112.789839634573966, 28.002544127303974 ], [ 112.788635107174059, 28.000950102959731 ], [ 112.789828769777159, 28.000643809591555 ], [ 112.788969706813845, 27.999127301449466 ], [ 112.787252425372088, 27.998821773800781 ], [ 112.78725249738973, 27.997912628750736 ], [ 112.785017679582694, 27.997151391365755 ], [ 112.785875899955883, 27.995484305600829 ], [ 112.785704837223662, 27.993513751822931 ], [ 112.782129483283413, 27.993265935222276 ], [ 112.77900199592024, 27.993049011199741 ], [ 112.778142956098861, 27.994717260872413 ], [ 112.774705583067202, 27.99456038105124 ], [ 112.773158891896074, 27.998349372796767 ] ] ] } }
]
}
