{
"type": "FeatureCollection",
"name": "益草村委会",
"crs": { "type": "name", "properties": { "name": "urn:ogc:def:crs:OGC:1.3:CRS84" } },
"features": [
{ "type": "Feature", "properties": { "adcode": "430302100251", "fullName": "湖南省湘潭市雨湖区鹤岭镇益草村委会", "level": "居委会/社区", "location": "112.790688,27.964769", "name": "益草村委会", "OBJECTID": 3931, "SHAPE_Leng": 0.121890602555, "SHAPE_Area": 0.0003467047045 }, "geometry": { "type": "Polygon", "coordinates": [ [ [ 112.77227297647562, 27.962462592570663 ], [ 112.772444000707367, 27.963978016696831 ], [ 112.774076375156241, 27.964663801392401 ], [ 112.774248465281758, 27.96549712182302 ], [ 112.774764951940114, 27.965345645160689 ], [ 112.775536606215312, 27.966256632756725 ], [ 112.774934912066428, 27.967848245730124 ], [ 112.773647750848809, 27.967695861620626 ], [ 112.773474537377368, 27.968453809220225 ], [ 112.773903835601615, 27.969515431172194 ], [ 112.775107978159568, 27.969061634717757 ], [ 112.775879503355398, 27.971716919858626 ], [ 112.774934521495396, 27.972777065537212 ], [ 112.775535987349073, 27.974066932016537 ], [ 112.774934413298141, 27.974142291772843 ], [ 112.774579000574349, 27.975190084886471 ], [ 112.774062475189083, 27.975871651876918 ], [ 112.77500729645071, 27.976478756746271 ], [ 112.776555997702047, 27.973829024805468 ], [ 112.777414715529673, 27.975650304013726 ], [ 112.780937655184957, 27.973759230392918 ], [ 112.783430513735041, 27.974520569784897 ], [ 112.784547948919879, 27.973687927142457 ], [ 112.788586075699328, 27.975209852040134 ], [ 112.788844306682748, 27.976726479284537 ], [ 112.79039038983845, 27.977409879644988 ], [ 112.79056242164917, 27.980065575017441 ], [ 112.793656988579144, 27.978857129771836 ], [ 112.793735981329846, 27.980432512978982 ], [ 112.795355461992017, 27.979829985667781 ], [ 112.794239209748653, 27.974368305802585 ], [ 112.79707648161353, 27.975132000826232 ], [ 112.801030919760109, 27.973546354804188 ], [ 112.800452982736189, 27.973494362418243 ], [ 112.800453168414862, 27.971142972275356 ], [ 112.799507671911883, 27.97076331167035 ], [ 112.798562066773769, 27.971973930642033 ], [ 112.79684345837758, 27.970833906570611 ], [ 112.796843566241279, 27.969468679471778 ], [ 112.795983334399125, 27.968255079157615 ], [ 112.796974036772241, 27.96607332599925 ], [ 112.795302540387951, 27.96514546336115 ], [ 112.79573228484476, 27.964009964058313 ], [ 112.794959187568224, 27.963022558304104 ], [ 112.794787041342147, 27.96158204197577 ], [ 112.793412007914341, 27.96135283254592 ], [ 112.792466563215953, 27.962109490075662 ], [ 112.792466431352707, 27.96377776972869 ], [ 112.790833071956783, 27.964002314703414 ], [ 112.790231196025275, 27.964380474721931 ], [ 112.786793678429405, 27.962706199308663 ], [ 112.785848378599681, 27.963691042055899 ], [ 112.784903200151462, 27.963463704645722 ], [ 112.785934638734275, 27.961796843979354 ], [ 112.784559903972095, 27.961793958326073 ], [ 112.784387732460999, 27.961263636633586 ], [ 112.782840938555651, 27.96020040365223 ], [ 112.781550403397546, 27.960500790165167 ], [ 112.780778638220667, 27.959058574618048 ], [ 112.777685353369606, 27.958449744548133 ], [ 112.777342194939891, 27.956021939018132 ], [ 112.775795766688887, 27.954731980047164 ], [ 112.773991042318187, 27.955261130556416 ], [ 112.77287477660451, 27.958823583297963 ], [ 112.773647350714327, 27.960113590722731 ], [ 112.773561160237179, 27.961553743653369 ], [ 112.77227297647562, 27.962462592570663 ] ] ] } }
]
}
