{
"type": "FeatureCollection",
"name": "盘龙社区居委会",
"crs": { "type": "name", "properties": { "name": "urn:ogc:def:crs:OGC:1.3:CRS84" } },
"features": [
{ "type": "Feature", "properties": { "adcode": "430304010004", "fullName": "湖南省湘潭市岳塘区宝塔街道盘龙社区居委会", "level": "居委会/社区", "location": "112.930127,27.844094", "name": "盘龙社区居委会", "OBJECTID": 4084, "SHAPE_Leng": 0.072972509147100004, "SHAPE_Area": 0.0001402583905 }, "geometry": { "type": "Polygon", "coordinates": [ [ [ 112.917029417092564, 27.847840025859576 ], [ 112.917453764846428, 27.84876577953013 ], [ 112.917704361355931, 27.849492659841331 ], [ 112.917545558931977, 27.849782858854802 ], [ 112.917539566358343, 27.849793866352314 ], [ 112.917533573627409, 27.849806874175815 ], [ 112.917473607785823, 27.850431033291681 ], [ 112.91734975331957, 27.850750202587172 ], [ 112.917987850232393, 27.850967628165595 ], [ 112.919526582321708, 27.851567180451685 ], [ 112.919510603191497, 27.851603202961254 ], [ 112.919406739234887, 27.851828347525188 ], [ 112.921177990623676, 27.852539563472142 ], [ 112.921362692515174, 27.852645374623023 ], [ 112.921261810015011, 27.853171573949645 ], [ 112.919837797064559, 27.855692533673121 ], [ 112.925895668548094, 27.857527647440381 ], [ 112.926579533633117, 27.856174511564394 ], [ 112.921314734013237, 27.85308049983864 ], [ 112.921424593048258, 27.852670309265324 ], [ 112.921565527609985, 27.850652819412243 ], [ 112.926971057373649, 27.853047465060882 ], [ 112.929215769005339, 27.853242323336765 ], [ 112.929841550359953, 27.853042367428237 ], [ 112.930207893468875, 27.852091663210416 ], [ 112.929480620928004, 27.848481154344597 ], [ 112.929478727181305, 27.84716894295466 ], [ 112.930807112501938, 27.846606857519749 ], [ 112.930699373046309, 27.846071934874445 ], [ 112.929875350638355, 27.84194050610208 ], [ 112.930797528649492, 27.841531048230411 ], [ 112.928669778204153, 27.841111137067156 ], [ 112.929240781076885, 27.839660074510952 ], [ 112.925810274989686, 27.838909720046871 ], [ 112.925231152200027, 27.840869790834066 ], [ 112.923208656231523, 27.84041623824082 ], [ 112.922357956874933, 27.841674448244571 ], [ 112.921415489316743, 27.841357474970177 ], [ 112.921362573824496, 27.841342531914265 ], [ 112.921312612782955, 27.841850670042284 ], [ 112.921414370484527, 27.842904726712792 ], [ 112.921263554940353, 27.843581005232448 ], [ 112.921250573118428, 27.843609024265756 ], [ 112.921248575471253, 27.843619028117605 ], [ 112.921018895238461, 27.844120364553046 ], [ 112.920735329862325, 27.844181686183735 ], [ 112.920734331013193, 27.844186688087564 ], [ 112.920324844916067, 27.84564336866362 ], [ 112.919358192029989, 27.846936597319498 ], [ 112.918383581495064, 27.847230629464935 ], [ 112.917113356185865, 27.847157836528488 ], [ 112.917029417092564, 27.847840025859576 ] ] ] } }
]
}
