{
"type": "FeatureCollection",
"name": "瞻岳门社区居委会",
"crs": { "type": "name", "properties": { "name": "urn:ogc:def:crs:OGC:1.3:CRS84" } },
"features": [
{ "type": "Feature", "properties": { "adcode": "430302002002", "fullName": "湖南省湘潭市雨湖区城正街街道瞻岳门社区居委会", "level": "居委会/社区", "location": "112.91883,27.861852", "name": "瞻岳门社区居委会", "OBJECTID": 3834, "SHAPE_Leng": 0.020132050422, "SHAPE_Area": 1.35053170001e-05 }, "geometry": { "type": "Polygon", "coordinates": [ [ [ 112.909502929565647, 27.864035401651005 ], [ 112.911590687818816, 27.86527728306099 ], [ 112.913288685334891, 27.866486261303599 ], [ 112.913971838194229, 27.866973813722879 ], [ 112.915777492348028, 27.868167513640341 ], [ 112.916197004689337, 27.867405016698594 ], [ 112.916454710055589, 27.866816687517915 ], [ 112.916058250204586, 27.866589003425069 ], [ 112.915383146505249, 27.866267536167058 ], [ 112.915596922766198, 27.865630246322631 ], [ 112.915039643020407, 27.865470693680429 ], [ 112.915125572697661, 27.864985540590897 ], [ 112.915157555970652, 27.864682463114818 ], [ 112.914729102970568, 27.864541796836676 ], [ 112.914204757491447, 27.864398198747587 ], [ 112.914386552936961, 27.864181016320575 ], [ 112.914483448238357, 27.86400090776328 ], [ 112.914643275752383, 27.863687725106736 ], [ 112.914656285533141, 27.863355659148805 ], [ 112.914656285922163, 27.863350658316072 ], [ 112.914495483391406, 27.863359791220216 ], [ 112.914162882340932, 27.863447073800888 ], [ 112.91402404855684, 27.863466187395655 ], [ 112.913251942745546, 27.863730829629549 ], [ 112.912576703792951, 27.863912360913051 ], [ 112.912298016949407, 27.863912561733059 ], [ 112.911707674647204, 27.863817959702203 ], [ 112.910947499978846, 27.863637439165974 ], [ 112.910262217040497, 27.86349685267384 ], [ 112.909732747753765, 27.863477172417639 ], [ 112.909725752625732, 27.863503180930813 ], [ 112.909630818565702, 27.863855296117304 ], [ 112.909502929565647, 27.864035401651005 ] ] ] } }
]
}
