{
"type": "FeatureCollection",
"name": "石安村委会",
"crs": { "type": "name", "properties": { "name": "urn:ogc:def:crs:OGC:1.3:CRS84" } },
"features": [
{ "type": "Feature", "properties": { "adcode": "430302102206", "fullName": "湖南省湘潭市雨湖区姜畲镇石安村委会", "level": "居委会/社区", "location": "112.747658,27.882162", "name": "石安村委会", "OBJECTID": 3952, "SHAPE_Leng": 0.120313169783, "SHAPE_Area": 0.0003902472445 }, "geometry": { "type": "Polygon", "coordinates": [ [ [ 112.727579432567097, 27.897434050914313 ], [ 112.727787239738788, 27.897323899547423 ], [ 112.728184870954905, 27.897171624245932 ], [ 112.72899913559813, 27.896859078204471 ], [ 112.729544657782654, 27.896650726018805 ], [ 112.729963312157125, 27.896327435182442 ], [ 112.730809625447577, 27.895796887836866 ], [ 112.730914578630816, 27.895271743361484 ], [ 112.731227441414674, 27.893710315887816 ], [ 112.732118687154724, 27.894135949634265 ], [ 112.732344503890843, 27.894209855700417 ], [ 112.733104902187875, 27.894458553245517 ], [ 112.734026289667199, 27.893689032774343 ], [ 112.734520005614911, 27.892900702777958 ], [ 112.734940760076668, 27.892373453417243 ], [ 112.735034706281724, 27.892255398589992 ], [ 112.735163677154134, 27.891535228727662 ], [ 112.734862962874359, 27.890473158542488 ], [ 112.735206783445363, 27.88982892243467 ], [ 112.735592500896956, 27.890207850447041 ], [ 112.735634407877285, 27.891041978050783 ], [ 112.735807198026407, 27.892294132400824 ], [ 112.735993048875116, 27.892690137633416 ], [ 112.736021026595068, 27.892749138429838 ], [ 112.737136318034985, 27.893165864106752 ], [ 112.738123721216908, 27.893697688119872 ], [ 112.737652089137384, 27.892331577922128 ], [ 112.738380751579072, 27.891572262267928 ], [ 112.738589652296767, 27.891438189729186 ], [ 112.7396241874917, 27.890775855112654 ], [ 112.742027178015078, 27.890547457609088 ], [ 112.742640930392994, 27.89085345329574 ], [ 112.742711902735181, 27.890889453825739 ], [ 112.743013787634723, 27.891040457857738 ], [ 112.743485508062903, 27.892634702670478 ], [ 112.743449512246386, 27.892725719953379 ], [ 112.742326670953119, 27.895555282474067 ], [ 112.743271255601172, 27.896693406693178 ], [ 112.745094683258287, 27.897336477026535 ], [ 112.745909560075532, 27.896521360934859 ], [ 112.747390355247234, 27.895706328403612 ], [ 112.748420288564773, 27.894870308902586 ], [ 112.747991392474319, 27.894187136070766 ], [ 112.746810601315374, 27.893788949392253 ], [ 112.74668266456105, 27.893276852329695 ], [ 112.746489808123712, 27.89191160606202 ], [ 112.746691788842, 27.891684581455628 ], [ 112.747304740392366, 27.891001517292203 ], [ 112.747832700651244, 27.890548496539541 ], [ 112.748699660781867, 27.889805485570495 ], [ 112.749665628682948, 27.889292560535342 ], [ 112.751253648226765, 27.888610787886371 ], [ 112.752712672089984, 27.889085267833764 ], [ 112.753693034075468, 27.885657997923968 ], [ 112.753899110777482, 27.884993955482663 ], [ 112.754165212151378, 27.884139903670189 ], [ 112.756760804956187, 27.88275771621192 ], [ 112.757298962493962, 27.882470915820601 ], [ 112.759832980509813, 27.879626745311221 ], [ 112.760862496492038, 27.878111088273691 ], [ 112.757556522774365, 27.876249985857179 ], [ 112.75433791641484, 27.875526507834284 ], [ 112.753610780615176, 27.876096350869062 ], [ 112.752448609208429, 27.87700614093265 ], [ 112.749788461563838, 27.878675781888848 ], [ 112.748457583072465, 27.878447522702711 ], [ 112.742869936920656, 27.877119105332021 ], [ 112.742828873504152, 27.878099273898503 ], [ 112.742443915674514, 27.87927650394133 ], [ 112.741713135645341, 27.879958693690106 ], [ 112.739611033926025, 27.880149052694911 ], [ 112.737038437137755, 27.879733609878624 ], [ 112.734507031371493, 27.880037521856263 ], [ 112.733174006110815, 27.879838037522184 ], [ 112.731205578922726, 27.879545919892276 ], [ 112.729289380943356, 27.877752660646326 ], [ 112.729016421977491, 27.880380264581582 ], [ 112.728806452396711, 27.882441738386635 ], [ 112.728206542663685, 27.888412117199518 ], [ 112.727816481797376, 27.893904297168053 ], [ 112.727616437663499, 27.896913938338916 ], [ 112.72758943531808, 27.897276017497553 ], [ 112.727579432567097, 27.897434050914313 ] ] ] } }
]
}
