{
"type": "FeatureCollection",
"name": "石泉村委会",
"crs": { "type": "name", "properties": { "name": "urn:ogc:def:crs:OGC:1.3:CRS84" } },
"features": [
{ "type": "Feature", "properties": { "adcode": "430302100244", "fullName": "湖南省湘潭市雨湖区鹤岭镇石泉村委会", "level": "居委会/社区", "location": "112.760339,27.913102", "name": "石泉村委会", "OBJECTID": 3924, "SHAPE_Leng": 0.090483127147300002, "SHAPE_Area": 0.0003997525665 }, "geometry": { "type": "Polygon", "coordinates": [ [ [ 112.744368001662252, 27.908365365570074 ], [ 112.745569361609199, 27.912615104043272 ], [ 112.74539699315649, 27.917772983855627 ], [ 112.746941620844623, 27.918532197228899 ], [ 112.747971372558951, 27.919745511071266 ], [ 112.747799274766166, 27.921262750777444 ], [ 112.745740602766872, 27.92171667080796 ], [ 112.746598249251434, 27.923992107086441 ], [ 112.747971000328818, 27.924447317160226 ], [ 112.747456998506479, 27.925359415662033 ], [ 112.748142810972567, 27.92657270293563 ], [ 112.748818575790523, 27.928649154259894 ], [ 112.749343554524629, 27.928391196321634 ], [ 112.750030469366962, 27.928998428883936 ], [ 112.752777590711617, 27.928088965080246 ], [ 112.754665782891735, 27.928392656726608 ], [ 112.760332310792677, 27.928396367924055 ], [ 112.761536814815216, 27.92824706908122 ], [ 112.761021693437002, 27.927031543673944 ], [ 112.764457522805927, 27.924758447974156 ], [ 112.763598162768758, 27.923544626998915 ], [ 112.763770624014299, 27.918841941404732 ], [ 112.764628144805087, 27.918083428008487 ], [ 112.763598691020377, 27.916870482672689 ], [ 112.76480142125753, 27.915809165608504 ], [ 112.764973662434997, 27.913987981208599 ], [ 112.765462090525816, 27.912137032335423 ], [ 112.764962836460484, 27.911709582323777 ], [ 112.764109424527845, 27.910978833190349 ], [ 112.762735836230249, 27.909612648580396 ], [ 112.762177664504094, 27.908474086263233 ], [ 112.76185558504676, 27.90763973644707 ], [ 112.759879924338435, 27.905856243651655 ], [ 112.758163466205374, 27.904451086063538 ], [ 112.757283199680657, 27.904715702895672 ], [ 112.757243188319848, 27.904727686146796 ], [ 112.753636495842755, 27.905029285963057 ], [ 112.752950321510042, 27.906394298388573 ], [ 112.751405363899224, 27.904877604506868 ], [ 112.750890324264546, 27.905331557516291 ], [ 112.749689466705391, 27.903967071752668 ], [ 112.747972597236853, 27.904269857922785 ], [ 112.748487381915808, 27.906241263589425 ], [ 112.746942581467948, 27.906393115853497 ], [ 112.746084814406231, 27.905482902526259 ], [ 112.745741839398491, 27.90608999141077 ], [ 112.744883079969213, 27.905635895354038 ], [ 112.744368001662252, 27.908365365570074 ] ] ] } }
]
}
