{
"type": "FeatureCollection",
"name": "石码村",
"crs": { "type": "name", "properties": { "name": "urn:ogc:def:crs:OGC:1.3:CRS84" } },
"features": [
{ "type": "Feature", "properties": { "adcode": "430373001211", "fullName": "湖南省湘潭市雨湖区和平街道石码村", "level": "居委会/社区", "location": "112.915615,27.887432", "name": "石码村", "OBJECTID": 4005, "SHAPE_Leng": 0.013176854444700001, "SHAPE_Area": 9.2006015000999994e-06 }, "geometry": { "type": "Polygon", "coordinates": [ [ [ 112.907582562544633, 27.891584092428804 ], [ 112.907630520127441, 27.891588069029641 ], [ 112.907901269314436, 27.891727954968413 ], [ 112.908031146674602, 27.891807901264237 ], [ 112.908250931367149, 27.892017821353665 ], [ 112.908520676038805, 27.892117693431743 ], [ 112.908849363944313, 27.892187524276824 ], [ 112.909369855337772, 27.892338253250397 ], [ 112.909475750382114, 27.892366196145058 ], [ 112.909519706696372, 27.892377172185952 ], [ 112.909549677438036, 27.892377154522318 ], [ 112.909869366316855, 27.892327955234251 ], [ 112.910258984094725, 27.892216697365924 ], [ 112.910488760783636, 27.892077529544714 ], [ 112.910691562725049, 27.891938376662509 ], [ 112.910738516556549, 27.891906341032264 ], [ 112.910888363623485, 27.891866237233948 ], [ 112.911158081415778, 27.891846056694988 ], [ 112.911367861264083, 27.891805909838094 ], [ 112.911597621873057, 27.891706737312386 ], [ 112.911987217763539, 27.89143642192489 ], [ 112.912087112183642, 27.891376341524076 ], [ 112.912187005395708, 27.891325262205122 ], [ 112.912296886089266, 27.89128517717506 ], [ 112.91248667630353, 27.8912450339736 ], [ 112.912685451355074, 27.89124488937745 ], [ 112.912989104382277, 27.8912376638491 ], [ 112.912986116478024, 27.891126647184123 ], [ 112.910371121912689, 27.888985077517045 ], [ 112.907997224672897, 27.891197815067731 ], [ 112.907582562544633, 27.891584092428804 ] ] ] } }
]
}
