{
"type": "FeatureCollection",
"name": "石连村",
"crs": { "type": "name", "properties": { "name": "urn:ogc:def:crs:OGC:1.3:CRS84" } },
"features": [
{ "type": "Feature", "properties": { "adcode": "430373200018", "fullName": "湖南省湘潭市雨湖区响水乡石连村", "level": "居委会/社区", "location": "112.959473,27.984449", "name": "石连村", "OBJECTID": 4011, "SHAPE_Leng": 0.109654228174, "SHAPE_Area": 0.0004984324755 }, "geometry": { "type": "Polygon", "coordinates": [ [ [ 112.941196076688001, 28.00483625727588 ], [ 112.942950554551174, 28.005628910155739 ], [ 112.945475932244435, 28.005359670955247 ], [ 112.94616108224777, 28.00539622699371 ], [ 112.947349701730147, 28.007062933995712 ], [ 112.949667463172403, 28.003848307287672 ], [ 112.951289912625967, 28.002391384424786 ], [ 112.953007961907787, 28.00119119041354 ], [ 112.955195481189548, 27.999994767795439 ], [ 112.955217416010896, 27.999974711395701 ], [ 112.955874463387929, 27.999282000585094 ], [ 112.957878420042192, 27.997166702663847 ], [ 112.960480348799663, 27.994850720758215 ], [ 112.962754095845611, 27.993244536436858 ], [ 112.965344702651748, 27.990817234691811 ], [ 112.967946066658172, 27.988779807960128 ], [ 112.969779917114749, 27.986884409242624 ], [ 112.971182146879343, 27.985649269574839 ], [ 112.970121912883613, 27.984637086779614 ], [ 112.962979407098004, 27.980032797191562 ], [ 112.957761367712237, 27.97724076411253 ], [ 112.9538674332629, 27.975507994985144 ], [ 112.951942178174988, 27.975001444654598 ], [ 112.952133640948361, 27.974695948680626 ], [ 112.950807554090886, 27.974035901081304 ], [ 112.950336935568544, 27.973696917681689 ], [ 112.949737657614165, 27.973583254114189 ], [ 112.949566154285478, 27.973470621120182 ], [ 112.949481421807391, 27.97312975489454 ], [ 112.948133187286928, 27.973454801659933 ], [ 112.94521110510199, 27.974162188925831 ], [ 112.944340233238506, 27.97647137992475 ], [ 112.943337644771304, 27.979131867034685 ], [ 112.943572582487064, 27.984856326305756 ], [ 112.943637348015457, 27.985689330053617 ], [ 112.943359000090723, 27.986600043618491 ], [ 112.943294119037205, 27.987225276543796 ], [ 112.943273019727314, 27.989176635440337 ], [ 112.943186226496323, 27.989404847836322 ], [ 112.944214546388253, 27.989365744618009 ], [ 112.944985467635178, 27.989856226567841 ], [ 112.945135045111329, 27.990158963063703 ], [ 112.945197840063685, 27.990632908190982 ], [ 112.949628606808432, 27.990793312221605 ], [ 112.948857691722807, 27.99200823090181 ], [ 112.94898630240067, 27.992349999893413 ], [ 112.948708034480177, 27.992994721737542 ], [ 112.948687079798532, 27.993165795676479 ], [ 112.94678803861099, 27.997010557581742 ], [ 112.946474843009526, 27.997643330245158 ], [ 112.945818516037846, 27.998969937890926 ], [ 112.944020947404937, 28.003390383509448 ], [ 112.941196076688001, 28.00483625727588 ] ] ] } }
]
}
