{
"type": "FeatureCollection",
"name": "石连村委会",
"crs": { "type": "name", "properties": { "name": "urn:ogc:def:crs:OGC:1.3:CRS84" } },
"features": [
{ "type": "Feature", "properties": { "adcode": "430373200230", "fullName": "湖南省湘潭市雨湖区响水乡石连村委会", "level": "居委会/社区", "location": "112.964172,27.971213", "name": "石连村委会", "OBJECTID": 4024, "SHAPE_Leng": 0.065046067526899995, "SHAPE_Area": 0.0001114319855 }, "geometry": { "type": "Polygon", "coordinates": [ [ [ 112.948133187286928, 27.973454801659933 ], [ 112.949481421807391, 27.97312975489454 ], [ 112.949566154285478, 27.973470621120182 ], [ 112.949737657614165, 27.973583254114189 ], [ 112.950336935568544, 27.973696917681689 ], [ 112.950807554090886, 27.974035901081304 ], [ 112.952133640948361, 27.974695948680626 ], [ 112.951942178174988, 27.975001444654598 ], [ 112.9538674332629, 27.975507994985144 ], [ 112.957761367712237, 27.97724076411253 ], [ 112.962979407098004, 27.980032797191562 ], [ 112.970121912883613, 27.984637086779614 ], [ 112.970453827720647, 27.983811021037955 ], [ 112.968743821664305, 27.982679609974245 ], [ 112.967888971054023, 27.979876514995869 ], [ 112.968401262029403, 27.979345013182918 ], [ 112.968316606288752, 27.97866213524529 ], [ 112.967461524104024, 27.978664492152948 ], [ 112.966776919766673, 27.977757218280981 ], [ 112.962756349328046, 27.977387951413665 ], [ 112.962243292445777, 27.974054750866195 ], [ 112.961388072902324, 27.974055984711381 ], [ 112.960447233285763, 27.972466156898285 ], [ 112.959335873012023, 27.97133181480957 ], [ 112.959934063499517, 27.970117085708342 ], [ 112.959677995039485, 27.968676501485348 ], [ 112.959163630277615, 27.968678812370275 ], [ 112.958907489655715, 27.968073361532436 ], [ 112.95728263004554, 27.967546353290334 ], [ 112.956939737194418, 27.967016116205357 ], [ 112.956597789532168, 27.967091974301272 ], [ 112.95540841805213, 27.967375935378406 ], [ 112.955024487203474, 27.968629075443467 ], [ 112.953182930889952, 27.969769670287402 ], [ 112.951729205737919, 27.969887092043212 ], [ 112.950958377323445, 27.970760013323325 ], [ 112.949589236800293, 27.971597259103767 ], [ 112.949589185947232, 27.972242366106833 ], [ 112.948647817074672, 27.972585522679054 ], [ 112.948133187286928, 27.973454801659933 ] ] ] } }
]
}
