{
"type": "FeatureCollection",
"name": "石龙村委会",
"crs": { "type": "name", "properties": { "name": "urn:ogc:def:crs:OGC:1.3:CRS84" } },
"features": [
{ "type": "Feature", "properties": { "adcode": "430302102204", "fullName": "湖南省湘潭市雨湖区姜畲镇石龙村委会", "level": "居委会/社区", "location": "112.771019,27.889631", "name": "石龙村委会", "OBJECTID": 3950, "SHAPE_Leng": 0.10805774166899999, "SHAPE_Area": 0.000478989184 }, "geometry": { "type": "Polygon", "coordinates": [ [ [ 112.752712672089984, 27.889085267833764 ], [ 112.754064784090531, 27.889388760637086 ], [ 112.754300773524918, 27.889920935258704 ], [ 112.754707822759116, 27.890054107681955 ], [ 112.755393904478169, 27.890490448340483 ], [ 112.755888956954692, 27.891039744954654 ], [ 112.756469034126766, 27.891647097890335 ], [ 112.757073020804015, 27.89364971235311 ], [ 112.757219019895516, 27.894132862788172 ], [ 112.757218962865835, 27.894853985870061 ], [ 112.756912843618736, 27.895385935084654 ], [ 112.756639740592604, 27.895858892426805 ], [ 112.755974494517702, 27.897110817153159 ], [ 112.756296486870184, 27.898079120594367 ], [ 112.757068655921643, 27.898250496238987 ], [ 112.757755774495195, 27.899064962144536 ], [ 112.75728354774327, 27.900315949796745 ], [ 112.757282413929559, 27.902004238197911 ], [ 112.757798430949578, 27.903560752433958 ], [ 112.758163466205374, 27.904451086063538 ], [ 112.759879924338435, 27.905856243651655 ], [ 112.76185558504676, 27.90763973644707 ], [ 112.762177664504094, 27.908474086263233 ], [ 112.762735836230249, 27.909612648580396 ], [ 112.764109424527845, 27.910978833190349 ], [ 112.764962836460484, 27.911709582323777 ], [ 112.765462090525816, 27.912137032335423 ], [ 112.76632066044418, 27.911473586528061 ], [ 112.766901054723121, 27.91111299060924 ], [ 112.767803680297376, 27.910716670104932 ], [ 112.768776415917117, 27.909946374429587 ], [ 112.769241780186562, 27.909579722953467 ], [ 112.770744952224149, 27.909145026472654 ], [ 112.771490022531722, 27.903122705014901 ], [ 112.772649292790078, 27.899255184551578 ], [ 112.773036802713776, 27.897017193090104 ], [ 112.773080016926215, 27.894778854605594 ], [ 112.772392593249606, 27.892691806728543 ], [ 112.77277903880811, 27.891211941305485 ], [ 112.772349787807897, 27.889770266098065 ], [ 112.772650135114603, 27.888595365930239 ], [ 112.772908515331622, 27.886585284247374 ], [ 112.773251957206909, 27.884764324099496 ], [ 112.77406890169398, 27.881994700085858 ], [ 112.774669527976656, 27.881010168624716 ], [ 112.77514304121668, 27.880098523094201 ], [ 112.775184253553675, 27.877898195463278 ], [ 112.775185374201271, 27.87638194052419 ], [ 112.775185419207304, 27.875811844342184 ], [ 112.775659111348091, 27.872739843230971 ], [ 112.772531365502658, 27.871722390683356 ], [ 112.77220098402006, 27.873029282105833 ], [ 112.767520018180846, 27.878716972832947 ], [ 112.767261671150763, 27.880954137261188 ], [ 112.766273878202355, 27.883040692772802 ], [ 112.76429868947379, 27.883607293723138 ], [ 112.761379223246124, 27.884289450227278 ], [ 112.756760804956187, 27.88275771621192 ], [ 112.754165212151378, 27.884139903670189 ], [ 112.753899110777482, 27.884993955482663 ], [ 112.753693034075468, 27.885657997923968 ], [ 112.752712672089984, 27.889085267833764 ] ] ] } }
]
}
