{
"type": "FeatureCollection",
"name": "石金村村委会",
"crs": { "type": "name", "properties": { "name": "urn:ogc:def:crs:OGC:1.3:CRS84" } },
"features": [
{ "type": "Feature", "properties": { "adcode": "430372100214", "fullName": "湖南省湘潭市岳塘区昭山镇石金村村委会", "level": "居委会/社区", "location": "113.038758,27.919605", "name": "石金村村委会", "OBJECTID": 4160, "SHAPE_Leng": 0.075645569388599995, "SHAPE_Area": 0.0001667437325 }, "geometry": { "type": "Polygon", "coordinates": [ [ [ 113.023092146703377, 27.924001813845972 ], [ 113.025920803429258, 27.924239298088775 ], [ 113.026531775739357, 27.924772783089995 ], [ 113.025863886549288, 27.925494662767843 ], [ 113.031423857677893, 27.930164201531447 ], [ 113.036454879358132, 27.928768827999814 ], [ 113.036428965830439, 27.928633865441718 ], [ 113.036712165782546, 27.928352157388094 ], [ 113.036803917842818, 27.928130906339899 ], [ 113.036402085238677, 27.928130842293825 ], [ 113.036123929690675, 27.927728424472566 ], [ 113.036225650754602, 27.927506148170391 ], [ 113.036445039989871, 27.927154575208565 ], [ 113.036723255230456, 27.926864877509228 ], [ 113.036850920483587, 27.926433507189923 ], [ 113.037322570402921, 27.926290391514375 ], [ 113.038590932347276, 27.926500529036861 ], [ 113.038767460341575, 27.926169073222724 ], [ 113.038842254311547, 27.926106893783679 ], [ 113.038974892499951, 27.925959569696776 ], [ 113.038735602694359, 27.925529035793566 ], [ 113.038895157904065, 27.925461664212808 ], [ 113.039217220894372, 27.925841004854789 ], [ 113.039420657015356, 27.925763535963974 ], [ 113.039590168402896, 27.925943188069763 ], [ 113.039784607541307, 27.926170793893359 ], [ 113.040018988492847, 27.925772205440534 ], [ 113.039805592576386, 27.925639656452415 ], [ 113.039859481408641, 27.925165455636524 ], [ 113.040382052341798, 27.924928258877269 ], [ 113.041044217034255, 27.925114839170817 ], [ 113.041301423156, 27.926233470612747 ], [ 113.041280457371244, 27.926513564021906 ], [ 113.040733902861916, 27.927129861938369 ], [ 113.040739865517565, 27.9273858926183 ], [ 113.041086879115838, 27.927817207983971 ], [ 113.041434934690798, 27.927759441710418 ], [ 113.043349857887478, 27.927048234813849 ], [ 113.043878480558334, 27.926878100980719 ], [ 113.043482579713356, 27.926166805863225 ], [ 113.043161453492516, 27.925864428673965 ], [ 113.042379492527246, 27.926425182341884 ], [ 113.041984586593159, 27.92603796163986 ], [ 113.041994615397442, 27.925355823507275 ], [ 113.043043835375073, 27.925011530853524 ], [ 113.043547505681616, 27.924981467332529 ], [ 113.042647947161043, 27.924310249225375 ], [ 113.041202941312349, 27.923185163553359 ], [ 113.040026283789487, 27.921916530057821 ], [ 113.038411956058837, 27.920186855295189 ], [ 113.037502626904711, 27.919268776215361 ], [ 113.037438831836099, 27.91900387770362 ], [ 113.039140115096927, 27.917557761372514 ], [ 113.038679485413127, 27.916676648680632 ], [ 113.038476131590016, 27.915814961786921 ], [ 113.037674423311103, 27.915731776475731 ], [ 113.036989364469093, 27.916103419570042 ], [ 113.036165686472515, 27.91697748832587 ], [ 113.034474636031803, 27.917483582602905 ], [ 113.033501593014208, 27.917002846618196 ], [ 113.034677173122674, 27.915766804203887 ], [ 113.03450674708121, 27.914952072609939 ], [ 113.033255431522761, 27.915837245344193 ], [ 113.032303346843904, 27.915582532226022 ], [ 113.032160800624339, 27.91536484621847 ], [ 113.029369302493379, 27.917469202451873 ], [ 113.027167262287563, 27.91816199216365 ], [ 113.026865108249709, 27.919736049599784 ], [ 113.023109225934888, 27.922328481568268 ], [ 113.023103199307016, 27.922902596029626 ], [ 113.023092146703377, 27.924001813845972 ] ] ] } }
]
}
