{
"type": "FeatureCollection",
"name": "砂子岭社区居委会",
"crs": { "type": "name", "properties": { "name": "urn:ogc:def:crs:OGC:1.3:CRS84" } },
"features": [
{ "type": "Feature", "properties": { "adcode": "430302005008", "fullName": "湖南省湘潭市雨湖区窑湾街道砂子岭社区居委会", "level": "居委会/社区", "location": "112.882369,27.856422", "name": "砂子岭社区居委会", "OBJECTID": 3860, "SHAPE_Leng": 0.0087479981013499995, "SHAPE_Area": 3.2518270000299998e-06 }, "geometry": { "type": "Polygon", "coordinates": [ [ [ 112.875936144241237, 27.860247846921698 ], [ 112.875981169125367, 27.860290891545546 ], [ 112.876496448451803, 27.860776395758396 ], [ 112.876422379900092, 27.861081386157569 ], [ 112.876552446297524, 27.861239518164552 ], [ 112.8766544978958, 27.861363621308396 ], [ 112.877329897174562, 27.861298146746968 ], [ 112.877410943724186, 27.861291208807522 ], [ 112.877078766751126, 27.861118919521545 ], [ 112.877031759931413, 27.860854838418401 ], [ 112.877029759931588, 27.860839834340037 ], [ 112.877502064343673, 27.860399131362641 ], [ 112.878076424730381, 27.859825475084815 ], [ 112.878182489435886, 27.859723537869513 ], [ 112.87805342756414, 27.859629425215271 ], [ 112.877908367446452, 27.859391275889394 ], [ 112.877402119317154, 27.858963815545952 ], [ 112.876909867797877, 27.858546358460067 ], [ 112.876105328618721, 27.859232818910353 ], [ 112.876065301334862, 27.859263790917129 ], [ 112.87627641837291, 27.859436993720742 ], [ 112.876497539756301, 27.859608202683887 ], [ 112.876497538979777, 27.859618204342755 ], [ 112.876487531455126, 27.859637199361917 ], [ 112.87637645548655, 27.85974712708839 ], [ 112.876286392672483, 27.859847069948696 ], [ 112.876227352518683, 27.859897029747515 ], [ 112.876237358676534, 27.859897037976609 ], [ 112.875936144241237, 27.860247846921698 ] ] ] } }
]
}
