{
"type": "FeatureCollection",
"name": "砂子村村委会",
"crs": { "type": "name", "properties": { "name": "urn:ogc:def:crs:OGC:1.3:CRS84" } },
"features": [
{ "type": "Feature", "properties": { "adcode": "430302202201", "fullName": "湖南省湘潭市雨湖区长城乡砂子村村委会", "level": "居委会/社区", "location": "112.875099,27.858796", "name": "砂子村村委会", "OBJECTID": 3981, "SHAPE_Leng": 0.0435062314007, "SHAPE_Area": 3.7971814e-05 }, "geometry": { "type": "Polygon", "coordinates": [ [ [ 112.861443459667129, 27.866969296971128 ], [ 112.862926168168059, 27.866782175855334 ], [ 112.863929301091673, 27.86641537009449 ], [ 112.864215618170888, 27.86631070541938 ], [ 112.86496944145118, 27.866009572063742 ], [ 112.865160647242661, 27.865931788880008 ], [ 112.865045551009587, 27.865624599349854 ], [ 112.865032540047068, 27.865590578017574 ], [ 112.869731191777902, 27.863856589987346 ], [ 112.873816558197177, 27.862348348377019 ], [ 112.874446017927497, 27.862116875544238 ], [ 112.875863999660609, 27.861525999106309 ], [ 112.876510419561498, 27.861257487059255 ], [ 112.876552446297524, 27.861239518164552 ], [ 112.876422379900092, 27.861081386157569 ], [ 112.876496448451803, 27.860776395758396 ], [ 112.875981169125367, 27.860290891545546 ], [ 112.87593714013228, 27.860308857882558 ], [ 112.875147606903028, 27.860627241561488 ], [ 112.873408481612202, 27.859534506448423 ], [ 112.873440530782744, 27.859202480979981 ], [ 112.873665728683164, 27.858756614087586 ], [ 112.872817183772483, 27.857712651634259 ], [ 112.871829344081689, 27.858678860696962 ], [ 112.870649425543107, 27.858099584470931 ], [ 112.870649345996767, 27.859123754150364 ], [ 112.870005653385263, 27.860983399005796 ], [ 112.868587440080049, 27.860336779745612 ], [ 112.868329104716537, 27.861587705101822 ], [ 112.867943647435652, 27.862839487786459 ], [ 112.867986623022119, 27.863674674656899 ], [ 112.866267951168979, 27.863710726669478 ], [ 112.866095845890541, 27.862838380437374 ], [ 112.865020750446831, 27.862722085352594 ], [ 112.864464133175488, 27.86310247417526 ], [ 112.864247816538921, 27.864201392683114 ], [ 112.863948461427938, 27.864618093551876 ], [ 112.863346800597853, 27.8646553506447 ], [ 112.862701063212626, 27.864882572552411 ], [ 112.86261589648646, 27.865793616171214 ], [ 112.862477725919902, 27.865978470511234 ], [ 112.861799879417859, 27.866892749173793 ], [ 112.861443459667129, 27.866969296971128 ] ] ] } }
]
}
