{
"type": "FeatureCollection",
"name": "福星社区居委会",
"crs": { "type": "name", "properties": { "name": "urn:ogc:def:crs:OGC:1.3:CRS84" } },
"features": [
{ "type": "Feature", "properties": { "adcode": "430304010011", "fullName": "湖南省湘潭市岳塘区宝塔街道福星社区居委会", "level": "居委会/社区", "location": "112.916203,27.834598", "name": "福星社区居委会", "OBJECTID": 4091, "SHAPE_Leng": 0.077897334909399998, "SHAPE_Area": 3.6153335500299997e-05 }, "geometry": { "type": "MultiPolygon", "coordinates": [ [ [ [ 112.921332976424026, 27.836773828987845 ], [ 112.921338963970811, 27.83681282854559 ], [ 112.921583439417901, 27.838591839514621 ], [ 112.922314259000672, 27.838708020311831 ], [ 112.922322245975366, 27.838709011183806 ], [ 112.922627893533004, 27.836843353697432 ], [ 112.922634885287195, 27.836802338886738 ], [ 112.923287820114751, 27.836621532125754 ], [ 112.923490452837598, 27.836981344707695 ], [ 112.924083449861669, 27.836963614024896 ], [ 112.923852861629044, 27.83671785942559 ], [ 112.923632274659496, 27.836206047633908 ], [ 112.923621329681851, 27.835736985801958 ], [ 112.923133164345231, 27.835509539759553 ], [ 112.923130169476408, 27.835507543029482 ], [ 112.922199720438812, 27.835165584430857 ], [ 112.922191729990885, 27.835208600565625 ], [ 112.922034921860018, 27.835987906335156 ], [ 112.92181622004685, 27.836656264060043 ], [ 112.92181122801388, 27.83665626975467 ], [ 112.921332976424026, 27.836773828987845 ] ] ], [ [ [ 112.923208656231523, 27.84041623824082 ], [ 112.923048926177401, 27.840357420185384 ], [ 112.922482864550858, 27.840253072745092 ], [ 112.9224788711347, 27.840252077256761 ], [ 112.921994662773486, 27.840141620747247 ], [ 112.921982679041577, 27.840179640644408 ], [ 112.921868831755859, 27.840559832440324 ], [ 112.921030172089957, 27.840342740427356 ], [ 112.921046143629894, 27.840388730183935 ], [ 112.921366570886249, 27.841299520480199 ], [ 112.921362573824496, 27.841342531914265 ], [ 112.921415489316743, 27.841357474970177 ], [ 112.922357956874933, 27.841674448244571 ], [ 112.923208656231523, 27.84041623824082 ] ] ], [ [ [ 112.917113356185865, 27.847157836528488 ], [ 112.918383581495064, 27.847230629464935 ], [ 112.919358192029989, 27.846936597319498 ], [ 112.920324844916067, 27.84564336866362 ], [ 112.920734331013193, 27.844186688087564 ], [ 112.920735329862325, 27.844181686183735 ], [ 112.921018895238461, 27.844120364553046 ], [ 112.921248575471253, 27.843619028117605 ], [ 112.921250573118428, 27.843609024265756 ], [ 112.921031878143808, 27.844080343699503 ], [ 112.920722352291108, 27.844150695329603 ], [ 112.920506722161491, 27.843655849492954 ], [ 112.920436940559938, 27.842222692629583 ], [ 112.920700654008584, 27.840708161444407 ], [ 112.920704649878445, 27.840682152882103 ], [ 112.920924328429862, 27.840447874205612 ], [ 112.92094030495663, 27.840430853858297 ], [ 112.921046178648979, 27.83993865750389 ], [ 112.919568453124327, 27.839594188709679 ], [ 112.919562458979826, 27.839633201239682 ], [ 112.919499520238645, 27.840044332973783 ], [ 112.919949838172329, 27.840175882323827 ], [ 112.919847962209161, 27.840546049633254 ], [ 112.919793020202547, 27.840857157697119 ], [ 112.919862878301657, 27.841336161598303 ], [ 112.919959701550439, 27.841739124512824 ], [ 112.920007610598958, 27.841981112917932 ], [ 112.919986640454553, 27.84200313871186 ], [ 112.919750975104577, 27.842242425915668 ], [ 112.919745980769036, 27.842265434880293 ], [ 112.919596149267349, 27.842966705148559 ], [ 112.919587162147351, 27.842972715487168 ], [ 112.919183735089447, 27.84325617809953 ], [ 112.919001988627528, 27.843408388119716 ], [ 112.919000988680608, 27.843426392055871 ], [ 112.918938000325156, 27.844452622542679 ], [ 112.918829110419523, 27.845065832236429 ], [ 112.918819125021329, 27.845063841975467 ], [ 112.917747657355036, 27.844918872259445 ], [ 112.917856538463596, 27.844494698570838 ], [ 112.917893499998655, 27.844324635263451 ], [ 112.917947459908959, 27.843868508998163 ], [ 112.918096269795711, 27.843622324419727 ], [ 112.918098267290574, 27.843618321822206 ], [ 112.918133222407207, 27.843561278447797 ], [ 112.918151199353716, 27.84353125600871 ], [ 112.918013426320627, 27.84311032200311 ], [ 112.917856687420112, 27.842579387667254 ], [ 112.917830735522713, 27.842427388058141 ], [ 112.918013528916305, 27.84179110821233 ], [ 112.917954664082302, 27.841117056301947 ], [ 112.917749945163976, 27.841182264245251 ], [ 112.917731968087637, 27.841209285858831 ], [ 112.917484281569401, 27.841590583648227 ], [ 112.917476291575156, 27.841603593324063 ], [ 112.917413370753962, 27.841699668390959 ], [ 112.917413370520634, 27.841702668876707 ], [ 112.917525141760692, 27.842661718307308 ], [ 112.917503169917055, 27.842689743702319 ], [ 112.91725748225241, 27.843014027975197 ], [ 112.916582392720642, 27.843032653734667 ], [ 112.915896304564797, 27.84292124758008 ], [ 112.915078373294619, 27.842623901204931 ], [ 112.915935373440064, 27.841383964389514 ], [ 112.915955349777676, 27.841353941981982 ], [ 112.915511972262394, 27.840709223119237 ], [ 112.915720748328567, 27.840139950840005 ], [ 112.915061600961351, 27.8399694860409 ], [ 112.914760974503366, 27.839994740260749 ], [ 112.914370460241201, 27.839933049158692 ], [ 112.914365463620541, 27.839968058843382 ], [ 112.914285512232311, 27.840596224678322 ], [ 112.914579141876146, 27.840734008956037 ], [ 112.914985631601212, 27.840800683859193 ], [ 112.914883716597274, 27.84134585689733 ], [ 112.914840751630635, 27.841583931061656 ], [ 112.915174317484627, 27.841787685028539 ], [ 112.915083412883021, 27.842033801397132 ], [ 112.915070429287141, 27.842032812137369 ], [ 112.914294393630882, 27.841981441540348 ], [ 112.914139591105325, 27.841858545609053 ], [ 112.913951816617285, 27.84186869616514 ], [ 112.913944822132478, 27.841905707671994 ], [ 112.913897859831494, 27.842144783356744 ], [ 112.913875886135244, 27.842144800628102 ], [ 112.913270600115112, 27.842157269753795 ], [ 112.913267601353994, 27.842186276723989 ], [ 112.913125644295022, 27.843754638139735 ], [ 112.913407284823606, 27.844155489781414 ], [ 112.91346421160101, 27.844237459517579 ], [ 112.914497951278221, 27.844466679965546 ], [ 112.913481776733477, 27.849560314014642 ], [ 112.913487769448082, 27.849563309904156 ], [ 112.914042138399992, 27.849187815831399 ], [ 112.914066110742937, 27.849171794189495 ], [ 112.914236961983264, 27.848425535861125 ], [ 112.914348878474527, 27.847747335078026 ], [ 112.91444579823596, 27.847255176353769 ], [ 112.914747485291485, 27.846495805775962 ], [ 112.914891346199013, 27.845982603059202 ], [ 112.914897340584858, 27.845958594166039 ], [ 112.915079126428026, 27.845783413748158 ], [ 112.916274572784758, 27.845962406941073 ], [ 112.916385426427723, 27.845961307440835 ], [ 112.916397410559725, 27.845961296668609 ], [ 112.916658129278488, 27.845116923345493 ], [ 112.916669117692919, 27.845076906827579 ], [ 112.917345189343862, 27.845232305804021 ], [ 112.917113356185865, 27.847157836528488 ] ] ], [ [ [ 112.910273200605488, 27.837851643864475 ], [ 112.910583878347552, 27.837916458723292 ], [ 112.910443988504454, 27.838344616221132 ], [ 112.910765651362127, 27.838419423215097 ], [ 112.910782613837171, 27.838675453499615 ], [ 112.91138996520742, 27.838780069951415 ], [ 112.91141493815968, 27.838784053772351 ], [ 112.91145191329197, 27.83859399820523 ], [ 112.910808607884761, 27.838404393057672 ], [ 112.911123333455762, 27.837690072357255 ], [ 112.911141317559853, 27.83765005402898 ], [ 112.910412089653462, 27.83746249440243 ], [ 112.910398100886908, 27.83750150946495 ], [ 112.910273200605488, 27.837851643864475 ] ] ] ] } }
]
}
