{
"type": "FeatureCollection",
"name": "禾花塘社区居委会",
"crs": { "type": "name", "properties": { "name": "urn:ogc:def:crs:OGC:1.3:CRS84" } },
"features": [
{ "type": "Feature", "properties": { "adcode": "430304005214", "fullName": "湖南省湘潭市岳塘区下摄司街道禾花塘社区居委会", "level": "居委会/社区", "location": "112.935498,27.807081", "name": "禾花塘社区居委会", "OBJECTID": 4066, "SHAPE_Leng": 0.065097566471799997, "SHAPE_Area": 0.0001021510775 }, "geometry": { "type": "Polygon", "coordinates": [ [ [ 112.927292143849343, 27.818671520781898 ], [ 112.92730112717841, 27.818670508230838 ], [ 112.927555157607856, 27.812186156866495 ], [ 112.927558155879979, 27.812136145042547 ], [ 112.936100377945593, 27.812391768700856 ], [ 112.938464865828252, 27.812461539523461 ], [ 112.938709350999204, 27.811583954319076 ], [ 112.938045077384729, 27.809702887318171 ], [ 112.938080079546282, 27.808617658548194 ], [ 112.938139083844959, 27.80677827222318 ], [ 112.938139084625391, 27.80676827071018 ], [ 112.938141084117532, 27.806714258894772 ], [ 112.93809619040276, 27.806713340740913 ], [ 112.936075880272355, 27.806678942506512 ], [ 112.935523141335921, 27.806543880554329 ], [ 112.934489462526102, 27.806290601604925 ], [ 112.932958809878883, 27.805915070072267 ], [ 112.930662585135082, 27.805893673349306 ], [ 112.929464948138175, 27.806256521509276 ], [ 112.929459953676712, 27.806311537167954 ], [ 112.929379040900145, 27.807232795385332 ], [ 112.929372047613072, 27.807322819278237 ], [ 112.929361059514193, 27.807446854184768 ], [ 112.927467694396839, 27.807404550449078 ], [ 112.922679111424742, 27.807297679132585 ], [ 112.922711055482992, 27.807343648418982 ], [ 112.922912701915379, 27.807624452099773 ], [ 112.922371538307388, 27.808257184966592 ], [ 112.921987158917446, 27.808252628846553 ], [ 112.92174347901863, 27.80914304253254 ], [ 112.92222770047529, 27.809166490189423 ], [ 112.922119735346811, 27.810955887634933 ], [ 112.923186985661772, 27.810986635650544 ], [ 112.923487476169385, 27.81108128723849 ], [ 112.923482462770735, 27.811361336098813 ], [ 112.926790638219174, 27.811419090249196 ], [ 112.9273675366465, 27.811830362608568 ], [ 112.926686797662953, 27.811821292498315 ], [ 112.926665819457654, 27.812035353624566 ], [ 112.926339415429965, 27.812035792845005 ], [ 112.926333390129912, 27.812500872104483 ], [ 112.925102553094007, 27.812982560116282 ], [ 112.925124487638797, 27.813327584848452 ], [ 112.925432911767615, 27.813726247440059 ], [ 112.926123674518308, 27.813729340190175 ], [ 112.926128643005612, 27.814018377990127 ], [ 112.925718381339863, 27.814008918241129 ], [ 112.925637512737097, 27.814176049846751 ], [ 112.925166334183885, 27.814351688329587 ], [ 112.924828898988366, 27.814693172843079 ], [ 112.924498468093859, 27.814752600191966 ], [ 112.924456478268368, 27.815552776268348 ], [ 112.924112069833939, 27.815553206523376 ], [ 112.923975050915246, 27.818795877942023 ], [ 112.925092121666765, 27.818753463898915 ], [ 112.927292143849343, 27.818671520781898 ] ] ] } }
]
}
