{
"type": "FeatureCollection",
"name": "稠泉村委会",
"crs": { "type": "name", "properties": { "name": "urn:ogc:def:crs:OGC:1.3:CRS84" } },
"features": [
{ "type": "Feature", "properties": { "adcode": "430302100224", "fullName": "湖南省湘潭市雨湖区鹤岭镇稠泉村委会", "level": "居委会/社区", "location": "112.800784,27.938367", "name": "稠泉村委会", "OBJECTID": 3909, "SHAPE_Leng": 0.11086447356, "SHAPE_Area": 0.0004321529365 }, "geometry": { "type": "Polygon", "coordinates": [ [ [ 112.77811060211495, 27.948219510020412 ], [ 112.782061918746479, 27.948830472336933 ], [ 112.781375004607369, 27.95034685295013 ], [ 112.783093018242468, 27.950349070261431 ], [ 112.784639871555541, 27.950806212530264 ], [ 112.784984457734836, 27.948835346891254 ], [ 112.786874879896828, 27.948837972882924 ], [ 112.788936598850228, 27.949296016203164 ], [ 112.789796721942409, 27.950055412563149 ], [ 112.790484681923971, 27.950056439052414 ], [ 112.791343742081295, 27.952028069983196 ], [ 112.792718701810841, 27.952334231774646 ], [ 112.794266083964132, 27.95112345002725 ], [ 112.795298640176568, 27.95112609517858 ], [ 112.797533207273446, 27.949612469829557 ], [ 112.797533315033917, 27.948247238307157 ], [ 112.799081632636756, 27.949918092580667 ], [ 112.799251821017918, 27.950980557878399 ], [ 112.800971672675146, 27.950072313353775 ], [ 112.802862801890726, 27.949925542754002 ], [ 112.803378626816084, 27.9503805169707 ], [ 112.804754979505944, 27.949928852589899 ], [ 112.807090232034398, 27.946650446322959 ], [ 112.806918030387195, 27.945436931620112 ], [ 112.809326576464059, 27.940890500823862 ], [ 112.807779044225327, 27.938765340007524 ], [ 112.807091866998334, 27.938612079833664 ], [ 112.807779127874767, 27.937703158799128 ], [ 112.808123810065297, 27.936641598460852 ], [ 112.806918747270714, 27.93633638113538 ], [ 112.805716625053606, 27.937092367708107 ], [ 112.805199959386073, 27.934361985770774 ], [ 112.80605953338754, 27.932998277097223 ], [ 112.805716208767862, 27.929660095557423 ], [ 112.803396307595122, 27.929396969142502 ], [ 112.800374355872222, 27.92905371210994 ], [ 112.79951405182409, 27.927990076897558 ], [ 112.797279430574648, 27.929047544430915 ], [ 112.796763460655654, 27.93117206376396 ], [ 112.797966328204936, 27.93132506639316 ], [ 112.797279143248801, 27.932690167613064 ], [ 112.795387072663402, 27.934657432379261 ], [ 112.794184271892505, 27.934504490293495 ], [ 112.791261804563064, 27.937079402103766 ], [ 112.788854427296343, 27.937378866835719 ], [ 112.787479604565817, 27.937073828333958 ], [ 112.783697701593695, 27.938280816064726 ], [ 112.781120775810138, 27.936913245024417 ], [ 112.779745133025102, 27.938276772337989 ], [ 112.780949269624799, 27.940856702493306 ], [ 112.781635934542109, 27.942374829338249 ], [ 112.782322734197891, 27.942374710753853 ], [ 112.781291371124823, 27.944497753568015 ], [ 112.779916829872974, 27.944496042382337 ], [ 112.778885605326224, 27.945859026323969 ], [ 112.77811060211495, 27.948219510020412 ] ] ] } }
]
}
