{
"type": "FeatureCollection",
"name": "窑洲社区居委会",
"crs": { "type": "name", "properties": { "name": "urn:ogc:def:crs:OGC:1.3:CRS84" } },
"features": [
{ "type": "Feature", "properties": { "adcode": "430372100004", "fullName": "湖南省湘潭市岳塘区昭山镇窑洲社区居委会", "level": "居委会/社区", "location": "113.015172,27.944417", "name": "窑洲社区居委会", "OBJECTID": 4146, "SHAPE_Leng": 0.062163782214599998, "SHAPE_Area": 9.32045545e-05 }, "geometry": { "type": "Polygon", "coordinates": [ [ [ 113.002722568912688, 27.946340456556999 ], [ 113.002941739207742, 27.946587837398265 ], [ 113.003061283934173, 27.946758505880258 ], [ 113.003300373914513, 27.947097842810859 ], [ 113.003808439581803, 27.947846439851197 ], [ 113.00466516997426, 27.949273106466539 ], [ 113.005143310953784, 27.950531885011674 ], [ 113.005302603841301, 27.952042662784297 ], [ 113.005478834510697, 27.953557390448651 ], [ 113.008219876382611, 27.952882106822479 ], [ 113.009674615609825, 27.952717777599549 ], [ 113.010353168541585, 27.952687775249579 ], [ 113.010619200291018, 27.952809014314159 ], [ 113.010936045731896, 27.952988115140911 ], [ 113.011326626469014, 27.95318700493085 ], [ 113.011945383985861, 27.95349224890413 ], [ 113.0124655213625, 27.953533740818482 ], [ 113.012519284252036, 27.954090678319705 ], [ 113.014358824870058, 27.953157197655393 ], [ 113.014526378102033, 27.951367413461117 ], [ 113.014742799424866, 27.949085405697101 ], [ 113.014229798576409, 27.946785492244651 ], [ 113.014790969175834, 27.944902558878688 ], [ 113.014348500031261, 27.945291897230806 ], [ 113.01368676239818, 27.946293975953449 ], [ 113.013531276169218, 27.946763505050466 ], [ 113.013312040818008, 27.946939169319062 ], [ 113.013236225781142, 27.947981565423252 ], [ 113.013553024735018, 27.948909805478312 ], [ 113.013469170441724, 27.950783364779429 ], [ 113.012059184733246, 27.95092948458386 ], [ 113.011991698365918, 27.947574113881647 ], [ 113.012050590728265, 27.946303726996756 ], [ 113.012106493514594, 27.945037349384343 ], [ 113.012235117213336, 27.944007800010823 ], [ 113.012652744870749, 27.942545336752534 ], [ 113.012743452536583, 27.942162008101512 ], [ 113.013165942673893, 27.94222779341829 ], [ 113.013401122931683, 27.942026077981673 ], [ 113.014074809043692, 27.941094973392683 ], [ 113.013307548062414, 27.940885155039226 ], [ 113.012692786182271, 27.940275834754765 ], [ 113.011980323122344, 27.940372925163832 ], [ 113.011468157791796, 27.940373420721777 ], [ 113.01091718145878, 27.939816939069171 ], [ 113.010613270595215, 27.939869839560487 ], [ 113.010564437658331, 27.939978001318138 ], [ 113.01013099215497, 27.940074291610561 ], [ 113.010051288969024, 27.939960506785301 ], [ 113.009629802805094, 27.940066766434526 ], [ 113.009430556347965, 27.939660285027163 ], [ 113.009144584835909, 27.939744143693002 ], [ 113.008839658042646, 27.940139112346444 ], [ 113.008849543539185, 27.941110248189116 ], [ 113.009088639807601, 27.941567618976112 ], [ 113.009184259262128, 27.941989408113852 ], [ 113.009318715167879, 27.942696131067667 ], [ 113.008559420344923, 27.943282475884278 ], [ 113.008713840057908, 27.943527060207309 ], [ 113.008298335446099, 27.943693319259879 ], [ 113.008408912956554, 27.943949034895621 ], [ 113.008142869791882, 27.944073844885175 ], [ 113.007897730604583, 27.944456637384882 ], [ 113.007780150191238, 27.944561004302461 ], [ 113.002722568912688, 27.946340456556999 ] ] ] } }
]
}
