{
"type": "FeatureCollection",
"name": "窑湾社区居委会",
"crs": { "type": "name", "properties": { "name": "urn:ogc:def:crs:OGC:1.3:CRS84" } },
"features": [
{ "type": "Feature", "properties": { "adcode": "430302005006", "fullName": "湖南省湘潭市雨湖区窑湾街道窑湾社区居委会", "level": "居委会/社区", "location": "112.884349,27.828648", "name": "窑湾社区居委会", "OBJECTID": 3858, "SHAPE_Leng": 0.126740618587, "SHAPE_Area": 0.0003486392305 }, "geometry": { "type": "Polygon", "coordinates": [ [ [ 112.871285578938384, 27.837121799957341 ], [ 112.87129758763291, 27.837135814202895 ], [ 112.87250843013291, 27.838616236076323 ], [ 112.873368993704176, 27.839668215756053 ], [ 112.873345973498402, 27.83971120137155 ], [ 112.872617323149171, 27.841069736294717 ], [ 112.872620325049823, 27.841074739963624 ], [ 112.873261722338128, 27.842151517987286 ], [ 112.87373300909637, 27.842874069423438 ], [ 112.874464502798233, 27.843139770843102 ], [ 112.876417556750638, 27.845872878043274 ], [ 112.876374528781426, 27.845895846664099 ], [ 112.873792714470724, 27.847224832169591 ], [ 112.873815729140716, 27.847247856883893 ], [ 112.875327641085519, 27.84882044881132 ], [ 112.87644526686411, 27.849827546992742 ], [ 112.877206667178328, 27.850464260748428 ], [ 112.877625869101877, 27.850918661569843 ], [ 112.878290200863745, 27.851290226089105 ], [ 112.879311708870901, 27.851413988016546 ], [ 112.880277133664663, 27.85170970075395 ], [ 112.880362168978834, 27.851737762140665 ], [ 112.880390181879321, 27.851729779471452 ], [ 112.880440203721619, 27.851729812690273 ], [ 112.880590271773002, 27.851688905028748 ], [ 112.880660302483378, 27.851678949320803 ], [ 112.880739337560072, 27.851658997647061 ], [ 112.880959433352814, 27.851609131879702 ], [ 112.881219543882281, 27.85154928793148 ], [ 112.881510667294293, 27.851440452577503 ], [ 112.881679737764088, 27.851370545571417 ], [ 112.881760770038483, 27.851350591969176 ], [ 112.882030873520634, 27.851309748974852 ], [ 112.882150917056251, 27.851309820822991 ], [ 112.882240950062538, 27.851299872693605 ], [ 112.882440020818777, 27.8512899882348 ], [ 112.882451024635358, 27.851289994666462 ], [ 112.882610069884763, 27.851410106799214 ], [ 112.88265708439944, 27.851428136884749 ], [ 112.882721104122155, 27.851451177463112 ], [ 112.883211257337265, 27.851520465149868 ], [ 112.883481336986861, 27.851560619898944 ], [ 112.883551357128013, 27.851570659481794 ], [ 112.883631382314277, 27.851550699317123 ], [ 112.883671395574851, 27.85153071749626 ], [ 112.883691402953971, 27.85151072491956 ], [ 112.883731419986134, 27.851440734791996 ], [ 112.883821443492522, 27.851470787559759 ], [ 112.884085510558009, 27.851555939974244 ], [ 112.884101514454983, 27.85156194926067 ], [ 112.884341576945403, 27.851582075822197 ], [ 112.88498173651287, 27.851561389723301 ], [ 112.885681889243884, 27.85154271464793 ], [ 112.885761905094881, 27.851542750865779 ], [ 112.885801911357731, 27.851562772161103 ], [ 112.885811909497363, 27.851611784701078 ], [ 112.885813906393224, 27.85165679299012 ], [ 112.8869881075602, 27.85158728027908 ], [ 112.887139151368743, 27.851287291050554 ], [ 112.887277201636493, 27.85086927648597 ], [ 112.887385249579992, 27.850423245070836 ], [ 112.887223235892549, 27.850339168504835 ], [ 112.887289265689375, 27.850063148973998 ], [ 112.887353294960306, 27.849788128672436 ], [ 112.887557346123685, 27.849438149139008 ], [ 112.887611559165606, 27.846769733347184 ], [ 112.887639579694792, 27.846544707125432 ], [ 112.886761499527438, 27.846111292431122 ], [ 112.884472212732561, 27.843819873805227 ], [ 112.882291921371362, 27.839007902068253 ], [ 112.882011870112237, 27.838368632099801 ], [ 112.881491794689254, 27.836807062646464 ], [ 112.881281760797606, 27.836176829906901 ], [ 112.881265758212962, 27.836127811947275 ], [ 112.879741458370006, 27.831485062704175 ], [ 112.879341475455163, 27.828814359307888 ], [ 112.878801487164566, 27.82521340397798 ], [ 112.879671228448629, 27.821123379725346 ], [ 112.879782320584567, 27.820603375290279 ], [ 112.881503511160247, 27.814714589961998 ], [ 112.885205183255962, 27.807745553595044 ], [ 112.885665320030725, 27.807235690007211 ], [ 112.885714335240621, 27.807165701660395 ], [ 112.887035672750855, 27.80567503911573 ], [ 112.887794834008886, 27.804766192909405 ], [ 112.889566105808385, 27.802635458038203 ], [ 112.888586044106091, 27.802905190879869 ], [ 112.886325730708265, 27.803515420473094 ], [ 112.884755386241153, 27.80377473686632 ], [ 112.88301990385655, 27.803683808565925 ], [ 112.880734777063964, 27.807252960156688 ], [ 112.880348504582656, 27.808620913123658 ], [ 112.878631447582421, 27.811695180534205 ], [ 112.877042332987045, 27.814845452606082 ], [ 112.875365867258793, 27.820423937208105 ], [ 112.873692408353065, 27.824447087054807 ], [ 112.87368540253712, 27.824457082218267 ], [ 112.872059980866524, 27.827024953305415 ], [ 112.87205897868516, 27.827042955175507 ], [ 112.871929610440347, 27.830480373967458 ], [ 112.871990509513338, 27.832401739387059 ], [ 112.872101315803292, 27.83602242658149 ], [ 112.872075291774976, 27.83606940885387 ], [ 112.871758998557979, 27.836628189593171 ], [ 112.871285578938384, 27.837121799957341 ] ] ] } }
]
}
