{
"type": "FeatureCollection",
"name": "立洪村村委会",
"crs": { "type": "name", "properties": { "name": "urn:ogc:def:crs:OGC:1.3:CRS84" } },
"features": [
{ "type": "Feature", "properties": { "adcode": "430302202210", "fullName": "湖南省湘潭市雨湖区长城乡立洪村村委会", "level": "居委会/社区", "location": "112.868738,27.855309", "name": "立洪村村委会", "OBJECTID": 3989, "SHAPE_Leng": 0.062567089946499996, "SHAPE_Area": 0.0001537139 }, "geometry": { "type": "Polygon", "coordinates": [ [ [ 112.855699177298675, 27.867832465068282 ], [ 112.856213860889852, 27.867871221624036 ], [ 112.858361704819131, 27.867077145569588 ], [ 112.859393977837726, 27.8672696035506 ], [ 112.859843528420726, 27.867270215502501 ], [ 112.860037764433088, 27.867269478014144 ], [ 112.861443459667129, 27.866969296971128 ], [ 112.861799879417859, 27.866892749173793 ], [ 112.862477725919902, 27.865978470511234 ], [ 112.86261589648646, 27.865793616171214 ], [ 112.862701063212626, 27.864882572552411 ], [ 112.863346800597853, 27.8646553506447 ], [ 112.863948461427938, 27.864618093551876 ], [ 112.864247816538921, 27.864201392683114 ], [ 112.864464133175488, 27.86310247417526 ], [ 112.865020750446831, 27.862722085352594 ], [ 112.866095845890541, 27.862838380437374 ], [ 112.866267951168979, 27.863710726669478 ], [ 112.867986623022119, 27.863674674656899 ], [ 112.867943647435652, 27.862839487786459 ], [ 112.868329104716537, 27.861587705101822 ], [ 112.868587440080049, 27.860336779745612 ], [ 112.870005653385263, 27.860983399005796 ], [ 112.870649345996767, 27.859123754150364 ], [ 112.870649425543107, 27.858099584470931 ], [ 112.870134029141454, 27.857566965801869 ], [ 112.869789760538382, 27.857187543664171 ], [ 112.869490645108229, 27.855290914734869 ], [ 112.869617845584173, 27.854151861329544 ], [ 112.868115483059384, 27.854150238066453 ], [ 112.867814273443216, 27.853200747298256 ], [ 112.867814361847635, 27.852062560117712 ], [ 112.867685271866335, 27.851644347187321 ], [ 112.867169794559985, 27.851416728653476 ], [ 112.866803601319802, 27.849299963373724 ], [ 112.864736450674016, 27.849851614612561 ], [ 112.864350019465959, 27.850116187315841 ], [ 112.863318913439656, 27.849924877876937 ], [ 112.863360874363266, 27.851025111047289 ], [ 112.860653763748218, 27.851059615356608 ], [ 112.859880803401509, 27.851438639454731 ], [ 112.859787615822228, 27.852392670030802 ], [ 112.860989985439133, 27.853343437331979 ], [ 112.860560371793269, 27.854672085483354 ], [ 112.859700252722405, 27.855695095893321 ], [ 112.859228610955213, 27.856491583616446 ], [ 112.858668843149289, 27.857400961981476 ], [ 112.858840993618458, 27.85823733887668 ], [ 112.858669673198989, 27.85960232806794 ], [ 112.858239068592042, 27.860397860506858 ], [ 112.858325100793706, 27.86138514483569 ], [ 112.857293721887501, 27.862141816800612 ], [ 112.856218164544103, 27.864037587081963 ], [ 112.855799541011578, 27.864883118664785 ], [ 112.856428368890818, 27.864988050112714 ], [ 112.855699177298675, 27.867832465068282 ] ] ] } }
]
}
