{
"type": "FeatureCollection",
"name": "竹埠村委会",
"crs": { "type": "name", "properties": { "name": "urn:ogc:def:crs:OGC:1.3:CRS84" } },
"features": [
{ "type": "Feature", "properties": { "adcode": "430304015215", "fullName": "湖南省湘潭市岳塘区荷塘街道竹埠村委会", "level": "居委会/社区", "location": "112.982849,27.903339", "name": "竹埠村委会", "OBJECTID": 4114, "SHAPE_Leng": 0.136950131005, "SHAPE_Area": 0.000226617607 }, "geometry": { "type": "Polygon", "coordinates": [ [ [ 112.966777558042565, 27.919414371144256 ], [ 112.9670236906654, 27.91984077112566 ], [ 112.96715423062075, 27.920059451073257 ], [ 112.968011199946062, 27.92149734110367 ], [ 112.968043087989514, 27.921536259789203 ], [ 112.96917227773568, 27.92078000145397 ], [ 112.972045454035197, 27.918855595048157 ], [ 112.972723123266391, 27.918256564707729 ], [ 112.973630995411256, 27.917342812841014 ], [ 112.97375362128507, 27.916597333639935 ], [ 112.974197051669961, 27.916592058907714 ], [ 112.974448191039727, 27.916213271210307 ], [ 112.974682380643841, 27.915945550365215 ], [ 112.974780036890749, 27.915903261373902 ], [ 112.974982345262816, 27.915551617030324 ], [ 112.977635921986376, 27.914537722667134 ], [ 112.97744364670055, 27.914134216575725 ], [ 112.977967786051011, 27.913777619834978 ], [ 112.979217243353801, 27.91406399293281 ], [ 112.979623835576675, 27.913214647129355 ], [ 112.979966577480241, 27.913370660228249 ], [ 112.98006216056352, 27.914237525580198 ], [ 112.979884781154439, 27.914544102965372 ], [ 112.98023351601627, 27.91450006301104 ], [ 112.980586217332174, 27.914675047314404 ], [ 112.980885085417228, 27.915201250163939 ], [ 112.981975078996157, 27.91548105410611 ], [ 112.982124592085597, 27.914722478399955 ], [ 112.981752028036169, 27.913822435264059 ], [ 112.98191249580988, 27.913133839225427 ], [ 112.98042299663129, 27.912365136295495 ], [ 112.980615352516296, 27.911654444243069 ], [ 112.980668181210021, 27.911388241959155 ], [ 112.980145103790335, 27.911170755470675 ], [ 112.979883000239113, 27.911882653025323 ], [ 112.97973850977462, 27.912078113780758 ], [ 112.977401024625522, 27.911320860105516 ], [ 112.977807620834412, 27.910556538634196 ], [ 112.977989004851352, 27.910076924678012 ], [ 112.979175664238454, 27.910681537089516 ], [ 112.979898015321766, 27.91101045944616 ], [ 112.980475946241057, 27.910581674298395 ], [ 112.981181327958538, 27.911148676674923 ], [ 112.981016018668257, 27.910057981547499 ], [ 112.981915759504304, 27.909686239923129 ], [ 112.982455783464019, 27.909655623214718 ], [ 112.982578384975142, 27.909016147621223 ], [ 112.983027786059466, 27.908383695686577 ], [ 112.98338549258149, 27.908121579873754 ], [ 112.983305797447471, 27.907972793159502 ], [ 112.983070682826281, 27.907704451207625 ], [ 112.98245697328197, 27.907227204536103 ], [ 112.982781831236665, 27.906606127575923 ], [ 112.983049886236444, 27.906116242022925 ], [ 112.983803173629468, 27.905402863196691 ], [ 112.984403031502495, 27.904560918497708 ], [ 112.984222703865683, 27.90446344354622 ], [ 112.984891314316243, 27.903514271600013 ], [ 112.985538997622527, 27.902573160572079 ], [ 112.985701415697008, 27.902342631636529 ], [ 112.985236133331952, 27.902364037273628 ], [ 112.984413166369634, 27.902408520488734 ], [ 112.983579220556535, 27.902616058774161 ], [ 112.982649611069547, 27.902920893320772 ], [ 112.982132516240597, 27.902800416874804 ], [ 112.981799765846247, 27.902407341963471 ], [ 112.98134544958863, 27.902124646495547 ], [ 112.980917062855696, 27.901508814897223 ], [ 112.981254857466041, 27.901161751629665 ], [ 112.981542823846638, 27.900927854793355 ], [ 112.981747072284392, 27.90098525625061 ], [ 112.982575028241953, 27.901124809610327 ], [ 112.982543107804403, 27.901593985056234 ], [ 112.982522161029749, 27.901889098008116 ], [ 112.984257776861284, 27.90193590662517 ], [ 112.98583995183067, 27.901738110701501 ], [ 112.987144125777775, 27.901696164450403 ], [ 112.987485841074047, 27.901913167591275 ], [ 112.987760774959185, 27.902486433112124 ], [ 112.988225052726804, 27.902467023290697 ], [ 112.988712306053571, 27.901672410340581 ], [ 112.989433651686525, 27.90132416179075 ], [ 112.989216525740815, 27.90049567959019 ], [ 112.98816442984338, 27.900570883397979 ], [ 112.986924094760866, 27.899781503106944 ], [ 112.987187151895753, 27.899378638896984 ], [ 112.987171249628659, 27.898894604451158 ], [ 112.987284845104398, 27.89868622528174 ], [ 112.986435052311776, 27.897958669987446 ], [ 112.985392975788614, 27.897093665884654 ], [ 112.985940025069382, 27.896199864436184 ], [ 112.98497560463997, 27.89599873604476 ], [ 112.98397229098191, 27.896152777520445 ], [ 112.983533937628962, 27.895732020507946 ], [ 112.983266960281057, 27.895216732585649 ], [ 112.983815961104199, 27.894969044962203 ], [ 112.98374127120799, 27.894528193925556 ], [ 112.983099622364435, 27.894625132844194 ], [ 112.982955208385661, 27.893928446399219 ], [ 112.981652952111133, 27.894282394157631 ], [ 112.981016228862231, 27.89490039364977 ], [ 112.981572162092704, 27.895351816833841 ], [ 112.981923827209286, 27.895957872267168 ], [ 112.981399718845324, 27.896272486964961 ], [ 112.981262165408694, 27.896973015550333 ], [ 112.98168559015393, 27.897318814126489 ], [ 112.982945913103052, 27.898049176126378 ], [ 112.98296679509599, 27.898566201803039 ], [ 112.982427700280226, 27.899475968408307 ], [ 112.981941499023648, 27.89925538163677 ], [ 112.981566837391412, 27.899659566909786 ], [ 112.980904270670692, 27.899491508695647 ], [ 112.980626243516397, 27.900004421571243 ], [ 112.979892921006879, 27.899901576733047 ], [ 112.979176516963165, 27.899961703282752 ], [ 112.978497969030045, 27.900019711638588 ], [ 112.978032684083473, 27.89958900501248 ], [ 112.977788605943019, 27.899068632100189 ], [ 112.977046277163595, 27.899075805349586 ], [ 112.976131556434339, 27.899086472645251 ], [ 112.975730995432514, 27.898998620933391 ], [ 112.975132135671004, 27.898942345842151 ], [ 112.975222859714748, 27.898349982424211 ], [ 112.975415226287666, 27.897694313820271 ], [ 112.975394312096455, 27.897553350357672 ], [ 112.974459656013238, 27.897315009300794 ], [ 112.973508986566003, 27.897753815148501 ], [ 112.973343541419467, 27.898119351180426 ], [ 112.97211287076837, 27.898088854574201 ], [ 112.971643498885143, 27.898266215747935 ], [ 112.971745080547691, 27.899062063770867 ], [ 112.971197947874614, 27.899594701903236 ], [ 112.971284597187591, 27.900206561623964 ], [ 112.971834675588511, 27.900214006374025 ], [ 112.971834612785258, 27.901006141725308 ], [ 112.97197907036707, 27.901469811166443 ], [ 112.971594368162854, 27.902067003308574 ], [ 112.971176786763621, 27.902547265543465 ], [ 112.972069657893385, 27.902666758395995 ], [ 112.971961969627316, 27.903488204303574 ], [ 112.972203103144267, 27.903761566331148 ], [ 112.972090487192688, 27.903894908993891 ], [ 112.972459180310778, 27.904068890571594 ], [ 112.973052077963189, 27.904286237050822 ], [ 112.974553725209688, 27.904808016963241 ], [ 112.974084336313908, 27.905481483112357 ], [ 112.974340385730841, 27.906020838714209 ], [ 112.97379529815008, 27.906250444644137 ], [ 112.972202939184797, 27.905828919982493 ], [ 112.97193477216085, 27.907165909829395 ], [ 112.971677622801735, 27.907778743410059 ], [ 112.971070660870154, 27.908776629377929 ], [ 112.970567367989759, 27.909314138334384 ], [ 112.97025841909263, 27.909570049517793 ], [ 112.969851775882688, 27.910202296476363 ], [ 112.969258780377046, 27.910715038949228 ], [ 112.969134188621922, 27.910972429738393 ], [ 112.968866110657586, 27.910962173025286 ], [ 112.968807285695931, 27.911300394157831 ], [ 112.968413638588373, 27.911253476958816 ], [ 112.968418591034649, 27.911638529113258 ], [ 112.969049384469756, 27.912176871590066 ], [ 112.96948186401292, 27.912574735335227 ], [ 112.969411074899284, 27.912991003924866 ], [ 112.969860503997623, 27.913241791930563 ], [ 112.969742890959267, 27.913485162353549 ], [ 112.970352757462962, 27.913777504460004 ], [ 112.970105585338516, 27.914134258572592 ], [ 112.970110533841236, 27.914566318619592 ], [ 112.970874840818425, 27.915080259429718 ], [ 112.971623185988136, 27.915657244958879 ], [ 112.972248915365512, 27.916664642311297 ], [ 112.972184055884171, 27.917756013327882 ], [ 112.971499481502391, 27.917372888500747 ], [ 112.97086372816841, 27.916981615995887 ], [ 112.968236664397594, 27.918545213673308 ], [ 112.966777558042565, 27.919414371144256 ] ] ] } }
]
}
