{
"type": "FeatureCollection",
"name": "粟塘社区居委会",
"crs": { "type": "name", "properties": { "name": "urn:ogc:def:crs:OGC:1.3:CRS84" } },
"features": [
{ "type": "Feature", "properties": { "adcode": "430304005212", "fullName": "湖南省湘潭市岳塘区下摄司街道粟塘社区居委会", "level": "居委会/社区", "location": "112.92537,27.804226", "name": "粟塘社区居委会", "OBJECTID": 4065, "SHAPE_Leng": 0.016064541570899999, "SHAPE_Area": 1.3796222999900001e-05 }, "geometry": { "type": "Polygon", "coordinates": [ [ [ 112.922679111424742, 27.807297679132585 ], [ 112.922800976273436, 27.806464409163986 ], [ 112.922125074183967, 27.806493203708239 ], [ 112.920883032839868, 27.806542610630039 ], [ 112.920419768922557, 27.806237068951457 ], [ 112.919898584193675, 27.805893573253027 ], [ 112.919522144942832, 27.805897968090537 ], [ 112.918955975022755, 27.805903549882171 ], [ 112.91786642972545, 27.807166818481171 ], [ 112.917145359633849, 27.808002629107502 ], [ 112.917193244915921, 27.808638680929288 ], [ 112.916959538191009, 27.80894894525828 ], [ 112.917045414498673, 27.809043880163848 ], [ 112.92174347901863, 27.80914304253254 ], [ 112.921987158917446, 27.808252628846553 ], [ 112.922371538307388, 27.808257184966592 ], [ 112.922912701915379, 27.807624452099773 ], [ 112.922711055482992, 27.807343648418982 ], [ 112.922679111424742, 27.807297679132585 ] ] ] } }
]
}
