{
"type": "FeatureCollection",
"name": "繁城社区居委会",
"crs": { "type": "name", "properties": { "name": "urn:ogc:def:crs:OGC:1.3:CRS84" } },
"features": [
{ "type": "Feature", "properties": { "adcode": "430302003003", "fullName": "湖南省湘潭市雨湖区云塘街道繁城社区居委会", "level": "居委会/社区", "location": "112.919543,27.871721", "name": "繁城社区居委会", "OBJECTID": 3842, "SHAPE_Leng": 0.039815728036699999, "SHAPE_Area": 5.3933057e-05 }, "geometry": { "type": "Polygon", "coordinates": [ [ [ 112.909229019389912, 27.879134094720083 ], [ 112.911723518239185, 27.878448402875609 ], [ 112.916775482793355, 27.877064116054438 ], [ 112.916839398189268, 27.877046054363962 ], [ 112.917448578620139, 27.876910463353031 ], [ 112.917452573193117, 27.876909459403318 ], [ 112.918810678355797, 27.876608081874259 ], [ 112.918795702978016, 27.876570090550857 ], [ 112.918511164840922, 27.875897261799476 ], [ 112.919208216953265, 27.875099423823443 ], [ 112.920236659862624, 27.875384394068771 ], [ 112.920632037477191, 27.875618006555623 ], [ 112.921272069132613, 27.875282244347719 ], [ 112.921215170467761, 27.875127281733342 ], [ 112.921135327963455, 27.874710300382752 ], [ 112.921295115443684, 27.874225040711369 ], [ 112.921263167010807, 27.874207073377814 ], [ 112.920745988576215, 27.873994609073993 ], [ 112.91872207396888, 27.873176593458414 ], [ 112.916859730233767, 27.872435259784162 ], [ 112.915890044590327, 27.872041064456603 ], [ 112.914618695675927, 27.87152405535134 ], [ 112.914323018942426, 27.872032380868468 ], [ 112.914145212878481, 27.872316571130142 ], [ 112.913947425781473, 27.872644783141293 ], [ 112.913722670268228, 27.872954011226888 ], [ 112.913400020387783, 27.873351326862259 ], [ 112.912168472675461, 27.87275513332542 ], [ 112.911483247579923, 27.872419551714209 ], [ 112.910920864931157, 27.872153880874567 ], [ 112.910585224004592, 27.872017074160823 ], [ 112.91029647818408, 27.8725433445099 ], [ 112.90992679744717, 27.873216685117139 ], [ 112.909443203677597, 27.874109123398704 ], [ 112.909254339815291, 27.874705333405515 ], [ 112.911516964719937, 27.875586061438796 ], [ 112.911395077233138, 27.875822183623306 ], [ 112.911382089189246, 27.875847196578956 ], [ 112.911369103392943, 27.875843204639455 ], [ 112.909217341573481, 27.875139427778027 ], [ 112.90897352269927, 27.875799677782364 ], [ 112.908953542241534, 27.875791687692193 ], [ 112.908940551961877, 27.875824700561942 ], [ 112.90887148325254, 27.877545029307697 ], [ 112.909211086361239, 27.878494997111915 ], [ 112.909201045692754, 27.879141111982886 ], [ 112.909229019389912, 27.879134094720083 ] ] ] } }
]
}
