{
"type": "FeatureCollection",
"name": "繁城村村委会",
"crs": { "type": "name", "properties": { "name": "urn:ogc:def:crs:OGC:1.3:CRS84" } },
"features": [
{ "type": "Feature", "properties": { "adcode": "430302007201", "fullName": "湖南省湘潭市雨湖区万楼街道繁城村村委会", "level": "居委会/社区", "location": "112.930339,27.870276", "name": "繁城村村委会", "OBJECTID": 3879, "SHAPE_Leng": 0.050376548319700003, "SHAPE_Area": 3.9225332e-05 }, "geometry": { "type": "Polygon", "coordinates": [ [ [ 112.911723518239185, 27.878448402875609 ], [ 112.91185732614052, 27.879040410332511 ], [ 112.916186195241067, 27.877972801367751 ], [ 112.921587471393508, 27.876565105985851 ], [ 112.92556186045158, 27.875522089098787 ], [ 112.9256576914634, 27.875496959615095 ], [ 112.927756849912797, 27.875304083937198 ], [ 112.929049486570051, 27.873803986717487 ], [ 112.929982730746872, 27.872720428546089 ], [ 112.931555823226333, 27.869035408079224 ], [ 112.931118742443161, 27.868785044170149 ], [ 112.929240589668566, 27.867708686159059 ], [ 112.92898005718871, 27.868236154030846 ], [ 112.927585503696974, 27.871069611698669 ], [ 112.927575482895804, 27.871576710704556 ], [ 112.927574481416201, 27.871619719314136 ], [ 112.927189133126944, 27.872500400266585 ], [ 112.92697353381584, 27.872491694305346 ], [ 112.926713019206886, 27.872427037840161 ], [ 112.926659115910979, 27.87245611568456 ], [ 112.922558061844427, 27.874607658135378 ], [ 112.921797259307013, 27.875006605343433 ], [ 112.921272069132613, 27.875282244347719 ], [ 112.920632037477191, 27.875618006555623 ], [ 112.920236659862624, 27.875384394068771 ], [ 112.919208216953265, 27.875099423823443 ], [ 112.918511164840922, 27.875897261799476 ], [ 112.918795702978016, 27.876570090550857 ], [ 112.918810678355797, 27.876608081874259 ], [ 112.917452573193117, 27.876909459403318 ], [ 112.917448578620139, 27.876910463353031 ], [ 112.916839398189268, 27.877046054363962 ], [ 112.916775482793355, 27.877064116054438 ], [ 112.911723518239185, 27.878448402875609 ] ] ] } }
]
}
