{
"type": "FeatureCollection",
"name": "繁白村村委会",
"crs": { "type": "name", "properties": { "name": "urn:ogc:def:crs:OGC:1.3:CRS84" } },
"features": [
{ "type": "Feature", "properties": { "adcode": "430302202208", "fullName": "湖南省湘潭市雨湖区长城乡繁白村村委会", "level": "居委会/社区", "location": "112.858531,27.853651", "name": "繁白村村委会", "OBJECTID": 3988, "SHAPE_Leng": 0.058363523283700001, "SHAPE_Area": 0.00019513986 }, "geometry": { "type": "Polygon", "coordinates": [ [ [ 112.847442289540638, 27.866831427135519 ], [ 112.84942930352139, 27.86706269723593 ], [ 112.850804324267486, 27.86736893753163 ], [ 112.853253871145853, 27.867106691387907 ], [ 112.854199305424586, 27.865628873330415 ], [ 112.855617267989516, 27.865250913320402 ], [ 112.855799541011578, 27.864883118664785 ], [ 112.856218164544103, 27.864037587081963 ], [ 112.857293721887501, 27.862141816800612 ], [ 112.858325100793706, 27.86138514483569 ], [ 112.858239068592042, 27.860397860506858 ], [ 112.858669673198989, 27.85960232806794 ], [ 112.858840993618458, 27.85823733887668 ], [ 112.858668843149289, 27.857400961981476 ], [ 112.859228610955213, 27.856491583616446 ], [ 112.859700252722405, 27.855695095893321 ], [ 112.860560371793269, 27.854672085483354 ], [ 112.860989985439133, 27.853343437331979 ], [ 112.859787615822228, 27.852392670030802 ], [ 112.859880803401509, 27.851438639454731 ], [ 112.85902175571367, 27.851324447523677 ], [ 112.85811966915341, 27.850715093977016 ], [ 112.858807618592508, 27.849652877635513 ], [ 112.858076770731842, 27.848704704249542 ], [ 112.856916245427087, 27.849081120324346 ], [ 112.854940671077955, 27.848281108967949 ], [ 112.853392529443553, 27.848278784611136 ], [ 112.852790706119919, 27.84793681001474 ], [ 112.851587965017558, 27.848123980003155 ], [ 112.850026734373628, 27.847295381892657 ], [ 112.849242468840615, 27.848460315905239 ], [ 112.848668533422554, 27.849315528477074 ], [ 112.848058531144915, 27.850222684243764 ], [ 112.847917115807206, 27.852770871828849 ], [ 112.847756644971398, 27.855649083696647 ], [ 112.847672279808407, 27.858671445637622 ], [ 112.847626079828117, 27.860325644394866 ], [ 112.847626078737207, 27.860339646719794 ], [ 112.847516609262129, 27.864200109693563 ], [ 112.847442289540638, 27.866831427135519 ] ] ] } }
]
}
