{
"type": "FeatureCollection",
"name": "繁荣村村委会",
"crs": { "type": "name", "properties": { "name": "urn:ogc:def:crs:OGC:1.3:CRS84" } },
"features": [
{ "type": "Feature", "properties": { "adcode": "430302102209", "fullName": "湖南省湘潭市雨湖区姜畲镇繁荣村村委会", "level": "居委会/社区", "location": "112.850391,27.849909", "name": "繁荣村村委会", "OBJECTID": 3955, "SHAPE_Leng": 0.0458146619169, "SHAPE_Area": 6.90833545e-05 }, "geometry": { "type": "Polygon", "coordinates": [ [ [ 112.847626078737207, 27.860339646719794 ], [ 112.847626079828117, 27.860325644394866 ], [ 112.847672279808407, 27.858671445637622 ], [ 112.847756644971398, 27.855649083696647 ], [ 112.847917115807206, 27.852770871828849 ], [ 112.848058531144915, 27.850222684243764 ], [ 112.848668533422554, 27.849315528477074 ], [ 112.849242468840615, 27.848460315905239 ], [ 112.8475960470373, 27.847292446692229 ], [ 112.847505904162347, 27.847338306020909 ], [ 112.847395728223503, 27.847408136129097 ], [ 112.847325615622367, 27.847459028950379 ], [ 112.847265520947076, 27.847477932971426 ], [ 112.847124299216517, 27.84750870492142 ], [ 112.846884923452265, 27.847547315296517 ], [ 112.846712654380099, 27.847548029810731 ], [ 112.846623514944426, 27.847547881787076 ], [ 112.846434213688525, 27.847606576597059 ], [ 112.845963460180371, 27.847766817151182 ], [ 112.845878326544266, 27.847755672819652 ], [ 112.845804211672686, 27.847725543722561 ], [ 112.845652979167667, 27.847635275286809 ], [ 112.845532790050626, 27.847615070089585 ], [ 112.845442649190105, 27.84758491357281 ], [ 112.845251344751887, 27.847584591337672 ], [ 112.845222296905945, 27.847604545623586 ], [ 112.845222293010167, 27.847654553793735 ], [ 112.845252334660415, 27.84773461753775 ], [ 112.845263349096527, 27.847774642650286 ], [ 112.84527236033945, 27.847814664384281 ], [ 112.845242309351264, 27.847854620262122 ], [ 112.845182211995933, 27.847874522163533 ], [ 112.845102083375622, 27.847884388543228 ], [ 112.845031968994789, 27.847915275170891 ], [ 112.844951836240085, 27.847975149515346 ], [ 112.844911769893159, 27.848004086482725 ], [ 112.84493179103174, 27.848144143263667 ], [ 112.844951813643064, 27.848265196934744 ], [ 112.845031931671201, 27.848394353498414 ], [ 112.84507198865083, 27.848484435911587 ], [ 112.845112049494631, 27.848524510118025 ], [ 112.845132076787934, 27.848584553755593 ], [ 112.845132072891943, 27.848634561936901 ], [ 112.845092007388658, 27.848654497561192 ], [ 112.845041925854431, 27.848674416234221 ], [ 112.844601219160978, 27.848683671526501 ], [ 112.844430947745863, 27.848653377367945 ], [ 112.844390886369283, 27.848613302692602 ], [ 112.844340805708697, 27.848613217492012 ], [ 112.844250656423881, 27.848664072370031 ], [ 112.844140468558066, 27.848792905725297 ], [ 112.844090378305594, 27.848912839956604 ], [ 112.844060325845689, 27.848962796875249 ], [ 112.843990210906568, 27.84898268046938 ], [ 112.843900064995239, 27.848982526475339 ], [ 112.843849986205427, 27.848952435953791 ], [ 112.84377987558679, 27.848913309645791 ], [ 112.843719794537577, 27.848702172254693 ], [ 112.843689752701692, 27.848613106240613 ], [ 112.843658705403371, 27.848573046514989 ], [ 112.843568558231638, 27.848581893502992 ], [ 112.843449359657654, 27.848641698855165 ], [ 112.843399276550969, 27.848661616149382 ], [ 112.843359212838337, 27.848641544064726 ], [ 112.843319151434599, 27.848591467045374 ], [ 112.84320897170538, 27.848591277608666 ], [ 112.843077755037086, 27.84862105666263 ], [ 112.842367592009339, 27.848589824676353 ], [ 112.841646401856295, 27.848558565731775 ], [ 112.841466102346104, 27.848558251008676 ], [ 112.841365936495393, 27.848548074320043 ], [ 112.841170609526259, 27.848567735819813 ], [ 112.841125530443222, 27.848617665052174 ], [ 112.841115507493001, 27.848697660595416 ], [ 112.841135524540633, 27.848907730062479 ], [ 112.841135510504799, 27.849087759532178 ], [ 112.841115470843832, 27.849167737537169 ], [ 112.84108541523868, 27.849237696347558 ], [ 112.841095423378235, 27.849347731916684 ], [ 112.84114549836211, 27.849457837677008 ], [ 112.84122562495628, 27.849547992732415 ], [ 112.841425939729007, 27.849789382593411 ], [ 112.841455988146478, 27.849809438376109 ], [ 112.841546131047124, 27.849898610398863 ], [ 112.841636276072393, 27.849958777549418 ], [ 112.841806549114196, 27.850079094045071 ], [ 112.842016873106203, 27.850389510948137 ], [ 112.842088965714069, 27.850730692249819 ], [ 112.842096975911787, 27.850769712573541 ], [ 112.842157056451896, 27.851009856361912 ], [ 112.842126985001883, 27.851289850146834 ], [ 112.842157019026644, 27.851489935187317 ], [ 112.842157001093454, 27.851719972975641 ], [ 112.842136963337751, 27.851779948043294 ], [ 112.842045810408223, 27.851809794592651 ], [ 112.841916597468128, 27.851799568216542 ], [ 112.841886549206222, 27.851780512794718 ], [ 112.841816437834737, 27.851719380686109 ], [ 112.841756339789342, 27.851699272697438 ], [ 112.841646156241097, 27.851709082246831 ], [ 112.841375696621355, 27.851838631347658 ], [ 112.841355658598573, 27.851898606183873 ], [ 112.841355653139772, 27.851968617689799 ], [ 112.841395715141758, 27.852028697597081 ], [ 112.841464826204302, 27.852078826588087 ], [ 112.841504890472649, 27.8521089015005 ], [ 112.841534937291499, 27.852148960546685 ], [ 112.841525917632794, 27.852208954672474 ], [ 112.841495848974347, 27.852448941667951 ], [ 112.841485825304943, 27.852538938977901 ], [ 112.841515869794151, 27.852609002971516 ], [ 112.841554928465271, 27.852689084335033 ], [ 112.841646072724956, 27.852780258358088 ], [ 112.841676121110083, 27.852799313891595 ], [ 112.841716181259002, 27.852880397076522 ], [ 112.841736203564281, 27.853020455037438 ], [ 112.841786267173575, 27.853269583300577 ], [ 112.841866370294738, 27.853649785439899 ], [ 112.84186635157927, 27.853889824982556 ], [ 112.841856319394495, 27.854089840504891 ], [ 112.841846289547419, 27.854259851088067 ], [ 112.841836266717024, 27.854339846835749 ], [ 112.841786177493674, 27.854419772793769 ], [ 112.841726074346255, 27.854464675485328 ], [ 112.841674988435884, 27.854479588897082 ], [ 112.841604871975377, 27.854480466757206 ], [ 112.84154978398314, 27.854435363188877 ], [ 112.841495697604799, 27.854390261325609 ], [ 112.841395531874426, 27.854379084504117 ], [ 112.841220239942146, 27.854378777888268 ], [ 112.841134095511634, 27.854388628694057 ], [ 112.841079001550099, 27.854414536455778 ], [ 112.841033922862692, 27.854458464703583 ], [ 112.841013884647367, 27.854519439639319 ], [ 112.840994849736589, 27.854559412863175 ], [ 112.840994842716938, 27.8546494277075 ], [ 112.840984787841904, 27.855138490824114 ], [ 112.840984778404135, 27.855259510796404 ], [ 112.840974758626047, 27.855298499666052 ], [ 112.840954698628934, 27.855638520664449 ], [ 112.840954696288932, 27.855668525619031 ], [ 112.840934640184841, 27.855958538376367 ], [ 112.840924614782253, 27.856069539141103 ], [ 112.840954658458571, 27.856153605743827 ], [ 112.84094462650701, 27.856348620399874 ], [ 112.840914553652524, 27.856638615617509 ], [ 112.840884483903125, 27.856888604222913 ], [ 112.840864438695107, 27.857038593869124 ], [ 112.840874449989229, 27.857108623033962 ], [ 112.840904494782279, 27.857178687359227 ], [ 112.84095457304511, 27.857248786819177 ], [ 112.840984620919286, 27.857278844492622 ], [ 112.841054734908397, 27.857318974049722 ], [ 112.841093799339859, 27.857329044167905 ], [ 112.841304144508499, 27.857400424188068 ], [ 112.841674757583689, 27.85744007792907 ], [ 112.8418059727491, 27.857471311748263 ], [ 112.841855051798049, 27.857500402022275 ], [ 112.84188609846079, 27.85756146617635 ], [ 112.841896102643602, 27.857720509933667 ], [ 112.841916115527695, 27.857980587852513 ], [ 112.841966195673535, 27.858015680784501 ], [ 112.842056342791139, 27.85804084167335 ], [ 112.842136476737565, 27.858020977589366 ], [ 112.842176546008631, 27.857981040542231 ], [ 112.842206596383917, 27.8579710910534 ], [ 112.842225629268057, 27.857952120938908 ], [ 112.842315777929855, 27.857952277332092 ], [ 112.842376877828855, 27.857962384917379 ], [ 112.842415939901457, 27.857991457415409 ], [ 112.842457002826791, 27.858051538494365 ], [ 112.842497066414253, 27.858081612844547 ], [ 112.842566180071728, 27.858081732468719 ], [ 112.842637300834639, 27.858031847201342 ], [ 112.842697404201559, 27.857971941158404 ], [ 112.842767522297507, 27.85793305583843 ], [ 112.842797571579666, 27.857933107731572 ], [ 112.842877702140143, 27.857943247700156 ], [ 112.843047977033834, 27.857992549393312 ], [ 112.843078026944099, 27.857982599497348 ], [ 112.843128110351614, 27.857962682420286 ], [ 112.843128124387292, 27.857782652613032 ], [ 112.843118111140328, 27.857742628746205 ], [ 112.843138145429876, 27.857722659920938 ], [ 112.843188228002603, 27.857712744452535 ], [ 112.843238308970115, 27.857722832255448 ], [ 112.843278371995765, 27.857752906111379 ], [ 112.843298401548211, 27.857792947169219 ], [ 112.843298375738854, 27.858124001986972 ], [ 112.843251281482637, 27.858347958164465 ], [ 112.843248275410147, 27.858362955482711 ], [ 112.84323825586911, 27.858403945051634 ], [ 112.843238251268517, 27.858462954828298 ], [ 112.843248263635772, 27.858513980504451 ], [ 112.843308359400453, 27.858543088624408 ], [ 112.84342755362249, 27.858543293358693 ], [ 112.843468622740019, 27.858514359038338 ], [ 112.843517706577174, 27.858463434789957 ], [ 112.843635905572754, 27.858375622822553 ], [ 112.843799180062547, 27.858253882117129 ], [ 112.843879310632076, 27.858245017647896 ], [ 112.844049586277691, 27.858244308301515 ], [ 112.844079636409688, 27.858224356259349 ], [ 112.844158766574481, 27.858194486231667 ], [ 112.844239901410873, 27.858144616198881 ], [ 112.844269955331924, 27.858074655779649 ], [ 112.844269967805602, 27.857914629280746 ], [ 112.844290004003057, 27.857864655109591 ], [ 112.844380151594351, 27.857834803547625 ], [ 112.844410200756784, 27.857824852996551 ], [ 112.844690653047564, 27.857805325925327 ], [ 112.844720701249713, 27.857805376871639 ], [ 112.844981118962622, 27.857796816266674 ], [ 112.845122340655124, 27.857847063151183 ], [ 112.845151383184543, 27.857896120297081 ], [ 112.845171412723261, 27.857927159237242 ], [ 112.845191439291895, 27.857996204463859 ], [ 112.845212466591988, 27.858076253195765 ], [ 112.845200435737382, 27.858226257768479 ], [ 112.845200416250165, 27.85847629919018 ], [ 112.845210431049836, 27.858491318571431 ], [ 112.845360652024212, 27.858726610741872 ], [ 112.845391699862788, 27.858746666340284 ], [ 112.845450792966432, 27.858757767623466 ], [ 112.845521905165725, 27.858767888888185 ], [ 112.845551951313581, 27.85878794271488 ], [ 112.845561963314509, 27.858837967837225 ], [ 112.845561957858322, 27.858907979442378 ], [ 112.84563206449053, 27.858967107009537 ], [ 112.845942555805351, 27.858968627739415 ], [ 112.846027690976868, 27.858958768514128 ], [ 112.84606274938902, 27.858918820492818 ], [ 112.846102814110424, 27.858898884133335 ], [ 112.84615289379667, 27.85888896612995 ], [ 112.846182940336362, 27.858899017958752 ], [ 112.846223001840727, 27.858919088143555 ], [ 112.846233012145703, 27.8589891164624 ], [ 112.846212961917502, 27.859229122835135 ], [ 112.84622296762619, 27.859358160946595 ], [ 112.846273040173472, 27.859438257762662 ], [ 112.846268029569771, 27.859473255216674 ], [ 112.846242985895941, 27.859528222572607 ], [ 112.846192905523381, 27.859548142318523 ], [ 112.845632012266748, 27.859637218142993 ], [ 112.84555188349988, 27.85965808700929 ], [ 112.845450721254153, 27.859677920209855 ], [ 112.845441703028058, 27.859727913339412 ], [ 112.845471746106767, 27.85978797385075 ], [ 112.845531838445879, 27.859828081549317 ], [ 112.845662045097086, 27.859827300126575 ], [ 112.845961523505466, 27.859768792295188 ], [ 112.846002588332894, 27.859768861000237 ], [ 112.846062680022143, 27.85980896812778 ], [ 112.8462529603447, 27.860058327242566 ], [ 112.846433233395601, 27.860189649440056 ], [ 112.846472292341218, 27.860219719439797 ], [ 112.846803799562608, 27.86036929487021 ], [ 112.846964046406427, 27.86040956697321 ], [ 112.847074235003149, 27.860190712830388 ], [ 112.847224470903214, 27.860159955801876 ], [ 112.847504894447994, 27.860301441221779 ], [ 112.847626078737207, 27.860339646719794 ] ] ] } }
]
}
