{
"type": "FeatureCollection",
"name": "红旗社区居委会",
"crs": { "type": "name", "properties": { "name": "urn:ogc:def:crs:OGC:1.3:CRS84" } },
"features": [
{ "type": "Feature", "properties": { "adcode": "430302100003", "fullName": "湖南省湘潭市雨湖区鹤岭镇红旗社区居委会", "level": "居委会/社区", "location": "112.859861,27.967962", "name": "红旗社区居委会", "OBJECTID": 3895, "SHAPE_Leng": 0.040401672714599997, "SHAPE_Area": 6.2851800500100002e-05 }, "geometry": { "type": "Polygon", "coordinates": [ [ [ 112.8477814845658, 27.97365012651214 ], [ 112.848249193437482, 27.973775911759695 ], [ 112.848767974027737, 27.973914777601454 ], [ 112.848735847369326, 27.974910890505463 ], [ 112.848993214211973, 27.97521435701173 ], [ 112.849552976798122, 27.976258430395703 ], [ 112.849585002366126, 27.976546529322849 ], [ 112.851445759443678, 27.976469462579576 ], [ 112.852422169797862, 27.976455976083415 ], [ 112.853104186832468, 27.975851922242569 ], [ 112.85405360873024, 27.974671165042633 ], [ 112.854853825560525, 27.973198116471412 ], [ 112.855556807248163, 27.972835093623083 ], [ 112.855647988661246, 27.972082102313497 ], [ 112.858681931617056, 27.972086429315343 ], [ 112.85990144783824, 27.971969080094539 ], [ 112.860438121480342, 27.971646748619435 ], [ 112.860670413672665, 27.97146302813416 ], [ 112.860814594852371, 27.97134019939686 ], [ 112.86082463189372, 27.971018159195303 ], [ 112.860846672490482, 27.970833157681536 ], [ 112.860846705452062, 27.970411087532295 ], [ 112.86134630734486, 27.970244719002419 ], [ 112.861287263681376, 27.969917587036445 ], [ 112.861138086928392, 27.969936393843501 ], [ 112.860841732081596, 27.96999401153921 ], [ 112.860620472124651, 27.969949709955728 ], [ 112.860406218941861, 27.969906416543282 ], [ 112.860347156704606, 27.969794318760361 ], [ 112.860158956176548, 27.969456009656412 ], [ 112.859934693235729, 27.96934168811681 ], [ 112.859602293585169, 27.969262223957692 ], [ 112.859295921411089, 27.969198795085795 ], [ 112.859414116777174, 27.968563850962191 ], [ 112.859602440672887, 27.967378910130776 ], [ 112.859656536518003, 27.966999920451919 ], [ 112.859457298984864, 27.966909633932858 ], [ 112.858679333795223, 27.966889560309784 ], [ 112.85708529502692, 27.966897318132222 ], [ 112.855550256858891, 27.966961106260161 ], [ 112.854809251150925, 27.966965012965417 ], [ 112.854517854611814, 27.966926572685349 ], [ 112.854512829905275, 27.967154603264678 ], [ 112.854458744092994, 27.967300546870149 ], [ 112.854340564274096, 27.967517406358887 ], [ 112.853890913914739, 27.967864788929141 ], [ 112.853498338049604, 27.968214253638202 ], [ 112.853245943630426, 27.968720954587397 ], [ 112.85291442690739, 27.969336551150597 ], [ 112.853031580272727, 27.969497757108737 ], [ 112.853160750867005, 27.969650979737708 ], [ 112.853203792387205, 27.969897086307093 ], [ 112.853155689378625, 27.970347087886459 ], [ 112.853031504582759, 27.970465918144242 ], [ 112.852752090185831, 27.97069652880424 ], [ 112.851995011551423, 27.970625349171247 ], [ 112.851635502093671, 27.970490767735111 ], [ 112.851242943632016, 27.970324126307066 ], [ 112.850733174251346, 27.970600370307125 ], [ 112.850384644673454, 27.97078784997462 ], [ 112.850067159654074, 27.970959373863963 ], [ 112.849707553461073, 27.971843946730676 ], [ 112.849053516692976, 27.972511006422405 ], [ 112.848628848662358, 27.972810368987236 ], [ 112.848446538954192, 27.973216140209178 ], [ 112.8477814845658, 27.97365012651214 ] ] ] } }
]
}
