{
"type": "FeatureCollection",
"name": "红旗社区居委会_1",
"crs": { "type": "name", "properties": { "name": "urn:ogc:def:crs:OGC:1.3:CRS84" } },
"features": [
{ "type": "Feature", "properties": { "adcode": "430304010001", "fullName": "湖南省湘潭市岳塘区宝塔街道红旗社区居委会", "level": "居委会/社区", "location": "112.939314,27.842806", "name": "红旗社区居委会", "OBJECTID": 4081, "SHAPE_Leng": 0.034730790355, "SHAPE_Area": 5.84018975e-05 }, "geometry": { "type": "Polygon", "coordinates": [ [ [ 112.929478727181305, 27.84716894295466 ], [ 112.929480620928004, 27.848481154344597 ], [ 112.935882850841153, 27.851008283316233 ], [ 112.937065102356399, 27.851475277741443 ], [ 112.937004432840737, 27.849051989149636 ], [ 112.936998463982917, 27.848830963661104 ], [ 112.938136813989587, 27.848617874567434 ], [ 112.938156802386374, 27.84816176354823 ], [ 112.938607730041028, 27.848158934881528 ], [ 112.938649757990675, 27.846520590109954 ], [ 112.936541793544322, 27.84530619873059 ], [ 112.936322306567192, 27.845178564164463 ], [ 112.937382975314165, 27.843651432160552 ], [ 112.93291510372211, 27.841740751925517 ], [ 112.931794500198947, 27.841262460166249 ], [ 112.930797528649492, 27.841531048230411 ], [ 112.929875350638355, 27.84194050610208 ], [ 112.930699373046309, 27.846071934874445 ], [ 112.930807112501938, 27.846606857519749 ], [ 112.929478727181305, 27.84716894295466 ] ] ] } }
]
}
