{
"type": "FeatureCollection",
"name": "红旗村村委会",
"crs": { "type": "name", "properties": { "name": "urn:ogc:def:crs:OGC:1.3:CRS84" } },
"features": [
{ "type": "Feature", "properties": { "adcode": "430302202213", "fullName": "湖南省湘潭市雨湖区长城乡红旗村村委会", "level": "居委会/社区", "location": "112.862711,27.873506", "name": "红旗村村委会", "OBJECTID": 3992, "SHAPE_Leng": 0.034527655384899998, "SHAPE_Area": 3.6098769999900001e-05 }, "geometry": { "type": "Polygon", "coordinates": [ [ [ 112.851492498491837, 27.878062816982389 ], [ 112.852857420865902, 27.878550011143393 ], [ 112.856370146709637, 27.879720443107121 ], [ 112.859346876651642, 27.880691799156768 ], [ 112.859914557531781, 27.880875602689077 ], [ 112.861205067716256, 27.881291395641068 ], [ 112.861090956179254, 27.880999195738287 ], [ 112.860725533910284, 27.880864688784001 ], [ 112.860347101924702, 27.880599138439312 ], [ 112.859488217266801, 27.87854862974919 ], [ 112.858800467956272, 27.877220460427115 ], [ 112.858326922720707, 27.876574693353032 ], [ 112.860249378354354, 27.875529150652667 ], [ 112.861807282827087, 27.874682066700419 ], [ 112.862195814624201, 27.873581383955706 ], [ 112.859591729713586, 27.873589934344285 ], [ 112.859315385320741, 27.873647566687499 ], [ 112.858690597928671, 27.873778727933978 ], [ 112.857745402580562, 27.873740399278741 ], [ 112.856326533516651, 27.874003414871694 ], [ 112.855682702142076, 27.8736604196292 ], [ 112.855682648959856, 27.874343534601902 ], [ 112.85533804033966, 27.87620234196396 ], [ 112.854177426580705, 27.876542673735027 ], [ 112.852631184785707, 27.877450478219284 ], [ 112.851492498491837, 27.878062816982389 ] ] ] } }
]
}
