{
"type": "FeatureCollection",
"name": "红星村村委会",
"crs": { "type": "name", "properties": { "name": "urn:ogc:def:crs:OGC:1.3:CRS84" } },
"features": [
{ "type": "Feature", "properties": { "adcode": "430302007202", "fullName": "湖南省湘潭市雨湖区万楼街道红星村村委会", "level": "居委会/社区", "location": "112.914533,27.883517", "name": "红星村村委会", "OBJECTID": 3880, "SHAPE_Leng": 0.037498999783000003, "SHAPE_Area": 7.2231018999500005e-05 }, "geometry": { "type": "Polygon", "coordinates": [ [ [ 112.90274231744489, 27.890215755683837 ], [ 112.903750600927779, 27.890916566947464 ], [ 112.907598605792586, 27.890847959095087 ], [ 112.907997224672897, 27.891197815067731 ], [ 112.910371121912689, 27.888985077517045 ], [ 112.912986116478024, 27.891126647184123 ], [ 112.914636195836067, 27.890490247468378 ], [ 112.914378638160883, 27.888878183031441 ], [ 112.913575925519993, 27.884745115665648 ], [ 112.913639871272551, 27.88447001956941 ], [ 112.913725816461309, 27.883863850069453 ], [ 112.912932745414579, 27.883844450203398 ], [ 112.912407361411368, 27.883597792506659 ], [ 112.912128698093042, 27.883265934947147 ], [ 112.91192497898956, 27.882544955860617 ], [ 112.911721211150905, 27.882423076391426 ], [ 112.911087903605164, 27.882244472903569 ], [ 112.9102118041842, 27.882301042909628 ], [ 112.909309679634944, 27.882500617475657 ], [ 112.908247650287265, 27.882823261546399 ], [ 112.907595236360976, 27.882786592133733 ], [ 112.90612847063835, 27.882758274280366 ], [ 112.905938520218697, 27.884068578139953 ], [ 112.904727231810938, 27.886789523464184 ], [ 112.90274231744489, 27.890215755683837 ] ] ] } }
]
}
