{
"type": "FeatureCollection",
"name": "红旗村村委会_1",
"crs": { "type": "name", "properties": { "name": "urn:ogc:def:crs:OGC:1.3:CRS84" } },
"features": [
{ "type": "Feature", "properties": { "adcode": "430372100205", "fullName": "湖南省湘潭市岳塘区昭山镇红旗村村委会", "level": "居委会/社区", "location": "113.038492,27.934125", "name": "红旗村村委会", "OBJECTID": 4151, "SHAPE_Leng": 0.10303853542, "SHAPE_Area": 0.0002964821355 }, "geometry": { "type": "Polygon", "coordinates": [ [ [ 113.022169084426665, 27.925867639510606 ], [ 113.023217597425941, 27.925612750010714 ], [ 113.023719922400446, 27.925672405777537 ], [ 113.02332316869375, 27.92656062683788 ], [ 113.023483607644025, 27.926896251340004 ], [ 113.023810460717641, 27.92765450094549 ], [ 113.023697800375828, 27.928072875419801 ], [ 113.02379937840189, 27.929116780481063 ], [ 113.024089306604353, 27.930486235801762 ], [ 113.023619737025541, 27.932033761721598 ], [ 113.024691168540116, 27.932351944563486 ], [ 113.024557530998919, 27.933305463843187 ], [ 113.02481457978989, 27.934594998099758 ], [ 113.025499302568662, 27.934991247238866 ], [ 113.025702608698836, 27.935357772026258 ], [ 113.025777330163351, 27.935784647410141 ], [ 113.026301611373825, 27.935945294016975 ], [ 113.027187739251787, 27.93603699187728 ], [ 113.028825486279757, 27.936289805520719 ], [ 113.029659779428755, 27.937187831807133 ], [ 113.029937821621402, 27.938229304642739 ], [ 113.028378618734394, 27.939808551372494 ], [ 113.024699626035371, 27.938668998374947 ], [ 113.023948918090255, 27.940961397107625 ], [ 113.023253071900626, 27.942896599914238 ], [ 113.024054400516164, 27.943027465009664 ], [ 113.026322090063076, 27.941524189512172 ], [ 113.027883045172288, 27.941709152655573 ], [ 113.027637667689802, 27.943711127930552 ], [ 113.028835704606536, 27.945471339980621 ], [ 113.028920289594282, 27.947272428728393 ], [ 113.028021137185419, 27.947426765741429 ], [ 113.027219710984156, 27.947381836031219 ], [ 113.02665353887717, 27.947374312830803 ], [ 113.026535858092188, 27.948131749328638 ], [ 113.027968147264929, 27.949378232854976 ], [ 113.030375531837549, 27.949505113452492 ], [ 113.032214851941589, 27.949443521028659 ], [ 113.033786096773397, 27.949306662415516 ], [ 113.034501949113846, 27.949360948944118 ], [ 113.038225381060528, 27.945912665091491 ], [ 113.04386801524366, 27.93289114948842 ], [ 113.039762306105757, 27.930612602218059 ], [ 113.038385163900074, 27.93079972993554 ], [ 113.038081126783183, 27.929601217316378 ], [ 113.036759900569734, 27.929902311136999 ], [ 113.036454879358132, 27.928768827999814 ], [ 113.031423857677893, 27.930164201531447 ], [ 113.025863886549288, 27.925494662767843 ], [ 113.026531775739357, 27.924772783089995 ], [ 113.025920803429258, 27.924239298088775 ], [ 113.023092146703377, 27.924001813845972 ], [ 113.023103199307016, 27.922902596029626 ], [ 113.022601856299701, 27.92312499301277 ], [ 113.022591871982556, 27.923343057416037 ], [ 113.02226586331858, 27.924591157619872 ], [ 113.022790064261457, 27.925120823335483 ], [ 113.022553826505828, 27.925467523923107 ], [ 113.022169084426665, 27.925867639510606 ] ] ] } }
]
}
