{
"type": "FeatureCollection",
"name": "红砂村委会",
"crs": { "type": "name", "properties": { "name": "urn:ogc:def:crs:OGC:1.3:CRS84" } },
"features": [
{ "type": "Feature", "properties": { "adcode": "430373200227", "fullName": "湖南省湘潭市雨湖区响水乡红砂村委会", "level": "居委会/社区", "location": "112.93565,27.971443", "name": "红砂村委会", "OBJECTID": 4021, "SHAPE_Leng": 0.16782004744199999, "SHAPE_Area": 0.000508361036 }, "geometry": { "type": "Polygon", "coordinates": [ [ [ 112.914141963400652, 27.978037494037633 ], [ 112.915084794859794, 27.978075727928527 ], [ 112.915084709036833, 27.979173908584251 ], [ 112.915093697473495, 27.979176901519583 ], [ 112.916524936696703, 27.977957451355458 ], [ 112.91687545214333, 27.978138161014211 ], [ 112.918572018824662, 27.979015678187203 ], [ 112.919620404599499, 27.980043777195739 ], [ 112.920029759375723, 27.980444411893885 ], [ 112.921317590306515, 27.982782390119805 ], [ 112.920958054196774, 27.984043995698212 ], [ 112.91915078425491, 27.984054918876943 ], [ 112.91858151090355, 27.98532670128515 ], [ 112.919839537162176, 27.986934672640601 ], [ 112.920819016193406, 27.9872836759947 ], [ 112.921287273397994, 27.987434181820387 ], [ 112.921397097241154, 27.987474065254919 ], [ 112.921536872322548, 27.987522915816911 ], [ 112.921876321967716, 27.987642549462524 ], [ 112.925728675715263, 27.989009038081186 ], [ 112.928384671020382, 27.989945551006315 ], [ 112.929461575651104, 27.98993398777047 ], [ 112.930380742853444, 27.989931615841193 ], [ 112.930450619168909, 27.989711474525546 ], [ 112.930658250706529, 27.989052052476698 ], [ 112.930939748431797, 27.988151476149749 ], [ 112.930251315307146, 27.985962167450456 ], [ 112.931958815019783, 27.985959534238297 ], [ 112.932247210388027, 27.985958077314312 ], [ 112.93267630340074, 27.985958391493593 ], [ 112.933606257337004, 27.98660798454598 ], [ 112.935142949455283, 27.985642250529597 ], [ 112.93625748301443, 27.984942207682188 ], [ 112.93597919538044, 27.983957533479447 ], [ 112.936236650012745, 27.983425996955749 ], [ 112.937049767026551, 27.983538577383733 ], [ 112.937242290629484, 27.983898291760084 ], [ 112.938120223669216, 27.98393370881794 ], [ 112.937990474068073, 27.984655063129896 ], [ 112.938805590180579, 27.983913444211709 ], [ 112.939747311521728, 27.983893678072992 ], [ 112.940089397575463, 27.984859186573505 ], [ 112.94133130178902, 27.985007817436863 ], [ 112.942658067655501, 27.983319920867402 ], [ 112.941673679160999, 27.9819746522871 ], [ 112.941139022590804, 27.98197669712901 ], [ 112.941502144331324, 27.981558920556694 ], [ 112.942058717522812, 27.981803865457522 ], [ 112.9433004245397, 27.983146599814457 ], [ 112.943572582487064, 27.984856326305756 ], [ 112.943337644771304, 27.979131867034685 ], [ 112.944340233238506, 27.97647137992475 ], [ 112.942921928237112, 27.976486270795451 ], [ 112.943906523830776, 27.974550954186778 ], [ 112.942921175416217, 27.97337675890514 ], [ 112.941638460599279, 27.973190276040089 ], [ 112.941552733448546, 27.972470324945022 ], [ 112.940996131748591, 27.972434403574042 ], [ 112.940353684120353, 27.972965728756204 ], [ 112.93808329069202, 27.971494729871136 ], [ 112.935236620028135, 27.974453255192628 ], [ 112.931724353583647, 27.972601709706513 ], [ 112.932281346354628, 27.970591496693711 ], [ 112.931468247808368, 27.9679763416767 ], [ 112.932581958697241, 27.967445493358827 ], [ 112.936007320840645, 27.968840993342738 ], [ 112.938241445176658, 27.964766320748591 ], [ 112.938602676143873, 27.963598461362096 ], [ 112.938390248756392, 27.962764713061141 ], [ 112.937618095579609, 27.962501075979709 ], [ 112.936890746545828, 27.963072475508344 ], [ 112.936804885535224, 27.963830754885631 ], [ 112.936291067292728, 27.963831661703139 ], [ 112.936805019450318, 27.962124469089773 ], [ 112.936119750965076, 27.960115339093253 ], [ 112.935477150463143, 27.960837574862509 ], [ 112.935392379934157, 27.960344637970085 ], [ 112.936205587837378, 27.959698118922407 ], [ 112.936205629506134, 27.959167029668659 ], [ 112.936976878108354, 27.95886261630168 ], [ 112.936976901811462, 27.958560565507035 ], [ 112.936762422159077, 27.958255895509403 ], [ 112.936033073678033, 27.958523223028042 ], [ 112.93577775774456, 27.95719744403808 ], [ 112.935477456749808, 27.956932918337809 ], [ 112.935649093546942, 27.95662857103018 ], [ 112.933978851202681, 27.956025300017078 ], [ 112.933464940294684, 27.956366205487203 ], [ 112.933208498497521, 27.956290611887386 ], [ 112.933208546006284, 27.955684509721145 ], [ 112.931709748187743, 27.955231828750623 ], [ 112.931410356267421, 27.955383321577525 ], [ 112.930938345808698, 27.955120006310512 ], [ 112.929996227363773, 27.955385478390706 ], [ 112.928326435749426, 27.956146044124932 ], [ 112.928240534668774, 27.956982307122772 ], [ 112.928625782279809, 27.957132781981073 ], [ 112.928453964675626, 27.959029347183609 ], [ 112.928197432787613, 27.95933176336283 ], [ 112.928539716320245, 27.960090402608653 ], [ 112.928368010861945, 27.960545724517807 ], [ 112.928367978282338, 27.960961794359797 ], [ 112.929052694523534, 27.960430718803202 ], [ 112.929311140876095, 27.961036442888478 ], [ 112.928496659509307, 27.961871763044989 ], [ 112.928410783011088, 27.962402974821739 ], [ 112.92815426533214, 27.962517358864762 ], [ 112.928239067570132, 27.962972314721746 ], [ 112.929182224024615, 27.963198993846827 ], [ 112.928966639119523, 27.96327532055302 ], [ 112.929096368193385, 27.963502169835756 ], [ 112.928154182156845, 27.963579536771753 ], [ 112.928111284876067, 27.963313553013773 ], [ 112.927682098945269, 27.963313156368208 ], [ 112.927554315731541, 27.963617385404728 ], [ 112.927254879435992, 27.963580793963388 ], [ 112.926954369562026, 27.964452352002596 ], [ 112.926953329909296, 27.964982442003986 ], [ 112.926483173967057, 27.965249123771702 ], [ 112.925712464566033, 27.966576369211158 ], [ 112.925669517586257, 27.966880476224809 ], [ 112.925241276097765, 27.966919039666781 ], [ 112.925155418749057, 27.967033169409863 ], [ 112.924984727989766, 27.96691936959493 ], [ 112.924512530521753, 27.967185013544384 ], [ 112.92378484908464, 27.966276767129827 ], [ 112.923741827006921, 27.967489022047598 ], [ 112.923227726979732, 27.967035570933117 ], [ 112.923355528211488, 27.966845385068634 ], [ 112.922970190737672, 27.966580803557147 ], [ 112.923055977182031, 27.967490852853402 ], [ 112.922070520899481, 27.968363155232115 ], [ 112.921042012309499, 27.970145613614989 ], [ 112.920185333404831, 27.970109539649098 ], [ 112.919370446300675, 27.971475622749637 ], [ 112.919327444430337, 27.972309805441355 ], [ 112.919798699582898, 27.972877408793366 ], [ 112.921299327064105, 27.97374692441597 ], [ 112.921597810728585, 27.974315682691312 ], [ 112.920271875332332, 27.97427913811644 ], [ 112.919713663547142, 27.974961842866083 ], [ 112.919499024602501, 27.974430979044012 ], [ 112.918384675561583, 27.974054046149849 ], [ 112.91671387657162, 27.975495873733955 ], [ 112.916927535163893, 27.976177790012152 ], [ 112.916284374360757, 27.976444418571727 ], [ 112.915685079701007, 27.977431109158545 ], [ 112.914570486696618, 27.977431048102485 ], [ 112.914141963400652, 27.978037494037633 ] ] ] } }
]
}
