{
"type": "FeatureCollection",
"name": "纯冲塘社区居委会",
"crs": { "type": "name", "properties": { "name": "urn:ogc:def:crs:OGC:1.3:CRS84" } },
"features": [
{ "type": "Feature", "properties": { "adcode": "430304001007", "fullName": "湖南省湘潭市岳塘区岳塘街道纯冲塘社区居委会", "level": "居委会/社区", "location": "112.918589,27.813451", "name": "纯冲塘社区居委会", "OBJECTID": 4041, "SHAPE_Leng": 0.030856863662600001, "SHAPE_Area": 2.94124565003e-05 }, "geometry": { "type": "Polygon", "coordinates": [ [ [ 112.915695245089708, 27.821324984433062 ], [ 112.916652060476508, 27.820406990837945 ], [ 112.917409107892709, 27.819456140820133 ], [ 112.917195409527977, 27.819341323743462 ], [ 112.916991680812842, 27.81941352446686 ], [ 112.9169377448967, 27.819527592060073 ], [ 112.916322582435839, 27.819324119821221 ], [ 112.916321611333672, 27.818969065519287 ], [ 112.916031992935331, 27.818951320224961 ], [ 112.914869593437757, 27.817444081823087 ], [ 112.914178471984641, 27.817069586790044 ], [ 112.913198636733966, 27.817043343880751 ], [ 112.913254659411677, 27.815913126867851 ], [ 112.913288710673015, 27.814742920658325 ], [ 112.913367658629141, 27.814225781038484 ], [ 112.914106977019813, 27.811684815414178 ], [ 112.913038239860441, 27.811671637990997 ], [ 112.911335115787296, 27.811862874620843 ], [ 112.911284999352347, 27.814049243496456 ], [ 112.910904400028329, 27.814058495936802 ], [ 112.910815363737527, 27.815720809750708 ], [ 112.910529558783495, 27.817011192170384 ], [ 112.910572510246126, 27.817068173715594 ], [ 112.910566513768117, 27.81710218279089 ], [ 112.91043759013796, 27.81781937543618 ], [ 112.910244731903802, 27.818517604354156 ], [ 112.913071632901421, 27.818985740510811 ], [ 112.913306286172556, 27.819940712021399 ], [ 112.914752392733888, 27.821899871945806 ], [ 112.915695245089708, 27.821324984433062 ] ] ] } }
]
}
