{
"type": "FeatureCollection",
"name": "纱厂街社区居委会",
"crs": { "type": "name", "properties": { "name": "urn:ogc:def:crs:OGC:1.3:CRS84" } },
"features": [
{ "type": "Feature", "properties": { "adcode": "430304008001", "fullName": "湖南省湘潭市岳塘区五里堆街道纱厂街社区居委会", "level": "居委会/社区", "location": "112.959049,27.857231", "name": "纱厂街社区居委会", "OBJECTID": 4073, "SHAPE_Leng": 0.012100962878000001, "SHAPE_Area": 8.3511704999299994e-06 }, "geometry": { "type": "Polygon", "coordinates": [ [ [ 112.95148359762058, 27.859975043835011 ], [ 112.952238338816144, 27.860651404239832 ], [ 112.952723867459852, 27.861180355419048 ], [ 112.953432656013717, 27.862566913036638 ], [ 112.955304034293405, 27.862405394908865 ], [ 112.95419666293779, 27.858855476993096 ], [ 112.953383091803488, 27.858910424126709 ], [ 112.95294339479733, 27.858940467889969 ], [ 112.952708085319742, 27.859007032318033 ], [ 112.952643262445875, 27.859187214287843 ], [ 112.952015100195823, 27.859294699473889 ], [ 112.951639163962, 27.859730643790485 ], [ 112.95148359762058, 27.859975043835011 ] ] ] } }
]
}
