{
"type": "FeatureCollection",
"name": "综合农场村委会",
"crs": { "type": "name", "properties": { "name": "urn:ogc:def:crs:OGC:1.3:CRS84" } },
"features": [
{ "type": "Feature", "properties": { "adcode": "430304015202", "fullName": "湖南省湘潭市岳塘区荷塘街道综合农场村委会", "level": "居委会/社区", "location": "113.009982,27.875495", "name": "综合农场村委会", "OBJECTID": 4106, "SHAPE_Leng": 0.094592960691399997, "SHAPE_Area": 0.00027655481 }, "geometry": { "type": "Polygon", "coordinates": [ [ [ 112.991109844113254, 27.870981928516024 ], [ 112.991921788489265, 27.871359520912844 ], [ 112.992712918063162, 27.870378947805932 ], [ 112.993103473703584, 27.870231733638732 ], [ 112.994401581672349, 27.870872886461584 ], [ 112.993246821683428, 27.871696542398169 ], [ 112.993051513060536, 27.872156214382034 ], [ 112.993455906613704, 27.873384188621824 ], [ 112.99356347101704, 27.87381393311243 ], [ 112.993056271202619, 27.87494966895613 ], [ 112.993836315783454, 27.875530390409523 ], [ 112.994878374090774, 27.876224332455301 ], [ 112.99543423567772, 27.877043777068398 ], [ 112.995118397222754, 27.877243772875094 ], [ 112.994942009670552, 27.877807405179816 ], [ 112.994647105124741, 27.87786031253048 ], [ 112.994444786076883, 27.878776083287811 ], [ 112.994144899792829, 27.878834006691367 ], [ 112.993547113647935, 27.879026860364124 ], [ 112.99265438640775, 27.879726697599434 ], [ 112.992432190542772, 27.880029425323926 ], [ 112.992834624687958, 27.880844337362873 ], [ 112.994448536692616, 27.881707566734082 ], [ 112.995163908045129, 27.881221305188003 ], [ 112.996094493012123, 27.880545356556734 ], [ 112.997354799821323, 27.880514514738028 ], [ 112.997622762448529, 27.881006782604409 ], [ 112.998039171713245, 27.88151260154596 ], [ 112.997467262108827, 27.88199342239394 ], [ 112.997323754191342, 27.882519948058473 ], [ 112.996427058768219, 27.882968753411486 ], [ 112.996770745535358, 27.883373775575592 ], [ 112.997117421230612, 27.883781789409181 ], [ 112.997798819163535, 27.884585852340823 ], [ 113.000899127868578, 27.886721802520974 ], [ 113.003571243716834, 27.886788743746187 ], [ 113.004967114433285, 27.886708535490946 ], [ 113.006832292612216, 27.88660394036955 ], [ 113.007853632746063, 27.885827769830836 ], [ 113.008003145689457, 27.88512520690205 ], [ 113.007186135527206, 27.884943604897177 ], [ 113.006919148707127, 27.884459318152594 ], [ 113.007730226244064, 27.88403983361701 ], [ 113.008150706589731, 27.88392056508269 ], [ 113.008732575886228, 27.884147879452648 ], [ 113.009529579679494, 27.88551575618559 ], [ 113.009898228172716, 27.885761711311066 ], [ 113.00942190880761, 27.88626020001222 ], [ 113.009876223094523, 27.886806953287657 ], [ 113.01103608106709, 27.88638047380002 ], [ 113.010802007610422, 27.885324981085997 ], [ 113.011940967472839, 27.884775556623321 ], [ 113.013346964746205, 27.884662451297988 ], [ 113.013977755478848, 27.884319569999207 ], [ 113.014275717232579, 27.884123677842545 ], [ 113.015052020195867, 27.883613360394065 ], [ 113.015688801362884, 27.883384499249917 ], [ 113.016672436237201, 27.882462542314855 ], [ 113.017685041152589, 27.880924417446145 ], [ 113.017588479693984, 27.879643473544796 ], [ 113.017728124317358, 27.878057812289839 ], [ 113.016697862736549, 27.876106397850016 ], [ 113.016574366410026, 27.875205596960743 ], [ 113.015508090110885, 27.875303652441335 ], [ 113.012839386659365, 27.877043636238504 ], [ 113.012122998930693, 27.876342602011867 ], [ 113.009390041586627, 27.873669169165893 ], [ 113.008380727019144, 27.873323096320163 ], [ 113.007086473055438, 27.872878867183712 ], [ 113.00320761492894, 27.874006681285028 ], [ 113.002679591459497, 27.873664215991681 ], [ 112.999303277895365, 27.871478071350861 ], [ 112.998932674573567, 27.871238156674011 ], [ 112.998368800780511, 27.87087380913237 ], [ 112.997627597765629, 27.870392982593273 ], [ 112.99608143769855, 27.86939252149827 ], [ 112.994329061999736, 27.868257669847054 ], [ 112.992809660167637, 27.86909743872895 ], [ 112.992551610840735, 27.869239248312631 ], [ 112.991562254446123, 27.869786351767697 ], [ 112.991537313298394, 27.870211498831466 ], [ 112.991109844113254, 27.870981928516024 ] ] ] } }
]
}
