{
"type": "FeatureCollection",
"name": "罗祖殿社区居委会",
"crs": { "type": "name", "properties": { "name": "urn:ogc:def:crs:OGC:1.3:CRS84" } },
"features": [
{ "type": "Feature", "properties": { "adcode": "430302005209", "fullName": "湖南省湘潭市雨湖区窑湾街道罗祖殿社区居委会", "level": "居委会/社区", "location": "112.902042,27.858137", "name": "罗祖殿社区居委会", "OBJECTID": 3865, "SHAPE_Leng": 0.0162407734067, "SHAPE_Area": 1.1828352500099999e-05 }, "geometry": { "type": "Polygon", "coordinates": [ [ [ 112.89419825965102, 27.859591396733869 ], [ 112.89459016329721, 27.859748456656117 ], [ 112.894617128885542, 27.860113519308818 ], [ 112.8947830881188, 27.860147537092171 ], [ 112.89481007519035, 27.860232553061863 ], [ 112.894950011287392, 27.860625627452748 ], [ 112.894987975970793, 27.860961685594809 ], [ 112.895131928941566, 27.861108718293099 ], [ 112.895529827381694, 27.86108073181342 ], [ 112.895636792342117, 27.861155747981776 ], [ 112.895631781529573, 27.861312773909315 ], [ 112.895786739721103, 27.861293775268368 ], [ 112.895818725513195, 27.86135978703884 ], [ 112.895844695655811, 27.861648835696602 ], [ 112.895694732787831, 27.861715842861592 ], [ 112.895438792542564, 27.861843855092349 ], [ 112.895352809719284, 27.861914863216374 ], [ 112.895298815006498, 27.862027879532295 ], [ 112.895286792643489, 27.862355933528359 ], [ 112.895340760987807, 27.86258297380774 ], [ 112.895491703214702, 27.862812018255255 ], [ 112.895786598632753, 27.863111077534306 ], [ 112.895797587517805, 27.863214094967425 ], [ 112.896022509101712, 27.863386128193952 ], [ 112.896028502906361, 27.863443137780521 ], [ 112.89625341431767, 27.863713185068576 ], [ 112.897058117737259, 27.864153248474434 ], [ 112.897041121047408, 27.864186254479549 ], [ 112.897265033040554, 27.864308267162954 ], [ 112.897340014500514, 27.864201246266799 ], [ 112.897789898333798, 27.863547113732434 ], [ 112.89799384597282, 27.863204042987913 ], [ 112.898208792084034, 27.862796958889202 ], [ 112.898412739744813, 27.862398875266397 ], [ 112.898637689868877, 27.861827758980034 ], [ 112.898819650019206, 27.861335658316612 ], [ 112.898830660081501, 27.861144625389631 ], [ 112.896361678681998, 27.859878547879553 ], [ 112.895889846569375, 27.859538486321203 ], [ 112.895310021633819, 27.859329431987423 ], [ 112.894581225792592, 27.858969326778304 ], [ 112.89419825965102, 27.859591396733869 ] ] ] } }
]
}
