{
"type": "FeatureCollection",
"name": "罗金塘村委会",
"crs": { "type": "name", "properties": { "name": "urn:ogc:def:crs:OGC:1.3:CRS84" } },
"features": [
{ "type": "Feature", "properties": { "adcode": "430302101201", "fullName": "湖南省湘潭市雨湖区楠竹山镇罗金塘村委会", "level": "居委会/社区", "location": "112.661255,27.850873", "name": "罗金塘村委会", "OBJECTID": 3944, "SHAPE_Leng": 0.050812179005399999, "SHAPE_Area": 7.2330537499800006e-05 }, "geometry": { "type": "Polygon", "coordinates": [ [ [ 112.663752191689568, 27.854763690586815 ], [ 112.664085459626946, 27.854060936762441 ], [ 112.662321693968266, 27.853097151168537 ], [ 112.661647317562796, 27.852625360793869 ], [ 112.660950996409866, 27.852075597708794 ], [ 112.660672670255693, 27.851810084032945 ], [ 112.660544969005116, 27.851820328756684 ], [ 112.660106031058604, 27.851393093352332 ], [ 112.65983868061754, 27.85109055165427 ], [ 112.659602229512529, 27.851147009884169 ], [ 112.658964732921874, 27.850971189912151 ], [ 112.658924817311089, 27.851084284092828 ], [ 112.658684336811675, 27.851619827400658 ], [ 112.658298227793836, 27.851735576764224 ], [ 112.658170523776704, 27.851753821110041 ], [ 112.657582890042349, 27.851759931271111 ], [ 112.657357422087685, 27.851651338358788 ], [ 112.657133951220587, 27.851514736720627 ], [ 112.656892519025604, 27.851410173754072 ], [ 112.656609182800935, 27.851311690056249 ], [ 112.656367744986468, 27.851264135487995 ], [ 112.656224075941239, 27.851278407314531 ], [ 112.655711248057315, 27.85142639215417 ], [ 112.655560593367397, 27.85145067789939 ], [ 112.655384001946615, 27.851426003858872 ], [ 112.65528223388533, 27.851455198713275 ], [ 112.655148522314533, 27.851701488752429 ], [ 112.65510460882949, 27.851887601268608 ], [ 112.655094620376531, 27.852034644072237 ], [ 112.655046719755703, 27.852172756123995 ], [ 112.655560526507472, 27.852313819889122 ], [ 112.655619402274681, 27.852166685608168 ], [ 112.655683282700295, 27.851810507580669 ], [ 112.655791037997886, 27.85176229803939 ], [ 112.656315802146295, 27.852074366067754 ], [ 112.656513345358121, 27.852073995282773 ], [ 112.65666897667289, 27.852183721036042 ], [ 112.656481399756927, 27.852325096542963 ], [ 112.656395584541585, 27.852501286584964 ], [ 112.656282823376415, 27.85278254440572 ], [ 112.655940618928142, 27.852715174685006 ], [ 112.655924667541285, 27.852563179551225 ], [ 112.6555395695801, 27.852380870094482 ], [ 112.655262207436479, 27.852389389653851 ], [ 112.655336027646442, 27.852517272846185 ], [ 112.655356967265334, 27.852674259563798 ], [ 112.655325023462666, 27.852897355934527 ], [ 112.655239211339946, 27.853020536430162 ], [ 112.655057611181078, 27.853248912878843 ], [ 112.654806171778645, 27.853467417532805 ], [ 112.654628560513956, 27.853709788164188 ], [ 112.654174612937595, 27.853549605655644 ], [ 112.653766485436392, 27.854328490999976 ], [ 112.652331798316965, 27.853687032613351 ], [ 112.652599234161173, 27.853144451454465 ], [ 112.651829002357317, 27.85282481307646 ], [ 112.65190385331266, 27.85256663345757 ], [ 112.65213935248704, 27.852159134546312 ], [ 112.65114462896058, 27.851735884824723 ], [ 112.649186062538718, 27.850979307919534 ], [ 112.647716351318607, 27.850381837709964 ], [ 112.647778197108721, 27.850620766957253 ], [ 112.647817057503346, 27.851321812930326 ], [ 112.647578549618828, 27.851722302584442 ], [ 112.647079621273875, 27.851973227729825 ], [ 112.646964871569935, 27.851973430519312 ], [ 112.646963873745378, 27.851973432281817 ], [ 112.646920964953878, 27.852003512991601 ], [ 112.64693684846219, 27.853060658859199 ], [ 112.647520504941355, 27.853940770706348 ], [ 112.64834060705607, 27.855176514304425 ], [ 112.648399470294649, 27.85526642396248 ], [ 112.650195427080433, 27.855986310605875 ], [ 112.656278532680233, 27.856653190943717 ], [ 112.659392204975219, 27.857780502259754 ], [ 112.659714449753608, 27.857799893901621 ], [ 112.660821849099008, 27.857867799397802 ], [ 112.661890355511545, 27.857643725284209 ], [ 112.662436122565751, 27.856977572931726 ], [ 112.662591770569009, 27.856789244400456 ], [ 112.6635366711496, 27.855138164804039 ], [ 112.663566604571287, 27.855086098935868 ], [ 112.663752191689568, 27.854763690586815 ] ] ] } }
]
}
