{
"type": "FeatureCollection",
"name": "群力村村委会",
"crs": { "type": "name", "properties": { "name": "urn:ogc:def:crs:OGC:1.3:CRS84" } },
"features": [
{ "type": "Feature", "properties": { "adcode": "430304015210", "fullName": "湖南省湘潭市岳塘区荷塘街道群力村村委会", "level": "居委会/社区", "location": "112.992419,27.910421", "name": "群力村村委会", "OBJECTID": 4111, "SHAPE_Leng": 0.079714913430199999, "SHAPE_Area": 0.000154518476 }, "geometry": { "type": "Polygon", "coordinates": [ [ [ 112.977401024625522, 27.911320860105516 ], [ 112.97973850977462, 27.912078113780758 ], [ 112.979883000239113, 27.911882653025323 ], [ 112.980145103790335, 27.911170755470675 ], [ 112.980668181210021, 27.911388241959155 ], [ 112.980615352516296, 27.911654444243069 ], [ 112.98042299663129, 27.912365136295495 ], [ 112.98191249580988, 27.913133839225427 ], [ 112.981752028036169, 27.913822435264059 ], [ 112.982124592085597, 27.914722478399955 ], [ 112.981975078996157, 27.91548105410611 ], [ 112.980885085417228, 27.915201250163939 ], [ 112.980586217332174, 27.914675047314404 ], [ 112.98023351601627, 27.91450006301104 ], [ 112.979884781154439, 27.914544102965372 ], [ 112.98006216056352, 27.914237525580198 ], [ 112.979966577480241, 27.913370660228249 ], [ 112.979623835576675, 27.913214647129355 ], [ 112.979217243353801, 27.91406399293281 ], [ 112.977967786051011, 27.913777619834978 ], [ 112.97744364670055, 27.914134216575725 ], [ 112.977635921986376, 27.914537722667134 ], [ 112.978271567793584, 27.915298988250861 ], [ 112.978918171228528, 27.916018208933213 ], [ 112.979938417383295, 27.916656305571355 ], [ 112.980925792913794, 27.917002437347872 ], [ 112.981995845472085, 27.917450329026874 ], [ 112.982861665403817, 27.917517754759203 ], [ 112.983519237431651, 27.91766181066598 ], [ 112.983379699717034, 27.918297337475348 ], [ 112.983175428824438, 27.918568995685387 ], [ 112.984480554532325, 27.919442230022906 ], [ 112.985347328065615, 27.919779679703481 ], [ 112.985457912711055, 27.919863360854979 ], [ 112.985855418538762, 27.920168214669381 ], [ 112.986997133838997, 27.920874887577131 ], [ 112.98806325601258, 27.919899493770405 ], [ 112.988119049689089, 27.919888322805001 ], [ 112.988228642633473, 27.919887990633661 ], [ 112.988298381885031, 27.919908782816655 ], [ 112.988348195300304, 27.919927635045816 ], [ 112.988427897567803, 27.919947396804996 ], [ 112.98854744930712, 27.919997042810174 ], [ 112.988668001185403, 27.919997677329757 ], [ 112.988736747335906, 27.919976465189187 ], [ 112.988776603189834, 27.919926335719524 ], [ 112.988786569350452, 27.919886298640446 ], [ 112.988786585018872, 27.919690265066851 ], [ 112.989827679803554, 27.92009117308908 ], [ 112.989937279216008, 27.919998824317016 ], [ 112.995202629387933, 27.920208830949687 ], [ 112.995486549364315, 27.920470010733261 ], [ 112.99628849935084, 27.921208694619189 ], [ 112.997062690881407, 27.920249173643537 ], [ 112.995674948080733, 27.919210221428003 ], [ 112.9945093892252, 27.918048573453916 ], [ 112.993071895273445, 27.916265647712404 ], [ 112.992435304652318, 27.915830512036621 ], [ 112.992323783844782, 27.915042716869422 ], [ 112.992768130658433, 27.914992355118759 ], [ 112.992687455892025, 27.914689549022476 ], [ 112.992409522052426, 27.914321332418098 ], [ 112.992504193671138, 27.914013991568623 ], [ 112.992391674579636, 27.913251203739126 ], [ 112.992792193760991, 27.91308995646207 ], [ 112.993135938030363, 27.912760853203228 ], [ 112.993392003955421, 27.91249802824931 ], [ 112.993071230897598, 27.912119940692328 ], [ 112.992654839171024, 27.911433091428712 ], [ 112.992386858686359, 27.911182864691746 ], [ 112.991516112538761, 27.911091499743275 ], [ 112.991207308060226, 27.910536344451653 ], [ 112.990368453367168, 27.910284852572669 ], [ 112.989926089320704, 27.910423220621176 ], [ 112.989577419241684, 27.910021211015792 ], [ 112.989015622935085, 27.908600673638553 ], [ 112.989025686339687, 27.907343428205881 ], [ 112.98884342146188, 27.906626858768298 ], [ 112.988373226165436, 27.905912162565969 ], [ 112.987347032660608, 27.905948276773572 ], [ 112.986732332779326, 27.905681089936088 ], [ 112.986635681118727, 27.905802402714901 ], [ 112.985304665647149, 27.905044288593011 ], [ 112.984403031502495, 27.904560918497708 ], [ 112.983803173629468, 27.905402863196691 ], [ 112.983049886236444, 27.906116242022925 ], [ 112.982781831236665, 27.906606127575923 ], [ 112.98245697328197, 27.907227204536103 ], [ 112.983070682826281, 27.907704451207625 ], [ 112.983305797447471, 27.907972793159502 ], [ 112.98338549258149, 27.908121579873754 ], [ 112.983027786059466, 27.908383695686577 ], [ 112.982578384975142, 27.909016147621223 ], [ 112.982455783464019, 27.909655623214718 ], [ 112.981915759504304, 27.909686239923129 ], [ 112.981016018668257, 27.910057981547499 ], [ 112.981181327958538, 27.911148676674923 ], [ 112.980475946241057, 27.910581674298395 ], [ 112.979898015321766, 27.91101045944616 ], [ 112.979175664238454, 27.910681537089516 ], [ 112.977989004851352, 27.910076924678012 ], [ 112.977807620834412, 27.910556538634196 ], [ 112.977401024625522, 27.911320860105516 ] ] ] } }
]
}
