{
"type": "FeatureCollection",
"name": "联合村村委会",
"crs": { "type": "name", "properties": { "name": "urn:ogc:def:crs:OGC:1.3:CRS84" } },
"features": [
{ "type": "Feature", "properties": { "adcode": "430304014202", "fullName": "湖南省湘潭市岳塘区霞城街道联合村村委会", "level": "居委会/社区", "location": "112.893947,27.827153", "name": "联合村村委会", "OBJECTID": 4094, "SHAPE_Leng": 0.081658419688200007, "SHAPE_Area": 0.000164879340499 }, "geometry": { "type": "Polygon", "coordinates": [ [ [ 112.88392058947889, 27.837054496598046 ], [ 112.887693476754094, 27.835051869010968 ], [ 112.894429018644558, 27.836298613318853 ], [ 112.896565566726807, 27.834722442872735 ], [ 112.899113611088808, 27.834408228597471 ], [ 112.899209626281021, 27.833655096401294 ], [ 112.901602467303391, 27.832777529992413 ], [ 112.901604551270054, 27.831680354659497 ], [ 112.902521025533346, 27.831415081368647 ], [ 112.90255717453347, 27.829206720754417 ], [ 112.903059856832712, 27.829195575454413 ], [ 112.903040951414724, 27.828134413029193 ], [ 112.904253132241479, 27.828129020411719 ], [ 112.904255153873422, 27.827831972728173 ], [ 112.90425616108125, 27.827729956248227 ], [ 112.904256162865835, 27.827706952611582 ], [ 112.904257172478879, 27.827573931234898 ], [ 112.904257177211861, 27.827512921592991 ], [ 112.904257177367043, 27.827510921276886 ], [ 112.90425818504022, 27.827402903858278 ], [ 112.904239199541678, 27.827388908296953 ], [ 112.904099299379212, 27.827368953643418 ], [ 112.904029346598691, 27.827388980726976 ], [ 112.90391942506659, 27.827359013135556 ], [ 112.903839490143383, 27.82722901927297 ], [ 112.903809512233138, 27.827209026043146 ], [ 112.903798522079967, 27.82717902493496 ], [ 112.903809516888273, 27.827149016565713 ], [ 112.903809519060658, 27.827121012143294 ], [ 112.901738879576484, 27.82645249472478 ], [ 112.900183693770657, 27.826794864238543 ], [ 112.900180621047042, 27.82775201593682 ], [ 112.900176579537302, 27.828313105364419 ], [ 112.899865674351972, 27.829068275002417 ], [ 112.899523773053218, 27.829898456738619 ], [ 112.898401262449937, 27.829963595006504 ], [ 112.897777507253466, 27.829999647712789 ], [ 112.897097770261212, 27.829803648259315 ], [ 112.89560126856891, 27.829373578185056 ], [ 112.893861475076946, 27.831894853872736 ], [ 112.885780510807905, 27.830882417315657 ], [ 112.884991826496844, 27.824635061494625 ], [ 112.883577618556117, 27.822501004025906 ], [ 112.883180543799753, 27.821902693050305 ], [ 112.881890123558676, 27.821615898556974 ], [ 112.879671228448629, 27.821123379725346 ], [ 112.878801487164566, 27.82521340397798 ], [ 112.879341475455163, 27.828814359307888 ], [ 112.879741458370006, 27.831485062704175 ], [ 112.881265758212962, 27.836127811947275 ], [ 112.883911586719492, 27.837057492346087 ], [ 112.88392058947889, 27.837054496598046 ] ] ] } }
]
}
