{
"type": "FeatureCollection",
"name": "联映村委会",
"crs": { "type": "name", "properties": { "name": "urn:ogc:def:crs:OGC:1.3:CRS84" } },
"features": [
{ "type": "Feature", "properties": { "adcode": "430302102210", "fullName": "湖南省湘潭市雨湖区姜畲镇联映村委会", "level": "居委会/社区", "location": "112.749751,27.858976", "name": "联映村委会", "OBJECTID": 3956, "SHAPE_Leng": 0.064007559948699999, "SHAPE_Area": 0.0001420372115 }, "geometry": { "type": "Polygon", "coordinates": [ [ [ 112.732650636937294, 27.864212644660796 ], [ 112.734553180462086, 27.86508898986957 ], [ 112.737640156137203, 27.866263174144169 ], [ 112.739486047420314, 27.868085045394558 ], [ 112.741243196117082, 27.868918892119844 ], [ 112.74437499596587, 27.870474921587171 ], [ 112.745661721414095, 27.869866832383281 ], [ 112.746435758804566, 27.86736345079478 ], [ 112.747850752738913, 27.864555109618475 ], [ 112.749782724384147, 27.862697097487306 ], [ 112.75008284325051, 27.861025878198387 ], [ 112.75085394670532, 27.859507792900033 ], [ 112.751928052120221, 27.85840788029607 ], [ 112.752101143491274, 27.857345751834782 ], [ 112.752572212063413, 27.856815799200657 ], [ 112.753259381472432, 27.855373772737138 ], [ 112.75257331701539, 27.855487579874445 ], [ 112.751457250760026, 27.85571431072087 ], [ 112.748367436870211, 27.85510560607268 ], [ 112.748495591001799, 27.852980273420073 ], [ 112.747208831821681, 27.852068972126204 ], [ 112.746977881595527, 27.851915926445194 ], [ 112.747018869293214, 27.851984941288578 ], [ 112.748238536085225, 27.854032411593444 ], [ 112.747778472595897, 27.85556260739061 ], [ 112.745888744114026, 27.856291578739608 ], [ 112.745718777145129, 27.856341580240041 ], [ 112.744429070614885, 27.85668162089749 ], [ 112.742489643390201, 27.857201802567857 ], [ 112.740800278147944, 27.857572063586254 ], [ 112.740199400329132, 27.859382460910062 ], [ 112.739240620247728, 27.862353138155658 ], [ 112.737971203138642, 27.863344599574962 ], [ 112.736562001208341, 27.86353403118968 ], [ 112.734854097503913, 27.86353461612061 ], [ 112.734453362798689, 27.86365478919592 ], [ 112.733774826617008, 27.863865097054351 ], [ 112.732650636937294, 27.864212644660796 ] ] ] } }
]
}
