{
"type": "FeatureCollection",
"name": "自力社区居委会",
"crs": { "type": "name", "properties": { "name": "urn:ogc:def:crs:OGC:1.3:CRS84" } },
"features": [
{ "type": "Feature", "properties": { "adcode": "430302005009", "fullName": "湖南省湘潭市雨湖区窑湾街道自力社区居委会", "level": "居委会/社区", "location": "112.905538,27.851418", "name": "自力社区居委会", "OBJECTID": 3861, "SHAPE_Leng": 0.018352654747299999, "SHAPE_Area": 2.0151053e-05 }, "geometry": { "type": "Polygon", "coordinates": [ [ [ 112.896870818436128, 27.855953892936373 ], [ 112.898607082720474, 27.856936951193806 ], [ 112.899012889644851, 27.857159944511213 ], [ 112.899577601158029, 27.857548936090318 ], [ 112.900129300638724, 27.857970921153015 ], [ 112.900258224840883, 27.858112922897416 ], [ 112.900280215420054, 27.858090915469081 ], [ 112.900794987800253, 27.857577735782105 ], [ 112.901545672629169, 27.856306366240684 ], [ 112.901953493444424, 27.855565146725421 ], [ 112.903160935675885, 27.853088407375036 ], [ 112.903146945178264, 27.853083410766228 ], [ 112.900141759676629, 27.8519809313573 ], [ 112.898762277617095, 27.853574380700859 ], [ 112.89839239847754, 27.854025490859918 ], [ 112.898059498390793, 27.854470591311575 ], [ 112.898108474836718, 27.854523596364992 ], [ 112.89771259615226, 27.854940691860961 ], [ 112.897587632800551, 27.855072720637914 ], [ 112.897518653153512, 27.855139735262032 ], [ 112.897443678100473, 27.855172744350195 ], [ 112.897293720869101, 27.855319775149876 ], [ 112.896917825232919, 27.855661843652761 ], [ 112.896902823401049, 27.855750858698194 ], [ 112.896870818436128, 27.855953892936373 ] ] ] } }
]
}
