{
"type": "FeatureCollection",
"name": "自建社区居委会",
"crs": { "type": "name", "properties": { "name": "urn:ogc:def:crs:OGC:1.3:CRS84" } },
"features": [
{ "type": "Feature", "properties": { "adcode": "430304001005", "fullName": "湖南省湘潭市岳塘区岳塘街道自建社区居委会", "level": "居委会/社区", "location": "112.921666,27.802746", "name": "自建社区居委会", "OBJECTID": 4039, "SHAPE_Leng": 0.046779609711499998, "SHAPE_Area": 2.81140205e-05 }, "geometry": { "type": "Polygon", "coordinates": [ [ [ 112.911830760099662, 27.809554184463135 ], [ 112.911803788135927, 27.809572205876339 ], [ 112.911792797012424, 27.809612219565867 ], [ 112.911803783479641, 27.809632215014322 ], [ 112.911812773672679, 27.809632208793964 ], [ 112.911872705859935, 27.809662171800998 ], [ 112.912002564126354, 27.809652079668862 ], [ 112.912125428889198, 27.809646992475518 ], [ 112.91203948654524, 27.810127126130833 ], [ 112.911868600183126, 27.811080390916597 ], [ 112.914246844988114, 27.811203630133082 ], [ 112.914295792149517, 27.811117577678967 ], [ 112.914798290960491, 27.809612938452002 ], [ 112.914898185061787, 27.809374819393241 ], [ 112.915218798703989, 27.809164518545103 ], [ 112.915861988854289, 27.808987938368606 ], [ 112.91635934096125, 27.80894549128557 ], [ 112.916959538191009, 27.80894894525828 ], [ 112.917193244915921, 27.808638680929288 ], [ 112.917145359633849, 27.808002629107502 ], [ 112.91786642972545, 27.807166818481171 ], [ 112.918955975022755, 27.805903549882171 ], [ 112.918968985526348, 27.805525479671999 ], [ 112.918574554831096, 27.805525876231037 ], [ 112.918474697642992, 27.805526975674887 ], [ 112.918434754658634, 27.805527015267383 ], [ 112.918424769676804, 27.805517023645869 ], [ 112.918415784120981, 27.805496029372559 ], [ 112.918424780551348, 27.805377002530243 ], [ 112.918434781068171, 27.805186963997723 ], [ 112.918434783709102, 27.805152958873023 ], [ 112.918435789042363, 27.805065944772899 ], [ 112.918424806261612, 27.80504595263513 ], [ 112.918424806960672, 27.805036951278982 ], [ 112.918415820550351, 27.805026958666726 ], [ 112.918405834782192, 27.805026968545249 ], [ 112.9183848638759, 27.805036990782373 ], [ 112.918294990943195, 27.805046080760498 ], [ 112.918146199245498, 27.805076231206147 ], [ 112.918036351702014, 27.805106342821901 ], [ 112.917976435098836, 27.805116402516912 ], [ 112.917916519091847, 27.805116460544262 ], [ 112.917886560243929, 27.805126491004771 ], [ 112.917585978430537, 27.805126779281167 ], [ 112.917367280611458, 27.805116984974273 ], [ 112.917147580966571, 27.805117190962889 ], [ 112.917017756529376, 27.805127313173493 ], [ 112.91690790499834, 27.805128414867642 ], [ 112.916738133451346, 27.805127570582968 ], [ 112.916717162337974, 27.805117588240197 ], [ 112.916547389157301, 27.805116742502349 ], [ 112.916458507205533, 27.805117822976715 ], [ 112.915889254283442, 27.805118328995047 ], [ 112.915608617252403, 27.805109571736534 ], [ 112.915190150114626, 27.805108928980548 ], [ 112.915060312063929, 27.805129041278793 ], [ 112.915040337142386, 27.805129058024356 ], [ 112.914970423981387, 27.805139117999513 ], [ 112.914949449441508, 27.805149137004136 ], [ 112.914780657441852, 27.80517928161758 ], [ 112.914739708250963, 27.805179315410864 ], [ 112.914619854919962, 27.805199416898525 ], [ 112.914509986269294, 27.805249514134228 ], [ 112.914461043206543, 27.805289559946107 ], [ 112.914441060692695, 27.805379589723199 ], [ 112.914431062053907, 27.805519618935602 ], [ 112.914411067090043, 27.805769672839535 ], [ 112.914380093291498, 27.805919720527442 ], [ 112.914321161303818, 27.805969775619715 ], [ 112.914271218987807, 27.806009821827775 ], [ 112.913951605042598, 27.806010076234845 ], [ 112.913721878543271, 27.806020257754195 ], [ 112.913571054827614, 27.806050379170358 ], [ 112.913531096515925, 27.806120420535294 ], [ 112.913452181581334, 27.806220496244553 ], [ 112.913351289708586, 27.806350592958477 ], [ 112.913282363188756, 27.80644065894937 ], [ 112.913211440301794, 27.806510723213531 ], [ 112.913142513292939, 27.806600788774475 ], [ 112.913078581825317, 27.806670847356639 ], [ 112.91157925902499, 27.806645916099651 ], [ 112.910762957926877, 27.808771779476977 ], [ 112.911830760099662, 27.809554184463135 ] ], [ [ 112.911830760099662, 27.809554184463135 ], [ 112.911833756982347, 27.809552182081873 ], [ 112.911849740219026, 27.809543169628714 ], [ 112.911902684690105, 27.809512128114676 ], [ 112.911938647585188, 27.809482098482679 ], [ 112.911963621714477, 27.809462077997551 ], [ 112.912022559199343, 27.809432032159915 ], [ 112.912033547555993, 27.809426023534684 ], [ 112.91206251668946, 27.809412001046059 ], [ 112.912077500688483, 27.809404989435929 ], [ 112.912102474098432, 27.80939196986024 ], [ 112.911835754412309, 27.809557181458587 ], [ 112.911831759008834, 27.809554183770945 ], [ 112.911830760099662, 27.809554184463135 ] ] ] } }
]
}
