{
"type": "FeatureCollection",
"name": "芙蓉社区居委会",
"crs": { "type": "name", "properties": { "name": "urn:ogc:def:crs:OGC:1.3:CRS84" } },
"features": [
{ "type": "Feature", "properties": { "adcode": "430304004002", "fullName": "湖南省湘潭市岳塘区书院路街道芙蓉社区居委会", "level": "居委会/社区", "location": "112.931595,27.82441", "name": "芙蓉社区居委会", "OBJECTID": 4054, "SHAPE_Leng": 0.037129349137099997, "SHAPE_Area": 1.87447675e-05 }, "geometry": { "type": "Polygon", "coordinates": [ [ [ 112.927312288476472, 27.829155137022063 ], [ 112.927314285219794, 27.829149133314839 ], [ 112.927457018142078, 27.829152936443339 ], [ 112.928696657299071, 27.829186189944743 ], [ 112.929151744619048, 27.829550588133468 ], [ 112.929258548249337, 27.829389406527415 ], [ 112.929584897229205, 27.82950694528936 ], [ 112.929869301137359, 27.829924589637884 ], [ 112.930290452998733, 27.830009972197804 ], [ 112.930414222399335, 27.829775748195924 ], [ 112.931661642268139, 27.83017689268387 ], [ 112.931862280682665, 27.829470465918625 ], [ 112.931876255336206, 27.829422436322933 ], [ 112.930890311763434, 27.829090914917554 ], [ 112.929456289589098, 27.827728853595215 ], [ 112.928185763136511, 27.827584666561396 ], [ 112.927463009264443, 27.829122923381782 ], [ 112.927329260399034, 27.829109106297953 ], [ 112.927077730242374, 27.829084448420701 ], [ 112.925722271707684, 27.828152118615286 ], [ 112.924881719689878, 27.828639282897797 ], [ 112.923894523758932, 27.827317311540021 ], [ 112.923497197228613, 27.827286792795348 ], [ 112.923475234173424, 27.827285819308525 ], [ 112.926124806267154, 27.82483906491127 ], [ 112.926168729935185, 27.824799000193906 ], [ 112.92594214175891, 27.824761294758527 ], [ 112.925991056437624, 27.824726224569623 ], [ 112.925956120585326, 27.824710268269254 ], [ 112.923611286413916, 27.823680086523147 ], [ 112.922965289294069, 27.824645016671951 ], [ 112.923602182573205, 27.82520933773041 ], [ 112.923571232184031, 27.825241380484144 ], [ 112.923451423382346, 27.825370546397085 ], [ 112.923162910338561, 27.82530388394645 ], [ 112.923035100141632, 27.825590081978323 ], [ 112.923333587661304, 27.825793755577141 ], [ 112.923376495961378, 27.826049744032918 ], [ 112.923352534401744, 27.826070776310701 ], [ 112.92251086748611, 27.826798892485414 ], [ 112.922525841353192, 27.826820878409464 ], [ 112.923293489617521, 27.827911137934002 ], [ 112.924414495353815, 27.829092945757562 ], [ 112.924389536425991, 27.829117981027775 ], [ 112.923876375190289, 27.82961869797558 ], [ 112.92384941899121, 27.82964373511955 ], [ 112.923872379012195, 27.829656708921902 ], [ 112.923864391946267, 27.829664720023509 ], [ 112.923837436353992, 27.829681755884312 ], [ 112.924114952267814, 27.829829436391009 ], [ 112.924118945207155, 27.829832431907619 ], [ 112.925489499060788, 27.830557803957472 ], [ 112.926565514114273, 27.83112946912102 ], [ 112.927294318323192, 27.829202169270232 ], [ 112.927312288476472, 27.829155137022063 ] ] ] } }
]
}
