{
"type": "FeatureCollection",
"name": "芙蓉社区居委会_1",
"crs": { "type": "name", "properties": { "name": "urn:ogc:def:crs:OGC:1.3:CRS84" } },
"features": [
{ "type": "Feature", "properties": { "adcode": "430304006006", "fullName": "湖南省湘潭市岳塘区建设路街道芙蓉社区居委会", "level": "居委会/社区", "location": "112.92671,27.82862", "name": "芙蓉社区居委会", "OBJECTID": 4072, "SHAPE_Leng": 0.038597481423100002, "SHAPE_Area": 2.3977203e-05 }, "geometry": { "type": "Polygon", "coordinates": [ [ [ 112.918738383370737, 27.830403566490737 ], [ 112.91866847736523, 27.830489650226159 ], [ 112.918323937031076, 27.830914059788206 ], [ 112.918330926861557, 27.8309170533756 ], [ 112.920097256864238, 27.831949406971408 ], [ 112.920073290242215, 27.831985438206218 ], [ 112.919645881832537, 27.832612988608677 ], [ 112.919174566774245, 27.832750497795445 ], [ 112.918810120148336, 27.832453820492692 ], [ 112.918606402188686, 27.832601048187328 ], [ 112.918408692501671, 27.832505229348492 ], [ 112.91795433814822, 27.832465667838459 ], [ 112.917812538961087, 27.832434799843163 ], [ 112.917362183766784, 27.832160184988677 ], [ 112.91733721546035, 27.832193213762181 ], [ 112.917085533229013, 27.832525502154429 ], [ 112.917081538345968, 27.832529506506916 ], [ 112.916675044218579, 27.833072967363258 ], [ 112.920005210111796, 27.834331884862273 ], [ 112.922199720438812, 27.835165584430857 ], [ 112.923130169476408, 27.835507543029482 ], [ 112.923235012117914, 27.835288382029685 ], [ 112.923253983458991, 27.835250353107181 ], [ 112.923203131333921, 27.83444028466991 ], [ 112.922985555758061, 27.833627415229394 ], [ 112.922852812609477, 27.833143495866555 ], [ 112.922895767368757, 27.832815392538283 ], [ 112.922972694662903, 27.832118189904875 ], [ 112.922993663803013, 27.832069157099777 ], [ 112.923298211782623, 27.831374681357257 ], [ 112.923315186478405, 27.831335654674142 ], [ 112.92386027582161, 27.831243975832219 ], [ 112.924112849585669, 27.831192655464964 ], [ 112.924407331553127, 27.831352313317574 ], [ 112.924524138655229, 27.831239148490763 ], [ 112.925076152719384, 27.831541494612932 ], [ 112.925398624771105, 27.831013994533706 ], [ 112.925550379711453, 27.830699747176023 ], [ 112.925567352146672, 27.830665719628499 ], [ 112.925569348980702, 27.830660716227868 ], [ 112.925523432572007, 27.830636772304508 ], [ 112.923146619953144, 27.829377546610651 ], [ 112.920571840780752, 27.828016272811539 ], [ 112.920293236993999, 27.828391632874247 ], [ 112.919805920152953, 27.829055255596426 ], [ 112.921149807360436, 27.829793919481791 ], [ 112.921883727169003, 27.828763928865804 ], [ 112.922288059631583, 27.828979496982928 ], [ 112.923106683087639, 27.829418600976588 ], [ 112.92216215542291, 27.830361862049177 ], [ 112.921094765838205, 27.831430240468627 ], [ 112.920147314402996, 27.830239081744551 ], [ 112.919397397859271, 27.830713944537834 ], [ 112.918790312152467, 27.830355506671197 ], [ 112.918781325523156, 27.83035051491898 ], [ 112.918738383370737, 27.830403566490737 ] ] ] } }
]
}
