{
"type": "FeatureCollection",
"name": "花园村村委会",
"crs": { "type": "name", "properties": { "name": "urn:ogc:def:crs:OGC:1.3:CRS84" } },
"features": [
{ "type": "Feature", "properties": { "adcode": "430302202216", "fullName": "湖南省湘潭市雨湖区长城乡花园村村委会", "level": "居委会/社区", "location": "112.835064,27.872201", "name": "花园村村委会", "OBJECTID": 3995, "SHAPE_Leng": 0.072869507409699996, "SHAPE_Area": 0.0002527908005 }, "geometry": { "type": "Polygon", "coordinates": [ [ [ 112.818432536420914, 27.881664239294928 ], [ 112.8186909141657, 27.882841924342618 ], [ 112.819381170528487, 27.882842221936535 ], [ 112.820857861743022, 27.882846002210293 ], [ 112.821828632634109, 27.882847831657514 ], [ 112.823807307730704, 27.882016420001701 ], [ 112.824308226090622, 27.88195235293335 ], [ 112.82533510733812, 27.881819264019867 ], [ 112.826128558944774, 27.881717739429597 ], [ 112.828794328463275, 27.88251987538257 ], [ 112.830684762325362, 27.882125334326737 ], [ 112.832405865733875, 27.881766464079689 ], [ 112.835630493455994, 27.882532507700866 ], [ 112.83731339722182, 27.882762592755853 ], [ 112.83683162527872, 27.881982591649646 ], [ 112.837002969125493, 27.881375798116917 ], [ 112.836615327448698, 27.880995033375328 ], [ 112.837218453938235, 27.879933942449853 ], [ 112.83652933208846, 27.879022543907631 ], [ 112.838250305263514, 27.878948628716184 ], [ 112.838078063349968, 27.878265204718062 ], [ 112.839625682478641, 27.878496001752428 ], [ 112.838980729703763, 27.876674548312049 ], [ 112.84035610374788, 27.876069882780286 ], [ 112.841130471735724, 27.875160089780714 ], [ 112.841389011988142, 27.873756305527174 ], [ 112.841390084835055, 27.872844153831917 ], [ 112.840229183215456, 27.872310025496787 ], [ 112.840056925561555, 27.87189265122597 ], [ 112.840053008265215, 27.870746451668083 ], [ 112.839463019646359, 27.870634388319854 ], [ 112.836621188162354, 27.870087204089128 ], [ 112.836024168401309, 27.869859084174479 ], [ 112.835614458381443, 27.869801330041319 ], [ 112.83490724127266, 27.869533996193496 ], [ 112.834132907598942, 27.869173518909655 ], [ 112.834069797352399, 27.869160400993287 ], [ 112.833293437760361, 27.868999947729971 ], [ 112.832219548226519, 27.868769927966785 ], [ 112.830844124811719, 27.868331304450447 ], [ 112.829854368175234, 27.868064417114443 ], [ 112.828780457602889, 27.867739357142195 ], [ 112.828006076791027, 27.867491866048798 ], [ 112.827124495631836, 27.867281177405033 ], [ 112.82641522271588, 27.867090813322733 ], [ 112.825640829657075, 27.866898324892592 ], [ 112.825276180712862, 27.86670960709381 ], [ 112.824889485484363, 27.86659485989308 ], [ 112.824653032640541, 27.866877461908697 ], [ 112.824674030732268, 27.867391587535309 ], [ 112.824664010053567, 27.867422573852391 ], [ 112.824565808470751, 27.867712437449981 ], [ 112.824479609906874, 27.868243364056891 ], [ 112.824330278448727, 27.869002209996601 ], [ 112.824179961483054, 27.869552019058347 ], [ 112.824071722593146, 27.87008390441359 ], [ 112.823921398197029, 27.870727729305745 ], [ 112.823793110820574, 27.871411602499624 ], [ 112.823684885330053, 27.871771459059811 ], [ 112.823641787506617, 27.872017419208493 ], [ 112.823591682764814, 27.872188353537638 ], [ 112.822947534571938, 27.871845081731326 ], [ 112.820195419859729, 27.873054099582518 ], [ 112.820496826747373, 27.874876974235978 ], [ 112.819078007439273, 27.877872810314031 ], [ 112.818948602723083, 27.88003493284759 ], [ 112.818432536420914, 27.881664239294928 ] ] ] } }
]
}
