{
"type": "FeatureCollection",
"name": "荷塘村村委会",
"crs": { "type": "name", "properties": { "name": "urn:ogc:def:crs:OGC:1.3:CRS84" } },
"features": [
{ "type": "Feature", "properties": { "adcode": "430304015211", "fullName": "湖南省湘潭市岳塘区荷塘街道荷塘村村委会", "level": "居委会/社区", "location": "113.009163,27.89275", "name": "荷塘村村委会", "OBJECTID": 4112, "SHAPE_Leng": 0.133606766618, "SHAPE_Area": 0.0005293490955 }, "geometry": { "type": "Polygon", "coordinates": [ [ [ 112.996770745535358, 27.883373775575592 ], [ 112.996028433635274, 27.884348200698899 ], [ 112.995664625192276, 27.886397655918344 ], [ 112.994798735818037, 27.887868543082494 ], [ 112.995087475476268, 27.890153051269845 ], [ 112.993964658166348, 27.890214482434093 ], [ 112.99307888396666, 27.891183345384391 ], [ 112.992159189661464, 27.89272440814787 ], [ 112.99018149913789, 27.89346054984399 ], [ 112.988332420028712, 27.892907068500541 ], [ 112.987829279812345, 27.893011610755966 ], [ 112.987359049305468, 27.892700981414073 ], [ 112.986472282907712, 27.893356773790821 ], [ 112.986247116625393, 27.893354453293753 ], [ 112.985931304375498, 27.893113365295914 ], [ 112.985184100175857, 27.892683544127038 ], [ 112.984890171411848, 27.892855458055244 ], [ 112.984456775740298, 27.892781748715478 ], [ 112.984397977653529, 27.892966956903955 ], [ 112.984296351742685, 27.892972263115759 ], [ 112.984269433561508, 27.893189380906492 ], [ 112.984435819304338, 27.893202883332457 ], [ 112.98429630798779, 27.893521356667307 ], [ 112.983258147623829, 27.893278429051058 ], [ 112.983081769802993, 27.893601011967618 ], [ 112.982955208385661, 27.893928446399219 ], [ 112.983099622364435, 27.894625132844194 ], [ 112.98374127120799, 27.894528193925556 ], [ 112.983815961104199, 27.894969044962203 ], [ 112.983266960281057, 27.895216732585649 ], [ 112.983533937628962, 27.895732020507946 ], [ 112.98397229098191, 27.896152777520445 ], [ 112.98497560463997, 27.89599873604476 ], [ 112.985940025069382, 27.896199864436184 ], [ 112.985392975788614, 27.897093665884654 ], [ 112.986435052311776, 27.897958669987446 ], [ 112.987284845104398, 27.89868622528174 ], [ 112.987171249628659, 27.898894604451158 ], [ 112.987187151895753, 27.899378638896984 ], [ 112.988107721294298, 27.899561883110152 ], [ 112.988773299605427, 27.898924756572434 ], [ 112.989469671039984, 27.899411726145839 ], [ 112.989644017281762, 27.89947520750993 ], [ 112.990172053183016, 27.899459600561695 ], [ 112.990830636784949, 27.89900752117342 ], [ 112.99104977580636, 27.899562949352013 ], [ 112.991418368267006, 27.899986900233479 ], [ 112.991102534059721, 27.90012588488279 ], [ 112.991011866960321, 27.900187171147063 ], [ 112.991610588709889, 27.900773449461269 ], [ 112.992447388036339, 27.901781073954218 ], [ 112.992998274997618, 27.902510520757122 ], [ 112.992778078031947, 27.902737230115093 ], [ 112.992762095383043, 27.903263368622746 ], [ 112.993126682740453, 27.903921370537663 ], [ 112.993463405077947, 27.904191390950626 ], [ 112.994007355193247, 27.904450778138489 ], [ 112.994349063422234, 27.904663773469832 ], [ 112.994846183033488, 27.904988314387783 ], [ 112.995279558001016, 27.905096012549969 ], [ 112.995370252115165, 27.904693667547949 ], [ 112.996283840581938, 27.904756895852451 ], [ 112.997399677682125, 27.904817509638516 ], [ 112.999738965990701, 27.904933420535645 ], [ 113.000294899623228, 27.904960739026684 ], [ 113.000520077980866, 27.904788026980786 ], [ 113.00108997204903, 27.904697285262788 ], [ 113.001641934461944, 27.904609600142972 ], [ 113.001764484611044, 27.904562221484436 ], [ 113.001845208841729, 27.904276928715284 ], [ 113.002169988242144, 27.904512987595282 ], [ 113.00219687502053, 27.904683935576603 ], [ 113.002374211299198, 27.904783417007387 ], [ 113.002887339377665, 27.904486817897993 ], [ 113.003742023123763, 27.906512589092525 ], [ 113.003902400240051, 27.906909174325694 ], [ 113.003465996181049, 27.907063514209614 ], [ 113.003257704047044, 27.907812269622347 ], [ 113.004292886229933, 27.90785516199232 ], [ 113.004479168339131, 27.908258671346413 ], [ 113.005260162962969, 27.90994261629481 ], [ 113.005443458588076, 27.910337134671391 ], [ 113.007243926917482, 27.909670644739972 ], [ 113.007918473976304, 27.909619630673312 ], [ 113.008014127754407, 27.909598343080081 ], [ 113.009441973362726, 27.909295065436829 ], [ 113.011904156490402, 27.908773751089182 ], [ 113.011437880893439, 27.908104998621781 ], [ 113.011323305037905, 27.907942305930813 ], [ 113.011522638988808, 27.907339620021698 ], [ 113.012083675566743, 27.906783887509157 ], [ 113.011506759641563, 27.906552531928863 ], [ 113.010923868323744, 27.906350203580192 ], [ 113.010935840921348, 27.906157135497171 ], [ 113.011144117382145, 27.905852473268297 ], [ 113.011182016218086, 27.905421288636848 ], [ 113.011790894483596, 27.904666379724457 ], [ 113.012854188709056, 27.903541092183652 ], [ 113.013405248978259, 27.903291452136958 ], [ 113.013560693250625, 27.903339010516511 ], [ 113.013682267796256, 27.903266646680841 ], [ 113.014068909504829, 27.903123506016424 ], [ 113.014499393364517, 27.903052253929939 ], [ 113.015195962228134, 27.90275720379945 ], [ 113.015493960257018, 27.902197255229552 ], [ 113.016146733538434, 27.901441263164479 ], [ 113.016637073159103, 27.900793758248135 ], [ 113.016973938268805, 27.900313720921318 ], [ 113.017043718800309, 27.900025474096172 ], [ 113.016290387054113, 27.89951952631214 ], [ 113.016283432451303, 27.899259501753754 ], [ 113.016208771091641, 27.898302551091792 ], [ 113.01644897829793, 27.897727769733127 ], [ 113.016924347245734, 27.897400364639694 ], [ 113.017378817592672, 27.896776972353635 ], [ 113.017250260298951, 27.896824343821248 ], [ 113.01641125586471, 27.895929570573372 ], [ 113.015898024052333, 27.89626408927743 ], [ 113.015363942962168, 27.895709520878192 ], [ 113.015207534634399, 27.895193880921877 ], [ 113.015443727935718, 27.894904155439196 ], [ 113.015856307083752, 27.894575920802865 ], [ 113.016229996062719, 27.89461286205125 ], [ 113.016673453847986, 27.894535588277797 ], [ 113.017021230929373, 27.894676626184811 ], [ 113.017201608995862, 27.894610104292816 ], [ 113.017436798235195, 27.894534426615387 ], [ 113.017636147298859, 27.894034778899449 ], [ 113.01757738517712, 27.893613873046828 ], [ 113.01715391432262, 27.892889946503981 ], [ 113.016437421176789, 27.892763957327585 ], [ 113.015925243400517, 27.892382350896561 ], [ 113.015658227485872, 27.891789012212907 ], [ 113.015770862828859, 27.891414626890011 ], [ 113.016437532293665, 27.891388723163427 ], [ 113.016908910082492, 27.891123339975422 ], [ 113.017224843078324, 27.890728378329332 ], [ 113.017522821202903, 27.890571509704838 ], [ 113.018828337325914, 27.890253787022917 ], [ 113.018920045950722, 27.889958480404729 ], [ 113.018678935016482, 27.889224030273105 ], [ 113.017514025309737, 27.88843117106445 ], [ 113.016916115809579, 27.888276836114208 ], [ 113.016110057127293, 27.886698858925406 ], [ 113.015821105748032, 27.886244605853474 ], [ 113.015437524623579, 27.885342549044989 ], [ 113.01464538433639, 27.884462671554562 ], [ 113.014275717232579, 27.884123677842545 ], [ 113.013977755478848, 27.884319569999207 ], [ 113.013346964746205, 27.884662451297988 ], [ 113.011940967472839, 27.884775556623321 ], [ 113.010802007610422, 27.885324981085997 ], [ 113.01103608106709, 27.88638047380002 ], [ 113.009876223094523, 27.886806953287657 ], [ 113.00942190880761, 27.88626020001222 ], [ 113.009898228172716, 27.885761711311066 ], [ 113.009529579679494, 27.88551575618559 ], [ 113.008732575886228, 27.884147879452648 ], [ 113.008150706589731, 27.88392056508269 ], [ 113.007730226244064, 27.88403983361701 ], [ 113.006919148707127, 27.884459318152594 ], [ 113.007186135527206, 27.884943604897177 ], [ 113.008003145689457, 27.88512520690205 ], [ 113.007853632746063, 27.885827769830836 ], [ 113.006832292612216, 27.88660394036955 ], [ 113.004967114433285, 27.886708535490946 ], [ 113.003571243716834, 27.886788743746187 ], [ 113.000899127868578, 27.886721802520974 ], [ 112.997798819163535, 27.884585852340823 ], [ 112.997117421230612, 27.883781789409181 ], [ 112.996770745535358, 27.883373775575592 ] ] ] } }
]
}
