{
"type": "FeatureCollection",
"name": "荷花村委会",
"crs": { "type": "name", "properties": { "name": "urn:ogc:def:crs:OGC:1.3:CRS84" } },
"features": [
{ "type": "Feature", "properties": { "adcode": "430302100217", "fullName": "湖南省湘潭市雨湖区鹤岭镇荷花村委会", "level": "居委会/社区", "location": "112.849347,27.987147", "name": "荷花村委会", "OBJECTID": 3906, "SHAPE_Leng": 0.10693576956, "SHAPE_Area": 0.000350600205 }, "geometry": { "type": "Polygon", "coordinates": [ [ [ 112.831634904920506, 27.978756510756774 ], [ 112.832496293015637, 27.98065341630792 ], [ 112.833784566623237, 27.980807814097474 ], [ 112.833784435692252, 27.982476087512001 ], [ 112.834731051140764, 27.983158933441526 ], [ 112.836106452224712, 27.983237450600299 ], [ 112.837138183489287, 27.983997440499856 ], [ 112.836707342440633, 27.985208860725468 ], [ 112.837567806364333, 27.985514461556775 ], [ 112.837567711201388, 27.986727659083538 ], [ 112.836623089334651, 27.986573930940676 ], [ 112.836622034079923, 27.987256040052561 ], [ 112.836107114891405, 27.987559156818669 ], [ 112.836621944778813, 27.988394224880672 ], [ 112.834987973752973, 27.989907501674594 ], [ 112.836191071116943, 27.989984702697129 ], [ 112.833527154798489, 27.993012327370081 ], [ 112.834214214395033, 27.994984905759626 ], [ 112.834813283018249, 27.994806973199406 ], [ 112.835758880021274, 27.995567818355234 ], [ 112.838768125000271, 27.99496714088016 ], [ 112.839197708407553, 27.996863209699256 ], [ 112.841347227042149, 27.998155205987768 ], [ 112.841518411319754, 27.999442710386589 ], [ 112.843754069499937, 27.999674611534513 ], [ 112.844387907090095, 28.002078074474181 ], [ 112.846450041074547, 28.00397584401933 ], [ 112.847482853580146, 28.001400144783748 ], [ 112.850405098595274, 28.003755238959322 ], [ 112.853949280071774, 28.002625541332211 ], [ 112.855854928198269, 28.002019271182469 ], [ 112.855875973623057, 28.001798266849825 ], [ 112.855221249950517, 27.999774984800752 ], [ 112.854947944229664, 27.998931446302223 ], [ 112.854485421940865, 27.997506530784523 ], [ 112.854305217425363, 27.996944171377351 ], [ 112.853973794941808, 27.996473598437749 ], [ 112.85386365339717, 27.996323408432882 ], [ 112.85240175031656, 27.9942518465141 ], [ 112.85207136586466, 27.993101150681731 ], [ 112.851709936787188, 27.99191039723814 ], [ 112.852135581848984, 27.991519995043976 ], [ 112.853665862478408, 27.990114109584869 ], [ 112.854264738101094, 27.989563922114815 ], [ 112.854294781174602, 27.989543963887574 ], [ 112.854254727388792, 27.989523900627578 ], [ 112.854183632946018, 27.989473785897474 ], [ 112.85410953326236, 27.989435668476318 ], [ 112.854322837262615, 27.989321969917444 ], [ 112.854176655006299, 27.989067709593019 ], [ 112.852861990314835, 27.986779344712435 ], [ 112.851787435329157, 27.986966716580145 ], [ 112.850240199131207, 27.986548215408611 ], [ 112.849681451533058, 27.98544714477665 ], [ 112.848649949726948, 27.984725364852867 ], [ 112.847359967258072, 27.984723256050962 ], [ 112.845941838076129, 27.98354670937751 ], [ 112.844780989210633, 27.983544754773483 ], [ 112.844050895891712, 27.982481339688611 ], [ 112.843578063376896, 27.983314667670598 ], [ 112.843105351372245, 27.982556731708893 ], [ 112.843535126951892, 27.981608314530195 ], [ 112.843319867858909, 27.980434752467882 ], [ 112.842030767122893, 27.98020448709298 ], [ 112.840999318168514, 27.976791124372308 ], [ 112.840698690262869, 27.97838185907964 ], [ 112.839967522066758, 27.977585439198108 ], [ 112.83975224727061, 27.976446870484125 ], [ 112.838549204000316, 27.97640772487334 ], [ 112.836614823779001, 27.977011347900135 ], [ 112.835151368751255, 27.975757483040077 ], [ 112.834129561892169, 27.975880635159335 ], [ 112.831634904920506, 27.978756510756774 ] ] ] } }
]
}
