{
"type": "FeatureCollection",
"name": "菊花塘社区居委会",
"crs": { "type": "name", "properties": { "name": "urn:ogc:def:crs:OGC:1.3:CRS84" } },
"features": [
{ "type": "Feature", "properties": { "adcode": "430304001210", "fullName": "湖南省湘潭市岳塘区岳塘街道菊花塘社区居委会", "level": "居委会/社区", "location": "112.913241,27.831032", "name": "菊花塘社区居委会", "OBJECTID": 4047, "SHAPE_Leng": 0.054518670936199998, "SHAPE_Area": 4.2162109e-05 }, "geometry": { "type": "MultiPolygon", "coordinates": [ [ [ [ 112.905034219887554, 27.832569438163869 ], [ 112.902900573348575, 27.834165413370496 ], [ 112.903585887636041, 27.837208692142013 ], [ 112.904601190944391, 27.837043317010931 ], [ 112.905621438224429, 27.836876893261866 ], [ 112.905655370754417, 27.837405964262086 ], [ 112.90568531200816, 27.837862025194926 ], [ 112.90612796474727, 27.837825831241389 ], [ 112.906564612478334, 27.837789631173504 ], [ 112.906316839701063, 27.837473691648125 ], [ 112.905732302512163, 27.837511949342812 ], [ 112.905684378618574, 27.837013889237898 ], [ 112.906676568754179, 27.837160478837763 ], [ 112.906701552509787, 27.83710245801452 ], [ 112.906880434942238, 27.836691308810607 ], [ 112.906383854889427, 27.836576517696574 ], [ 112.90567443306027, 27.836412796847469 ], [ 112.905721409461194, 27.836244750359381 ], [ 112.906964375105758, 27.836551246800266 ], [ 112.907199170892213, 27.836609143844299 ], [ 112.908462024228953, 27.836922547675051 ], [ 112.910412089653462, 27.83746249440243 ], [ 112.910451072084228, 27.837176423884852 ], [ 112.910749760077735, 27.837233242672163 ], [ 112.911378174574679, 27.836249671113496 ], [ 112.911369184264174, 27.836248676997741 ], [ 112.910607991849858, 27.836137157555253 ], [ 112.910709919865866, 27.835709023686075 ], [ 112.909733891632683, 27.835895658863471 ], [ 112.909910759740612, 27.835339463247777 ], [ 112.909922750687215, 27.835302450048847 ], [ 112.910489174920357, 27.835352107159082 ], [ 112.910512151144616, 27.83535509309943 ], [ 112.910715028947891, 27.834237784889392 ], [ 112.910721025380852, 27.834203775598986 ], [ 112.912273356043613, 27.834202723222095 ], [ 112.912462141318443, 27.834245594678592 ], [ 112.912678030363509, 27.83253516481572 ], [ 112.912679030083851, 27.832524162330895 ], [ 112.911238592304045, 27.832790211184061 ], [ 112.910669287570713, 27.831519380627302 ], [ 112.910661297301516, 27.831500382719415 ], [ 112.91116578791268, 27.831267016965146 ], [ 112.911961866410039, 27.832073603351247 ], [ 112.91268105585938, 27.832163103314812 ], [ 112.912706003403613, 27.83247313445624 ], [ 112.913092617860613, 27.831729729478077 ], [ 112.913111598699629, 27.831693709501739 ], [ 112.913099612958234, 27.831688717703067 ], [ 112.908914136577678, 27.83005220166168 ], [ 112.908997953936051, 27.831382365861145 ], [ 112.908950996920396, 27.831401395356131 ], [ 112.908141744115511, 27.831419838752719 ], [ 112.907931920179834, 27.831581973920933 ], [ 112.907096651515999, 27.831549384367964 ], [ 112.906533913897093, 27.834235075050049 ], [ 112.90571858024903, 27.834074403956251 ], [ 112.906276245451764, 27.832673941067736 ], [ 112.905425899622216, 27.832878332922906 ], [ 112.905034219887554, 27.832569438163869 ] ] ], [ [ [ 112.904459521293518, 27.846978977197818 ], [ 112.90443555642311, 27.846747948127156 ], [ 112.904432560511367, 27.84672294512448 ], [ 112.904891231151922, 27.846665766585364 ], [ 112.904912215858616, 27.846662758126275 ], [ 112.905056131232868, 27.846373655814535 ], [ 112.903998952033589, 27.845618916496203 ], [ 112.903976964175584, 27.84565893045583 ], [ 112.903625154034088, 27.846313153188248 ], [ 112.903918937094517, 27.84652409095083 ], [ 112.903998861887544, 27.846780105737089 ], [ 112.904334628377256, 27.846748984273162 ], [ 112.904376578607724, 27.847005011133778 ], [ 112.904424545501826, 27.846989991551769 ], [ 112.904459521293518, 27.846978977197818 ] ] ] ] } }
]
}
