{
"type": "FeatureCollection",
"name": "葩金社区居委会",
"crs": { "type": "name", "properties": { "name": "urn:ogc:def:crs:OGC:1.3:CRS84" } },
"features": [
{ "type": "Feature", "properties": { "adcode": "430304010008", "fullName": "湖南省湘潭市岳塘区宝塔街道葩金社区居委会", "level": "居委会/社区", "location": "112.916117,27.824835", "name": "葩金社区居委会", "OBJECTID": 4088, "SHAPE_Leng": 0.085120895632499999, "SHAPE_Area": 5.0140989499899997e-05 }, "geometry": { "type": "MultiPolygon", "coordinates": [ [ [ [ 112.913092617860613, 27.831729729478077 ], [ 112.912706003403613, 27.83247313445624 ], [ 112.91268105585938, 27.832163103314812 ], [ 112.911961866410039, 27.832073603351247 ], [ 112.91116578791268, 27.831267016965146 ], [ 112.910661297301516, 27.831500382719415 ], [ 112.910669287570713, 27.831519380627302 ], [ 112.911238592304045, 27.832790211184061 ], [ 112.912679030083851, 27.832524162330895 ], [ 112.912678030363509, 27.83253516481572 ], [ 112.912462141318443, 27.834245594678592 ], [ 112.912273356043613, 27.834202723222095 ], [ 112.910721025380852, 27.834203775598986 ], [ 112.910715028947891, 27.834237784889392 ], [ 112.910512151144616, 27.83535509309943 ], [ 112.910489174920357, 27.835352107159082 ], [ 112.909922750687215, 27.835302450048847 ], [ 112.909910759740612, 27.835339463247777 ], [ 112.909733891632683, 27.835895658863471 ], [ 112.910709919865866, 27.835709023686075 ], [ 112.910607991849858, 27.836137157555253 ], [ 112.911369184264174, 27.836248676997741 ], [ 112.911378174574679, 27.836249671113496 ], [ 112.911925655379889, 27.835299143819199 ], [ 112.912521073017359, 27.834270556073342 ], [ 112.912715986607267, 27.832543138299684 ], [ 112.913136565662668, 27.831746699176595 ], [ 112.913156545456317, 27.831708678091903 ], [ 112.914685666407607, 27.832301568522354 ], [ 112.916671049641565, 27.83307197084466 ], [ 112.916675044218579, 27.833072967363258 ], [ 112.917081538345968, 27.832529506506916 ], [ 112.917085533229013, 27.832525502154429 ], [ 112.91733721546035, 27.832193213762181 ], [ 112.917362183766784, 27.832160184988677 ], [ 112.917812538961087, 27.832434799843163 ], [ 112.91795433814822, 27.832465667838459 ], [ 112.918408692501671, 27.832505229348492 ], [ 112.918606402188686, 27.832601048187328 ], [ 112.918810120148336, 27.832453820492692 ], [ 112.919174566774245, 27.832750497795445 ], [ 112.919645881832537, 27.832612988608677 ], [ 112.920073290242215, 27.831985438206218 ], [ 112.920097256864238, 27.831949406971408 ], [ 112.918330926861557, 27.8309170533756 ], [ 112.918323937031076, 27.830914059788206 ], [ 112.91866847736523, 27.830489650226159 ], [ 112.918738383370737, 27.830403566490737 ], [ 112.918657496507706, 27.830446654384687 ], [ 112.918654501904072, 27.830432655156851 ], [ 112.918651506988965, 27.830422656564263 ], [ 112.918101309275286, 27.830181161640059 ], [ 112.917506155531669, 27.829976701753832 ], [ 112.916863055133703, 27.829688256835968 ], [ 112.916178983556321, 27.829452838242229 ], [ 112.916789269542065, 27.82820909033148 ], [ 112.916844249979306, 27.827509929368532 ], [ 112.917016044115627, 27.827172717582286 ], [ 112.917196867796108, 27.826278408230298 ], [ 112.917205858484351, 27.826240393833555 ], [ 112.917365642866386, 27.826200237499926 ], [ 112.919367709603378, 27.827272430160612 ], [ 112.919387679385935, 27.827282411120045 ], [ 112.919581522401984, 27.825614947243832 ], [ 112.919586518256224, 27.825572935428905 ], [ 112.921571418143699, 27.826274890772456 ], [ 112.921808066509101, 27.825959572499009 ], [ 112.921838021810316, 27.82591953201711 ], [ 112.920580050175133, 27.825165814487317 ], [ 112.920565073770859, 27.825157829489168 ], [ 112.921535622510461, 27.824378632938032 ], [ 112.922349315293516, 27.824423707364172 ], [ 112.9227606256717, 27.824656261328411 ], [ 112.923169993875533, 27.824080683298387 ], [ 112.923195953417988, 27.824045646627987 ], [ 112.922538063915056, 27.823708374612163 ], [ 112.920535182674143, 27.824347734629985 ], [ 112.920247634460409, 27.824177017661054 ], [ 112.919765363761954, 27.824136522689312 ], [ 112.919513711864568, 27.824472838216831 ], [ 112.918292520311368, 27.823993997896281 ], [ 112.918759926644668, 27.823025381310028 ], [ 112.918778902210434, 27.822987356281381 ], [ 112.919212288797326, 27.822766881746055 ], [ 112.919229264452312, 27.822759863241441 ], [ 112.919343126639589, 27.822380686837015 ], [ 112.919347121924574, 27.822365680371373 ], [ 112.919631731781777, 27.821967322862427 ], [ 112.919657696197518, 27.821928289649829 ], [ 112.919283266378656, 27.82171664467808 ], [ 112.919265293634851, 27.821705661433967 ], [ 112.918780941535559, 27.822444269237778 ], [ 112.918049919345904, 27.823273122251674 ], [ 112.918044925361869, 27.823286129148322 ], [ 112.917692330895648, 27.824410645753773 ], [ 112.917269790656235, 27.825989294394123 ], [ 112.917255809545495, 27.825992307979877 ], [ 112.917061070516652, 27.82604849853983 ], [ 112.916307111383858, 27.825642122008759 ], [ 112.916285136942676, 27.825686148591863 ], [ 112.915667846895843, 27.826897882761209 ], [ 112.915657860136747, 27.826892890620918 ], [ 112.913905109359774, 27.825969193064893 ], [ 112.91317999372734, 27.825593692468495 ], [ 112.912440790292464, 27.826207334035654 ], [ 112.912444785027319, 27.826217332732863 ], [ 112.91267048552875, 27.826791259420389 ], [ 112.91234180272447, 27.827474605070179 ], [ 112.912326819474075, 27.827474615794834 ], [ 112.912311833882185, 27.827504631250605 ], [ 112.911962221199587, 27.827504878375525 ], [ 112.911904288200546, 27.827460911840245 ], [ 112.911902268334288, 27.82774495812491 ], [ 112.91187329998165, 27.82774597843278 ], [ 112.911660531456235, 27.827749125741022 ], [ 112.911651538477955, 27.827784137434524 ], [ 112.911406729349565, 27.828720451834609 ], [ 112.91184224973901, 27.82882917134328 ], [ 112.911745336287211, 27.829075277312974 ], [ 112.911725358089711, 27.829074290913294 ], [ 112.911712369714806, 27.829106304919126 ], [ 112.911737341329314, 27.82912229026871 ], [ 112.911879183605322, 27.829160198137327 ], [ 112.911884163069715, 27.829354225424709 ], [ 112.912333657642236, 27.829457924754678 ], [ 112.912456485270042, 27.829903907244713 ], [ 112.912419527325596, 27.829896932761248 ], [ 112.911895117094218, 27.829791287109867 ], [ 112.911887122818541, 27.829830298859651 ], [ 112.911789193823523, 27.830293440252269 ], [ 112.912581292548552, 27.830572923092543 ], [ 112.912972811351992, 27.831018705896287 ], [ 112.912924855030838, 27.831165764931772 ], [ 112.913309397844728, 27.831319500565741 ], [ 112.913111598699629, 27.831693709501739 ], [ 112.913092617860613, 27.831729729478077 ] ] ], [ [ [ 112.910734537050246, 27.827440692093006 ], [ 112.911356874631352, 27.827537298246821 ], [ 112.911411826896895, 27.827395238841191 ], [ 112.911471801446027, 27.8268951193898 ], [ 112.910901423768763, 27.826663461428883 ], [ 112.910734537050246, 27.827440692093006 ] ] ], [ [ [ 112.910323859532824, 27.828713153691009 ], [ 112.910644524580221, 27.828798964628945 ], [ 112.910805338625678, 27.829047900675931 ], [ 112.911093136766823, 27.827766509979167 ], [ 112.910562685963811, 27.827806859832485 ], [ 112.910470755197423, 27.828128968993205 ], [ 112.910469755753482, 27.82813497057337 ], [ 112.910323859532824, 27.828713153691009 ] ] ], [ [ [ 112.909467756359774, 27.828120578149342 ], [ 112.909982228139114, 27.828396314319988 ], [ 112.9100941680842, 27.82772714001511 ], [ 112.909636628028352, 27.827650404222389 ], [ 112.909467756359774, 27.828120578149342 ] ] ] ] } }
]
}
