{
"type": "FeatureCollection",
"name": "蒿塘村村委会",
"crs": { "type": "name", "properties": { "name": "urn:ogc:def:crs:OGC:1.3:CRS84" } },
"features": [
{ "type": "Feature", "properties": { "adcode": "430372100202", "fullName": "湖南省湘潭市岳塘区昭山镇蒿塘村村委会", "level": "居委会/社区", "location": "113.008294,27.930222", "name": "蒿塘村村委会", "OBJECTID": 4148, "SHAPE_Leng": 0.104596906261, "SHAPE_Area": 0.0003530503205 }, "geometry": { "type": "Polygon", "coordinates": [ [ [ 113.009430556347965, 27.939660285027163 ], [ 113.011308831634409, 27.939112672294232 ], [ 113.012911158030334, 27.938425885957262 ], [ 113.013811001110781, 27.937923195227945 ], [ 113.014419008048733, 27.935963108541447 ], [ 113.014623357063357, 27.935091372231515 ], [ 113.015083896761524, 27.933079707189009 ], [ 113.015352066449168, 27.931685701216704 ], [ 113.015527585434086, 27.930013913795566 ], [ 113.015283531636797, 27.928923425920051 ], [ 113.015206817049815, 27.928731612880942 ], [ 113.014751513470429, 27.927591724290728 ], [ 113.014441637337256, 27.927222552148962 ], [ 113.014036106974288, 27.926787646193752 ], [ 113.012847413473338, 27.925744907934593 ], [ 113.012586362565386, 27.92551662732151 ], [ 113.01183910299342, 27.92465165606998 ], [ 113.011215409936909, 27.923775329174646 ], [ 113.010434182463086, 27.924232698367007 ], [ 113.011183324170503, 27.926255847028919 ], [ 113.011170261348809, 27.927610116632991 ], [ 113.010389952066063, 27.929044650421996 ], [ 113.008027485516536, 27.929298671466842 ], [ 113.006626584269355, 27.929415860014558 ], [ 113.005814516269538, 27.929911370416797 ], [ 113.004424668515611, 27.929309433906887 ], [ 113.003431383462427, 27.928620303912247 ], [ 113.002351410134224, 27.92814948047279 ], [ 113.001110082479642, 27.927203072058347 ], [ 112.999036885752147, 27.9259011368882 ], [ 112.998426219207175, 27.925136861801455 ], [ 112.998185235389499, 27.923657341517096 ], [ 112.998279932635285, 27.92303994806932 ], [ 112.997488936587445, 27.922313229511076 ], [ 112.99628849935084, 27.921208694619189 ], [ 112.995486549364315, 27.920470010733261 ], [ 112.995202629387933, 27.920208830949687 ], [ 112.989937279216008, 27.919998824317016 ], [ 112.989827679803554, 27.92009117308908 ], [ 112.987196277355167, 27.922347537120149 ], [ 112.994126065328274, 27.927423343942852 ], [ 112.996842951518545, 27.927182027536542 ], [ 112.996732299414006, 27.927983501277918 ], [ 112.997010187301768, 27.928931817350982 ], [ 112.997095758536176, 27.930295789774174 ], [ 112.99387248578023, 27.933958231791099 ], [ 112.992230316391172, 27.937638860612807 ], [ 112.992142627673147, 27.937835161010486 ], [ 112.994164977173597, 27.939143223765104 ], [ 112.994354257165668, 27.93931367609397 ], [ 112.995838612593133, 27.940638379521836 ], [ 112.997582005776394, 27.941973299158356 ], [ 112.999594399530707, 27.943428430763348 ], [ 112.999953043681984, 27.943716391436617 ], [ 112.999993889384356, 27.943748272950817 ], [ 113.000082554595835, 27.943816015528149 ], [ 113.00146732748567, 27.94493201019273 ], [ 113.0022543429492, 27.94580978003491 ], [ 113.002722568912688, 27.946340456556999 ], [ 113.007780150191238, 27.944561004302461 ], [ 113.007897730604583, 27.944456637384882 ], [ 113.008142869791882, 27.944073844885175 ], [ 113.008408912956554, 27.943949034895621 ], [ 113.008298335446099, 27.943693319259879 ], [ 113.008713840057908, 27.943527060207309 ], [ 113.008559420344923, 27.943282475884278 ], [ 113.009318715167879, 27.942696131067667 ], [ 113.009184259262128, 27.941989408113852 ], [ 113.009088639807601, 27.941567618976112 ], [ 113.008849543539185, 27.941110248189116 ], [ 113.008839658042646, 27.940139112346444 ], [ 113.009144584835909, 27.939744143693002 ], [ 113.009430556347965, 27.939660285027163 ] ] ] } }
]
}
