{
"type": "FeatureCollection",
"name": "西塘村村委会",
"crs": { "type": "name", "properties": { "name": "urn:ogc:def:crs:OGC:1.3:CRS84" } },
"features": [
{ "type": "Feature", "properties": { "adcode": "430371001203", "fullName": "湖南省湘潭市岳塘区板塘街道西塘村村委会", "level": "居委会/社区", "location": "112.974869,27.837097", "name": "西塘村村委会", "OBJECTID": 4121, "SHAPE_Leng": 0.082477063280799998, "SHAPE_Area": 0.00022130122949899999 }, "geometry": { "type": "Polygon", "coordinates": [ [ [ 112.981031245489675, 27.843871830718079 ], [ 112.981010684130723, 27.839309154471554 ], [ 112.980998957787008, 27.836411723830739 ], [ 112.977189779776879, 27.836065897732635 ], [ 112.977186790517763, 27.83606590647058 ], [ 112.974991654543203, 27.835866254164451 ], [ 112.972133762661102, 27.835607401332329 ], [ 112.971583689744179, 27.835557952929737 ], [ 112.971391362063159, 27.835540494073495 ], [ 112.970870180051207, 27.835492956939337 ], [ 112.970650943011094, 27.835473570838818 ], [ 112.963008826155018, 27.834779327343853 ], [ 112.961731004308191, 27.834662663795331 ], [ 112.961204711358931, 27.83461602595758 ], [ 112.96112297586491, 27.834607236608576 ], [ 112.960903684216916, 27.834587801564204 ], [ 112.961049135009816, 27.835607588038521 ], [ 112.960230694019799, 27.83649284184758 ], [ 112.959360492049271, 27.836176016788301 ], [ 112.959117269930772, 27.83608762100145 ], [ 112.958341655912193, 27.836848703964151 ], [ 112.957255972899702, 27.83779857273321 ], [ 112.956454397395447, 27.838500669211776 ], [ 112.958132680839825, 27.844843520140365 ], [ 112.95818151972145, 27.844944413839446 ], [ 112.958656949478168, 27.845899371213132 ], [ 112.958672899207926, 27.845899330909926 ], [ 112.961799896035231, 27.845857289467705 ], [ 112.961857700111054, 27.845961155391723 ], [ 112.962041078071351, 27.846288729179452 ], [ 112.962060016374352, 27.846289679762656 ], [ 112.962409873771449, 27.846319767244161 ], [ 112.962622384817891, 27.843722786537494 ], [ 112.962548631359823, 27.843653969438193 ], [ 112.963222435866982, 27.84349116504201 ], [ 112.965573759616632, 27.841880612557816 ], [ 112.966291273485112, 27.842837821501178 ], [ 112.966663998316079, 27.843063842621213 ], [ 112.96704767504319, 27.843384846052878 ], [ 112.967732348582302, 27.843402969719907 ], [ 112.968107063862576, 27.843496952135304 ], [ 112.968342244857709, 27.843694334376394 ], [ 112.968663090306762, 27.844406561597911 ], [ 112.969196226671642, 27.844831149692364 ], [ 112.969988484198282, 27.844970961070807 ], [ 112.970790771976255, 27.844114569961821 ], [ 112.97149625350508, 27.844899706777834 ], [ 112.972084209947042, 27.844756017266114 ], [ 112.972489779361027, 27.844868882572037 ], [ 112.973034832135085, 27.845265392758549 ], [ 112.972923158367465, 27.84610584829424 ], [ 112.974072147850094, 27.84554746633739 ], [ 112.974532515111562, 27.84556114360986 ], [ 112.975270830127343, 27.846318134617821 ], [ 112.975623502930958, 27.84719825642529 ], [ 112.975731085050526, 27.847625013988793 ], [ 112.976318958785185, 27.847936356722798 ], [ 112.976157434738596, 27.849219035976422 ], [ 112.976221171244347, 27.849664923521754 ], [ 112.976264983520082, 27.850053859696942 ], [ 112.976418407537778, 27.850389468113207 ], [ 112.977690865404597, 27.850035693770646 ], [ 112.978235893538724, 27.850118108415472 ], [ 112.978523974647572, 27.848590011943685 ], [ 112.977677114683431, 27.847526324230305 ], [ 112.977325471439201, 27.846379166650618 ], [ 112.977454147608654, 27.844632506267725 ], [ 112.978138752063231, 27.843738354489659 ], [ 112.981031245489675, 27.843871830718079 ] ] ] } }
]
}
