{
"type": "FeatureCollection",
"name": "观湘门社区居委会",
"crs": { "type": "name", "properties": { "name": "urn:ogc:def:crs:OGC:1.3:CRS84" } },
"features": [
{ "type": "Feature", "properties": { "adcode": "430302002008", "fullName": "湖南省湘潭市雨湖区城正街街道观湘门社区居委会", "level": "居委会/社区", "location": "112.924949,27.858792", "name": "观湘门社区居委会", "OBJECTID": 3839, "SHAPE_Leng": 0.026503818912900001, "SHAPE_Area": 4.0915767500299999e-05 }, "geometry": { "type": "Polygon", "coordinates": [ [ [ 112.924378054235873, 27.861190206457366 ], [ 112.921317202874988, 27.859841613401681 ], [ 112.917212329517412, 27.858605625835644 ], [ 112.917131427066863, 27.858769728555782 ], [ 112.917113448734398, 27.858805751269674 ], [ 112.915535278510433, 27.862078707961182 ], [ 112.915535267616988, 27.862218731247403 ], [ 112.91547533285086, 27.862365807180243 ], [ 112.914656285922163, 27.863350658316072 ], [ 112.914659282139311, 27.863351656023017 ], [ 112.914945921229929, 27.863407428177826 ], [ 112.915214578047198, 27.863474213680796 ], [ 112.91543928663792, 27.863550035098754 ], [ 112.915706932973947, 27.863681826334044 ], [ 112.915942617855052, 27.863806641290999 ], [ 112.91623123266065, 27.863901401616506 ], [ 112.916671634111225, 27.864080034349207 ], [ 112.916971220463054, 27.864212781407346 ], [ 112.917324725439428, 27.86438348010692 ], [ 112.917646271369222, 27.864517197591226 ], [ 112.91800975261792, 27.864657870907816 ], [ 112.918343269789872, 27.864799568057979 ], [ 112.918727707988211, 27.864941209184977 ], [ 112.919061211496, 27.86510389915216 ], [ 112.919360760509306, 27.865253617055064 ], [ 112.919713221559761, 27.865462285431978 ], [ 112.91997082377857, 27.865614039438121 ], [ 112.920196471918388, 27.865755823012471 ], [ 112.920399153273252, 27.865888627597428 ], [ 112.920592847781208, 27.866003437123474 ], [ 112.920785544375136, 27.866087240903457 ], [ 112.921042138018237, 27.866191975917637 ], [ 112.921245816738775, 27.866228755762137 ], [ 112.921516384813458, 27.866302464613657 ], [ 112.922039677639845, 27.864669596166003 ], [ 112.924006647597011, 27.861744761038928 ], [ 112.924378054235873, 27.861190206457366 ] ] ] } }
]
}
