{
"type": "FeatureCollection",
"name": "许家铺社区居委会",
"crs": { "type": "name", "properties": { "name": "urn:ogc:def:crs:OGC:1.3:CRS84" } },
"features": [
{ "type": "Feature", "properties": { "adcode": "430302006105", "fullName": "湖南省湘潭市雨湖区昭潭街道许家铺社区居委会", "level": "居委会/社区", "location": "112.88982,27.851676", "name": "许家铺社区居委会", "OBJECTID": 3872, "SHAPE_Leng": 0.00761416045911, "SHAPE_Area": 2.0057210000199998e-06 }, "geometry": { "type": "Polygon", "coordinates": [ [ [ 112.882919818468281, 27.855979036410687 ], [ 112.883037835862481, 27.856246147006331 ], [ 112.883492980000469, 27.856207391735822 ], [ 112.884105192605276, 27.855723636548966 ], [ 112.884427287340273, 27.855601781217253 ], [ 112.884745380878854, 27.8554219101547 ], [ 112.885205508516052, 27.855155088329937 ], [ 112.885714649336961, 27.854719252281811 ], [ 112.885224590801613, 27.854148931446982 ], [ 112.885216589730618, 27.854139926178672 ], [ 112.885117563398836, 27.854193888018585 ], [ 112.885035540994238, 27.854241856649214 ], [ 112.884030241534262, 27.854828449869593 ], [ 112.883827175584884, 27.854945362503745 ], [ 112.883736145371842, 27.854998322893778 ], [ 112.883746147482199, 27.855008329873129 ], [ 112.884014200796003, 27.855296518730849 ], [ 112.883632070920811, 27.855567361122802 ], [ 112.882919818468281, 27.855979036410687 ] ] ] } }
]
}
