{
"type": "FeatureCollection",
"name": "调塘社区居委会",
"crs": { "type": "name", "properties": { "name": "urn:ogc:def:crs:OGC:1.3:CRS84" } },
"features": [
{ "type": "Feature", "properties": { "adcode": "430302003008", "fullName": "湖南省湘潭市雨湖区云塘街道调塘社区居委会", "level": "居委会/社区", "location": "112.908883,27.873097", "name": "调塘社区居委会", "OBJECTID": 3847, "SHAPE_Leng": 0.032309139164200001, "SHAPE_Area": 4.64842854998e-05 }, "geometry": { "type": "Polygon", "coordinates": [ [ [ 112.898712508307952, 27.876623229531404 ], [ 112.898761464419721, 27.876917274018684 ], [ 112.899056298681145, 27.877387320351993 ], [ 112.899837873959783, 27.8781743471441 ], [ 112.900278615418372, 27.878689362336999 ], [ 112.901066133222869, 27.879557359189818 ], [ 112.901881713713976, 27.879006081739657 ], [ 112.901891697035779, 27.879145102783628 ], [ 112.90202060690045, 27.879324101112793 ], [ 112.902138504729123, 27.879732140227052 ], [ 112.902208458170946, 27.879789131861322 ], [ 112.902369356298834, 27.879841098415849 ], [ 112.902534238435862, 27.880050089264341 ], [ 112.902550223378398, 27.880116096045974 ], [ 112.90239030698325, 27.880310172128823 ], [ 112.902396285581347, 27.88053820909121 ], [ 112.902540176721047, 27.880796213803656 ], [ 112.906670260812362, 27.879770526405508 ], [ 112.906339620463541, 27.878640485029852 ], [ 112.907068033673156, 27.878394107505208 ], [ 112.907105012155142, 27.878266068198133 ], [ 112.907201940748536, 27.878118996703556 ], [ 112.907420768607366, 27.877904853638313 ], [ 112.907234991702694, 27.877099808742631 ], [ 112.907085169231777, 27.876464773856263 ], [ 112.9068334685727, 27.875350705134643 ], [ 112.906640692286786, 27.874540657953222 ], [ 112.906501855237039, 27.87391861648965 ], [ 112.906341036883646, 27.873273580132523 ], [ 112.906256131200607, 27.872946562765538 ], [ 112.906073269807322, 27.873055660976892 ], [ 112.905676564932236, 27.87328886827353 ], [ 112.905403768622833, 27.873379995065697 ], [ 112.905231899861718, 27.873375062743193 ], [ 112.904621359563436, 27.873285280244069 ], [ 112.904310590583648, 27.873184375224845 ], [ 112.903593106556585, 27.872934575087289 ], [ 112.902509830810018, 27.872626844702378 ], [ 112.902401898424046, 27.872612871486165 ], [ 112.902161044756355, 27.872612934622687 ], [ 112.90142749199947, 27.872361068564782 ], [ 112.901205621603879, 27.872289105047159 ], [ 112.900915732235148, 27.8729022682293 ], [ 112.900808756848974, 27.873323360269026 ], [ 112.900631822057804, 27.873688455692935 ], [ 112.90050786204192, 27.874005532038577 ], [ 112.900491837841628, 27.874423605313268 ], [ 112.900764680478545, 27.874607584928739 ], [ 112.900979544504722, 27.874873586933059 ], [ 112.901183414925782, 27.875105583503966 ], [ 112.901375306162848, 27.875129545847052 ], [ 112.901516213967327, 27.87529054129762 ], [ 112.901171363336275, 27.875854712257922 ], [ 112.900904505411134, 27.875897774617997 ], [ 112.900882505809165, 27.876044803796081 ], [ 112.900952461502598, 27.876129804052415 ], [ 112.900764546267624, 27.876334875916573 ], [ 112.900899464656746, 27.876456869862235 ], [ 112.9004367063594, 27.876480961844788 ], [ 112.900040943067054, 27.876005949398838 ], [ 112.899801078749093, 27.875768947052165 ], [ 112.89883046698904, 27.876500196319366 ], [ 112.898712508307952, 27.876623229531404 ] ] ] } }
]
}
