{
"type": "FeatureCollection",
"name": "谷湖村委会",
"crs": { "type": "name", "properties": { "name": "urn:ogc:def:crs:OGC:1.3:CRS84" } },
"features": [
{ "type": "Feature", "properties": { "adcode": "430302100234", "fullName": "湖南省湘潭市雨湖区鹤岭镇谷湖村委会", "level": "居委会/社区", "location": "112.820236,27.994896", "name": "谷湖村委会", "OBJECTID": 3914, "SHAPE_Leng": 0.075194274222099997, "SHAPE_Area": 0.0001916282105 }, "geometry": { "type": "Polygon", "coordinates": [ [ [ 112.80342804664609, 27.996866295199975 ], [ 112.804158084000932, 27.999264955101438 ], [ 112.805533386588678, 27.999645440827521 ], [ 112.80742568097574, 27.999119733424241 ], [ 112.807682977579972, 28.001014497420321 ], [ 112.812411274367733, 28.001402177833199 ], [ 112.812583402537015, 28.003676855761263 ], [ 112.816366972859143, 28.006715366147883 ], [ 112.81700711303958, 28.006975604710586 ], [ 112.818131298449103, 28.00516142684388 ], [ 112.820538650280881, 28.005621025873079 ], [ 112.820452636322329, 28.003801576893956 ], [ 112.821828177728094, 28.003425108683139 ], [ 112.823375992772142, 28.003579050202251 ], [ 112.824321880210434, 28.001533508383034 ], [ 112.826730350734906, 28.000477871806471 ], [ 112.82535403610855, 27.998049897032455 ], [ 112.823375385167822, 27.998570253340123 ], [ 112.821397946447547, 27.996369174566933 ], [ 112.819936260628069, 27.996594458016403 ], [ 112.819506667961392, 27.9941672601249 ], [ 112.816669508618077, 27.994162935633607 ], [ 112.813315521299941, 27.993398568470017 ], [ 112.814347612951721, 27.990366993057833 ], [ 112.815895494667032, 27.989233692718258 ], [ 112.815208288935793, 27.988777336873707 ], [ 112.807899109023381, 27.991417348195672 ], [ 112.807727632130849, 27.993691406344986 ], [ 112.806265108243338, 27.993688787176513 ], [ 112.805835162634054, 27.996340448222895 ], [ 112.80342804664609, 27.996866295199975 ] ] ] } }
]
}
