{
"type": "FeatureCollection",
"name": "象形村村委会",
"crs": { "type": "name", "properties": { "name": "urn:ogc:def:crs:OGC:1.3:CRS84" } },
"features": [
{ "type": "Feature", "properties": { "adcode": "430371002201", "fullName": "湖南省湘潭市岳塘区双马街道象形村村委会", "level": "居委会/社区", "location": "112.992443,27.832976", "name": "象形村村委会", "OBJECTID": 4131, "SHAPE_Leng": 0.063830865118299995, "SHAPE_Area": 0.0001563141715 }, "geometry": { "type": "Polygon", "coordinates": [ [ [ 112.980940512205379, 27.832128213411838 ], [ 112.981003158191655, 27.833704278400521 ], [ 112.980998957787008, 27.836411723830739 ], [ 112.981010684130723, 27.839309154471554 ], [ 112.981031245489675, 27.843871830718079 ], [ 112.986356652965227, 27.844066899259523 ], [ 112.98688562444319, 27.844946443876182 ], [ 112.990157406636882, 27.845805664185164 ], [ 112.988915169456519, 27.844011145019685 ], [ 112.989726230530778, 27.843058528386038 ], [ 112.989684510202252, 27.841502403368342 ], [ 112.99070870191531, 27.841468285113915 ], [ 112.990725643731651, 27.841407223728861 ], [ 112.990775469455102, 27.8412670495612 ], [ 112.99078543707148, 27.841208009712158 ], [ 112.990785449035741, 27.841057985448579 ], [ 112.990852215204882, 27.84087375264977 ], [ 112.990855204635736, 27.840866742426151 ], [ 112.990913997754532, 27.840716539364703 ], [ 112.99097477786087, 27.840636341550656 ], [ 112.99105448986549, 27.840526081287532 ], [ 112.991081391935126, 27.840497994919915 ], [ 112.991603415481407, 27.840899471331088 ], [ 112.992170308843825, 27.840830734611707 ], [ 112.992095606095191, 27.840594923988682 ], [ 112.991763864078607, 27.840320889636899 ], [ 112.991827633880405, 27.840228680662541 ], [ 112.991306606022121, 27.839838203351103 ], [ 112.991713166103963, 27.838907816294043 ], [ 112.99196926520807, 27.838242929812029 ], [ 112.991284837382437, 27.837960967499058 ], [ 112.990249722671393, 27.837564051624437 ], [ 112.991232277936604, 27.834902637239729 ], [ 112.993370460037895, 27.833037829578785 ], [ 112.992088374737634, 27.83133246271186 ], [ 112.992644379013981, 27.830381618783157 ], [ 112.993456464843092, 27.828975922603043 ], [ 112.993225339970863, 27.828805599705728 ], [ 112.990687940799191, 27.826952030708313 ], [ 112.989384815114363, 27.826615937451095 ], [ 112.989213415837028, 27.827070529413977 ], [ 112.988635527672088, 27.827509351977145 ], [ 112.988186250166578, 27.826826606347289 ], [ 112.987267659618468, 27.826791382226627 ], [ 112.987203705411147, 27.829184953696743 ], [ 112.986583977704782, 27.829469872227804 ], [ 112.986198364770729, 27.829966115284048 ], [ 112.986220227852996, 27.830668160632118 ], [ 112.985985083793864, 27.830837897175165 ], [ 112.985451051976526, 27.830899517054 ], [ 112.984811416493741, 27.830845434123688 ], [ 112.984766510935358, 27.831736710791425 ], [ 112.984381909938662, 27.83196590338601 ], [ 112.981056091120323, 27.832122869144108 ], [ 112.980940512205379, 27.832128213411838 ] ] ] } }
]
}
