{
"type": "FeatureCollection",
"name": "跃进社区居委会",
"crs": { "type": "name", "properties": { "name": "urn:ogc:def:crs:OGC:1.3:CRS84" } },
"features": [
{ "type": "Feature", "properties": { "adcode": "430302100002", "fullName": "湖南省湘潭市雨湖区鹤岭镇跃进社区居委会", "level": "居委会/社区", "location": "112.855339,27.95862", "name": "跃进社区居委会", "OBJECTID": 3894, "SHAPE_Leng": 0.064562660394400007, "SHAPE_Area": 6.9000446999899995e-05 }, "geometry": { "type": "Polygon", "coordinates": [ [ [ 112.842923486329056, 27.964233381196195 ], [ 112.843009613732207, 27.964408558977564 ], [ 112.843041661347925, 27.964470624575871 ], [ 112.843208902301768, 27.964886982105948 ], [ 112.843671657355401, 27.964874774120478 ], [ 112.844074299490686, 27.965012485241481 ], [ 112.84437471595858, 27.965891143863434 ], [ 112.846020348609045, 27.965807905074161 ], [ 112.846372905542665, 27.965789490287918 ], [ 112.84736646352188, 27.96570512172886 ], [ 112.849536775320885, 27.965723653006826 ], [ 112.849550930989594, 27.964002387597422 ], [ 112.850071725288871, 27.963803186539632 ], [ 112.850699668433748, 27.963639155031697 ], [ 112.851472804931134, 27.963584360488976 ], [ 112.85166710647924, 27.963336622169155 ], [ 112.851951581458209, 27.962522928122365 ], [ 112.852072772817124, 27.962309080169199 ], [ 112.852180948693359, 27.962049204022602 ], [ 112.852412285628006, 27.961982550082983 ], [ 112.852477396850531, 27.961750611478216 ], [ 112.85247142273677, 27.961309528206613 ], [ 112.85279388964895, 27.961216008018308 ], [ 112.853222503018074, 27.961130648617864 ], [ 112.853572992064983, 27.961175188494433 ], [ 112.853680131342955, 27.961311373540816 ], [ 112.853723163362872, 27.961671499076175 ], [ 112.853787179806147, 27.96260575257287 ], [ 112.854749506133601, 27.962650201979887 ], [ 112.854651333165947, 27.963143138561968 ], [ 112.854566150461437, 27.963986152899984 ], [ 112.854544997453942, 27.965574387195424 ], [ 112.854538940658273, 27.966195482002664 ], [ 112.855375077476083, 27.966231727007724 ], [ 112.855364100025639, 27.965752630761052 ], [ 112.855713584779082, 27.96557211342591 ], [ 112.855970933183087, 27.965520480493044 ], [ 112.856228286339729, 27.965383831684186 ], [ 112.856519690395331, 27.96514621344938 ], [ 112.856874166614759, 27.965010700610136 ], [ 112.857142519705576, 27.964972077967538 ], [ 112.857228664164239, 27.964555130995265 ], [ 112.857136660879078, 27.963064750118598 ], [ 112.857018507075225, 27.963063581139703 ], [ 112.856255504031381, 27.963056481374437 ], [ 112.855697782079687, 27.962771621264867 ], [ 112.85574586468347, 27.962539652696055 ], [ 112.858155008969248, 27.962567106284919 ], [ 112.855477682792113, 27.960248874921412 ], [ 112.855060130705567, 27.960077230532647 ], [ 112.854779555675464, 27.962542228535078 ], [ 112.854874760452034, 27.961585209287556 ], [ 112.854470166149554, 27.962093692329454 ], [ 112.854182738932252, 27.96248432758976 ], [ 112.854037555338337, 27.962258071531213 ], [ 112.854069626844478, 27.961912061680241 ], [ 112.854096701384563, 27.961438022778214 ], [ 112.85415580028625, 27.961220074929031 ], [ 112.854119753785, 27.961176013402117 ], [ 112.853983564727386, 27.961176808761671 ], [ 112.853705217672427, 27.960654301078613 ], [ 112.854167820363685, 27.961176085581766 ], [ 112.854704512892241, 27.961773988019132 ], [ 112.854703606154317, 27.960562783213678 ], [ 112.854217992181148, 27.959863940303961 ], [ 112.855107225544629, 27.95968223374155 ], [ 112.852692971530317, 27.958327367326955 ], [ 112.852371521477124, 27.958212853344541 ], [ 112.851987996104924, 27.957883204529509 ], [ 112.850662056307257, 27.957960141294294 ], [ 112.850060169089545, 27.957898175878476 ], [ 112.849742689163932, 27.957973681802919 ], [ 112.849485302047825, 27.957987271685774 ], [ 112.84907667774533, 27.958092631910262 ], [ 112.849139744886529, 27.958453794447887 ], [ 112.849149755324362, 27.958513820692392 ], [ 112.849166773376268, 27.958611864629081 ], [ 112.848553799675756, 27.959169967011718 ], [ 112.848328471103883, 27.958971567228513 ], [ 112.848102135551102, 27.958828174053931 ], [ 112.847985957838603, 27.95881898269144 ], [ 112.847810685761885, 27.958848700831819 ], [ 112.84742708799169, 27.958913081777048 ], [ 112.847036480242849, 27.958924439400231 ], [ 112.846781081083762, 27.958932017854117 ], [ 112.846705952493807, 27.959073917130997 ], [ 112.846394444119241, 27.959328442182279 ], [ 112.846103966032388, 27.959594002434557 ], [ 112.845696303648083, 27.959819357911798 ], [ 112.845213518637905, 27.960037582601966 ], [ 112.844835902195115, 27.960197971607972 ], [ 112.844674627106599, 27.960406733493524 ], [ 112.844728702045316, 27.960558850723888 ], [ 112.844653575554148, 27.960633735957789 ], [ 112.844266944103865, 27.960747098083477 ], [ 112.844180794603247, 27.960879973694901 ], [ 112.844180785679413, 27.960993992839644 ], [ 112.844319995622072, 27.961183261664303 ], [ 112.844588433747134, 27.961108705271108 ], [ 112.84513731550561, 27.961080629393802 ], [ 112.845200401362945, 27.961270767760301 ], [ 112.844953988419775, 27.961515392769808 ], [ 112.845266456398775, 27.961914987304795 ], [ 112.845052109739825, 27.961971635186615 ], [ 112.84478267024177, 27.962074196698396 ], [ 112.844503210775883, 27.962207745148877 ], [ 112.844385005635132, 27.962396575963488 ], [ 112.844126574350142, 27.962577166274762 ], [ 112.843890174621535, 27.962794799330698 ], [ 112.843850107231873, 27.962825736047083 ], [ 112.843615711956275, 27.963012366253764 ], [ 112.843545593507301, 27.963068255466336 ], [ 112.84323404922722, 27.963532798506737 ], [ 112.843115847920302, 27.963636612577769 ], [ 112.843018671950944, 27.963853481594242 ], [ 112.842987615782903, 27.963921439474142 ], [ 112.842923486329056, 27.964233381196195 ] ] ] } }
]
}
