{
"type": "FeatureCollection",
"name": "路口社区居委会",
"crs": { "type": "name", "properties": { "name": "urn:ogc:def:crs:OGC:1.3:CRS84" } },
"features": [
{ "type": "Feature", "properties": { "adcode": "430372100003", "fullName": "湖南省湘潭市岳塘区昭山镇路口社区居委会", "level": "居委会/社区", "location": "113.025519,27.926975", "name": "路口社区居委会", "OBJECTID": 4145, "SHAPE_Leng": 0.069173262746200004, "SHAPE_Area": 0.00016421636 }, "geometry": { "type": "Polygon", "coordinates": [ [ [ 113.011215409936909, 27.923775329174646 ], [ 113.01183910299342, 27.92465165606998 ], [ 113.012586362565386, 27.92551662732151 ], [ 113.012847413473338, 27.925744907934593 ], [ 113.014036106974288, 27.926787646193752 ], [ 113.014441637337256, 27.927222552148962 ], [ 113.014751513470429, 27.927591724290728 ], [ 113.015206817049815, 27.928731612880942 ], [ 113.015283531636797, 27.928923425920051 ], [ 113.015527585434086, 27.930013913795566 ], [ 113.015352066449168, 27.931685701216704 ], [ 113.015083896761524, 27.933079707189009 ], [ 113.014623357063357, 27.935091372231515 ], [ 113.014419008048733, 27.935963108541447 ], [ 113.015467302112214, 27.936112126164129 ], [ 113.015509174760837, 27.935868964991226 ], [ 113.01546735009839, 27.935519024981815 ], [ 113.015253113982595, 27.935386615578359 ], [ 113.015134556461334, 27.935074902120782 ], [ 113.015338882372163, 27.934524223034668 ], [ 113.015466450619982, 27.934319823177681 ], [ 113.016193887788688, 27.934473773449646 ], [ 113.017567932255062, 27.936546231526041 ], [ 113.01898493265044, 27.937850474488101 ], [ 113.020081161539551, 27.938059459341538 ], [ 113.022337532524901, 27.937987248126902 ], [ 113.024164457107489, 27.937864292121738 ], [ 113.024699626035371, 27.938668998374947 ], [ 113.028378618734394, 27.939808551372494 ], [ 113.029937821621402, 27.938229304642739 ], [ 113.029659779428755, 27.937187831807133 ], [ 113.028825486279757, 27.936289805520719 ], [ 113.027187739251787, 27.93603699187728 ], [ 113.026301611373825, 27.935945294016975 ], [ 113.025777330163351, 27.935784647410141 ], [ 113.025702608698836, 27.935357772026258 ], [ 113.025499302568662, 27.934991247238866 ], [ 113.02481457978989, 27.934594998099758 ], [ 113.024557530998919, 27.933305463843187 ], [ 113.024691168540116, 27.932351944563486 ], [ 113.023619737025541, 27.932033761721598 ], [ 113.024089306604353, 27.930486235801762 ], [ 113.02379937840189, 27.929116780481063 ], [ 113.023697800375828, 27.928072875419801 ], [ 113.023810460717641, 27.92765450094549 ], [ 113.023483607644025, 27.926896251340004 ], [ 113.02332316869375, 27.92656062683788 ], [ 113.023719922400446, 27.925672405777537 ], [ 113.023217597425941, 27.925612750010714 ], [ 113.022169084426665, 27.925867639510606 ], [ 113.022553826505828, 27.925467523923107 ], [ 113.022790064261457, 27.925120823335483 ], [ 113.02226586331858, 27.924591157619872 ], [ 113.022591871982556, 27.923343057416037 ], [ 113.022601856299701, 27.92312499301277 ], [ 113.020955435042751, 27.922731428448476 ], [ 113.020461131556928, 27.922510754153908 ], [ 113.018541774411716, 27.921654950368907 ], [ 113.017319035297149, 27.921294330579013 ], [ 113.015812313856756, 27.921050568785596 ], [ 113.013170606135219, 27.92151324709263 ], [ 113.012582644747681, 27.922199071040861 ], [ 113.012360416981011, 27.922456761535091 ], [ 113.012111283575379, 27.922747536828282 ], [ 113.011773458204715, 27.923168594161961 ], [ 113.01129512762121, 27.923728087796388 ], [ 113.011215409936909, 27.923775329174646 ] ] ] } }
]
}
