{
"type": "FeatureCollection",
"name": "车站路社区居委会",
"crs": { "type": "name", "properties": { "name": "urn:ogc:def:crs:OGC:1.3:CRS84" } },
"features": [
{ "type": "Feature", "properties": { "adcode": "430302001004", "fullName": "湖南省湘潭市雨湖区雨湖路街道车站路社区居委会", "level": "居委会/社区", "location": "112.907947,27.861828", "name": "车站路社区居委会", "OBJECTID": 3827, "SHAPE_Leng": 0.0165935702992, "SHAPE_Area": 1.57663639999e-05 }, "geometry": { "type": "Polygon", "coordinates": [ [ [ 112.900025688932786, 27.866506357612295 ], [ 112.900161618832897, 27.866538340614476 ], [ 112.901386944997654, 27.866827150308875 ], [ 112.902159481337705, 27.867008995820672 ], [ 112.902812066110585, 27.867163844706933 ], [ 112.905145400523693, 27.867777157925271 ], [ 112.90493863972516, 27.866688055698937 ], [ 112.904746844564471, 27.865871991744573 ], [ 112.904585995986267, 27.865430977524671 ], [ 112.90437617261945, 27.865098997855434 ], [ 112.90410339893613, 27.864667021284493 ], [ 112.903807637929944, 27.864226047508726 ], [ 112.903442928492865, 27.863657070279377 ], [ 112.90318113132264, 27.863269086377787 ], [ 112.902987271328072, 27.863084113364661 ], [ 112.902784409612039, 27.862970153053208 ], [ 112.902376672623319, 27.862852245743102 ], [ 112.901321322317287, 27.862445434180071 ], [ 112.901310325819409, 27.862479442243959 ], [ 112.900025688932786, 27.866506357612295 ] ] ] } }
]
}
