{
"type": "FeatureCollection",
"name": "迎宾社区居委会",
"crs": { "type": "name", "properties": { "name": "urn:ogc:def:crs:OGC:1.3:CRS84" } },
"features": [
{ "type": "Feature", "properties": { "adcode": "430302005211", "fullName": "湖南省湘潭市雨湖区窑湾街道迎宾社区居委会", "level": "居委会/社区", "location": "112.896489,27.856126", "name": "迎宾社区居委会", "OBJECTID": 3867, "SHAPE_Leng": 0.034901836328499997, "SHAPE_Area": 2.8393015500200001e-05 }, "geometry": { "type": "Polygon", "coordinates": [ [ [ 112.8881613328806, 27.863264653520538 ], [ 112.888681367518018, 27.863302837210341 ], [ 112.88867036173076, 27.863368844568981 ], [ 112.888708357320638, 27.863454871430104 ], [ 112.888686343439076, 27.863616891169997 ], [ 112.888783352743573, 27.863568914985333 ], [ 112.888846348364439, 27.863668952097921 ], [ 112.888819344529949, 27.863699948519173 ], [ 112.888817344189917, 27.863702948370129 ], [ 112.888788340131057, 27.863734944274086 ], [ 112.888769336826357, 27.863763942910317 ], [ 112.888695323556234, 27.863879937964931 ], [ 112.890742306894126, 27.86438060790001 ], [ 112.890858300151379, 27.864406640170991 ], [ 112.89091529658451, 27.864419655856182 ], [ 112.891178278108029, 27.864479726441342 ], [ 112.89419825965102, 27.859591396733869 ], [ 112.894581225792592, 27.858969326778304 ], [ 112.888892097337632, 27.854048372566293 ], [ 112.888629048995938, 27.854480357779476 ], [ 112.88834399472222, 27.854925334715766 ], [ 112.888434988944354, 27.855086392436768 ], [ 112.888665967455736, 27.855560548208427 ], [ 112.888778947556688, 27.85590164163245 ], [ 112.888762923068199, 27.856205686621092 ], [ 112.888810901805826, 27.856513753152562 ], [ 112.88936285886534, 27.857358065610637 ], [ 112.889432826543043, 27.857798159432193 ], [ 112.889463792970545, 27.858240241851114 ], [ 112.889529777464759, 27.858458297493829 ], [ 112.889758776427158, 27.858514373129154 ], [ 112.890616748920735, 27.858742639829533 ], [ 112.891029718074151, 27.858917767897204 ], [ 112.891624643807972, 27.859368972622008 ], [ 112.891589644569891, 27.859394969707083 ], [ 112.891538645798676, 27.859429964887628 ], [ 112.891527645158277, 27.85944896573266 ], [ 112.89137763639647, 27.859700975571055 ], [ 112.891436619080054, 27.859871016460545 ], [ 112.891329614239197, 27.860028019397557 ], [ 112.891302604594429, 27.860175037884737 ], [ 112.891570583329042, 27.86020309981641 ], [ 112.891580571138007, 27.860350126296474 ], [ 112.891550573305963, 27.860352120381247 ], [ 112.891489577663549, 27.860355108058108 ], [ 112.891491575264538, 27.860384113295481 ], [ 112.891495569146201, 27.860459126592762 ], [ 112.891403565044271, 27.86059712989357 ], [ 112.891586545515153, 27.860674181339665 ], [ 112.891838526467367, 27.860645227417734 ], [ 112.892208490811711, 27.860630294729489 ], [ 112.892154464922243, 27.861038352678055 ], [ 112.892130467603764, 27.861036347940342 ], [ 112.891811500637019, 27.861009282556285 ], [ 112.891559521220373, 27.861014232202088 ], [ 112.891189550202796, 27.860966144163346 ], [ 112.891168548954667, 27.860998144760377 ], [ 112.891146547587567, 27.861032145445069 ], [ 112.891115543130311, 27.861112151707225 ], [ 112.890997516543848, 27.861535194875724 ], [ 112.891067502201423, 27.8616732339853 ], [ 112.890992496841818, 27.861792236441769 ], [ 112.890959493727294, 27.861853238884439 ], [ 112.890949494208314, 27.861853236541656 ], [ 112.890847498530078, 27.861857213067552 ], [ 112.890599508413615, 27.861848151035353 ], [ 112.890166515227889, 27.861876043745045 ], [ 112.890215530885499, 27.861667022059169 ], [ 112.890215551070298, 27.861406978837422 ], [ 112.889845554780322, 27.861377872838556 ], [ 112.8897115536233, 27.861378834935337 ], [ 112.889046536118244, 27.861372633820665 ], [ 112.88903053294348, 27.861404634095493 ], [ 112.888965519843708, 27.861535635269814 ], [ 112.888952519233669, 27.86153563112828 ], [ 112.888744507378689, 27.861548566061177 ], [ 112.888747505220664, 27.861578572030997 ], [ 112.88875150117812, 27.861633582484259 ], [ 112.888795478242201, 27.861960651219785 ], [ 112.888783456466399, 27.862232692556621 ], [ 112.888708430144206, 27.862516715249253 ], [ 112.888686418592187, 27.862648729968274 ], [ 112.888666417542197, 27.862646723027048 ], [ 112.888364399533501, 27.862614615881078 ], [ 112.888354396141835, 27.8626486181033 ], [ 112.8881613328806, 27.863264653520538 ] ] ] } }
]
}
