{
"type": "FeatureCollection",
"name": "运河社区居委会",
"crs": { "type": "name", "properties": { "name": "urn:ogc:def:crs:OGC:1.3:CRS84" } },
"features": [
{ "type": "Feature", "properties": { "adcode": "430304005010", "fullName": "湖南省湘潭市岳塘区下摄司街道运河社区居委会", "level": "居委会/社区", "location": "112.920772,27.809424", "name": "运河社区居委会", "OBJECTID": 4063, "SHAPE_Leng": 0.0206516508616, "SHAPE_Area": 2.1186688e-05 }, "geometry": { "type": "Polygon", "coordinates": [ [ [ 112.916744294352995, 27.81581219425021 ], [ 112.916942308243705, 27.812205457919902 ], [ 112.917045414498673, 27.809043880163848 ], [ 112.916959538191009, 27.80894894525828 ], [ 112.91635934096125, 27.80894549128557 ], [ 112.915861988854289, 27.808987938368606 ], [ 112.915218798703989, 27.809164518545103 ], [ 112.914898185061787, 27.809374819393241 ], [ 112.914798290960491, 27.809612938452002 ], [ 112.914295792149517, 27.811117577678967 ], [ 112.914246844988114, 27.811203630133082 ], [ 112.914106977019813, 27.811684815414178 ], [ 112.913367658629141, 27.814225781038484 ], [ 112.913288710673015, 27.814742920658325 ], [ 112.913254659411677, 27.815913126867851 ], [ 112.914785805632405, 27.816055936580849 ], [ 112.914503123514606, 27.816458230504995 ], [ 112.915092363480824, 27.816813798249353 ], [ 112.915938356532877, 27.815844921704606 ], [ 112.916744294352995, 27.81581219425021 ] ] ] } }
]
}
