{
"type": "FeatureCollection",
"name": "郭家村",
"crs": { "type": "name", "properties": { "name": "urn:ogc:def:crs:OGC:1.3:CRS84" } },
"features": [
{ "type": "Feature", "properties": { "adcode": "430373001202", "fullName": "湖南省湘潭市雨湖区和平街道郭家村", "level": "居委会/社区", "location": "113.008536,27.958117", "name": "郭家村", "OBJECTID": 3999, "SHAPE_Leng": 0.011466594925, "SHAPE_Area": 7.9005870001799992e-06 }, "geometry": { "type": "Polygon", "coordinates": [ [ [ 113.001080359601573, 27.962292107125371 ], [ 113.002617574421194, 27.963445653299203 ], [ 113.00264945463644, 27.96346956109058 ], [ 113.003478468329575, 27.962538906390531 ], [ 113.003647858041759, 27.962359366358317 ], [ 113.003649851016135, 27.962355359688917 ], [ 113.00459451637316, 27.960565220006661 ], [ 113.004858591412997, 27.959995331938615 ], [ 113.004065512986486, 27.959956707444551 ], [ 113.002192436384192, 27.959863337197042 ], [ 113.00215357330741, 27.959948468869428 ], [ 113.001080359601573, 27.962292107125371 ] ] ] } }
]
}
