{
"type": "FeatureCollection",
"name": "金侨村委会",
"crs": { "type": "name", "properties": { "name": "urn:ogc:def:crs:OGC:1.3:CRS84" } },
"features": [
{ "type": "Feature", "properties": { "adcode": "430302100238", "fullName": "湖南省湘潭市雨湖区鹤岭镇金侨村委会", "level": "居委会/社区", "location": "112.787557,28.025209", "name": "金侨村委会", "OBJECTID": 3918, "SHAPE_Leng": 0.126016375658, "SHAPE_Area": 0.0003287644095 }, "geometry": { "type": "Polygon", "coordinates": [ [ [ 112.766308604446735, 28.038251254351092 ], [ 112.766558710540309, 28.038881545053091 ], [ 112.766818824780287, 28.03951984699221 ], [ 112.766958887564314, 28.039861010094718 ], [ 112.769250420306875, 28.040404044935972 ], [ 112.770638464635937, 28.040471325230712 ], [ 112.77244492912736, 28.040558086006612 ], [ 112.772623079868467, 28.040567265463881 ], [ 112.774677908780205, 28.04055939198544 ], [ 112.774845064075279, 28.040558570795042 ], [ 112.776137464717081, 28.038442677498853 ], [ 112.776596976381157, 28.037691082975133 ], [ 112.77693736022475, 28.03713138688153 ], [ 112.777528045794824, 28.036030903369209 ], [ 112.778990796645942, 28.033262218520996 ], [ 112.780205304705376, 28.030944352835643 ], [ 112.780561756207192, 28.030264693486412 ], [ 112.781502854454189, 28.029895821629168 ], [ 112.78195438980589, 28.029736374327516 ], [ 112.782784309821977, 28.030456555500869 ], [ 112.782844224982171, 28.032426925459283 ], [ 112.78169272938959, 28.034235704629058 ], [ 112.781652625934143, 28.034955759141912 ], [ 112.781572390500273, 28.03675692027489 ], [ 112.781722530615028, 28.037177172832301 ], [ 112.782022813022664, 28.038016679461425 ], [ 112.782223040825144, 28.038097949062823 ], [ 112.782567434598178, 28.03824941705852 ], [ 112.783655702498308, 28.038728917265374 ], [ 112.785857466649404, 28.038542881393717 ], [ 112.786798767727987, 28.037494046122447 ], [ 112.786828810176715, 28.037454082713108 ], [ 112.786738919453484, 28.034592537773776 ], [ 112.786728935742843, 28.034222469373827 ], [ 112.786678924396256, 28.03354229891837 ], [ 112.786618910316719, 28.032733095232011 ], [ 112.786578909766433, 28.032082942999391 ], [ 112.78636885274571, 28.029361244592369 ], [ 112.787160017380103, 28.027703112903257 ], [ 112.787321256219315, 28.027373292866965 ], [ 112.788311621120869, 28.026833634581692 ], [ 112.788782251933227, 28.026919331814497 ], [ 112.789664450485219, 28.02707665254713 ], [ 112.793168404801492, 28.027722077615685 ], [ 112.796765846004917, 28.027709818500377 ], [ 112.798542635893028, 28.027703746595748 ], [ 112.79952831427974, 28.026389199031613 ], [ 112.800550073297913, 28.025028721837696 ], [ 112.798313520240157, 28.024570895177213 ], [ 112.795391101596522, 28.023049892078774 ], [ 112.795391197591925, 28.021837708468084 ], [ 112.794984769756141, 28.019448693950011 ], [ 112.793645755866521, 28.019554590018206 ], [ 112.793093938012177, 28.019597733778376 ], [ 112.792750230597008, 28.022173591631176 ], [ 112.787766283369166, 28.021863098436313 ], [ 112.788796936068834, 28.018530082503727 ], [ 112.785016057434888, 28.017615598233142 ], [ 112.782952612509803, 28.016550673764485 ], [ 112.781157480539974, 28.017007436239382 ], [ 112.781586774414464, 28.019509363086573 ], [ 112.780211181982224, 28.01996170824242 ], [ 112.778235184155264, 28.018292072036779 ], [ 112.77677560887858, 28.019352549469684 ], [ 112.778665294495156, 28.022612238641688 ], [ 112.777461976818557, 28.023443955516264 ], [ 112.7753859088849, 28.023724669500808 ], [ 112.775256720352388, 28.02455765468606 ], [ 112.774976315408296, 28.026336619027354 ], [ 112.774785096850906, 28.026843489650545 ], [ 112.774746052421222, 28.02694646328268 ], [ 112.774505780475891, 28.027576301400309 ], [ 112.774195431607609, 28.02839709582862 ], [ 112.77413336209392, 28.028563055313739 ], [ 112.773684863448523, 28.029766766514946 ], [ 112.773535717477927, 28.029936637518794 ], [ 112.769320920774788, 28.034753286218095 ], [ 112.768340129900295, 28.035882590138161 ], [ 112.766308604446735, 28.038251254351092 ] ] ] } }
]
}
