{
"type": "FeatureCollection",
"name": "金井村",
"crs": { "type": "name", "properties": { "name": "urn:ogc:def:crs:OGC:1.3:CRS84" } },
"features": [
{ "type": "Feature", "properties": { "adcode": "430373001204", "fullName": "湖南省湘潭市雨湖区和平街道金井村", "level": "居委会/社区", "location": "113.009775,27.954503", "name": "金井村", "OBJECTID": 4001, "SHAPE_Leng": 0.0088842329675500008, "SHAPE_Area": 4.5229374999700002e-06 }, "geometry": { "type": "Polygon", "coordinates": [ [ [ 113.002534270256007, 27.95864810113061 ], [ 113.004276844222275, 27.958602845053122 ], [ 113.005473448435296, 27.958572250288711 ], [ 113.005653880663672, 27.957409514844471 ], [ 113.004528048548991, 27.957009822817106 ], [ 113.003260755108784, 27.956561559626284 ], [ 113.002534270256007, 27.95864810113061 ] ] ] } }
]
}
