{
"type": "FeatureCollection",
"name": "金塘村村委会",
"crs": { "type": "name", "properties": { "name": "urn:ogc:def:crs:OGC:1.3:CRS84" } },
"features": [
{ "type": "Feature", "properties": { "adcode": "430302008205", "fullName": "湖南省湘潭市雨湖区先锋街道金塘村村委会", "level": "居委会/社区", "location": "112.903462,27.884455", "name": "金塘村村委会", "OBJECTID": 3891, "SHAPE_Leng": 0.074826484610399993, "SHAPE_Area": 0.000197198533 }, "geometry": { "type": "Polygon", "coordinates": [ [ [ 112.907997224672897, 27.891197815067731 ], [ 112.907598605792586, 27.890847959095087 ], [ 112.903750600927779, 27.890916566947464 ], [ 112.90274231744489, 27.890215755683837 ], [ 112.904727231810938, 27.886789523464184 ], [ 112.905938520218697, 27.884068578139953 ], [ 112.90612847063835, 27.882758274280366 ], [ 112.906389399502444, 27.880958854635093 ], [ 112.909218986664101, 27.879678192408516 ], [ 112.909229019389912, 27.879134094720083 ], [ 112.909201045692754, 27.879141111982886 ], [ 112.906670260812362, 27.879770526405508 ], [ 112.902540176721047, 27.880796213803656 ], [ 112.901446804064449, 27.881068532377459 ], [ 112.901412822631656, 27.881076541344878 ], [ 112.901401828672007, 27.881078544135498 ], [ 112.90135685310004, 27.881089555972324 ], [ 112.901321871994668, 27.881098565191536 ], [ 112.901318873593596, 27.881099566017884 ], [ 112.901286890827734, 27.881107574356033 ], [ 112.901215928862968, 27.881125592735533 ], [ 112.901206933688044, 27.881127595001594 ], [ 112.901156960351329, 27.881139607675507 ], [ 112.901091994794797, 27.881155624052528 ], [ 112.901081000579993, 27.881158626854852 ], [ 112.90082913197179, 27.881220688438006 ], [ 112.900821136088297, 27.881222690352047 ], [ 112.900406345286285, 27.881325785607089 ], [ 112.900277408478303, 27.881358813821041 ], [ 112.90013647675579, 27.88139284346261 ], [ 112.900105491515049, 27.881401850119069 ], [ 112.899949565390799, 27.881442882241711 ], [ 112.899788640225893, 27.881486914545452 ], [ 112.899755655483744, 27.881494920852095 ], [ 112.894406394079184, 27.883045350978218 ], [ 112.894125446398689, 27.883126338882878 ], [ 112.893582536619419, 27.88328230573239 ], [ 112.891358756693691, 27.883922037636125 ], [ 112.890392771584089, 27.88428286941037 ], [ 112.888717659510903, 27.885325554950395 ], [ 112.888711658461375, 27.885334554505565 ], [ 112.887431402730954, 27.887165410319891 ], [ 112.88741340035449, 27.887168403943541 ], [ 112.88705428186131, 27.888102422540534 ], [ 112.88691122195435, 27.888616452627129 ], [ 112.886735140589224, 27.889330502377106 ], [ 112.887723230915682, 27.88979696751629 ], [ 112.889010274007219, 27.890480525491053 ], [ 112.889954250539745, 27.891049902214139 ], [ 112.893484889897039, 27.891820744450484 ], [ 112.896017250914625, 27.892466033467905 ], [ 112.895781305865455, 27.892636057550071 ], [ 112.893936610381672, 27.894361229746441 ], [ 112.899497642493046, 27.896093439477152 ], [ 112.901295676744155, 27.896652214773479 ], [ 112.90272597192731, 27.894788539175643 ], [ 112.903531533522639, 27.893687109598471 ], [ 112.903748409930699, 27.893389988883015 ], [ 112.903941297996596, 27.893125879774509 ], [ 112.906726232449529, 27.892383640971033 ], [ 112.907497630672864, 27.891663148270304 ], [ 112.907582562544633, 27.891584092428804 ], [ 112.907997224672897, 27.891197815067731 ] ] ] } }
]
}
