{
"type": "FeatureCollection",
"name": "金塘社区居委会",
"crs": { "type": "name", "properties": { "name": "urn:ogc:def:crs:OGC:1.3:CRS84" } },
"features": [
{ "type": "Feature", "properties": { "adcode": "430302004007", "fullName": "湖南省湘潭市雨湖区广场街道金塘社区居委会", "level": "居委会/社区", "location": "112.902992,27.875915", "name": "金塘社区居委会", "OBJECTID": 3854, "SHAPE_Leng": 0.0136964611326, "SHAPE_Area": 9.5726065000600003e-06 }, "geometry": { "type": "Polygon", "coordinates": [ [ [ 112.895247532637327, 27.878706673767024 ], [ 112.896524077713863, 27.879826890288996 ], [ 112.897215794596647, 27.880471984277531 ], [ 112.897799548183869, 27.88087502333488 ], [ 112.898448272795648, 27.881087009202524 ], [ 112.899384844641304, 27.881309941889004 ], [ 112.899755655483744, 27.881494920852095 ], [ 112.899788640225893, 27.881486914545452 ], [ 112.899949565390799, 27.881442882241711 ], [ 112.900105491515049, 27.881401850119069 ], [ 112.90013647675579, 27.88139284346261 ], [ 112.89968480356255, 27.880026682978762 ], [ 112.898485420760451, 27.878984650348691 ], [ 112.897412944229984, 27.877636497091281 ], [ 112.897386953744174, 27.877635498095206 ], [ 112.897264997963617, 27.877630502356652 ], [ 112.897212016930467, 27.877628504032941 ], [ 112.896975100046262, 27.877619510008028 ], [ 112.89549455654894, 27.877563491589459 ], [ 112.895439571414045, 27.877561489071265 ], [ 112.895434570568483, 27.877589493592438 ], [ 112.895247532637327, 27.878706673767024 ] ] ] } }
]
}
