{
"type": "FeatureCollection",
"name": "金星村村委会",
"crs": { "type": "name", "properties": { "name": "urn:ogc:def:crs:OGC:1.3:CRS84" } },
"features": [
{ "type": "Feature", "properties": { "adcode": "430372100209", "fullName": "湖南省湘潭市岳塘区昭山镇金星村村委会", "level": "居委会/社区", "location": "113.075544,27.984507", "name": "金星村村委会", "OBJECTID": 4155, "SHAPE_Leng": 0.085619985787999994, "SHAPE_Area": 0.000299390891 }, "geometry": { "type": "Polygon", "coordinates": [ [ [ 113.057577976532428, 27.983931773070847 ], [ 113.057953177716897, 27.984519292832729 ], [ 113.058134770819819, 27.98507910732604 ], [ 113.058263417808064, 27.986273106295968 ], [ 113.058947996666106, 27.98723823625004 ], [ 113.059258287808888, 27.988550990102418 ], [ 113.060125515851695, 27.989980960546731 ], [ 113.061870211840443, 27.991039692302387 ], [ 113.063734891890192, 27.991615323270857 ], [ 113.065105533340841, 27.992380733367014 ], [ 113.067310921803028, 27.993782375227003 ], [ 113.068232482114027, 27.994406459489756 ], [ 113.06935779315593, 27.995039371628181 ], [ 113.070321400717631, 27.99554947976803 ], [ 113.071424833703844, 27.996505568834525 ], [ 113.072604279182201, 27.996903555710748 ], [ 113.07352615217134, 27.996750733321523 ], [ 113.074650843056972, 27.996483768979985 ], [ 113.075744589183728, 27.996747969569739 ], [ 113.076955227742303, 27.997591235590232 ], [ 113.078852292418873, 27.998358130145494 ], [ 113.079818422172693, 27.998217545149913 ], [ 113.081078516304459, 27.99613854310002 ], [ 113.083187139363687, 27.993197110443138 ], [ 113.083367033264167, 27.992936995922715 ], [ 113.083367166181489, 27.991327736830538 ], [ 113.082757643343442, 27.990866914811086 ], [ 113.079300710860238, 27.988269243287501 ], [ 113.07656255225946, 27.986530729841871 ], [ 113.073676978280687, 27.984541636869768 ], [ 113.071919283956589, 27.983222964534868 ], [ 113.069662492299713, 27.981335840151942 ], [ 113.068294558038659, 27.980256097885544 ], [ 113.067954162742538, 27.979067272802226 ], [ 113.067765503795968, 27.978367365086772 ], [ 113.067496082271205, 27.97629732317759 ], [ 113.067843654045561, 27.975120744468263 ], [ 113.067865627233061, 27.975045707944933 ], [ 113.067995446706689, 27.974876537832987 ], [ 113.068194171379346, 27.974625280138532 ], [ 113.068240108183318, 27.974565220491115 ], [ 113.067623030959666, 27.974584899601414 ], [ 113.066902133303046, 27.97460871447225 ], [ 113.066521713217682, 27.974771178488893 ], [ 113.066248146831597, 27.974741491929599 ], [ 113.065969631040943, 27.974239736562893 ], [ 113.065730067320516, 27.973605916244946 ], [ 113.065380658020814, 27.973297284570211 ], [ 113.065098118712271, 27.973307629298997 ], [ 113.064914412684317, 27.973407870781642 ], [ 113.065054167443776, 27.973591729946566 ], [ 113.065364637158396, 27.97386639801006 ], [ 113.065502376062852, 27.974320306951924 ], [ 113.065964588698662, 27.974850843428847 ], [ 113.065835768957683, 27.975165047933906 ], [ 113.065567212473908, 27.975031346464188 ], [ 113.064539960204741, 27.974302481630914 ], [ 113.064068724579968, 27.974635127949128 ], [ 113.063895979247775, 27.975100423962584 ], [ 113.063445736643146, 27.975262028099891 ], [ 113.062708025046632, 27.975214985557539 ], [ 113.062236864168057, 27.975158605056517 ], [ 113.062119068228782, 27.97523477632938 ], [ 113.062343643601494, 27.975528522725721 ], [ 113.062622127055221, 27.975813198129547 ], [ 113.062568205817541, 27.976012302622607 ], [ 113.062504296952412, 27.976277431424037 ], [ 113.062280678283926, 27.976466761820554 ], [ 113.061926318484012, 27.976392228110406 ], [ 113.061423244019238, 27.976212887266186 ], [ 113.060931121839033, 27.976517621692437 ], [ 113.060620650809142, 27.977085152131494 ], [ 113.061059809672088, 27.977426591376833 ], [ 113.061498988890705, 27.977635016965753 ], [ 113.061756504231283, 27.977851699539553 ], [ 113.061862306391191, 27.977936569263772 ], [ 113.061873274932694, 27.978078577681131 ], [ 113.062044941584574, 27.978381394534487 ], [ 113.062140748185271, 27.978647308781873 ], [ 113.062152704228623, 27.978921337652789 ], [ 113.062033893370938, 27.979206544972715 ], [ 113.061487796893829, 27.980211455337468 ], [ 113.060556426035333, 27.981264928970777 ], [ 113.05958222781959, 27.981730405725052 ], [ 113.05897032500728, 27.982727469008001 ], [ 113.057674810327967, 27.983590568230248 ], [ 113.057577976532428, 27.983931773070847 ] ] ] } }
]
}
