{
"type": "FeatureCollection",
"name": "金湖村村委会",
"crs": { "type": "name", "properties": { "name": "urn:ogc:def:crs:OGC:1.3:CRS84" } },
"features": [
{ "type": "Feature", "properties": { "adcode": "430304015218", "fullName": "湖南省湘潭市岳塘区荷塘街道金湖村村委会", "level": "居委会/社区", "location": "113.000822,27.90667", "name": "金湖村村委会", "OBJECTID": 4117, "SHAPE_Leng": 0.0985348915395, "SHAPE_Area": 0.0002039619805 }, "geometry": { "type": "Polygon", "coordinates": [ [ [ 113.001908459523264, 27.910665829386776 ], [ 113.00087638136911, 27.909441742802827 ], [ 113.001127524547158, 27.908521825100358 ], [ 113.002700745924358, 27.907989979324199 ], [ 113.002893091800914, 27.907292279868713 ], [ 113.00290212011592, 27.90652812205607 ], [ 113.003742023123763, 27.906512589092525 ], [ 113.002887339377665, 27.904486817897993 ], [ 113.002374211299198, 27.904783417007387 ], [ 113.00219687502053, 27.904683935576603 ], [ 113.002169988242144, 27.904512987595282 ], [ 113.001845208841729, 27.904276928715284 ], [ 113.001764484611044, 27.904562221484436 ], [ 113.001641934461944, 27.904609600142972 ], [ 113.00108997204903, 27.904697285262788 ], [ 113.000520077980866, 27.904788026980786 ], [ 113.000294899623228, 27.904960739026684 ], [ 112.999738965990701, 27.904933420535645 ], [ 112.997399677682125, 27.904817509638516 ], [ 112.996283840581938, 27.904756895852451 ], [ 112.995370252115165, 27.904693667547949 ], [ 112.995279558001016, 27.905096012549969 ], [ 112.994846183033488, 27.904988314387783 ], [ 112.994349063422234, 27.904663773469832 ], [ 112.994007355193247, 27.904450778138489 ], [ 112.993463405077947, 27.904191390950626 ], [ 112.993126682740453, 27.903921370537663 ], [ 112.992762095383043, 27.903263368622746 ], [ 112.992778078031947, 27.902737230115093 ], [ 112.992998274997618, 27.902510520757122 ], [ 112.992447388036339, 27.901781073954218 ], [ 112.991610588709889, 27.900773449461269 ], [ 112.991011866960321, 27.900187171147063 ], [ 112.991102534059721, 27.90012588488279 ], [ 112.991418368267006, 27.899986900233479 ], [ 112.99104977580636, 27.899562949352013 ], [ 112.990830636784949, 27.89900752117342 ], [ 112.990172053183016, 27.899459600561695 ], [ 112.989644017281762, 27.89947520750993 ], [ 112.989469671039984, 27.899411726145839 ], [ 112.988773299605427, 27.898924756572434 ], [ 112.988107721294298, 27.899561883110152 ], [ 112.987187151895753, 27.899378638896984 ], [ 112.986924094760866, 27.899781503106944 ], [ 112.98816442984338, 27.900570883397979 ], [ 112.989216525740815, 27.90049567959019 ], [ 112.989433651686525, 27.90132416179075 ], [ 112.988712306053571, 27.901672410340581 ], [ 112.988225052726804, 27.902467023290697 ], [ 112.987760774959185, 27.902486433112124 ], [ 112.987485841074047, 27.901913167591275 ], [ 112.987144125777775, 27.901696164450403 ], [ 112.98583995183067, 27.901738110701501 ], [ 112.984257776861284, 27.90193590662517 ], [ 112.982522161029749, 27.901889098008116 ], [ 112.982543107804403, 27.901593985056234 ], [ 112.982575028241953, 27.901124809610327 ], [ 112.981747072284392, 27.90098525625061 ], [ 112.981542823846638, 27.900927854793355 ], [ 112.981254857466041, 27.901161751629665 ], [ 112.980917062855696, 27.901508814897223 ], [ 112.98134544958863, 27.902124646495547 ], [ 112.981799765846247, 27.902407341963471 ], [ 112.982132516240597, 27.902800416874804 ], [ 112.982649611069547, 27.902920893320772 ], [ 112.983579220556535, 27.902616058774161 ], [ 112.984413166369634, 27.902408520488734 ], [ 112.985236133331952, 27.902364037273628 ], [ 112.985701415697008, 27.902342631636529 ], [ 112.985538997622527, 27.902573160572079 ], [ 112.984891314316243, 27.903514271600013 ], [ 112.984222703865683, 27.90446344354622 ], [ 112.984403031502495, 27.904560918497708 ], [ 112.985304665647149, 27.905044288593011 ], [ 112.986635681118727, 27.905802402714901 ], [ 112.986732332779326, 27.905681089936088 ], [ 112.987347032660608, 27.905948276773572 ], [ 112.988373226165436, 27.905912162565969 ], [ 112.98884342146188, 27.906626858768298 ], [ 112.989025686339687, 27.907343428205881 ], [ 112.989015622935085, 27.908600673638553 ], [ 112.989577419241684, 27.910021211015792 ], [ 112.989926089320704, 27.910423220621176 ], [ 112.990368453367168, 27.910284852572669 ], [ 112.991207308060226, 27.910536344451653 ], [ 112.991516112538761, 27.911091499743275 ], [ 112.992386858686359, 27.911182864691746 ], [ 112.992654839171024, 27.911433091428712 ], [ 112.993071230897598, 27.912119940692328 ], [ 112.993392003955421, 27.91249802824931 ], [ 112.993135938030363, 27.912760853203228 ], [ 112.992792193760991, 27.91308995646207 ], [ 112.992391674579636, 27.913251203739126 ], [ 112.992504193671138, 27.914013991568623 ], [ 112.992409522052426, 27.914321332418098 ], [ 112.992687455892025, 27.914689549022476 ], [ 112.992768130658433, 27.914992355118759 ], [ 112.992323783844782, 27.915042716869422 ], [ 112.992435304652318, 27.915830512036621 ], [ 112.993071895273445, 27.916265647712404 ], [ 112.9945093892252, 27.918048573453916 ], [ 112.995674948080733, 27.919210221428003 ], [ 112.997062690881407, 27.920249173643537 ], [ 112.99628849935084, 27.921208694619189 ], [ 112.997488936587445, 27.922313229511076 ], [ 112.998279932635285, 27.92303994806932 ], [ 113.000284634603773, 27.921126534214206 ], [ 113.000454220330255, 27.918458563884737 ], [ 112.999947148844399, 27.917887003652819 ], [ 113.001102916257565, 27.917196383008239 ], [ 113.001171664693842, 27.917156168016795 ], [ 113.001553269411573, 27.91692697413642 ], [ 113.00165489793936, 27.916866656454253 ], [ 113.003007960351852, 27.916057432254433 ], [ 113.003799224931612, 27.913789661097226 ], [ 113.002179263843189, 27.913068421970141 ], [ 113.001588488553423, 27.912593126389975 ], [ 113.001390275066612, 27.911943614932046 ], [ 113.001364377853065, 27.911858678766514 ], [ 113.001908459523264, 27.910665829386776 ] ] ] } }
]
}
