{
"type": "FeatureCollection",
"name": "金湖塘村委会",
"crs": { "type": "name", "properties": { "name": "urn:ogc:def:crs:OGC:1.3:CRS84" } },
"features": [
{ "type": "Feature", "properties": { "adcode": "430302100241", "fullName": "湖南省湘潭市雨湖区鹤岭镇金湖塘村委会", "level": "居委会/社区", "location": "112.804477,27.982644", "name": "金湖塘村委会", "OBJECTID": 3921, "SHAPE_Leng": 0.082244930590599993, "SHAPE_Area": 0.000208661771 }, "geometry": { "type": "Polygon", "coordinates": [ [ [ 112.791592644223996, 27.995758683905343 ], [ 112.793656516632453, 27.997483153960026 ], [ 112.795502472492785, 27.995195720043139 ], [ 112.802035862352184, 27.995206616015523 ], [ 112.80342804664609, 27.996866295199975 ], [ 112.805835162634054, 27.996340448222895 ], [ 112.806265108243338, 27.993688787176513 ], [ 112.804726691528529, 27.991064637844246 ], [ 112.800687145549546, 27.988936294573708 ], [ 112.800515003247639, 27.987191718476456 ], [ 112.802061704412154, 27.985071019218463 ], [ 112.805415525130812, 27.982650484891028 ], [ 112.805546964268345, 27.979921269816394 ], [ 112.805587098296982, 27.979089204062163 ], [ 112.803181077434346, 27.978553888741406 ], [ 112.803007955919327, 27.976430237369041 ], [ 112.801030919760109, 27.973546354804188 ], [ 112.79707648161353, 27.975132000826232 ], [ 112.794239209748653, 27.974368305802585 ], [ 112.795355461992017, 27.979829985667781 ], [ 112.793735981329846, 27.980432512978982 ], [ 112.793828974409081, 27.982268960572831 ], [ 112.795290164106092, 27.982346294055549 ], [ 112.79580575274781, 27.984848532580568 ], [ 112.792710824544699, 27.988634253032302 ], [ 112.792022663936734, 27.990680523536792 ], [ 112.793569865662022, 27.991441046622949 ], [ 112.792280833733429, 27.99325733646393 ], [ 112.793227186152507, 27.993638865124513 ], [ 112.791592644223996, 27.995758683905343 ] ] ] } }
]
}
