{
"type": "FeatureCollection",
"name": "金马村委会",
"crs": { "type": "name", "properties": { "name": "urn:ogc:def:crs:OGC:1.3:CRS84" } },
"features": [
{ "type": "Feature", "properties": { "adcode": "430302102228", "fullName": "湖南省湘潭市雨湖区姜畲镇金马村委会", "level": "居委会/社区", "location": "112.810658,27.898788", "name": "金马村委会", "OBJECTID": 3973, "SHAPE_Leng": 0.076755767652100002, "SHAPE_Area": 0.000320696233 }, "geometry": { "type": "Polygon", "coordinates": [ [ [ 112.792983258456658, 27.899421593772193 ], [ 112.793670260292203, 27.899551689537347 ], [ 112.793833499934451, 27.899582951430283 ], [ 112.794089877682822, 27.899630363584517 ], [ 112.79455053985599, 27.899974151818341 ], [ 112.795056222095198, 27.900989131221166 ], [ 112.79492799021304, 27.901473009258439 ], [ 112.795035081973239, 27.902363332717908 ], [ 112.795250387212519, 27.902628722682632 ], [ 112.796281897192927, 27.903474530852137 ], [ 112.79766797432012, 27.90445296578163 ], [ 112.799064993780732, 27.906883703388583 ], [ 112.799601755599312, 27.908125817299606 ], [ 112.800557172682375, 27.909730708316928 ], [ 112.800859643163307, 27.910005270104403 ], [ 112.801321363111128, 27.910442133579338 ], [ 112.802073538542274, 27.911222559288724 ], [ 112.802718603878489, 27.911260680667969 ], [ 112.803297551328455, 27.91147972412136 ], [ 112.803309522824378, 27.912096850840644 ], [ 112.80389942112356, 27.913245077855024 ], [ 112.804190872120131, 27.913746674641335 ], [ 112.80493207945814, 27.914328078544745 ], [ 112.806394531801047, 27.914879767678482 ], [ 112.807416301893355, 27.914763576215567 ], [ 112.80869453475222, 27.914618855753854 ], [ 112.809972654557626, 27.916153440634762 ], [ 112.810489516767888, 27.916774490615694 ], [ 112.810791074917844, 27.916450986694262 ], [ 112.811801051429171, 27.914083433750179 ], [ 112.812134699938056, 27.913383927880325 ], [ 112.812078619328958, 27.913138782530737 ], [ 112.811252438535476, 27.909483636887014 ], [ 112.812413767999558, 27.906108194466956 ], [ 112.812198586911506, 27.903528355732188 ], [ 112.812800791833297, 27.901860181081751 ], [ 112.814479094378271, 27.898108649534546 ], [ 112.814301791926979, 27.897900284404454 ], [ 112.812027934653941, 27.895220620150621 ], [ 112.810565494275494, 27.893282605735184 ], [ 112.807728660707056, 27.891609173382619 ], [ 112.803242237568668, 27.888841755318499 ], [ 112.802780406420268, 27.889628086826534 ], [ 112.799599846437602, 27.894213432821491 ], [ 112.797923016551863, 27.896295990920482 ], [ 112.794785066035402, 27.897770147822474 ], [ 112.792983258456658, 27.899421593772193 ] ] ] } }
]
}
