{
"type": "FeatureCollection",
"name": "金陵村委会",
"crs": { "type": "name", "properties": { "name": "urn:ogc:def:crs:OGC:1.3:CRS84" } },
"features": [
{ "type": "Feature", "properties": { "adcode": "430302102214", "fullName": "湖南省湘潭市雨湖区姜畲镇金陵村委会", "level": "居委会/社区", "location": "112.791313,27.848105", "name": "金陵村委会", "OBJECTID": 3959, "SHAPE_Leng": 0.0604339940672, "SHAPE_Area": 0.0001718543115 }, "geometry": { "type": "Polygon", "coordinates": [ [ [ 112.775535857163533, 27.849095777003953 ], [ 112.775777983314043, 27.850437262907832 ], [ 112.77650755932072, 27.85214635574097 ], [ 112.777410364853893, 27.853399589208554 ], [ 112.77972984138853, 27.853021276854783 ], [ 112.779901997010313, 27.853439556173999 ], [ 112.779901922261331, 27.854387712484634 ], [ 112.780674735470029, 27.854957761508246 ], [ 112.780932984429199, 27.855491172536066 ], [ 112.781448535656565, 27.85594689812179 ], [ 112.782392664946897, 27.855531039425589 ], [ 112.782952265123654, 27.856326899881367 ], [ 112.783467907992545, 27.856025529178051 ], [ 112.784499104197067, 27.856861047071174 ], [ 112.785787629029585, 27.858078012048033 ], [ 112.787377592245775, 27.85936946093474 ], [ 112.789869922719944, 27.859943184440059 ], [ 112.790385647609696, 27.859866940960625 ], [ 112.791116693107995, 27.859678010392322 ], [ 112.79223223758666, 27.860363827372531 ], [ 112.793565156978886, 27.860744961305944 ], [ 112.793312818466561, 27.860315494991692 ], [ 112.792453735439295, 27.858113795211235 ], [ 112.79253989047308, 27.857733865315808 ], [ 112.791293165630307, 27.856857810236828 ], [ 112.790777479737699, 27.856287936054752 ], [ 112.791422609591365, 27.853556461458961 ], [ 112.791587851139198, 27.853486701598356 ], [ 112.791629110156407, 27.850942345726143 ], [ 112.792704995405828, 27.846731309921502 ], [ 112.789717963413622, 27.844028340726638 ], [ 112.788628549777513, 27.843040579738872 ], [ 112.787033377883702, 27.843621382627109 ], [ 112.780025589391173, 27.847642755762024 ], [ 112.779876420899527, 27.847699582186515 ], [ 112.777652995284328, 27.848540070909984 ], [ 112.776291590320696, 27.849058606590585 ], [ 112.775535857163533, 27.849095777003953 ] ] ] } }
]
}
