{
"type": "FeatureCollection",
"name": "长城社区居委会",
"crs": { "type": "name", "properties": { "name": "urn:ogc:def:crs:OGC:1.3:CRS84" } },
"features": [
{ "type": "Feature", "properties": { "adcode": "430304005209", "fullName": "湖南省湘潭市岳塘区下摄司街道长城社区居委会", "level": "居委会/社区", "location": "112.924461,27.809032", "name": "长城社区居委会", "OBJECTID": 4064, "SHAPE_Leng": 0.0248004144119, "SHAPE_Area": 3.0126781500100001e-05 }, "geometry": { "type": "Polygon", "coordinates": [ [ [ 112.920012666280783, 27.815485915919698 ], [ 112.920038630437944, 27.815443881886203 ], [ 112.920613749597621, 27.815518275363523 ], [ 112.920628726434956, 27.815520259379799 ], [ 112.92063773431417, 27.815241206561932 ], [ 112.920637735480227, 27.815226204248784 ], [ 112.92073459742673, 27.81508407671916 ], [ 112.921346643647141, 27.815093401075604 ], [ 112.921493438156674, 27.814761185056152 ], [ 112.921239837615644, 27.814755468386124 ], [ 112.92121088537661, 27.814724495884064 ], [ 112.921210903257816, 27.814494460463806 ], [ 112.921199925113584, 27.814434463458575 ], [ 112.921169974999884, 27.814395490787611 ], [ 112.921070132491323, 27.814374598376897 ], [ 112.920931349088548, 27.814364750146769 ], [ 112.92077260543563, 27.814227903384616 ], [ 112.920711703483548, 27.8141749618114 ], [ 112.920502036310467, 27.814035168232483 ], [ 112.920441137967131, 27.81392521716619 ], [ 112.920452122745758, 27.813905202228241 ], [ 112.920491064773529, 27.813885157051701 ], [ 112.920711723694637, 27.813914921820142 ], [ 112.920881462246513, 27.813904734317646 ], [ 112.920974319974604, 27.813881628507229 ], [ 112.921260006810343, 27.812176049928162 ], [ 112.92174347901863, 27.80914304253254 ], [ 112.917045414498673, 27.809043880163848 ], [ 112.916942308243705, 27.812205457919902 ], [ 112.916744294352995, 27.81581219425021 ], [ 112.917841776158085, 27.81601219448903 ], [ 112.917841738939671, 27.816491268516103 ], [ 112.91935356798551, 27.81651276379495 ], [ 112.919645172198628, 27.816052390077203 ], [ 112.920012666280783, 27.815485915919698 ] ] ] } }
]
}
