{
"type": "FeatureCollection",
"name": "长城社区居委会_1",
"crs": { "type": "name", "properties": { "name": "urn:ogc:def:crs:OGC:1.3:CRS84" } },
"features": [
{ "type": "Feature", "properties": { "adcode": "430304014001", "fullName": "湖南省湘潭市岳塘区霞城街道长城社区居委会", "level": "居委会/社区", "location": "112.926544,27.799893", "name": "长城社区居委会", "OBJECTID": 4092, "SHAPE_Leng": 0.017668477683900001, "SHAPE_Area": 8.4756355001600005e-06 }, "geometry": { "type": "Polygon", "coordinates": [ [ [ 112.924111075129716, 27.802669249607401 ], [ 112.924102090481085, 27.802669260761267 ], [ 112.923157681962849, 27.802670413460373 ], [ 112.922829225929988, 27.802660803683807 ], [ 112.922718407915482, 27.802661934925627 ], [ 112.92221023430767, 27.802671530487977 ], [ 112.92119185322602, 27.802672686972695 ], [ 112.920282255548528, 27.80267368107695 ], [ 112.919823946464845, 27.802674168037306 ], [ 112.918784474511497, 27.802675237807097 ], [ 112.918306159423906, 27.802675713856217 ], [ 112.91788575183746, 27.802677123970611 ], [ 112.91714876907993, 27.802676823388698 ], [ 112.916710314575383, 27.803277317936825 ], [ 112.916678354016469, 27.803320353543505 ], [ 112.917878711057028, 27.803328228328805 ], [ 112.918864307815241, 27.803334256112876 ], [ 112.918858289225511, 27.803685314853212 ], [ 112.918951153716066, 27.803696222588002 ], [ 112.919013063084421, 27.803704160964273 ], [ 112.919025045563188, 27.803705148934995 ], [ 112.919034032475921, 27.803705139796193 ], [ 112.919038035824073, 27.803587118013095 ], [ 112.921026025957332, 27.803778036616073 ], [ 112.921069904780794, 27.804457090079477 ], [ 112.921501228703036, 27.804447606834753 ], [ 112.921726871277002, 27.804443350855898 ], [ 112.922549547060683, 27.804423397862216 ], [ 112.923262372522885, 27.804406548072681 ], [ 112.923662701889299, 27.804397061030084 ], [ 112.923817486779939, 27.803798781514015 ], [ 112.923856432356786, 27.803649711259663 ], [ 112.923917347546762, 27.803410600365197 ], [ 112.923935322134383, 27.803344568294214 ], [ 112.924111075129716, 27.802669249607401 ] ] ] } }
]
}
