{
"type": "FeatureCollection",
"name": "长塘社区居委会",
"crs": { "type": "name", "properties": { "name": "urn:ogc:def:crs:OGC:1.3:CRS84" } },
"features": [
{ "type": "Feature", "properties": { "adcode": "430304010007", "fullName": "湖南省湘潭市岳塘区宝塔街道长塘社区居委会", "level": "居委会/社区", "location": "112.952271,27.83339", "name": "长塘社区居委会", "OBJECTID": 4087, "SHAPE_Leng": 0.032152361985299999, "SHAPE_Area": 6.4239819000400003e-05 }, "geometry": { "type": "Polygon", "coordinates": [ [ [ 112.942548193314806, 27.832725873608062 ], [ 112.942544198352891, 27.832791892102037 ], [ 112.942248633240041, 27.836860130963171 ], [ 112.94216364532798, 27.839461717867589 ], [ 112.946611852727528, 27.840496706529429 ], [ 112.946694626139333, 27.84051053121884 ], [ 112.951033378800688, 27.841232011172671 ], [ 112.951154594188608, 27.834036576998098 ], [ 112.951159605171924, 27.833712513749585 ], [ 112.95116060620731, 27.833662503468076 ], [ 112.951161609517854, 27.833583488553924 ], [ 112.950955208077161, 27.833562958921654 ], [ 112.946681241749346, 27.833137377010132 ], [ 112.942548193314806, 27.832725873608062 ] ] ] } }
]
}
