{
"type": "FeatureCollection",
"name": "长安村委会",
"crs": { "type": "name", "properties": { "name": "urn:ogc:def:crs:OGC:1.3:CRS84" } },
"features": [
{ "type": "Feature", "properties": { "adcode": "430302100201", "fullName": "湖南省湘潭市雨湖区鹤岭镇长安村委会", "level": "居委会/社区", "location": "112.845878,27.956713", "name": "长安村委会", "OBJECTID": 3896, "SHAPE_Leng": 0.084077989523499999, "SHAPE_Area": 0.000185385009 }, "geometry": { "type": "Polygon", "coordinates": [ [ [ 112.832613435441402, 27.955960515910331 ], [ 112.832957946763557, 27.957250368978158 ], [ 112.832614241049896, 27.958461939197079 ], [ 112.834247043532685, 27.959603134271781 ], [ 112.833386493055386, 27.959981618081855 ], [ 112.833396433776798, 27.960963801507173 ], [ 112.834255911048146, 27.961495468657951 ], [ 112.835459871137516, 27.963467998483818 ], [ 112.834857738521748, 27.964453065597343 ], [ 112.836749015439921, 27.964760553266682 ], [ 112.837437265017911, 27.964002667263468 ], [ 112.838470044941715, 27.963929506790034 ], [ 112.839070003462098, 27.964763716250946 ], [ 112.838898670032322, 27.965295500233442 ], [ 112.840360127220805, 27.965525128147611 ], [ 112.84001645335006, 27.96673672432895 ], [ 112.839156001361104, 27.966661186581419 ], [ 112.838210321480091, 27.967491638111497 ], [ 112.838984573229098, 27.968404172542343 ], [ 112.838554721207601, 27.969918658478822 ], [ 112.83803780547224, 27.97030379788696 ], [ 112.839132594589856, 27.971351926727948 ], [ 112.839192700407168, 27.971306025967085 ], [ 112.839283860812529, 27.971236176350992 ], [ 112.839433122824175, 27.971126423115162 ], [ 112.839513264220599, 27.971056553666845 ], [ 112.839593404030495, 27.971005687290283 ], [ 112.8397086053603, 27.97092587811256 ], [ 112.839798760147076, 27.970897032913268 ], [ 112.839862867741743, 27.970907148016746 ], [ 112.839903937138388, 27.970907220661172 ], [ 112.839994087813579, 27.97092738336849 ], [ 112.840094253689202, 27.970967566979532 ], [ 112.840204434796064, 27.971026771285917 ], [ 112.84027454818694, 27.971086904943093 ], [ 112.840384726473687, 27.971178114291753 ], [ 112.840539978405516, 27.97129340679729 ], [ 112.840715262055525, 27.971427737328657 ], [ 112.840820433606524, 27.971487932050021 ], [ 112.840875523506881, 27.971518033746893 ], [ 112.841015754108426, 27.971569288203728 ], [ 112.841306228924509, 27.971698818270578 ], [ 112.841426425177033, 27.971750036854448 ], [ 112.841616737823969, 27.971800377406375 ], [ 112.841756970768586, 27.971799621714304 ], [ 112.841907220679829, 27.971789881665448 ], [ 112.841947288537114, 27.971770948216935 ], [ 112.842017407749552, 27.971731063503057 ], [ 112.842107561569421, 27.971671210195353 ], [ 112.842138614467004, 27.971651260804737 ], [ 112.842267838073042, 27.971521463479217 ], [ 112.84230790740304, 27.971480526157006 ], [ 112.84240808119219, 27.971370681496687 ], [ 112.842452157180446, 27.97132775069354 ], [ 112.844179898731198, 27.972323884140824 ], [ 112.844134848051169, 27.972040760355291 ], [ 112.844071777331948, 27.971640586341021 ], [ 112.843835415857313, 27.971366137134332 ], [ 112.843889528788054, 27.971044176093944 ], [ 112.844093877504505, 27.970816487038338 ], [ 112.844351309481496, 27.970608890935882 ], [ 112.844555660932627, 27.970323190635881 ], [ 112.844705915680166, 27.970153417243687 ], [ 112.844835142302443, 27.969906595043042 ], [ 112.844899265688838, 27.96964265960192 ], [ 112.845071562867091, 27.969367905041235 ], [ 112.845254863638488, 27.969264196998484 ], [ 112.845448184996016, 27.969092493892312 ], [ 112.845586406799086, 27.969065721757296 ], [ 112.845759689174926, 27.968969996582878 ], [ 112.846039146027536, 27.968780432801307 ], [ 112.846328604340798, 27.968752911282934 ], [ 112.846608037933024, 27.968818387084177 ], [ 112.846350656759469, 27.96852591017775 ], [ 112.846277552780194, 27.968384764813266 ], [ 112.846231487135384, 27.968296673303186 ], [ 112.846028185774514, 27.968050292721433 ], [ 112.845898989652341, 27.967947059370999 ], [ 112.84528705142904, 27.967517960026044 ], [ 112.845050697880623, 27.96721351048301 ], [ 112.84492250535871, 27.967052266897372 ], [ 112.844899473554548, 27.966987217076767 ], [ 112.844598972833921, 27.96722374747473 ], [ 112.844437719375193, 27.967146460741994 ], [ 112.844051094429886, 27.967155803987744 ], [ 112.843708539044314, 27.967155218540739 ], [ 112.843599371204633, 27.967032011017178 ], [ 112.843589374175068, 27.966785952786399 ], [ 112.843492233108776, 27.966567749798639 ], [ 112.843342000204672, 27.96641446633625 ], [ 112.843169729934743, 27.966273146600503 ], [ 112.843115671966743, 27.965883988520243 ], [ 112.843137731727893, 27.965580975805956 ], [ 112.843158792034927, 27.965249956662142 ], [ 112.843255970107919, 27.965003082461987 ], [ 112.843208902301768, 27.964886982105948 ], [ 112.843041661347925, 27.964470624575871 ], [ 112.843009613732207, 27.964408558977564 ], [ 112.842923486329056, 27.964233381196195 ], [ 112.842987615782903, 27.963921439474142 ], [ 112.843018671950944, 27.963853481594242 ], [ 112.843115847920302, 27.963636612577769 ], [ 112.84323404922722, 27.963532798506737 ], [ 112.843545593507301, 27.963068255466336 ], [ 112.843615711956275, 27.963012366253764 ], [ 112.843850107231873, 27.962825736047083 ], [ 112.843890174621535, 27.962794799330698 ], [ 112.844126574350142, 27.962577166274762 ], [ 112.844385005635132, 27.962396575963488 ], [ 112.844503210775883, 27.962207745148877 ], [ 112.84478267024177, 27.962074196698396 ], [ 112.845052109739825, 27.961971635186615 ], [ 112.845266456398775, 27.961914987304795 ], [ 112.844953988419775, 27.961515392769808 ], [ 112.845200401362945, 27.961270767760301 ], [ 112.84513731550561, 27.961080629393802 ], [ 112.844588433747134, 27.961108705271108 ], [ 112.844319995622072, 27.961183261664303 ], [ 112.844180785679413, 27.960993992839644 ], [ 112.844180794603247, 27.960879973694901 ], [ 112.844266944103865, 27.960747098083477 ], [ 112.844653575554148, 27.960633735957789 ], [ 112.844728702045316, 27.960558850723888 ], [ 112.844674627106599, 27.960406733493524 ], [ 112.844835902195115, 27.960197971607972 ], [ 112.845213518637905, 27.960037582601966 ], [ 112.845696303648083, 27.959819357911798 ], [ 112.846103966032388, 27.959594002434557 ], [ 112.846394444119241, 27.959328442182279 ], [ 112.846705952493807, 27.959073917130997 ], [ 112.846781081083762, 27.958932017854117 ], [ 112.847036480242849, 27.958924439400231 ], [ 112.84742708799169, 27.958913081777048 ], [ 112.847810685761885, 27.958848700831819 ], [ 112.847985957838603, 27.95881898269144 ], [ 112.848102135551102, 27.958828174053931 ], [ 112.848328471103883, 27.958971567228513 ], [ 112.848553799675756, 27.959169967011718 ], [ 112.849166773376268, 27.958611864629081 ], [ 112.849149755324362, 27.958513820692392 ], [ 112.849139744886529, 27.958453794447887 ], [ 112.84907667774533, 27.958092631910262 ], [ 112.849016613652509, 27.957749477155776 ], [ 112.849166868940785, 27.957389658870675 ], [ 112.849382227759676, 27.956952931807756 ], [ 112.849586561457983, 27.956612202290124 ], [ 112.848737255882668, 27.956903882799207 ], [ 112.848705249307059, 27.956364739994481 ], [ 112.848285640328896, 27.955964990698231 ], [ 112.847608626540591, 27.955613824019963 ], [ 112.8474363866884, 27.95527248323663 ], [ 112.846212563169104, 27.954140263986453 ], [ 112.84390197545018, 27.952790133662866 ], [ 112.843547422617945, 27.952495477036361 ], [ 112.843740773872355, 27.952022728158568 ], [ 112.844007232972444, 27.951676124822857 ], [ 112.843892043654549, 27.951710934013544 ], [ 112.843851977916245, 27.951720867225738 ], [ 112.84378086105859, 27.951739748823861 ], [ 112.843690713112608, 27.951759597926387 ], [ 112.8436416310048, 27.951789518949298 ], [ 112.843576522001058, 27.951829414157555 ], [ 112.84350640124326, 27.951914308321587 ], [ 112.843381181917394, 27.952110126609064 ], [ 112.843351125873923, 27.952200090227628 ], [ 112.843371149150627, 27.952320144934703 ], [ 112.843411196464714, 27.952550252632548 ], [ 112.843421201910061, 27.952689293335109 ], [ 112.843391147453715, 27.952759253584393 ], [ 112.843280955124925, 27.95292009152687 ], [ 112.84320982882555, 27.953049991230525 ], [ 112.843209818650621, 27.95318001320824 ], [ 112.84323084439751, 27.95329006797769 ], [ 112.843310961899377, 27.953460234455182 ], [ 112.843317972087135, 27.953476249207036 ], [ 112.843016479353238, 27.953475730449068 ], [ 112.841382923818983, 27.951653587338853 ], [ 112.840609547880504, 27.952714411103138 ], [ 112.838632205521137, 27.95263389374643 ], [ 112.835795388487583, 27.951568603019584 ], [ 112.832613435441402, 27.955960515910331 ] ] ] } }
]
}
