{
"type": "FeatureCollection",
"name": "长龙村委会",
"crs": { "type": "name", "properties": { "name": "urn:ogc:def:crs:OGC:1.3:CRS84" } },
"features": [
{ "type": "Feature", "properties": { "adcode": "430302100246", "fullName": "湖南省湘潭市雨湖区鹤岭镇长龙村委会", "level": "居委会/社区", "location": "112.769927,27.973476", "name": "长龙村委会", "OBJECTID": 3926, "SHAPE_Leng": 0.10068105818299999, "SHAPE_Area": 0.00037936897499899998 }, "geometry": { "type": "Polygon", "coordinates": [ [ [ 112.752198739530797, 27.976213924832212 ], [ 112.752398734038024, 27.97642301648948 ], [ 112.753068730098704, 27.977094329593704 ], [ 112.753448736213613, 27.977474514509925 ], [ 112.753926684093315, 27.978813896557956 ], [ 112.753948681972517, 27.978874914234321 ], [ 112.754339645651839, 27.979984235350738 ], [ 112.754618486392815, 27.982504751264305 ], [ 112.75425840812693, 27.982835673805322 ], [ 112.753258217287311, 27.983775487235199 ], [ 112.7531541867871, 27.984037496808025 ], [ 112.754855403367927, 27.984019088260112 ], [ 112.758780357625156, 27.983976861608483 ], [ 112.760671135340814, 27.982764721856185 ], [ 112.762558765964698, 27.985191303531501 ], [ 112.764447670106108, 27.985951739979139 ], [ 112.765822567641393, 27.984587551276011 ], [ 112.768227037646227, 27.985651689363344 ], [ 112.772522253968674, 27.986867878763071 ], [ 112.774584152231057, 27.985960859453488 ], [ 112.775098571060042, 27.986718534750747 ], [ 112.775957486848938, 27.985507277118376 ], [ 112.777332779666324, 27.986417977254039 ], [ 112.775958319547215, 27.987629623634753 ], [ 112.777504858749964, 27.987632373041855 ], [ 112.779223915193, 27.984449882457714 ], [ 112.777928625072306, 27.983458184081851 ], [ 112.778443390475985, 27.980577316403167 ], [ 112.776037955684757, 27.980573558715751 ], [ 112.774664935828412, 27.977009477144904 ], [ 112.77500729645071, 27.976478756746271 ], [ 112.774062475189083, 27.975871651876918 ], [ 112.774579000574349, 27.975190084886471 ], [ 112.772259227515733, 27.971775134077355 ], [ 112.771485600564404, 27.971624352082632 ], [ 112.771142378171476, 27.970940908882678 ], [ 112.766677411392962, 27.967980484274243 ], [ 112.766075018933577, 27.968207043273921 ], [ 112.765559709706565, 27.968205643381729 ], [ 112.764786276552357, 27.968055035673931 ], [ 112.763927833922637, 27.967749362475374 ], [ 112.763499545657382, 27.968583200800573 ], [ 112.761265533969166, 27.96820267380906 ], [ 112.760750580396291, 27.96494181688152 ], [ 112.759892214469701, 27.965396393929662 ], [ 112.757917688629121, 27.963879093384765 ], [ 112.756114092683433, 27.965699566807096 ], [ 112.756974207288792, 27.966761125749873 ], [ 112.756544104191605, 27.96675993136132 ], [ 112.7544838415714, 27.96516782981244 ], [ 112.75448379350135, 27.965773931173853 ], [ 112.753710626680146, 27.966607797728621 ], [ 112.753278574878095, 27.966687668333346 ], [ 112.753559462038723, 27.968472058129098 ], [ 112.75401938755212, 27.970092485060626 ], [ 112.753567244011364, 27.971231520072664 ], [ 112.753089101642502, 27.972433564714365 ], [ 112.752268766237023, 27.975923896746028 ], [ 112.752198739530797, 27.976213924832212 ] ] ] } }
]
}
