{
"type": "FeatureCollection",
"name": "阳塘村村委会",
"crs": { "type": "name", "properties": { "name": "urn:ogc:def:crs:OGC:1.3:CRS84" } },
"features": [
{ "type": "Feature", "properties": { "adcode": "430304014208", "fullName": "湖南省湘潭市岳塘区霞城街道阳塘村村委会", "level": "居委会/社区", "location": "112.947112,27.799168", "name": "阳塘村村委会", "OBJECTID": 4100, "SHAPE_Leng": 0.058835513778899999, "SHAPE_Area": 0.0001566042905 }, "geometry": { "type": "Polygon", "coordinates": [ [ [ 112.949064692036174, 27.806961093754751 ], [ 112.94903976412246, 27.806937145668694 ], [ 112.948978942376243, 27.806847267493435 ], [ 112.948950026147358, 27.806816327150671 ], [ 112.948940054189507, 27.806816349333101 ], [ 112.948919113848802, 27.806806394392076 ], [ 112.948860279173459, 27.806806525157949 ], [ 112.948849309199105, 27.806816551038185 ], [ 112.948820389617083, 27.80682661677222 ], [ 112.948810416043813, 27.806846641937195 ], [ 112.948790470452295, 27.806866689230727 ], [ 112.948790458706142, 27.807016711934413 ], [ 112.948800429154502, 27.80703669283039 ], [ 112.948830342043109, 27.8070766324707 ], [ 112.9488403109101, 27.807116616381933 ], [ 112.948860250198862, 27.807176581167056 ], [ 112.948880191038768, 27.807216542910702 ], [ 112.94889015988673, 27.807256526807038 ], [ 112.948890157537392, 27.807286531351281 ], [ 112.948880183207649, 27.807316558058091 ], [ 112.948869212458632, 27.807336585462508 ], [ 112.94886023766918, 27.807336605402256 ], [ 112.948839295699059, 27.807346653432671 ], [ 112.948810377672558, 27.807336716128813 ], [ 112.948790435213624, 27.807316757365882 ], [ 112.948750547900929, 27.807306844344339 ], [ 112.948690717209757, 27.807286973953243 ], [ 112.94859000153879, 27.807258192560109 ], [ 112.948530169776063, 27.80724732320526 ], [ 112.948491279279978, 27.807237407627387 ], [ 112.948470339285791, 27.807218451001912 ], [ 112.948441421713085, 27.807197511668949 ], [ 112.94842148053884, 27.807157549627455 ], [ 112.948371625970324, 27.807077647494598 ], [ 112.948361657707153, 27.807027661910691 ], [ 112.948351687874322, 27.806997679351763 ], [ 112.948341717254706, 27.806977698303417 ], [ 112.948331751328979, 27.806897708170602 ], [ 112.948321790096955, 27.806757708958504 ], [ 112.948311824946387, 27.806667717312546 ], [ 112.948311828861094, 27.806617709749982 ], [ 112.948321803406998, 27.806587683243897 ], [ 112.948321805755825, 27.806557678707119 ], [ 112.948341750921628, 27.806547633246872 ], [ 112.948351724673188, 27.806527608243442 ], [ 112.94837166981614, 27.806517562762821 ], [ 112.948391615726692, 27.806497515756632 ], [ 112.948411562404985, 27.806467467225097 ], [ 112.948451454933078, 27.806417371633852 ], [ 112.948481376050964, 27.806357296504331 ], [ 112.948491350532265, 27.806327269943267 ], [ 112.948491355230132, 27.806267260875554 ], [ 112.948501331195317, 27.806218231441086 ], [ 112.948501350847948, 27.805967193526289 ], [ 112.948510328814194, 27.805928167807117 ], [ 112.948530275480522, 27.805897119049838 ], [ 112.948541248642144, 27.805848087404108 ], [ 112.948541254122972, 27.805778076837225 ], [ 112.948560205121467, 27.805727027247222 ], [ 112.948560206687418, 27.805707024228813 ], [ 112.948570182704813, 27.805656994629874 ], [ 112.948570192100533, 27.805536976524643 ], [ 112.948580170463089, 27.805456942400372 ], [ 112.948590148038889, 27.805386909783042 ], [ 112.948600123262096, 27.80534688168752 ], [ 112.948610096132484, 27.805336858112561 ], [ 112.948620068999062, 27.805326834534192 ], [ 112.948640014720979, 27.805306787367506 ], [ 112.948670928915504, 27.805296717398605 ], [ 112.948720790746023, 27.805276603893496 ], [ 112.948780622938472, 27.805276471194073 ], [ 112.94886039819977, 27.805286295579887 ], [ 112.948940173923859, 27.805287118392719 ], [ 112.949098728475235, 27.805275763634786 ], [ 112.949199445258444, 27.805265537389612 ], [ 112.949289192649189, 27.80525533533222 ], [ 112.949458715539279, 27.805224951252963 ], [ 112.94955843456512, 27.80520472451801 ], [ 112.949608294721116, 27.805184609518104 ], [ 112.949648184658557, 27.805144513841007 ], [ 112.94969804542994, 27.805114397184514 ], [ 112.94972796435458, 27.805064322328708 ], [ 112.94973694041704, 27.805044299112897 ], [ 112.949746914425461, 27.805014272142717 ], [ 112.949756890780009, 27.80495424064997 ], [ 112.949766865564399, 27.804914212167755 ], [ 112.949766867914221, 27.804884207649007 ], [ 112.9497568970462, 27.804874228599459 ], [ 112.949756900179281, 27.804834222575128 ], [ 112.949718019319846, 27.804724293560298 ], [ 112.949708050783258, 27.804684309978445 ], [ 112.949708054699514, 27.804634302451522 ], [ 112.949728001951215, 27.804584250041444 ], [ 112.949766899166676, 27.804485147580355 ], [ 112.949806792000928, 27.804405045683588 ], [ 112.949857657549941, 27.804273911329705 ], [ 112.949876606667743, 27.804234862730144 ], [ 112.949907524902912, 27.804154780950459 ], [ 112.949947418389641, 27.804063677222445 ], [ 112.949997284087686, 27.80396354955851 ], [ 112.950007256432855, 27.803953525519049 ], [ 112.950125934968355, 27.803733224025642 ], [ 112.95018677133065, 27.803603066717208 ], [ 112.950225667098991, 27.803513965198317 ], [ 112.950246612680388, 27.803443907200968 ], [ 112.950306453976054, 27.803283747425223 ], [ 112.950356320655061, 27.803162616045185 ], [ 112.950406188730625, 27.803022481739319 ], [ 112.950456056714444, 27.802882347358437 ], [ 112.950515900680912, 27.80268218120813 ], [ 112.950584721862924, 27.802441988510108 ], [ 112.950594697046625, 27.802392958443157 ], [ 112.950624618110368, 27.802302876758905 ], [ 112.950664513594262, 27.802172766309099 ], [ 112.950674486476785, 27.802152740559659 ], [ 112.950705408578656, 27.802011648899398 ], [ 112.950755281497948, 27.801801503613618 ], [ 112.950775231110171, 27.801711444584242 ], [ 112.950805155109606, 27.801581356768342 ], [ 112.950864998309328, 27.801381190026689 ], [ 112.950883951501382, 27.801281131729297 ], [ 112.950964739478977, 27.801011906574526 ], [ 112.951066473658031, 27.800653619909909 ], [ 112.946127407815013, 27.799201327848177 ], [ 112.940593862108557, 27.797581295610488 ], [ 112.940561941734416, 27.797572355623899 ], [ 112.936840915480843, 27.796589089779847 ], [ 112.932980540196738, 27.795966552482572 ], [ 112.932860795909832, 27.795958744921233 ], [ 112.932374826670696, 27.795929520192633 ], [ 112.93230195355919, 27.796267686021054 ], [ 112.932201129384723, 27.796726913889898 ], [ 112.932051389772866, 27.797407251433221 ], [ 112.931932587777297, 27.798047533567434 ], [ 112.931860710081381, 27.798398698692708 ], [ 112.932955390381935, 27.798572977976583 ], [ 112.933833190862245, 27.80254513308881 ], [ 112.934867918633614, 27.802539398730033 ], [ 112.937917634155824, 27.806429623177635 ], [ 112.938141084117532, 27.806714258894772 ], [ 112.938139084625391, 27.80676827071018 ], [ 112.938139083844959, 27.80677827222318 ], [ 112.938080079546282, 27.808617658548194 ], [ 112.938045077384729, 27.809702887318171 ], [ 112.938691604878926, 27.808881575442143 ], [ 112.940585045672776, 27.80829091601845 ], [ 112.941559621257312, 27.808212013062789 ], [ 112.948021418916824, 27.809394768765706 ], [ 112.949064692036174, 27.806961093754751 ] ] ] } }
]
}
