{
"type": "FeatureCollection",
"name": "阳光社区居委会",
"crs": { "type": "name", "properties": { "name": "urn:ogc:def:crs:OGC:1.3:CRS84" } },
"features": [
{ "type": "Feature", "properties": { "adcode": "430304010005", "fullName": "湖南省湘潭市岳塘区宝塔街道阳光社区居委会", "level": "居委会/社区", "location": "112.94442,27.846025", "name": "阳光社区居委会", "OBJECTID": 4085, "SHAPE_Leng": 0.016440527372899999, "SHAPE_Area": 1.3925443e-05 }, "geometry": { "type": "Polygon", "coordinates": [ [ [ 112.936998463982917, 27.848830963661104 ], [ 112.937004432840737, 27.849051989149636 ], [ 112.937065102356399, 27.851475277741443 ], [ 112.93890869337028, 27.852189037479949 ], [ 112.941517595020187, 27.848173403482207 ], [ 112.938649757990675, 27.846520590109954 ], [ 112.938607730041028, 27.848158934881528 ], [ 112.938156802386374, 27.84816176354823 ], [ 112.938136813989587, 27.848617874567434 ], [ 112.936998463982917, 27.848830963661104 ] ] ] } }
]
}
