{
"type": "FeatureCollection",
"name": "陈蒲村委会",
"crs": { "type": "name", "properties": { "name": "urn:ogc:def:crs:OGC:1.3:CRS84" } },
"features": [
{ "type": "Feature", "properties": { "adcode": "430302100256", "fullName": "湖南省湘潭市雨湖区鹤岭镇陈蒲村委会", "level": "居委会/社区", "location": "112.820018,28.008957", "name": "陈蒲村委会", "OBJECTID": 3936, "SHAPE_Leng": 0.101044677008, "SHAPE_Area": 0.0003367750235 }, "geometry": { "type": "Polygon", "coordinates": [ [ [ 112.799685998607046, 28.008276685274083 ], [ 112.803210698735569, 28.009343890859615 ], [ 112.804161156321399, 28.011090824023345 ], [ 112.805364195335883, 28.011092944367721 ], [ 112.807084002465245, 28.012915290711607 ], [ 112.808975291387, 28.012918700156632 ], [ 112.811898225609568, 28.015803486056161 ], [ 112.813961749429168, 28.017929626344451 ], [ 112.81379125222027, 28.020353680561872 ], [ 112.816369832478756, 28.021268622083511 ], [ 112.81636961732633, 28.023996034982392 ], [ 112.819120593805977, 28.024304240139134 ], [ 112.818776764459429, 28.026880981463851 ], [ 112.82049687778435, 28.027186263014499 ], [ 112.821356447359378, 28.027188882494965 ], [ 112.821872473466328, 28.026128695862703 ], [ 112.823763904637048, 28.026434306417315 ], [ 112.824791858250208, 28.025450094872593 ], [ 112.824619734847758, 28.023025404811484 ], [ 112.823846520306816, 28.02052256818569 ], [ 112.825481508691027, 28.020450636049091 ], [ 112.825136069748297, 28.01802361509402 ], [ 112.825566014065075, 28.015979110148994 ], [ 112.828490158892933, 28.018106925458728 ], [ 112.829523084624071, 28.017350739894635 ], [ 112.825738512888819, 28.013630071995088 ], [ 112.825738620261006, 28.012265860698687 ], [ 112.823588752586147, 28.011579705821269 ], [ 112.822385555179409, 28.011576437663713 ], [ 112.82204100325211, 28.010590634823785 ], [ 112.820665515078332, 28.010285995814719 ], [ 112.820493349923794, 28.00838937524998 ], [ 112.81700711303958, 28.006975604710586 ], [ 112.816366972859143, 28.006715366147883 ], [ 112.812583402537015, 28.003676855761263 ], [ 112.812411274367733, 28.001402177833199 ], [ 112.807682977579972, 28.001014497420321 ], [ 112.80742568097574, 27.999119733424241 ], [ 112.805533386588678, 27.999645440827521 ], [ 112.804158084000932, 27.999264955101438 ], [ 112.804158048051022, 27.999720027550655 ], [ 112.801664625663307, 28.003125239978331 ], [ 112.799685998607046, 28.008276685274083 ] ] ] } }
]
}
