{
"type": "FeatureCollection",
"name": "雅爱村委会",
"crs": { "type": "name", "properties": { "name": "urn:ogc:def:crs:OGC:1.3:CRS84" } },
"features": [
{ "type": "Feature", "properties": { "adcode": "430373200213", "fullName": "湖南省湘潭市雨湖区响水乡雅爱村委会", "level": "居委会/社区", "location": "112.901559,27.913271", "name": "雅爱村委会", "OBJECTID": 4015, "SHAPE_Leng": 0.084618427319400003, "SHAPE_Area": 0.000139857852 }, "geometry": { "type": "Polygon", "coordinates": [ [ [ 112.888874929142801, 27.920556626583121 ], [ 112.889261900844247, 27.921126845667306 ], [ 112.891878721770496, 27.922416721447227 ], [ 112.892264614460686, 27.923288942748869 ], [ 112.893510331641238, 27.924654365031657 ], [ 112.893680236784419, 27.925488528379287 ], [ 112.895569773295307, 27.925943750086411 ], [ 112.897627994560168, 27.927385976072532 ], [ 112.897584836531195, 27.929622361031623 ], [ 112.898572405721694, 27.930116371170893 ], [ 112.8994080084871, 27.930466334398606 ], [ 112.900395901375347, 27.925647355707341 ], [ 112.900009190473853, 27.924435213722333 ], [ 112.898379005673164, 27.923448247924956 ], [ 112.894603199504871, 27.923562288147924 ], [ 112.892501775003737, 27.920868569145917 ], [ 112.89537742939909, 27.918177412295879 ], [ 112.899623802358121, 27.918973336909751 ], [ 112.899623876149349, 27.918025174456641 ], [ 112.900211738550382, 27.916099752426046 ], [ 112.901684318007256, 27.911272627070812 ], [ 112.903121590357955, 27.909281901382386 ], [ 112.90449379780037, 27.907386122957462 ], [ 112.903572445486759, 27.907310424077906 ], [ 112.902005431529119, 27.907397885653378 ], [ 112.899818462641008, 27.909293649890429 ], [ 112.899774525118559, 27.908763565769711 ], [ 112.8991748050627, 27.908763647959638 ], [ 112.89891594392256, 27.908460626611909 ], [ 112.899173894056176, 27.907625453195216 ], [ 112.897286705029259, 27.907017503691293 ], [ 112.897544487120825, 27.908611764807709 ], [ 112.897243557999758, 27.90910486278484 ], [ 112.896342881802724, 27.908800827441496 ], [ 112.895655965706084, 27.910318076137248 ], [ 112.895227080006961, 27.910318058711223 ], [ 112.894797120620552, 27.911152176075838 ], [ 112.893724394400863, 27.910508967212536 ], [ 112.893467419036412, 27.910773981569513 ], [ 112.892522625717817, 27.909900693372741 ], [ 112.891966625227582, 27.910696730232683 ], [ 112.891923591006773, 27.911189806449418 ], [ 112.892438485513793, 27.911835010531298 ], [ 112.892395434534819, 27.912556126695335 ], [ 112.892137454445489, 27.912670100299415 ], [ 112.892137404268055, 27.913315210825438 ], [ 112.891536464836676, 27.913238079585291 ], [ 112.891279473996121, 27.91335204393177 ], [ 112.891193452791867, 27.913693083270498 ], [ 112.891322397450836, 27.914300215818404 ], [ 112.890549319095669, 27.915779287753665 ], [ 112.889090230873563, 27.916804051831303 ], [ 112.88904718497507, 27.917371135513207 ], [ 112.88982008858882, 27.918850619633226 ], [ 112.888874929142801, 27.920556626583121 ] ] ] } }
]
}
