{
"type": "FeatureCollection",
"name": "雨湖路社区居委会",
"crs": { "type": "name", "properties": { "name": "urn:ogc:def:crs:OGC:1.3:CRS84" } },
"features": [
{ "type": "Feature", "properties": { "adcode": "430302001001", "fullName": "湖南省湘潭市雨湖区雨湖路街道雨湖路社区居委会", "level": "居委会/社区", "location": "112.909247,27.858689", "name": "雨湖路社区居委会", "OBJECTID": 3824, "SHAPE_Leng": 0.013948989814099999, "SHAPE_Area": 9.9487180000699999e-06 }, "geometry": { "type": "Polygon", "coordinates": [ [ [ 112.901321322317287, 27.862445434180071 ], [ 112.902376672623319, 27.862852245743102 ], [ 112.902784409612039, 27.862970153053208 ], [ 112.902987271328072, 27.863084113364661 ], [ 112.903101196800691, 27.863096081605679 ], [ 112.903594857798012, 27.863256955401901 ], [ 112.904129478877564, 27.863403801819231 ], [ 112.904431256957736, 27.863507712950856 ], [ 112.90471504644745, 27.863574620509677 ], [ 112.904966856505879, 27.863630534873369 ], [ 112.905368547493495, 27.863711390961985 ], [ 112.905674307847548, 27.863759274267096 ], [ 112.905856166446341, 27.863744195604397 ], [ 112.906055023328747, 27.863555079130581 ], [ 112.906204912611727, 27.863431993403054 ], [ 112.906370786258478, 27.86332790270221 ], [ 112.906505685146044, 27.863208822292901 ], [ 112.906623603391239, 27.863009735523374 ], [ 112.906785488430899, 27.862756618751192 ], [ 112.906552690261734, 27.862645707278428 ], [ 112.905576509496129, 27.862143045624332 ], [ 112.904858091103364, 27.861649246609453 ], [ 112.902649724551395, 27.860008698881646 ], [ 112.902585766740884, 27.859979711796409 ], [ 112.901321322317287, 27.862445434180071 ] ] ] } }
]
}
