{
"type": "FeatureCollection",
"name": "雨湖区城区",
"crs": { "type": "name", "properties": { "name": "urn:ogc:def:crs:OGC:1.3:CRS84" } },
"features": [
{ "type": "Feature", "properties": { "adcode": "430302006239", "fullName": "湖南省湘潭市雨湖区昭潭街道雨湖区城区", "level": "居委会/社区", "location": "112.884217,27.862106", "name": "雨湖区城区", "OBJECTID": 3877, "SHAPE_Leng": 0.030659015365599999, "SHAPE_Area": 2.8041952e-05 }, "geometry": { "type": "Polygon", "coordinates": [ [ [ 112.88081719611472, 27.866792557413781 ], [ 112.880966295593609, 27.866309572906093 ], [ 112.880988310562515, 27.866233574340765 ], [ 112.880806252616921, 27.866005418760061 ], [ 112.88049513511568, 27.865810182434235 ], [ 112.88036608358756, 27.865749086626856 ], [ 112.880377106429947, 27.865517055213608 ], [ 112.880146021206173, 27.865294863317835 ], [ 112.879887921405199, 27.865070650556245 ], [ 112.879539771624678, 27.86490438223214 ], [ 112.87917460382306, 27.864795106661816 ], [ 112.879035552809569, 27.864567969433775 ], [ 112.879432765435354, 27.864326210896945 ], [ 112.879700904614481, 27.864169371544602 ], [ 112.879679905415102, 27.864032334165376 ], [ 112.879861993377816, 27.863989452441349 ], [ 112.879867002671105, 27.863899440867879 ], [ 112.880066093892253, 27.863894575693568 ], [ 112.879991071897521, 27.863739498912814 ], [ 112.880356248090635, 27.863573717149158 ], [ 112.8804793021188, 27.863569798182738 ], [ 112.880623373792858, 27.863445872425117 ], [ 112.880822454775938, 27.863488009242133 ], [ 112.880885474094782, 27.863578065014039 ], [ 112.880912468000247, 27.863801119602922 ], [ 112.881020497110939, 27.864000222200318 ], [ 112.881175532835329, 27.864352379733646 ], [ 112.881255558753622, 27.864432443724048 ], [ 112.88153066152897, 27.864503627757806 ], [ 112.881637700505607, 27.864532698790345 ], [ 112.881820788319828, 27.864294771268987 ], [ 112.882061896146269, 27.864052876627195 ], [ 112.882323995515563, 27.863982020589418 ], [ 112.882452038312849, 27.86400709988305 ], [ 112.882623120152147, 27.863708149399375 ], [ 112.882640130411929, 27.863650149547922 ], [ 112.88279018056474, 27.863651235805417 ], [ 112.882973244903397, 27.863594330125679 ], [ 112.882946261237123, 27.863271261083405 ], [ 112.882961284811131, 27.863030229413869 ], [ 112.882660189654359, 27.862974048477511 ], [ 112.882622177424352, 27.862966025223933 ], [ 112.882173027205724, 27.86288174787882 ], [ 112.882248070241474, 27.862672757632694 ], [ 112.881995983207233, 27.862620598418026 ], [ 112.882071031182917, 27.862355599388252 ], [ 112.881346768807461, 27.862193128081728 ], [ 112.880355372818485, 27.861961448127566 ], [ 112.878898712561764, 27.861628381336285 ], [ 112.8788376829025, 27.861614334851353 ], [ 112.87842847983795, 27.861521019655459 ], [ 112.878127193223222, 27.86316006773443 ], [ 112.878107161531062, 27.863430097660395 ], [ 112.877928024478976, 27.86394904879171 ], [ 112.87725464263282, 27.864024541748261 ], [ 112.877135528184752, 27.864616546802704 ], [ 112.876802249757532, 27.865693461640301 ], [ 112.876641104823264, 27.866325437651081 ], [ 112.876631098911844, 27.866324429404727 ], [ 112.876136799313741, 27.866305022497485 ], [ 112.875738554393266, 27.866239679803709 ], [ 112.875721540462507, 27.86627967218385 ], [ 112.87553538676778, 27.86672358920034 ], [ 112.875792504803144, 27.867319905723036 ], [ 112.875825452763948, 27.868259090533389 ], [ 112.875986501038184, 27.868942339343796 ], [ 112.876147564391729, 27.869417552406833 ], [ 112.876490772270344, 27.869444838075797 ], [ 112.876995074735575, 27.86940823705876 ], [ 112.877445361846583, 27.869039528981791 ], [ 112.878015681316526, 27.868982956609749 ], [ 112.878604995326597, 27.868944388923563 ], [ 112.88001072027339, 27.868385288473196 ], [ 112.880106791354791, 27.868029293974129 ], [ 112.880172838300183, 27.867806301200893 ], [ 112.880134836332402, 27.867612243109797 ], [ 112.88017786701981, 27.867465247513316 ], [ 112.880424998671018, 27.867175364181833 ], [ 112.880763171938653, 27.866811525504886 ], [ 112.88081719611472, 27.866792557413781 ] ] ] } }
]
}
