{
"type": "FeatureCollection",
"name": "雪园社区居委会",
"crs": { "type": "name", "properties": { "name": "urn:ogc:def:crs:OGC:1.3:CRS84" } },
"features": [
{ "type": "Feature", "properties": { "adcode": "430302003002", "fullName": "湖南省湘潭市雨湖区云塘街道雪园社区居委会", "level": "居委会/社区", "location": "112.925236,27.86821", "name": "雪园社区居委会", "OBJECTID": 3841, "SHAPE_Leng": 0.0302788949334, "SHAPE_Area": 3.6820542999899998e-05 }, "geometry": { "type": "Polygon", "coordinates": [ [ [ 112.914160271468148, 27.87133039357176 ], [ 112.914618695675927, 27.87152405535134 ], [ 112.915890044590327, 27.872041064456603 ], [ 112.916859730233767, 27.872435259784162 ], [ 112.91872207396888, 27.873176593458414 ], [ 112.920745988576215, 27.873994609073993 ], [ 112.921263167010807, 27.874207073377814 ], [ 112.921295115443684, 27.874225040711369 ], [ 112.921135327963455, 27.874710300382752 ], [ 112.921215170467761, 27.875127281733342 ], [ 112.921272069132613, 27.875282244347719 ], [ 112.921797259307013, 27.875006605343433 ], [ 112.922558061844427, 27.874607658135378 ], [ 112.926659115910979, 27.87245611568456 ], [ 112.926713019206886, 27.872427037840161 ], [ 112.926086173304029, 27.87227585318513 ], [ 112.925454321228898, 27.872072649304755 ], [ 112.924245465887722, 27.871647117911522 ], [ 112.923605574654033, 27.871388863944613 ], [ 112.923013582391519, 27.871150538256764 ], [ 112.922596282381022, 27.870982004243832 ], [ 112.921712736212427, 27.870621965022458 ], [ 112.920990895077011, 27.870328724516884 ], [ 112.919969490203414, 27.869916760235565 ], [ 112.918279017484778, 27.869207367764769 ], [ 112.917866611963518, 27.869037741148642 ], [ 112.916859029213427, 27.868611619399953 ], [ 112.915777492348028, 27.868167513640341 ], [ 112.915759512944547, 27.868201534987978 ], [ 112.915467844281224, 27.868759880369893 ], [ 112.915237101207552, 27.869229155544073 ], [ 112.914825555212786, 27.870034635191292 ], [ 112.914160271468148, 27.87133039357176 ] ] ] } }
]
}
