{
"type": "FeatureCollection",
"name": "霞城村村委会_2",
"crs": { "type": "name", "properties": { "name": "urn:ogc:def:crs:OGC:1.3:CRS84" } },
"features": [
{ "type": "Feature", "properties": { "adcode": "430371002212", "fullName": "湖南省湘潭市岳塘区双马街道霞城村村委会", "level": "居委会/社区", "location": "112.931788,27.823484", "name": "霞城村村委会", "OBJECTID": 4142, "SHAPE_Leng": 0.014962506186899999, "SHAPE_Area": 1.29013765e-05 }, "geometry": { "type": "Polygon", "coordinates": [ [ [ 112.928185763136511, 27.827584666561396 ], [ 112.928662983367261, 27.825841710289886 ], [ 112.926168729935185, 27.824799000193906 ], [ 112.926124806267154, 27.82483906491127 ], [ 112.923475234173424, 27.827285819308525 ], [ 112.923497197228613, 27.827286792795348 ], [ 112.923894523758932, 27.827317311540021 ], [ 112.924881719689878, 27.828639282897797 ], [ 112.925722271707684, 27.828152118615286 ], [ 112.927077730242374, 27.829084448420701 ], [ 112.927329260399034, 27.829109106297953 ], [ 112.927463009264443, 27.829122923381782 ], [ 112.928185763136511, 27.827584666561396 ] ] ] } }
]
}
