{
"type": "FeatureCollection",
"name": "霞光社区居委会",
"crs": { "type": "name", "properties": { "name": "urn:ogc:def:crs:OGC:1.3:CRS84" } },
"features": [
{ "type": "Feature", "properties": { "adcode": "430304006002", "fullName": "湖南省湘潭市岳塘区建设路街道霞光社区居委会", "level": "居委会/社区", "location": "112.92175,27.832556", "name": "霞光社区居委会", "OBJECTID": 4069, "SHAPE_Leng": 0.020814155408800002, "SHAPE_Area": 1.7626114e-05 }, "geometry": { "type": "Polygon", "coordinates": [ [ [ 112.91664568179695, 27.838233821055084 ], [ 112.916720608120073, 27.837891697697632 ], [ 112.916870410390175, 27.837844552769479 ], [ 112.917062204384166, 27.837157264986853 ], [ 112.917514686130119, 27.835855631257342 ], [ 112.917986039343916, 27.835732159125161 ], [ 112.918242720038634, 27.835181820459816 ], [ 112.918911738467841, 27.835465199052031 ], [ 112.919195357727958, 27.83504384287545 ], [ 112.919368102322409, 27.835063668446111 ], [ 112.919784514948262, 27.834669171729612 ], [ 112.920005210111796, 27.834331884862273 ], [ 112.916675044218579, 27.833072967363258 ], [ 112.916646079921676, 27.833111999970374 ], [ 112.916038820547186, 27.833906671238097 ], [ 112.91602683495195, 27.833922684374478 ], [ 112.915432536146838, 27.834767335820157 ], [ 112.914547547238556, 27.8360242766535 ], [ 112.914457647694917, 27.836152370340383 ], [ 112.913889274586722, 27.836945951708547 ], [ 112.912975256039786, 27.838122840415089 ], [ 112.912978252591557, 27.83812283818305 ], [ 112.916678581187455, 27.838960908159901 ], [ 112.916705554331315, 27.838841864377667 ], [ 112.917035145882735, 27.838380486793596 ], [ 112.91664568179695, 27.838233821055084 ] ] ] } }
]
}
