{
"type": "FeatureCollection",
"name": "霞城村村委会",
"crs": { "type": "name", "properties": { "name": "urn:ogc:def:crs:OGC:1.3:CRS84" } },
"features": [
{ "type": "Feature", "properties": { "adcode": "430304001207", "fullName": "湖南省湘潭市岳塘区岳塘街道霞城村村委会", "level": "居委会/社区", "location": "112.922405,27.815709", "name": "霞城村村委会", "OBJECTID": 4046, "SHAPE_Leng": 0.00389157155346, "SHAPE_Area": 5.9052300003400001e-07 }, "geometry": { "type": "Polygon", "coordinates": [ [ [ 112.917409107892709, 27.819456140820133 ], [ 112.917767644651562, 27.81903173341011 ], [ 112.917859516686974, 27.81902864450938 ], [ 112.917875495902507, 27.8190086259821 ], [ 112.917900464158748, 27.818967595495206 ], [ 112.917896469749635, 27.818967599355354 ], [ 112.916321611333672, 27.818969065519287 ], [ 112.916322582435839, 27.819324119821221 ], [ 112.9169377448967, 27.819527592060073 ], [ 112.916991680812842, 27.81941352446686 ], [ 112.917195409527977, 27.819341323743462 ], [ 112.917409107892709, 27.819456140820133 ] ] ] } }
]
}
