{
"type": "FeatureCollection",
"name": "青山村村委会",
"crs": { "type": "name", "properties": { "name": "urn:ogc:def:crs:OGC:1.3:CRS84" } },
"features": [
{ "type": "Feature", "properties": { "adcode": "430304015212", "fullName": "湖南省湘潭市岳塘区荷塘街道青山村村委会", "level": "居委会/社区", "location": "113.033163,27.880098", "name": "青山村村委会", "OBJECTID": 4113, "SHAPE_Leng": 0.106882711213, "SHAPE_Area": 0.0004272621745 }, "geometry": { "type": "Polygon", "coordinates": [ [ [ 113.017378817592672, 27.896776972353635 ], [ 113.017709679797889, 27.896656017929683 ], [ 113.01830963743221, 27.896256261890716 ], [ 113.019303202296015, 27.896466518011458 ], [ 113.019474590995813, 27.89676209089173 ], [ 113.020041662047333, 27.896647495844373 ], [ 113.020672511203358, 27.89669275875282 ], [ 113.020939626648087, 27.89642597706473 ], [ 113.021056309203928, 27.89546749267193 ], [ 113.021881569021417, 27.894902133699979 ], [ 113.022951016594206, 27.894507156893376 ], [ 113.022881307606539, 27.89379022371736 ], [ 113.022672031663632, 27.893487739887991 ], [ 113.023566134933773, 27.892460146963202 ], [ 113.023645927431403, 27.891753811954857 ], [ 113.023400785826368, 27.891213380758664 ], [ 113.024025785943891, 27.890310545702164 ], [ 113.025196893231211, 27.89076249674163 ], [ 113.025309458176821, 27.891579336910294 ], [ 113.025683175044222, 27.892340476986412 ], [ 113.025978181532693, 27.892737766051109 ], [ 113.026410760148977, 27.892940662986142 ], [ 113.027224156258455, 27.89265948910171 ], [ 113.028384531558714, 27.891575301729929 ], [ 113.028972738609312, 27.890673639985 ], [ 113.030223769615475, 27.891110537507583 ], [ 113.030732115694022, 27.891968405033701 ], [ 113.032348087120994, 27.892575493931304 ], [ 113.033764772347936, 27.89284608399845 ], [ 113.034209451700121, 27.892692985674316 ], [ 113.034530534849679, 27.892185128813498 ], [ 113.035086916342067, 27.891775731645385 ], [ 113.035236495043293, 27.891519332793177 ], [ 113.035648303891335, 27.89124731211195 ], [ 113.036001286596161, 27.891028443928647 ], [ 113.036414115067615, 27.890619407569091 ], [ 113.036510866099817, 27.890221114084387 ], [ 113.036474008886486, 27.889785125994248 ], [ 113.03682701995487, 27.889348230047286 ], [ 113.03737146770257, 27.889115931130959 ], [ 113.037762346538386, 27.889115032716955 ], [ 113.037895987887197, 27.888828678125773 ], [ 113.038126330131902, 27.888839153925684 ], [ 113.038442454870378, 27.888557387081978 ], [ 113.038960001442334, 27.888447198425951 ], [ 113.03898197097088, 27.888063083760215 ], [ 113.039976240209469, 27.887462760269692 ], [ 113.04077104307008, 27.88749501402523 ], [ 113.04098245881076, 27.887552561497923 ], [ 113.040940585387389, 27.887406628176905 ], [ 113.04065146066344, 27.886406091492827 ], [ 113.040292553898553, 27.885137666309543 ], [ 113.039812975555648, 27.884017538841103 ], [ 113.039554743631925, 27.883428014265849 ], [ 113.038119070722615, 27.880023677675961 ], [ 113.037569746833853, 27.878722715517092 ], [ 113.036692498319184, 27.876013287424318 ], [ 113.036573872429045, 27.875648502241582 ], [ 113.036035576382389, 27.873994483149975 ], [ 113.035637027019447, 27.870534840828224 ], [ 113.035637039219452, 27.870384815670004 ], [ 113.033180314623237, 27.871018813874667 ], [ 113.025630920971864, 27.872969339965032 ], [ 113.024182646423668, 27.873343257852348 ], [ 113.023323477146974, 27.873564605914499 ], [ 113.022300699195029, 27.87596378262516 ], [ 113.020487829354565, 27.875869740205712 ], [ 113.020381200267011, 27.875768017834705 ], [ 113.019494294723003, 27.874937338956872 ], [ 113.018532590771244, 27.875026040465887 ], [ 113.016574366410026, 27.875205596960743 ], [ 113.016697862736549, 27.876106397850016 ], [ 113.017728124317358, 27.878057812289839 ], [ 113.017588479693984, 27.879643473544796 ], [ 113.017685041152589, 27.880924417446145 ], [ 113.016672436237201, 27.882462542314855 ], [ 113.015688801362884, 27.883384499249917 ], [ 113.015052020195867, 27.883613360394065 ], [ 113.014275717232579, 27.884123677842545 ], [ 113.01464538433639, 27.884462671554562 ], [ 113.015437524623579, 27.885342549044989 ], [ 113.015821105748032, 27.886244605853474 ], [ 113.016110057127293, 27.886698858925406 ], [ 113.016916115809579, 27.888276836114208 ], [ 113.017514025309737, 27.88843117106445 ], [ 113.018678935016482, 27.889224030273105 ], [ 113.018920045950722, 27.889958480404729 ], [ 113.018828337325914, 27.890253787022917 ], [ 113.017522821202903, 27.890571509704838 ], [ 113.017224843078324, 27.890728378329332 ], [ 113.016908910082492, 27.891123339975422 ], [ 113.016437532293665, 27.891388723163427 ], [ 113.015770862828859, 27.891414626890011 ], [ 113.015658227485872, 27.891789012212907 ], [ 113.015925243400517, 27.892382350896561 ], [ 113.016437421176789, 27.892763957327585 ], [ 113.01715391432262, 27.892889946503981 ], [ 113.01757738517712, 27.893613873046828 ], [ 113.017636147298859, 27.894034778899449 ], [ 113.017436798235195, 27.894534426615387 ], [ 113.017201608995862, 27.894610104292816 ], [ 113.017021230929373, 27.894676626184811 ], [ 113.016673453847986, 27.894535588277797 ], [ 113.016229996062719, 27.89461286205125 ], [ 113.015856307083752, 27.894575920802865 ], [ 113.015443727935718, 27.894904155439196 ], [ 113.015207534634399, 27.895193880921877 ], [ 113.015363942962168, 27.895709520878192 ], [ 113.015898024052333, 27.89626408927743 ], [ 113.01641125586471, 27.895929570573372 ], [ 113.017250260298951, 27.896824343821248 ], [ 113.017378817592672, 27.896776972353635 ] ] ] } }
]
}
