{
"type": "FeatureCollection",
"name": "青竹村委会",
"crs": { "type": "name", "properties": { "name": "urn:ogc:def:crs:OGC:1.3:CRS84" } },
"features": [
{ "type": "Feature", "properties": { "adcode": "430373200215", "fullName": "湖南省湘潭市雨湖区响水乡青竹村委会", "level": "居委会/社区", "location": "112.905563,27.949949", "name": "青竹村委会", "OBJECTID": 4017, "SHAPE_Leng": 0.075278473949299998, "SHAPE_Area": 0.000252849362 }, "geometry": { "type": "Polygon", "coordinates": [ [ [ 112.890940463977017, 27.952262607976127 ], [ 112.891327400551432, 27.95279278515477 ], [ 112.891155387667311, 27.953095798244611 ], [ 112.891498341261865, 27.953398924235593 ], [ 112.891885338192438, 27.953020938701204 ], [ 112.892400245288457, 27.95351411633764 ], [ 112.892185210532318, 27.954272206378217 ], [ 112.892656997680206, 27.956281626156098 ], [ 112.892227978384028, 27.957191706461177 ], [ 112.892656826230123, 27.958481996699703 ], [ 112.895016225533183, 27.960491594319382 ], [ 112.895531104231139, 27.960339593366857 ], [ 112.895746018279993, 27.960679657309676 ], [ 112.896603764183311, 27.960604651865303 ], [ 112.899091735619251, 27.961476635841255 ], [ 112.899478496471701, 27.962272719514921 ], [ 112.898877590954584, 27.964547174940108 ], [ 112.899435259347925, 27.965571277467593 ], [ 112.899177330350412, 27.9661784123548 ], [ 112.901366208156489, 27.966328059208728 ], [ 112.901538193493209, 27.965266843186846 ], [ 112.902481635276629, 27.965228600615717 ], [ 112.903468172065104, 27.963027942782087 ], [ 112.90535493571312, 27.96155001928857 ], [ 112.905782787449994, 27.959200449228824 ], [ 112.906855013023645, 27.957949762667475 ], [ 112.906340642946432, 27.955332556705887 ], [ 112.907155125490505, 27.953247827331186 ], [ 112.908698915320983, 27.95104765756934 ], [ 112.908399361583264, 27.948887455042076 ], [ 112.908570336874391, 27.947181073074564 ], [ 112.906512206657382, 27.946308952768614 ], [ 112.906515257366891, 27.945626835583475 ], [ 112.903097779163687, 27.945556108226913 ], [ 112.898851145103279, 27.944761839873841 ], [ 112.900052854135097, 27.941310089127338 ], [ 112.898198735932368, 27.940693209736231 ], [ 112.893340443293596, 27.949270541089046 ], [ 112.893383376990542, 27.950030675484676 ], [ 112.890940463977017, 27.952262607976127 ] ] ] } }
]
}
