{
"type": "FeatureCollection",
"name": "顺江村村委会",
"crs": { "type": "name", "properties": { "name": "urn:ogc:def:crs:OGC:1.3:CRS84" } },
"features": [
{ "type": "Feature", "properties": { "adcode": "430304014204", "fullName": "湖南省湘潭市岳塘区霞城街道顺江村村委会", "level": "居委会/社区", "location": "112.904148,27.840868", "name": "顺江村村委会", "OBJECTID": 4096, "SHAPE_Leng": 0.057683069343599999, "SHAPE_Area": 4.2867720000100002e-05 }, "geometry": { "type": "Polygon", "coordinates": [ [ [ 112.904376578607724, 27.847005011133778 ], [ 112.904334628377256, 27.846748984273162 ], [ 112.903998861887544, 27.846780105737089 ], [ 112.903918937094517, 27.84652409095083 ], [ 112.903625154034088, 27.846313153188248 ], [ 112.903976964175584, 27.84565893045583 ], [ 112.903998952033589, 27.845618916496203 ], [ 112.897546741714351, 27.840983420996938 ], [ 112.897384786248509, 27.841173459482011 ], [ 112.897117835095159, 27.841766565717236 ], [ 112.890208329272582, 27.838489223154046 ], [ 112.893037884720457, 27.841295258413002 ], [ 112.895827978069946, 27.84519112706613 ], [ 112.896484805966367, 27.844859079377887 ], [ 112.896826661400098, 27.845286144679029 ], [ 112.896119811742722, 27.846235302272721 ], [ 112.89732335264317, 27.847045416144944 ], [ 112.898076122040109, 27.846353259452201 ], [ 112.896885647101385, 27.845215131879961 ], [ 112.897452495058715, 27.844608013388186 ], [ 112.897479487428726, 27.844579007379657 ], [ 112.899040812632748, 27.845113964880809 ], [ 112.898869854353762, 27.845546054647322 ], [ 112.90098774030929, 27.846555886745463 ], [ 112.902804658214848, 27.846735471344999 ], [ 112.903321294629379, 27.847114379695793 ], [ 112.903431222955632, 27.847099343043993 ], [ 112.903319266909335, 27.847488441370327 ], [ 112.90329428322066, 27.847490449392552 ], [ 112.903043445786906, 27.847503527226525 ], [ 112.903010495473154, 27.847137477217146 ], [ 112.901577355223409, 27.847285877706845 ], [ 112.901151581065278, 27.847453999225657 ], [ 112.901168570930778, 27.847463997258988 ], [ 112.901356456922699, 27.8475869766791 ], [ 112.90086767408539, 27.848242186200402 ], [ 112.902197863160595, 27.84892799440015 ], [ 112.904283415595359, 27.849955526434684 ], [ 112.904295406628833, 27.849961523194093 ], [ 112.905105964434981, 27.848039908380219 ], [ 112.905119956496733, 27.84800689754093 ], [ 112.905232868113814, 27.848048860121807 ], [ 112.905248855542965, 27.848054854785776 ], [ 112.905815508370438, 27.846893433917938 ], [ 112.905397829406056, 27.84693161202517 ], [ 112.905384837088079, 27.846960621977459 ], [ 112.904937096548608, 27.847960960520094 ], [ 112.904923107230502, 27.847956965197589 ], [ 112.903366236643265, 27.847478425193707 ], [ 112.903467197354402, 27.847120335159644 ], [ 112.903474194626909, 27.847095328873113 ], [ 112.904342602501615, 27.847009023860608 ], [ 112.904376578607724, 27.847005011133778 ] ] ] } }
]
}
