{
"type": "FeatureCollection",
"name": "风车坪社区居委会",
"crs": { "type": "name", "properties": { "name": "urn:ogc:def:crs:OGC:1.3:CRS84" } },
"features": [
{ "type": "Feature", "properties": { "adcode": "430302001005", "fullName": "湖南省湘潭市雨湖区雨湖路街道风车坪社区居委会", "level": "居委会/社区", "location": "112.90449,27.860607", "name": "风车坪社区居委会", "OBJECTID": 3828, "SHAPE_Leng": 0.016114212971900001, "SHAPE_Area": 1.4395248e-05 }, "geometry": { "type": "Polygon", "coordinates": [ [ [ 112.896288251518826, 27.865671511822786 ], [ 112.896349231562411, 27.865685514309668 ], [ 112.900025688932786, 27.866506357612295 ], [ 112.901310325819409, 27.862479442243959 ], [ 112.900687686116726, 27.862192521972638 ], [ 112.900123999939836, 27.861875569743439 ], [ 112.898830660081501, 27.861144625389631 ], [ 112.898819650019206, 27.861335658316612 ], [ 112.898637689868877, 27.861827758980034 ], [ 112.898412739744813, 27.862398875266397 ], [ 112.898208792084034, 27.862796958889202 ], [ 112.89799384597282, 27.863204042987913 ], [ 112.897789898333798, 27.863547113732434 ], [ 112.897340014500514, 27.864201246266799 ], [ 112.897265033040554, 27.864308267162954 ], [ 112.896599185782222, 27.86525444126837 ], [ 112.896288251518826, 27.865671511822786 ] ] ] } }
]
}
