{
"type": "FeatureCollection",
"name": "飞机坪社区居委会",
"crs": { "type": "name", "properties": { "name": "urn:ogc:def:crs:OGC:1.3:CRS84" } },
"features": [
{ "type": "Feature", "properties": { "adcode": "430304004003", "fullName": "湖南省湘潭市岳塘区书院路街道飞机坪社区居委会", "level": "居委会/社区", "location": "112.938283,27.811972", "name": "飞机坪社区居委会", "OBJECTID": 4055, "SHAPE_Leng": 0.037967661546299998, "SHAPE_Area": 6.7746491000100005e-05 }, "geometry": { "type": "Polygon", "coordinates": [ [ [ 112.939538838318967, 27.818144416621482 ], [ 112.939606785669511, 27.816708066405265 ], [ 112.939609783392655, 27.816644050865822 ], [ 112.938582258307875, 27.816648967342907 ], [ 112.937298285651309, 27.816656304266232 ], [ 112.938173380631227, 27.814729422232041 ], [ 112.938464865828252, 27.812461539523461 ], [ 112.936100377945593, 27.812391768700856 ], [ 112.927558155879979, 27.812136145042547 ], [ 112.927555157607856, 27.812186156866495 ], [ 112.92730112717841, 27.818670508230838 ], [ 112.939538838318967, 27.818144416621482 ] ] ] } }
]
}
