{
"type": "FeatureCollection",
"name": "马安村村委会",
"crs": { "type": "name", "properties": { "name": "urn:ogc:def:crs:OGC:1.3:CRS84" } },
"features": [
{ "type": "Feature", "properties": { "adcode": "430372100210", "fullName": "湖南省湘潭市岳塘区昭山镇马安村村委会", "level": "居委会/社区", "location": "113.0773,27.959006", "name": "马安村村委会", "OBJECTID": 4156, "SHAPE_Leng": 0.088503263422199996, "SHAPE_Area": 0.00036590895 }, "geometry": { "type": "Polygon", "coordinates": [ [ [ 113.056693388293056, 27.964304913348339 ], [ 113.056884951717734, 27.964846701935617 ], [ 113.057902824310645, 27.965744273331111 ], [ 113.059166295219072, 27.96634047402318 ], [ 113.059745193362474, 27.966234608963525 ], [ 113.060227306704519, 27.965920861786085 ], [ 113.060784252710903, 27.966090099623955 ], [ 113.061405095604201, 27.96627926575043 ], [ 113.061597727232325, 27.966498037063708 ], [ 113.061533803569233, 27.966980205212327 ], [ 113.061137516453783, 27.967114775923747 ], [ 113.060997738613707, 27.967540041736491 ], [ 113.061876098527321, 27.968022910640496 ], [ 113.062657704983053, 27.968039863393933 ], [ 113.063398469798116, 27.96735577873568 ], [ 113.063987462338858, 27.967355023730882 ], [ 113.064758154488246, 27.96754409030445 ], [ 113.064951806343743, 27.967884908663798 ], [ 113.065015660499483, 27.968378912612948 ], [ 113.065540724311688, 27.969343436384918 ], [ 113.065701422677918, 27.969855329004467 ], [ 113.066203593820077, 27.970176788440639 ], [ 113.067264838411532, 27.971407774041566 ], [ 113.068951272614356, 27.972070049912727 ], [ 113.072246676613744, 27.973363046481275 ], [ 113.073468189427828, 27.972930906129026 ], [ 113.074506055839635, 27.97171885005509 ], [ 113.077154460968686, 27.968066281124859 ], [ 113.077694916814977, 27.968036914740001 ], [ 113.078233389009526, 27.968015564158808 ], [ 113.079442217631865, 27.968464907664547 ], [ 113.081350540986989, 27.96894496766016 ], [ 113.082459638001211, 27.969404526974099 ], [ 113.083239057330957, 27.969534218378751 ], [ 113.083667772130454, 27.969353018352685 ], [ 113.083938646830191, 27.968632795518737 ], [ 113.084025619690252, 27.968252699885088 ], [ 113.084058609155932, 27.96811266438116 ], [ 113.084108592218357, 27.967913612858805 ], [ 113.083867841768765, 27.966852525741011 ], [ 113.083168410788147, 27.965863636025453 ], [ 113.082500114747376, 27.963262485032573 ], [ 113.081880846098514, 27.960143243213739 ], [ 113.081782080347324, 27.958242970494929 ], [ 113.081751155122518, 27.957631882377196 ], [ 113.081691303070826, 27.956411705493576 ], [ 113.081122831079142, 27.955562840394897 ], [ 113.080811128123926, 27.95509191960064 ], [ 113.078604135907952, 27.954653093946309 ], [ 113.077885840889337, 27.954543529293648 ], [ 113.07554751027719, 27.95188471963186 ], [ 113.07464857738124, 27.951276312695082 ], [ 113.073508937145789, 27.951146225313334 ], [ 113.072361327531738, 27.951577298412005 ], [ 113.072181551986617, 27.951638470805221 ], [ 113.071472454421468, 27.95186816297409 ], [ 113.070004480553806, 27.951419511404723 ], [ 113.069410342710952, 27.951106062257661 ], [ 113.068397769242665, 27.951593209901556 ], [ 113.067711786174414, 27.951668970322658 ], [ 113.067241435089684, 27.952474631050379 ], [ 113.066781079541215, 27.953281290190134 ], [ 113.065988284374967, 27.953821303882886 ], [ 113.065161636238003, 27.95363226345756 ], [ 113.065312235746177, 27.955507396633816 ], [ 113.065130430491536, 27.956749826639555 ], [ 113.06493864268289, 27.958000271467824 ], [ 113.06535593028633, 27.958350822058517 ], [ 113.065559581924816, 27.958568613344017 ], [ 113.064798768240038, 27.959280658611831 ], [ 113.063930190538841, 27.959697816413073 ], [ 113.062934932933743, 27.959368047925654 ], [ 113.062336054256974, 27.958571709268586 ], [ 113.062185328086699, 27.958506900924572 ], [ 113.061757068178281, 27.958857540644598 ], [ 113.061286918814019, 27.958905195383799 ], [ 113.060761856271697, 27.959265989445719 ], [ 113.059937367692683, 27.959684235204108 ], [ 113.058855456986961, 27.959553799789152 ], [ 113.05857698775263, 27.959716243398848 ], [ 113.058094901061764, 27.960172048373334 ], [ 113.057473113416776, 27.960542064457769 ], [ 113.057410215953979, 27.960836211172204 ], [ 113.057475040964519, 27.96137520109313 ], [ 113.057635665899269, 27.962010059415462 ], [ 113.057774338241927, 27.962616947755208 ], [ 113.057442947301055, 27.963298572665842 ], [ 113.057067648264621, 27.964011275926545 ], [ 113.056693388293056, 27.964304913348339 ] ] ] } }
]
}
