{
"type": "FeatureCollection",
"name": "马塘村委会",
"crs": { "type": "name", "properties": { "name": "urn:ogc:def:crs:OGC:1.3:CRS84" } },
"features": [
{ "type": "Feature", "properties": { "adcode": "430302102223", "fullName": "湖南省湘潭市雨湖区姜畲镇马塘村委会", "level": "居委会/社区", "location": "112.847972,27.861543", "name": "马塘村委会", "OBJECTID": 3968, "SHAPE_Leng": 0.046010864130600002, "SHAPE_Area": 0.000117625977 }, "geometry": { "type": "Polygon", "coordinates": [ [ [ 112.835051004851408, 27.862974161449152 ], [ 112.835395572598088, 27.863429865578187 ], [ 112.835836300537494, 27.863964756527015 ], [ 112.836901049741371, 27.865253900249151 ], [ 112.837587124353945, 27.866660371399171 ], [ 112.837683220730639, 27.867545692287123 ], [ 112.837715253218946, 27.867835798417417 ], [ 112.83777532555591, 27.868232972838033 ], [ 112.837818397085073, 27.868265055532888 ], [ 112.837878494871589, 27.868335175130181 ], [ 112.837898524593143, 27.868395221128011 ], [ 112.837878481519212, 27.868506203773123 ], [ 112.837848427634583, 27.868535154699831 ], [ 112.837823383827569, 27.868545111424101 ], [ 112.837888462101361, 27.868975300330987 ], [ 112.838790938357675, 27.869849061046533 ], [ 112.839463019646359, 27.870634388319854 ], [ 112.840053008265215, 27.870746451668083 ], [ 112.843199184001335, 27.871352039946075 ], [ 112.847325783327605, 27.871016937051103 ], [ 112.847442289540638, 27.866831427135519 ], [ 112.847516609262129, 27.864200109693563 ], [ 112.847626078737207, 27.860339646719794 ], [ 112.847504894447994, 27.860301441221779 ], [ 112.847224470903214, 27.860159955801876 ], [ 112.847074235003149, 27.860190712830388 ], [ 112.846964046406427, 27.86040956697321 ], [ 112.846803799562608, 27.86036929487021 ], [ 112.846472292341218, 27.860219719439797 ], [ 112.846433233395601, 27.860189649440056 ], [ 112.8462529603447, 27.860058327242566 ], [ 112.846062680022143, 27.85980896812778 ], [ 112.846002588332894, 27.859768861000237 ], [ 112.845961523505466, 27.859768792295188 ], [ 112.845662045097086, 27.859827300126575 ], [ 112.845531838445879, 27.859828081549317 ], [ 112.845471746106767, 27.85978797385075 ], [ 112.845441703028058, 27.859727913339412 ], [ 112.845450721254153, 27.859677920209855 ], [ 112.84555188349988, 27.85965808700929 ], [ 112.845632012266748, 27.859637218142993 ], [ 112.846192905523381, 27.859548142318523 ], [ 112.846242985895941, 27.859528222572607 ], [ 112.846268029569771, 27.859473255216674 ], [ 112.846273040173472, 27.859438257762662 ], [ 112.84622296762619, 27.859358160946595 ], [ 112.846212961917502, 27.859229122835135 ], [ 112.846233012145703, 27.8589891164624 ], [ 112.846223001840727, 27.858919088143555 ], [ 112.846182940336362, 27.858899017958752 ], [ 112.84615289379667, 27.85888896612995 ], [ 112.846102814110424, 27.858898884133335 ], [ 112.84606274938902, 27.858918820492818 ], [ 112.846027690976868, 27.858958768514128 ], [ 112.845942555805351, 27.858968627739415 ], [ 112.84563206449053, 27.858967107009537 ], [ 112.845561957858322, 27.858907979442378 ], [ 112.845561963314509, 27.858837967837225 ], [ 112.845551951313581, 27.85878794271488 ], [ 112.845521905165725, 27.858767888888185 ], [ 112.845450792966432, 27.858757767623466 ], [ 112.845391699862788, 27.858746666340284 ], [ 112.845360652024212, 27.858726610741872 ], [ 112.845210431049836, 27.858491318571431 ], [ 112.845200416250165, 27.85847629919018 ], [ 112.845200435737382, 27.858226257768479 ], [ 112.845212466591988, 27.858076253195765 ], [ 112.845191439291895, 27.857996204463859 ], [ 112.845171412723261, 27.857927159237242 ], [ 112.845151383184543, 27.857896120297081 ], [ 112.845122340655124, 27.857847063151183 ], [ 112.844981118962622, 27.857796816266674 ], [ 112.844720701249713, 27.857805376871639 ], [ 112.844690653047564, 27.857805325925327 ], [ 112.844410200756784, 27.857824852996551 ], [ 112.844380151594351, 27.857834803547625 ], [ 112.844290004003057, 27.857864655109591 ], [ 112.844269967805602, 27.857914629280746 ], [ 112.844269955331924, 27.858074655779649 ], [ 112.844239901410873, 27.858144616198881 ], [ 112.844158766574481, 27.858194486231667 ], [ 112.844079636409688, 27.858224356259349 ], [ 112.844049586277691, 27.858244308301515 ], [ 112.843879310632076, 27.858245017647896 ], [ 112.843799180062547, 27.858253882117129 ], [ 112.843635905572754, 27.858375622822553 ], [ 112.843517706577174, 27.858463434789957 ], [ 112.843468622740019, 27.858514359038338 ], [ 112.84342755362249, 27.858543293358693 ], [ 112.843308359400453, 27.858543088624408 ], [ 112.843248263635772, 27.858513980504451 ], [ 112.843238251268517, 27.858462954828298 ], [ 112.84323825586911, 27.858403945051634 ], [ 112.843248275410147, 27.858362955482711 ], [ 112.843251281482637, 27.858347958164465 ], [ 112.84287566945946, 27.858320306692534 ], [ 112.84106962285793, 27.859077291619087 ], [ 112.839048109463661, 27.860438947204443 ], [ 112.837373098730239, 27.862257251334569 ], [ 112.836298208374018, 27.862634372792993 ], [ 112.835051004851408, 27.862974161449152 ] ] ] } }
]
}
