{
"type": "FeatureCollection",
"name": "马家河社区居委会",
"crs": { "type": "name", "properties": { "name": "urn:ogc:def:crs:OGC:1.3:CRS84" } },
"features": [
{ "type": "Feature", "properties": { "adcode": "430371002001", "fullName": "湖南省湘潭市岳塘区双马街道马家河社区居委会", "level": "居委会/社区", "location": "113.021651,27.835266", "name": "马家河社区居委会", "OBJECTID": 4126, "SHAPE_Leng": 0.073574538784500002, "SHAPE_Area": 7.5395531999900004e-05 }, "geometry": { "type": "Polygon", "coordinates": [ [ [ 113.007641654432746, 27.845557696414659 ], [ 113.008462661470318, 27.845672278623763 ], [ 113.010258068746168, 27.846919181873353 ], [ 113.010634755730507, 27.846386988583451 ], [ 113.010580987817121, 27.845908068498094 ], [ 113.010746389620635, 27.845949589819654 ], [ 113.010986532542304, 27.845877874033047 ], [ 113.011024415738731, 27.845639724299627 ], [ 113.011210755065989, 27.845539162234324 ], [ 113.011311407077017, 27.845377841442822 ], [ 113.011632277642335, 27.845125862394323 ], [ 113.011745866123462, 27.845186540518505 ], [ 113.012124508455045, 27.845233443671344 ], [ 113.012531063728431, 27.845156247598723 ], [ 113.012915708975171, 27.844966099257817 ], [ 113.013098090677573, 27.844589509050685 ], [ 113.013599306769009, 27.844641066178255 ], [ 113.014283959330129, 27.843698937439616 ], [ 113.014592903607735, 27.843265978179481 ], [ 113.014791210160098, 27.843195396894565 ], [ 113.014882906806534, 27.842952094209892 ], [ 113.014897864485988, 27.842824030539209 ], [ 113.01514400181351, 27.842780317538434 ], [ 113.015624323123077, 27.842678926565817 ], [ 113.015962104733589, 27.843110032154886 ], [ 113.016074710729512, 27.843109711109836 ], [ 113.016137505611724, 27.842930503178938 ], [ 113.016507225066519, 27.842796429571319 ], [ 113.016678621736929, 27.842865954028376 ], [ 113.017554571625325, 27.842930485112586 ], [ 113.017555555905844, 27.843082506958286 ], [ 113.017695070643867, 27.843105117064102 ], [ 113.01773791652495, 27.843176007759702 ], [ 113.018166422670873, 27.843325825957287 ], [ 113.017727899787062, 27.843811138945391 ], [ 113.017835519573438, 27.84390585104391 ], [ 113.017732854127431, 27.844163182085364 ], [ 113.018439336578126, 27.845110349246273 ], [ 113.019486723622805, 27.845297452587932 ], [ 113.019658321180614, 27.843019605563232 ], [ 113.019418222615968, 27.842033114078728 ], [ 113.019759083729824, 27.841700111978749 ], [ 113.019771064359787, 27.841434035689016 ], [ 113.019506008246523, 27.84096969778194 ], [ 113.01973622793605, 27.840884043648103 ], [ 113.019699372348029, 27.840656109286172 ], [ 113.019774135711742, 27.840423864050916 ], [ 113.019602722608056, 27.840411338538971 ], [ 113.019624678401215, 27.840030216001338 ], [ 113.019800075478315, 27.840073735521365 ], [ 113.020201702419726, 27.840114628247566 ], [ 113.020094085251557, 27.839914894177141 ], [ 113.020162864279229, 27.83974967697873 ], [ 113.020415004704788, 27.839766982008868 ], [ 113.020591406728457, 27.839748491664889 ], [ 113.020682111201367, 27.839595216624787 ], [ 113.020707049998478, 27.839306101251893 ], [ 113.021979864811641, 27.83790338220123 ], [ 113.022662636844586, 27.83715040216256 ], [ 113.022176305031124, 27.836669648182827 ], [ 113.021952068445572, 27.836544239946264 ], [ 113.021305277256857, 27.836186953838929 ], [ 113.018244862891777, 27.834544192214253 ], [ 113.015281284556153, 27.8333164033338 ], [ 113.015245411741361, 27.833302503852138 ], [ 113.0150959420871, 27.833242922650822 ], [ 113.01365509046083, 27.832496951730548 ], [ 113.012934614346932, 27.832928107121386 ], [ 113.009814759044986, 27.83339130554986 ], [ 113.009918378333907, 27.833476013851605 ], [ 113.009774889941895, 27.833552448720734 ], [ 113.009646338313857, 27.833747858799356 ], [ 113.009646325691577, 27.833904883895606 ], [ 113.009640342377082, 27.833965911277421 ], [ 113.009620404779426, 27.834084989073183 ], [ 113.009309494011035, 27.83451197464338 ], [ 113.009191902481575, 27.834721355384794 ], [ 113.010026843602887, 27.835254978679629 ], [ 113.010518995159373, 27.83619268181759 ], [ 113.010849810646675, 27.836130701077479 ], [ 113.011463612165969, 27.83608189600821 ], [ 113.012533798177458, 27.835944753414054 ], [ 113.012916441141513, 27.835872630236477 ], [ 113.013214385616195, 27.835824758563554 ], [ 113.013492374923629, 27.836118000645261 ], [ 113.014092203324594, 27.836696360812734 ], [ 113.014272558183052, 27.836789856014715 ], [ 113.014380162014888, 27.836988578027778 ], [ 113.014358221868719, 27.837206676191048 ], [ 113.014444876774988, 27.837690504444794 ], [ 113.014476749316927, 27.837875442443249 ], [ 113.014240516818674, 27.838702255526766 ], [ 113.015332664966394, 27.83874612598806 ], [ 113.015450214574969, 27.839210864408944 ], [ 113.016294247448485, 27.839350478722785 ], [ 113.0173525807038, 27.839120440317224 ], [ 113.01750308168053, 27.83883496925252 ], [ 113.018871352771527, 27.838897134420069 ], [ 113.018688961439665, 27.839126681765098 ], [ 113.01885038627789, 27.839373269718561 ], [ 113.019074587060445, 27.839732701056622 ], [ 113.01919116330086, 27.840026423010279 ], [ 113.01895297319146, 27.84012110341779 ], [ 113.018889224529119, 27.839722217325139 ], [ 113.018307237147212, 27.839614830722983 ], [ 113.018248444613334, 27.839557986670219 ], [ 113.01795443597247, 27.839857861666719 ], [ 113.01779896414952, 27.839977318744722 ], [ 113.017295696808461, 27.840125763092601 ], [ 113.016340004768168, 27.840374513594973 ], [ 113.01584870567693, 27.840589948175541 ], [ 113.015579633102988, 27.840784748082029 ], [ 113.015436107081683, 27.841152217843177 ], [ 113.015436087653327, 27.841393256836664 ], [ 113.015362319746259, 27.841726521783198 ], [ 113.015106196976078, 27.842011301453269 ], [ 113.014463447500646, 27.842189176202019 ], [ 113.014058871777266, 27.842256352549459 ], [ 113.013624406952403, 27.842300614265682 ], [ 113.013379272023556, 27.842358332787679 ], [ 113.011900483652511, 27.843073746484297 ], [ 113.011740044898218, 27.84323124025509 ], [ 113.01147791333463, 27.844101147146183 ], [ 113.011237740735879, 27.844517917340685 ], [ 113.010922829740679, 27.845030923063796 ], [ 113.010601964688092, 27.845259901532199 ], [ 113.009959277006487, 27.845294796709432 ], [ 113.009522856847425, 27.845243074464385 ], [ 113.009116338111042, 27.845106252445056 ], [ 113.008677926539619, 27.845103548663911 ], [ 113.008104994086892, 27.845252270812427 ], [ 113.007775181416946, 27.845398273721731 ], [ 113.007685504456333, 27.845438546722566 ], [ 113.007657599951486, 27.845513641859881 ], [ 113.007641654432746, 27.845557696414659 ] ] ] } }
]
}
