{
"type": "FeatureCollection",
"name": "高峰村村委会",
"crs": { "type": "name", "properties": { "name": "urn:ogc:def:crs:OGC:1.3:CRS84" } },
"features": [
{ "type": "Feature", "properties": { "adcode": "430372100207", "fullName": "湖南省湘潭市岳塘区昭山镇高峰村村委会", "level": "居委会/社区", "location": "113.04544,27.956892", "name": "高峰村村委会", "OBJECTID": 4153, "SHAPE_Leng": 0.095645245775699994, "SHAPE_Area": 0.0001829062825 }, "geometry": { "type": "Polygon", "coordinates": [ [ [ 113.029790019934794, 27.953726305031275 ], [ 113.031225452620504, 27.954870889672698 ], [ 113.032149610619996, 27.954839592642035 ], [ 113.032712887006497, 27.954887216114759 ], [ 113.032552321964559, 27.955549721384138 ], [ 113.032231265993403, 27.955997586301748 ], [ 113.032022872123562, 27.956392166795474 ], [ 113.031295081456051, 27.956778037104243 ], [ 113.031160453733861, 27.95731846361069 ], [ 113.030849386790166, 27.957703305817336 ], [ 113.030897201556996, 27.958153261710084 ], [ 113.03122513229448, 27.958802551577794 ], [ 113.031235076358826, 27.959110578485312 ], [ 113.031582964432928, 27.95957379068275 ], [ 113.032016556661318, 27.960487870127622 ], [ 113.031776271683157, 27.960768511564449 ], [ 113.031514074430163, 27.960826171758072 ], [ 113.031208988408636, 27.961173989476283 ], [ 113.03125681611246, 27.961471920136109 ], [ 113.031561857781625, 27.961674195084896 ], [ 113.03195163914296, 27.961915269628715 ], [ 113.032357393865738, 27.961947274320256 ], [ 113.032455093537138, 27.961971038077131 ], [ 113.032674416008163, 27.962079517999936 ], [ 113.032781086338161, 27.962141267073751 ], [ 113.032576652171372, 27.962833883940846 ], [ 113.032930563905197, 27.962975041008917 ], [ 113.033441983100758, 27.963371861784868 ], [ 113.033674290902468, 27.963272281960293 ], [ 113.034203735362794, 27.962861935966508 ], [ 113.034599575448496, 27.962595942055049 ], [ 113.034968478506258, 27.962604062961457 ], [ 113.035529821653739, 27.962579727294916 ], [ 113.03571127666882, 27.962716321820235 ], [ 113.035631487895316, 27.963001557732003 ], [ 113.035897696944687, 27.963113949353325 ], [ 113.036466013735307, 27.963393664736273 ], [ 113.036882777482901, 27.963713748467178 ], [ 113.037455107002458, 27.96394846509515 ], [ 113.038003562084867, 27.963631154700483 ], [ 113.038855163739086, 27.963407184593585 ], [ 113.038934837027952, 27.964652212981274 ], [ 113.039415470846052, 27.964846166555141 ], [ 113.039607916489416, 27.96504376976473 ], [ 113.040773652665123, 27.965467264080342 ], [ 113.041404891266382, 27.965895960028554 ], [ 113.041496614040341, 27.966233817625081 ], [ 113.041856621269048, 27.966437074369534 ], [ 113.042242557404805, 27.966720293511095 ], [ 113.042713300172522, 27.96667228263868 ], [ 113.042772071475753, 27.967548303847188 ], [ 113.043541973824446, 27.968233796312806 ], [ 113.044093529129114, 27.968199642044382 ], [ 113.04471886443379, 27.968672431774042 ], [ 113.044970185328111, 27.969040979048479 ], [ 113.045004069561628, 27.969387967572239 ], [ 113.045190568637878, 27.96964863118264 ], [ 113.045474826248707, 27.969823083915852 ], [ 113.04569921856077, 27.970253702618574 ], [ 113.045584478814959, 27.970644998813246 ], [ 113.045402903611716, 27.971120444643883 ], [ 113.045552496591768, 27.971422192207555 ], [ 113.045787889673363, 27.971511732806288 ], [ 113.046034274358931, 27.971393218989739 ], [ 113.046146997896713, 27.97128797620995 ], [ 113.046627802359851, 27.971111991220042 ], [ 113.046783408385977, 27.971166692802967 ], [ 113.047022841964306, 27.970791159189897 ], [ 113.047107653928322, 27.970511946436943 ], [ 113.047194461250641, 27.970232730033423 ], [ 113.047172534329988, 27.970005735296201 ], [ 113.047177540961812, 27.969773686971354 ], [ 113.047403010508447, 27.969430189360981 ], [ 113.047702276944861, 27.969374598330614 ], [ 113.047783087346161, 27.969264423511103 ], [ 113.047719301384859, 27.968567431205532 ], [ 113.047852991344016, 27.968344135359928 ], [ 113.048056506527686, 27.968178715311641 ], [ 113.048703958442758, 27.967868425428929 ], [ 113.049056132476323, 27.967597713601883 ], [ 113.049395352740959, 27.967207010836979 ], [ 113.049582922490757, 27.967006626756039 ], [ 113.049122063311785, 27.966514408903535 ], [ 113.048887652695768, 27.966196798660043 ], [ 113.048747009629963, 27.965980029147559 ], [ 113.048502611474987, 27.965852473005974 ], [ 113.048218306590272, 27.965805009049177 ], [ 113.047660656582678, 27.966000117493472 ], [ 113.047346470554245, 27.965532650930061 ], [ 113.04720186318508, 27.965115864051135 ], [ 113.047250758338734, 27.964915734991898 ], [ 113.047571977488843, 27.964753081644346 ], [ 113.047855287335892, 27.964672519148348 ], [ 113.048348110963801, 27.964339515753647 ], [ 113.048240394093682, 27.964084679556692 ], [ 113.047968086492517, 27.963752147671915 ], [ 113.047324667876381, 27.96378740213262 ], [ 113.04708525255316, 27.963901889857919 ], [ 113.047015441430318, 27.963716996009225 ], [ 113.046994504893519, 27.963579014086047 ], [ 113.046843903335144, 27.96330026388048 ], [ 113.046732206134905, 27.963012436130192 ], [ 113.046843946838678, 27.962769174985997 ], [ 113.046929754933359, 27.962498960805348 ], [ 113.047095362042697, 27.962262595917188 ], [ 113.047393650453074, 27.961920955354088 ], [ 113.047630076828938, 27.961800475183374 ], [ 113.047962275378595, 27.961625803185431 ], [ 113.048256574292736, 27.961411201338606 ], [ 113.048566830531229, 27.961291588299918 ], [ 113.048647640787806, 27.96122042252928 ], [ 113.04865267921484, 27.960604309704589 ], [ 113.048560927727266, 27.960282430425615 ], [ 113.048588880330357, 27.960035335739391 ], [ 113.048668698077819, 27.959903161677804 ], [ 113.049134575447937, 27.959916282202919 ], [ 113.049304174158081, 27.959859953868694 ], [ 113.049161532950365, 27.95964718630232 ], [ 113.049025877092987, 27.959419403808788 ], [ 113.048705679034285, 27.959046947720122 ], [ 113.048443325765192, 27.958908424274711 ], [ 113.048041289563244, 27.959099227338619 ], [ 113.047826791249051, 27.959388689813089 ], [ 113.047736976447311, 27.959819935989941 ], [ 113.047779862033593, 27.959929871390599 ], [ 113.047624225049518, 27.96017121355456 ], [ 113.04738877659554, 27.960531732143448 ], [ 113.047506459473468, 27.960852556658111 ], [ 113.047425644210776, 27.961033744396026 ], [ 113.047034595232418, 27.961263547905475 ], [ 113.046800131750473, 27.961850107579618 ], [ 113.046682412955874, 27.962011367036624 ], [ 113.046361230945749, 27.961869980257504 ], [ 113.046296433078126, 27.96139602985463 ], [ 113.046394233455928, 27.960827740068613 ], [ 113.046860103693447, 27.96036774100719 ], [ 113.047191322535483, 27.959841002156516 ], [ 113.047448716313284, 27.959461435812695 ], [ 113.047480671307966, 27.959048304249585 ], [ 113.04774805116007, 27.95857870622195 ], [ 113.047688222257634, 27.958286773130062 ], [ 113.047404943177838, 27.958016278478304 ], [ 113.047067808664991, 27.957657877715448 ], [ 113.046687772108911, 27.957473595261664 ], [ 113.046115191117067, 27.957734777140562 ], [ 113.045659337307043, 27.957863713537829 ], [ 113.044948130255307, 27.958221216086013 ], [ 113.044782536230173, 27.958481598350449 ], [ 113.044339679228742, 27.958548519870643 ], [ 113.044125247086683, 27.958440945133351 ], [ 113.044023547088187, 27.958024085957053 ], [ 113.043710424781665, 27.957333621437197 ], [ 113.04364558512016, 27.957457777661336 ], [ 113.043624613069227, 27.957789877285638 ], [ 113.043699397811167, 27.958015759079611 ], [ 113.043672457326792, 27.958153838506881 ], [ 113.043549760473596, 27.95839613563211 ], [ 113.043378195765797, 27.958608530766597 ], [ 113.043110887893448, 27.958799124943326 ], [ 113.042795721798939, 27.958851799896173 ], [ 113.042619210051512, 27.958644139639382 ], [ 113.042645174538279, 27.958231015087467 ], [ 113.042559415071693, 27.95809417442759 ], [ 113.042206364865493, 27.958061922345919 ], [ 113.041827378588664, 27.958166753530083 ], [ 113.041703699417212, 27.958338048897151 ], [ 113.041783460519909, 27.958616923738187 ], [ 113.041601938402408, 27.958789344428791 ], [ 113.041083351190707, 27.958790470117162 ], [ 113.040451106384083, 27.958567817523171 ], [ 113.040403261002609, 27.958292876706647 ], [ 113.040832115305804, 27.957865863452458 ], [ 113.040928887937824, 27.957401573847072 ], [ 113.041250051423759, 27.956892788452194 ], [ 113.041144365530869, 27.956580965917102 ], [ 113.040769469390156, 27.955644627028722 ], [ 113.040635853171096, 27.955444886358062 ], [ 113.040304799559038, 27.955041546927028 ], [ 113.039855112446887, 27.954243408018023 ], [ 113.040400638001586, 27.953781123259407 ], [ 113.040807530124837, 27.953628203977672 ], [ 113.040593155961929, 27.953184599205187 ], [ 113.040634089089664, 27.952625414996142 ], [ 113.040698937089985, 27.952303218360449 ], [ 113.040506490334835, 27.95201859292229 ], [ 113.039939056491647, 27.952076856221545 ], [ 113.039083444879893, 27.952125775237917 ], [ 113.038730439249676, 27.952136572581463 ], [ 113.038730430019314, 27.952249591679049 ], [ 113.038568834260218, 27.952896066323657 ], [ 113.037671385840852, 27.952963123569525 ], [ 113.036056069079507, 27.95290086178434 ], [ 113.035521661034267, 27.952617072528621 ], [ 113.03555363049297, 27.951839865802544 ], [ 113.035446990362757, 27.951281023561698 ], [ 113.034836815601977, 27.951037431906496 ], [ 113.033730201889739, 27.950076927826839 ], [ 113.029790019934794, 27.953726305031275 ] ] ] } }
]
}
