{
"type": "FeatureCollection",
"name": "高岭社区居委会",
"crs": { "type": "name", "properties": { "name": "urn:ogc:def:crs:OGC:1.3:CRS84" } },
"features": [
{ "type": "Feature", "properties": { "adcode": "430302004008", "fullName": "湖南省湘潭市雨湖区广场街道高岭社区居委会", "level": "居委会/社区", "location": "112.891875,27.881725", "name": "高岭社区居委会", "OBJECTID": 3855, "SHAPE_Leng": 0.030995633301000001, "SHAPE_Area": 3.4029988499899999e-05 }, "geometry": { "type": "Polygon", "coordinates": [ [ [ 112.881840056878289, 27.886688555543369 ], [ 112.884104699283313, 27.887839026591628 ], [ 112.884110700681831, 27.887842030210134 ], [ 112.886446105468394, 27.889195358922009 ], [ 112.886728137276492, 27.889359504432871 ], [ 112.886735140589224, 27.889330502377106 ], [ 112.88691122195435, 27.888616452627129 ], [ 112.88705428186131, 27.888102422540534 ], [ 112.88741340035449, 27.887168403943541 ], [ 112.887431402730954, 27.887165410319891 ], [ 112.888711658461375, 27.885334554505565 ], [ 112.888717659510903, 27.885325554950395 ], [ 112.890392771584089, 27.88428286941037 ], [ 112.891358756693691, 27.883922037636125 ], [ 112.893582536619419, 27.88328230573239 ], [ 112.893594543915484, 27.883161286679815 ], [ 112.890462865935689, 27.883047677994039 ], [ 112.888659856602004, 27.882744098144816 ], [ 112.886441659857226, 27.882049143985384 ], [ 112.886506646927316, 27.882352222718005 ], [ 112.886478640748422, 27.882373214487661 ], [ 112.886098554230685, 27.882646097575293 ], [ 112.885722467496848, 27.882845964189219 ], [ 112.885704462137795, 27.882868959933621 ], [ 112.885507402488884, 27.883120912544257 ], [ 112.885499400901679, 27.883119908682652 ], [ 112.885260351902048, 27.883092792600554 ], [ 112.884995297073687, 27.883029655567835 ], [ 112.884684216973739, 27.883105516519379 ], [ 112.884589184647652, 27.883218488480118 ], [ 112.884579181212771, 27.883230485525257 ], [ 112.884437132130884, 27.883398442724918 ], [ 112.884428129350226, 27.883404439196962 ], [ 112.884180051300632, 27.88356934064041 ], [ 112.884171047870694, 27.883582338205873 ], [ 112.88396396788724, 27.883882281486056 ], [ 112.883954965379075, 27.883882276769327 ], [ 112.883427811331373, 27.883891996598965 ], [ 112.883404802490944, 27.883915988113316 ], [ 112.882698518961078, 27.884659718629781 ], [ 112.883127632217153, 27.885002019459311 ], [ 112.882934491456865, 27.886017083423269 ], [ 112.882913484544432, 27.886018071716805 ], [ 112.882182230028718, 27.886072656720412 ], [ 112.882164221078384, 27.886104651438032 ], [ 112.881840056878289, 27.886688555543369 ] ] ] } }
]
}
