{
"type": "FeatureCollection",
"name": "高坪村村委会",
"crs": { "type": "name", "properties": { "name": "urn:ogc:def:crs:OGC:1.3:CRS84" } },
"features": [
{ "type": "Feature", "properties": { "adcode": "430302202207", "fullName": "湖南省湘潭市雨湖区长城乡高坪村村委会", "level": "居委会/社区", "location": "112.863264,27.836764", "name": "高坪村村委会", "OBJECTID": 3987, "SHAPE_Leng": 0.091804988060499998, "SHAPE_Area": 0.000305007619 }, "geometry": { "type": "Polygon", "coordinates": [ [ [ 112.845866317172607, 27.834770549737325 ], [ 112.847293444149088, 27.836159144329493 ], [ 112.84801550372552, 27.836861442630831 ], [ 112.848034413045625, 27.838401721580794 ], [ 112.848058303874382, 27.840278063612356 ], [ 112.851797866298668, 27.840436056307606 ], [ 112.853258885722454, 27.841273440829426 ], [ 112.853486197162582, 27.84137480275049 ], [ 112.853774590405195, 27.841502260003001 ], [ 112.852498632652697, 27.843529642638696 ], [ 112.851626269958217, 27.844914515884341 ], [ 112.850026734373628, 27.847295381892657 ], [ 112.851587965017558, 27.848123980003155 ], [ 112.852790706119919, 27.84793681001474 ], [ 112.853392529443553, 27.848278784611136 ], [ 112.854940671077955, 27.848281108967949 ], [ 112.856916245427087, 27.849081120324346 ], [ 112.858076770731842, 27.848704704249542 ], [ 112.858807618592508, 27.849652877635513 ], [ 112.85811966915341, 27.850715093977016 ], [ 112.85902175571367, 27.851324447523677 ], [ 112.859880803401509, 27.851438639454731 ], [ 112.860653763748218, 27.851059615356608 ], [ 112.863360874363266, 27.851025111047289 ], [ 112.863318913439656, 27.849924877876937 ], [ 112.864350019465959, 27.850116187315841 ], [ 112.864736450674016, 27.849851614612561 ], [ 112.866803601319802, 27.849299963373724 ], [ 112.86714293978882, 27.84920933604711 ], [ 112.868560369856837, 27.84803472227431 ], [ 112.8689468162477, 27.846819942754074 ], [ 112.869933772461195, 27.845758817119151 ], [ 112.869890797010385, 27.844961642336642 ], [ 112.869205251718782, 27.844201793598522 ], [ 112.869247469100785, 27.841885462688143 ], [ 112.869835003953369, 27.841668049044284 ], [ 112.869323633241905, 27.840644342988213 ], [ 112.866315860120181, 27.839729842988231 ], [ 112.864726234228556, 27.839613936079036 ], [ 112.86004320157609, 27.835965344581517 ], [ 112.859742880643978, 27.835394846521627 ], [ 112.858970051750006, 27.833799533492162 ], [ 112.858710816491595, 27.832659993018918 ], [ 112.858325413879456, 27.831598287559267 ], [ 112.857466452558512, 27.829849800311433 ], [ 112.857594729675213, 27.828407753299544 ], [ 112.857035081875964, 27.827420800795728 ], [ 112.856778841545776, 27.826204241311999 ], [ 112.856457450485337, 27.825798714298863 ], [ 112.855739479653167, 27.826007703401832 ], [ 112.851583582216975, 27.827222608469022 ], [ 112.850547063126683, 27.827249983496063 ], [ 112.850808313561629, 27.828980670475076 ], [ 112.852183237225972, 27.829931969789943 ], [ 112.852741968293472, 27.830794967992411 ], [ 112.849564160435818, 27.832916318028392 ], [ 112.84681289856492, 27.833557932934241 ], [ 112.845866317172607, 27.834770549737325 ] ] ] } }
]
}
