{
"type": "FeatureCollection",
"name": "高标村村委会",
"crs": { "type": "name", "properties": { "name": "urn:ogc:def:crs:OGC:1.3:CRS84" } },
"features": [
{ "type": "Feature", "properties": { "adcode": "430302006204", "fullName": "湖南省湘潭市雨湖区昭潭街道高标村村委会", "level": "居委会/社区", "location": "112.89276,27.853263", "name": "高标村村委会", "OBJECTID": 3875, "SHAPE_Leng": 0.018860441311199998, "SHAPE_Area": 1.3965278e-05 }, "geometry": { "type": "Polygon", "coordinates": [ [ [ 112.884889282197321, 27.8571382641694 ], [ 112.884965298864614, 27.857153303515755 ], [ 112.88519334727826, 27.857198420146844 ], [ 112.885437396380965, 27.857247542758461 ], [ 112.885817464161647, 27.857365735770795 ], [ 112.88635453691839, 27.857683023316287 ], [ 112.886611572501991, 27.857764145042765 ], [ 112.886407503112068, 27.858233136933087 ], [ 112.886766554278992, 27.858305298631027 ], [ 112.886589483652727, 27.858864318065283 ], [ 112.88892669622652, 27.859239241636175 ], [ 112.889125766411922, 27.858447173218778 ], [ 112.889496776860113, 27.858457287583423 ], [ 112.889529777464759, 27.858458297493829 ], [ 112.889463792970545, 27.858240241851114 ], [ 112.889432826543043, 27.857798159432193 ], [ 112.88936285886534, 27.857358065610637 ], [ 112.888810901805826, 27.856513753152562 ], [ 112.888762923068199, 27.856205686621092 ], [ 112.888778947556688, 27.85590164163245 ], [ 112.888665967455736, 27.855560548208427 ], [ 112.888434988944354, 27.855086392436768 ], [ 112.88834399472222, 27.854925334715766 ], [ 112.888337994498443, 27.854922332154111 ], [ 112.886086787261021, 27.853852275077337 ], [ 112.885528650509073, 27.854218084726174 ], [ 112.885978700434237, 27.854715369790014 ], [ 112.8861027095179, 27.854891453333373 ], [ 112.886064684151791, 27.8551294759542 ], [ 112.886611764527089, 27.855289736165115 ], [ 112.886547731180215, 27.855588758794219 ], [ 112.886477703649945, 27.855797763881643 ], [ 112.88616163129899, 27.856035667874217 ], [ 112.885050411947077, 27.855949145475353 ], [ 112.885039391495809, 27.856180178348328 ], [ 112.884933338891955, 27.856541186835884 ], [ 112.884911314553207, 27.856788216988988 ], [ 112.884987317250008, 27.856982285863417 ], [ 112.884889282197321, 27.8571382641694 ] ] ] } }
]
}
