{
"type": "FeatureCollection",
"name": "鲁班殿社区居委会",
"crs": { "type": "name", "properties": { "name": "urn:ogc:def:crs:OGC:1.3:CRS84" } },
"features": [
{ "type": "Feature", "properties": { "adcode": "430302005204", "fullName": "湖南省湘潭市雨湖区窑湾街道鲁班殿社区居委会", "level": "居委会/社区", "location": "112.898765,27.852511", "name": "鲁班殿社区居委会", "OBJECTID": 3863, "SHAPE_Leng": 0.021358128358500001, "SHAPE_Area": 1.69183134999e-05 }, "geometry": { "type": "Polygon", "coordinates": [ [ [ 112.888892097337632, 27.854048372566293 ], [ 112.894581225792592, 27.858969326778304 ], [ 112.895795059660799, 27.857143087441059 ], [ 112.896656897631132, 27.855846878913219 ], [ 112.893329862337836, 27.853885354846327 ], [ 112.893233867182914, 27.854021364329174 ], [ 112.89307287469795, 27.854244378511648 ], [ 112.893048876738163, 27.854264378348702 ], [ 112.892911887629509, 27.854381377412096 ], [ 112.892739902179244, 27.854500370498641 ], [ 112.892653912059927, 27.854519359889171 ], [ 112.892454939524086, 27.854486321433033 ], [ 112.892309955065627, 27.854504299272495 ], [ 112.892283955744517, 27.854533299452168 ], [ 112.892160958062874, 27.854676300869279 ], [ 112.891988958757892, 27.854893304580177 ], [ 112.891969959909019, 27.854902302443751 ], [ 112.891780970686256, 27.854988279770321 ], [ 112.891244983582325, 27.855339224849814 ], [ 112.891099009043387, 27.855121156022378 ], [ 112.890773064162602, 27.854608994940165 ], [ 112.890521111913955, 27.854101849038599 ], [ 112.890029143788723, 27.853789668176546 ], [ 112.889336159240557, 27.85347741709607 ], [ 112.889278159490843, 27.853451395184088 ], [ 112.889256155907262, 27.853488394550823 ], [ 112.889154139034957, 27.853659391262813 ], [ 112.888892097337632, 27.854048372566293 ] ] ] } }
]
}
