{
"type": "FeatureCollection",
"name": "鸦雀塘社区居委会",
"crs": { "type": "name", "properties": { "name": "urn:ogc:def:crs:OGC:1.3:CRS84" } },
"features": [
{ "type": "Feature", "properties": { "adcode": "430304005215", "fullName": "湖南省湘潭市岳塘区下摄司街道鸦雀塘社区居委会", "level": "居委会/社区", "location": "112.929064,27.808812", "name": "鸦雀塘社区居委会", "OBJECTID": 4067, "SHAPE_Leng": 0.047393820934300002, "SHAPE_Area": 1.7654773e-05 }, "geometry": { "type": "Polygon", "coordinates": [ [ [ 112.920974319974604, 27.813881628507229 ], [ 112.920881462246513, 27.813904734317646 ], [ 112.920711723694637, 27.813914921820142 ], [ 112.920491064773529, 27.813885157051701 ], [ 112.920452122745758, 27.813905202228241 ], [ 112.920441137967131, 27.81392521716619 ], [ 112.920502036310467, 27.814035168232483 ], [ 112.920711703483548, 27.8141749618114 ], [ 112.92077260543563, 27.814227903384616 ], [ 112.920931349088548, 27.814364750146769 ], [ 112.921070132491323, 27.814374598376897 ], [ 112.921169974999884, 27.814395490787611 ], [ 112.921199925113584, 27.814434463458575 ], [ 112.921210903257816, 27.814494460463806 ], [ 112.92121088537661, 27.814724495884064 ], [ 112.921239837615644, 27.814755468386124 ], [ 112.921493438156674, 27.814761185056152 ], [ 112.921627250013458, 27.814456987133504 ], [ 112.922071539723703, 27.814464480885757 ], [ 112.922055546203438, 27.814711537319539 ], [ 112.922243243363255, 27.814714320901757 ], [ 112.922677535797533, 27.814722814515903 ], [ 112.923542099670286, 27.814736781274142 ], [ 112.924498468093859, 27.814752600191966 ], [ 112.924828898988366, 27.814693172843079 ], [ 112.925166334183885, 27.814351688329587 ], [ 112.925637512737097, 27.814176049846751 ], [ 112.925718381339863, 27.814008918241129 ], [ 112.926128643005612, 27.814018377990127 ], [ 112.926123674518308, 27.813729340190175 ], [ 112.925432911767615, 27.813726247440059 ], [ 112.925124487638797, 27.813327584848452 ], [ 112.925102553094007, 27.812982560116282 ], [ 112.926333390129912, 27.812500872104483 ], [ 112.926339415429965, 27.812035792845005 ], [ 112.926665819457654, 27.812035353624566 ], [ 112.926686797662953, 27.811821292498315 ], [ 112.9273675366465, 27.811830362608568 ], [ 112.926790638219174, 27.811419090249196 ], [ 112.923482462770735, 27.811361336098813 ], [ 112.923487476169385, 27.81108128723849 ], [ 112.923186985661772, 27.810986635650544 ], [ 112.922119735346811, 27.810955887634933 ], [ 112.92222770047529, 27.809166490189423 ], [ 112.92174347901863, 27.80914304253254 ], [ 112.921260006810343, 27.812176049928162 ], [ 112.920974319974604, 27.813881628507229 ] ] ] } }
]
}
