{
"type": "FeatureCollection",
"name": "黄毛村村委会",
"crs": { "type": "name", "properties": { "name": "urn:ogc:def:crs:OGC:1.3:CRS84" } },
"features": [
{ "type": "Feature", "properties": { "adcode": "430372100212", "fullName": "湖南省湘潭市岳塘区昭山镇黄毛村村委会", "level": "居委会/社区", "location": "113.058365,27.935564", "name": "黄毛村村委会", "OBJECTID": 4158, "SHAPE_Leng": 0.12455241909, "SHAPE_Area": 0.000509505105 }, "geometry": { "type": "Polygon", "coordinates": [ [ [ 113.036123929690675, 27.927728424472566 ], [ 113.036402085238677, 27.928130842293825 ], [ 113.036803917842818, 27.928130906339899 ], [ 113.036712165782546, 27.928352157388094 ], [ 113.036428965830439, 27.928633865441718 ], [ 113.036454879358132, 27.928768827999814 ], [ 113.036759900569734, 27.929902311136999 ], [ 113.038081126783183, 27.929601217316378 ], [ 113.038385163900074, 27.93079972993554 ], [ 113.039762306105757, 27.930612602218059 ], [ 113.04386801524366, 27.93289114948842 ], [ 113.038225381060528, 27.945912665091491 ], [ 113.039701136292948, 27.946981523355742 ], [ 113.043682314143012, 27.947391002130448 ], [ 113.049246373296228, 27.946942884185237 ], [ 113.054000511274765, 27.946916390411356 ], [ 113.054964350844372, 27.94793795292977 ], [ 113.055949144750599, 27.949510612869812 ], [ 113.057190559367044, 27.949906712202733 ], [ 113.05911876209619, 27.949637738197012 ], [ 113.061773632352129, 27.95164330293132 ], [ 113.064194276237757, 27.953233394434033 ], [ 113.065161636238003, 27.95363226345756 ], [ 113.065988284374967, 27.953821303882886 ], [ 113.066781079541215, 27.953281290190134 ], [ 113.067241435089684, 27.952474631050379 ], [ 113.067711786174414, 27.951668970322658 ], [ 113.068397769242665, 27.951593209901556 ], [ 113.069410342710952, 27.951106062257661 ], [ 113.068287021990571, 27.950511146312142 ], [ 113.06738851615097, 27.948761838269832 ], [ 113.067079098416798, 27.947451964925321 ], [ 113.066440176321635, 27.946442526826832 ], [ 113.064702231152253, 27.943464106178318 ], [ 113.064243086845053, 27.942392497011934 ], [ 113.062168084559701, 27.937546375965958 ], [ 113.062139179648469, 27.937018324990294 ], [ 113.062158157433572, 27.93687627519412 ], [ 113.062068587546364, 27.93359583684428 ], [ 113.062039753411639, 27.932207638967999 ], [ 113.062038761935909, 27.932125626311723 ], [ 113.062018854394807, 27.931435535462484 ], [ 113.060380955940303, 27.93022860520616 ], [ 113.060212283312026, 27.930097823762608 ], [ 113.059613455394469, 27.929649612222274 ], [ 113.059513652934129, 27.929568744057253 ], [ 113.057905891660383, 27.928383946010698 ], [ 113.056059762910891, 27.927023608044369 ], [ 113.055670599767311, 27.926734186791339 ], [ 113.054603929537521, 27.925945805861481 ], [ 113.053645069852621, 27.925227299263021 ], [ 113.053852677487342, 27.924473817326167 ], [ 113.053340782714471, 27.924697729416081 ], [ 113.052099499591094, 27.925401012343958 ], [ 113.051958781197172, 27.925856339247346 ], [ 113.05241864944027, 27.926984721094602 ], [ 113.052547275704285, 27.928017672276273 ], [ 113.052847566804587, 27.928472226461974 ], [ 113.052310752264248, 27.928691202204075 ], [ 113.051242254991536, 27.927858961930511 ], [ 113.050106975581215, 27.926912870494608 ], [ 113.04936878940498, 27.926127109366707 ], [ 113.048950782169896, 27.926230914058014 ], [ 113.048468917078054, 27.926582889743063 ], [ 113.04706733836322, 27.926842647523653 ], [ 113.046340128392629, 27.927203146240426 ], [ 113.045665795217786, 27.927698581174081 ], [ 113.04489477246041, 27.92768114271777 ], [ 113.043878480558334, 27.926878100980719 ], [ 113.043349857887478, 27.927048234813849 ], [ 113.041434934690798, 27.927759441710418 ], [ 113.041086879115838, 27.927817207983971 ], [ 113.040739865517565, 27.9273858926183 ], [ 113.040733902861916, 27.927129861938369 ], [ 113.041280457371244, 27.926513564021906 ], [ 113.041301423156, 27.926233470612747 ], [ 113.041044217034255, 27.925114839170817 ], [ 113.040382052341798, 27.924928258877269 ], [ 113.039859481408641, 27.925165455636524 ], [ 113.039805592576386, 27.925639656452415 ], [ 113.040018988492847, 27.925772205440534 ], [ 113.039784607541307, 27.926170793893359 ], [ 113.039590168402896, 27.925943188069763 ], [ 113.039420657015356, 27.925763535963974 ], [ 113.039217220894372, 27.925841004854789 ], [ 113.038895157904065, 27.925461664212808 ], [ 113.038735602694359, 27.925529035793566 ], [ 113.038974892499951, 27.925959569696776 ], [ 113.038842254311547, 27.926106893783679 ], [ 113.038767460341575, 27.926169073222724 ], [ 113.038590932347276, 27.926500529036861 ], [ 113.037322570402921, 27.926290391514375 ], [ 113.036850920483587, 27.926433507189923 ], [ 113.036723255230456, 27.926864877509228 ], [ 113.036445039989871, 27.927154575208565 ], [ 113.036225650754602, 27.927506148170391 ], [ 113.036123929690675, 27.927728424472566 ] ] ] } }
]
}
