{
"type": "FeatureCollection",
"name": "黄石村委会",
"crs": { "type": "name", "properties": { "name": "urn:ogc:def:crs:OGC:1.3:CRS84" } },
"features": [
{ "type": "Feature", "properties": { "adcode": "430302102229", "fullName": "湖南省湘潭市雨湖区姜畲镇黄石村委会", "level": "居委会/社区", "location": "112.82527,27.902287", "name": "黄石村委会", "OBJECTID": 3974, "SHAPE_Leng": 0.071519986910900002, "SHAPE_Area": 0.000260355675 }, "geometry": { "type": "Polygon", "coordinates": [ [ [ 112.811252438535476, 27.909483636887014 ], [ 112.812078619328958, 27.913138782530737 ], [ 112.812134699938056, 27.913383927880325 ], [ 112.812226879246481, 27.91319106462549 ], [ 112.812489390155804, 27.912643454706096 ], [ 112.813693531732696, 27.912797708122557 ], [ 112.814915706686421, 27.913078026763362 ], [ 112.81552078707422, 27.91321717814608 ], [ 112.815679074148505, 27.913201470744582 ], [ 112.816810129567472, 27.913087565006109 ], [ 112.816643810764418, 27.913310291997938 ], [ 112.816443426817742, 27.913578963300871 ], [ 112.816552588627886, 27.914036245904992 ], [ 112.817712764149746, 27.913126262771552 ], [ 112.818412992264413, 27.913694674380817 ], [ 112.818487122384042, 27.91375482391668 ], [ 112.818584238136438, 27.914532139690031 ], [ 112.819347629167609, 27.914515571688231 ], [ 112.820379471198862, 27.915009598176976 ], [ 112.821282057601493, 27.915778430154781 ], [ 112.82097042876336, 27.916546974921783 ], [ 112.821088630395266, 27.9167262283502 ], [ 112.821390158182666, 27.917012845630655 ], [ 112.822313816414109, 27.917365646877247 ], [ 112.823094205271744, 27.917819195602245 ], [ 112.823227442218808, 27.91789846032113 ], [ 112.824141134409871, 27.917576126794689 ], [ 112.824389602270585, 27.917387562516126 ], [ 112.825324361249201, 27.916678200893042 ], [ 112.825668004650637, 27.916451808679732 ], [ 112.827166101572828, 27.911672804086553 ], [ 112.826218475243465, 27.910456815464521 ], [ 112.826091282607834, 27.909962491556968 ], [ 112.825832990699936, 27.907687615747296 ], [ 112.825661913891423, 27.904689780135065 ], [ 112.82535954154379, 27.902412821159341 ], [ 112.82570432348578, 27.900440132216939 ], [ 112.825446881511766, 27.900099589557492 ], [ 112.82600602958928, 27.898430355862381 ], [ 112.827478814049059, 27.89702788235012 ], [ 112.827335565952296, 27.896878588096516 ], [ 112.826390948934176, 27.895623599753193 ], [ 112.824241067502825, 27.895202481835788 ], [ 112.821919850670042, 27.894970067474958 ], [ 112.821068356279739, 27.894212333574131 ], [ 112.819638669687833, 27.895232816072799 ], [ 112.818047742191524, 27.895646897198311 ], [ 112.816284515173464, 27.896022658724139 ], [ 112.814301791926979, 27.897900284404454 ], [ 112.814479094378271, 27.898108649534546 ], [ 112.812800791833297, 27.901860181081751 ], [ 112.812198586911506, 27.903528355732188 ], [ 112.812413767999558, 27.906108194466956 ], [ 112.811252438535476, 27.909483636887014 ] ] ] } }
]
}
