{
"type": "FeatureCollection",
"name": "黄龙村委会",
"crs": { "type": "name", "properties": { "name": "urn:ogc:def:crs:OGC:1.3:CRS84" } },
"features": [
{ "type": "Feature", "properties": { "adcode": "430373200208", "fullName": "湖南省湘潭市雨湖区响水乡黄龙村委会", "level": "居委会/社区", "location": "112.857123,27.925011", "name": "黄龙村委会", "OBJECTID": 4014, "SHAPE_Leng": 0.085766301555300004, "SHAPE_Area": 0.000261256021 }, "geometry": { "type": "Polygon", "coordinates": [ [ [ 112.841475560840522, 27.932671516124561 ], [ 112.841486548738175, 27.933060601869613 ], [ 112.842408080045132, 27.932990192577908 ], [ 112.842453154527533, 27.932987270143165 ], [ 112.843141305137621, 27.932712411021402 ], [ 112.845279687139964, 27.933617207929725 ], [ 112.84682703261052, 27.934853005214698 ], [ 112.847235623822357, 27.935432779824108 ], [ 112.847505014207911, 27.935782283200556 ], [ 112.847974713359207, 27.936106108736066 ], [ 112.848869030811429, 27.936724668948472 ], [ 112.850813924255633, 27.936885803449655 ], [ 112.851533972277863, 27.936945943635155 ], [ 112.852855811606972, 27.937705117598135 ], [ 112.853242341038253, 27.937925745553681 ], [ 112.853779108968311, 27.937728525855718 ], [ 112.854369945399, 27.93751037670858 ], [ 112.855100914871329, 27.937909531966493 ], [ 112.855723814907364, 27.937151318598076 ], [ 112.856013217287185, 27.936953707187275 ], [ 112.856175323700114, 27.938356182248217 ], [ 112.856175261486882, 27.939153318168259 ], [ 112.856089104058668, 27.939703286815917 ], [ 112.856706963458549, 27.939157087053147 ], [ 112.857352817217915, 27.939005984712992 ], [ 112.857352837978311, 27.93873993935221 ], [ 112.856707022623027, 27.938398957785946 ], [ 112.856752102439032, 27.938133977367769 ], [ 112.85730984724519, 27.937906736030126 ], [ 112.857868539664153, 27.938249585241536 ], [ 112.857954720680198, 27.937339551145101 ], [ 112.858641622670817, 27.936923439382905 ], [ 112.858943129930438, 27.935253571225687 ], [ 112.860231783862147, 27.934308164317123 ], [ 112.862767178381844, 27.928656513202913 ], [ 112.863068512540423, 27.928693901283388 ], [ 112.863111581098991, 27.928428910244378 ], [ 112.861907315198593, 27.927176155898991 ], [ 112.861262568549975, 27.927138307693944 ], [ 112.860317516534295, 27.926226896394049 ], [ 112.860275492654949, 27.925883781212487 ], [ 112.85838512134481, 27.926375278174749 ], [ 112.857181671158955, 27.925197379279389 ], [ 112.855892949361348, 27.925498572001281 ], [ 112.855163081800313, 27.924018246983664 ], [ 112.854130698798073, 27.923600637771667 ], [ 112.853185451408265, 27.922651044833135 ], [ 112.851767475801978, 27.922002749632711 ], [ 112.851724534694853, 27.920449416433961 ], [ 112.852197260708422, 27.919881052601674 ], [ 112.852197317058085, 27.919158928848962 ], [ 112.851639586107481, 27.91820990000295 ], [ 112.850736295566904, 27.917830417690677 ], [ 112.850349754207272, 27.917449740549952 ], [ 112.848912694822161, 27.916234229934513 ], [ 112.848031350935798, 27.91622379552344 ], [ 112.84616344783673, 27.916182702706394 ], [ 112.844765227228635, 27.916151345766846 ], [ 112.844069090930432, 27.916345195636321 ], [ 112.843233715487699, 27.916574804349288 ], [ 112.843556177330626, 27.917391498035908 ], [ 112.843963764850216, 27.918340358115305 ], [ 112.843684284919718, 27.918681938849641 ], [ 112.844372328658309, 27.919573265821558 ], [ 112.845652422988238, 27.918964324379534 ], [ 112.84591985634016, 27.918837750931612 ], [ 112.846521741876799, 27.919634891785861 ], [ 112.846221248102808, 27.91991143872189 ], [ 112.845661322822082, 27.920429590624643 ], [ 112.84568328962925, 27.921301777063576 ], [ 112.846220035577957, 27.922611899787185 ], [ 112.845848380329798, 27.92349142928915 ], [ 112.845790283149412, 27.923558343415628 ], [ 112.845408644091691, 27.923984775568748 ], [ 112.844495111398928, 27.924892386568395 ], [ 112.844549162757332, 27.925348556542321 ], [ 112.844710351387974, 27.926249984453026 ], [ 112.844076279541838, 27.926894016691168 ], [ 112.843280905298428, 27.92794483492349 ], [ 112.843055494905556, 27.928483539405853 ], [ 112.843226716213493, 27.929233962565476 ], [ 112.843742538269936, 27.92946288655526 ], [ 112.843485062677189, 27.930192570380267 ], [ 112.842541407945646, 27.931602185921605 ], [ 112.842496328450409, 27.931670119534349 ], [ 112.841915349263729, 27.9319241548077 ], [ 112.841755048026442, 27.932378953551495 ], [ 112.841671903244261, 27.932465823513979 ], [ 112.841475560840522, 27.932671516124561 ] ] ] } }
]
}
