{
"type": "FeatureCollection",
"name": "龟头居委会",
"crs": { "type": "name", "properties": { "name": "urn:ogc:def:crs:OGC:1.3:CRS84" } },
"features": [
{ "type": "Feature", "properties": { "adcode": "430302100243", "fullName": "湖南省湘潭市雨湖区鹤岭镇龟头居委会", "level": "居委会/社区", "location": "112.8115,28.055098", "name": "龟头居委会", "OBJECTID": 3923, "SHAPE_Leng": 0.014730742339600001, "SHAPE_Area": 9.1878044999300005e-06 }, "geometry": { "type": "Polygon", "coordinates": [ [ [ 112.803269056188014, 28.056695956556251 ], [ 112.803966183360927, 28.057237247821067 ], [ 112.804268581707134, 28.058647969812103 ], [ 112.805301280658327, 28.059313880171043 ], [ 112.806461194297228, 28.060225064243422 ], [ 112.807406823525668, 28.060263762032584 ], [ 112.808309427800566, 28.05981232639158 ], [ 112.808309526087726, 28.05857015850362 ], [ 112.805214277782198, 28.05747547679767 ], [ 112.805214376038492, 28.05623430757981 ], [ 112.803269056188014, 28.056695956556251 ] ] ] } }
]
}
