{
  "type": "FeatureCollection",
  "features": [
    {
      "type": "Feature",
      "geometry": {
        "type": "Polygon",
        "coordinates": [
          [
            [
              112.9458290926209,
              27.817775158513584
            ],
            [
              112.95138662969974,
              27.81752844497541
            ],
            [
              112.95366114294437,
              27.81128450807701
            ],
            [
              112.95385426199346,
              27.810847988425394
            ],
            [
              112.95269554769902,
              27.810980842418104
            ],
            [
              112.95203035986333,
              27.811379403421313
            ],
            [
              112.95160120642093,
              27.812005710614443
            ],
            [
              112.9508716455689,
              27.810942884151046
            ],
            [
              112.9500991693726,
              27.810639217537087
            ],
            [
              112.9508716455689,
              27.80963331581478
            ],
            [
              112.95108622229007,
              27.80927270726872
            ],
            [
              112.95224493658453,
              27.808741281966277
            ],
            [
              112.95061415350347,
              27.808760261486157
            ],
            [
              112.94999188101202,
              27.80934862495684
            ],
            [
              112.94969147360234,
              27.809709233250857
            ],
            [
              112.94859713232427,
              27.81012677820101
            ],
            [
              112.94585055029303,
              27.809329645539805
            ],
            [
              112.9455930582276,
              27.810240653817957
            ],
            [
              112.94456308996587,
              27.810012902464678
            ],
            [
              112.94220274603276,
              27.809519439561143
            ],
            [
              112.94215983068851,
              27.81006984034778
            ],
            [
              112.9412156931153,
              27.81016473675325
            ],
            [
              112.94108694708257,
              27.80993698524081
            ],
            [
              112.94005697882083,
              27.809747191949015
            ],
            [
              112.93913429891971,
              27.809785150633914
            ],
            [
              112.93879097616583,
              27.81006984034778
            ],
            [
              112.938104330658,
              27.810316570829585
            ],
            [
              112.9378682962647,
              27.810791050950186
            ],
            [
              112.9375249735108,
              27.8110567589124
            ],
            [
              112.93754643118291,
              27.8116071519094
            ],
            [
              112.93763226187137,
              27.811929794783367
            ],
            [
              112.93814724600225,
              27.812100605328638
            ],
            [
              112.9388768068543,
              27.81213856319114
            ],
            [
              112.93939179098514,
              27.812024689563913
            ],
            [
              112.93982094442754,
              27.811740004973572
            ],
            [
              112.94035738623053,
              27.811246549916063
            ],
            [
              112.93949907934577,
              27.812366310087384
            ],
            [
              112.93870514547734,
              27.813334229068857
            ],
            [
              112.9377610079041,
              27.813713802785372
            ],
            [
              112.93668812429814,
              27.81409337517536
            ],
            [
              112.93685978567511,
              27.814548860292263
            ],
            [
              112.9366452089539,
              27.81502332192433
            ],
            [
              112.93655937826541,
              27.815706543032988
            ],
            [
              112.93737476980594,
              27.8163138470767
            ],
            [
              112.93791121160893,
              27.8157444996352
            ],
            [
              112.93861931478887,
              27.816010195479365
            ],
            [
              112.93788975393683,
              27.816959103901894
            ],
            [
              112.9391128412476,
              27.816883191533222
            ],
            [
              112.93913429891971,
              27.817224796774326
            ],
            [
              112.93945616400151,
              27.81712990653736
            ],
            [
              112.93947762167363,
              27.817813114392806
            ],
            [
              112.93962782537847,
              27.817889026111388
            ],
            [
              112.93960636770635,
              27.8173007089042
            ],
            [
              112.9402286401978,
              27.814776602134344
            ],
            [
              112.94027155554204,
              27.815137192407576
            ],
            [
              112.94301813757328,
              27.815289019532884
            ],
            [
              112.94374769842534,
              27.81563062978873
            ],
            [
              112.9441553941956,
              27.81515617080987
            ],
            [
              112.94452017462163,
              27.81521310599676
            ],
            [
              112.94503515875248,
              27.81521310599676
            ],
            [
              112.9456145158997,
              27.81551675982284
            ],
            [
              112.94610804235846,
              27.816940125814696
            ],
            [
              112.9458290926209,
              27.817775158513584
            ]
          ]
        ]
      },
      "properties": {
        "name": "霞城村",
        "type": "assistPolygon",
        "fill": "#9b59b6",
        "fill-opacity": 0.2,
        "stroke": "#9b59b6",
        "stroke-width": 2,
        "stroke-opacity": 0.8
      },
      "id": "assist_polygon_1773970546397"
    },
    {
      "type": "Feature",
      "geometry": {
        "type": "Point",
        "coordinates": [
          112.94623678839116,
          27.81303056914051
        ]
      },
      "properties": {
        "iconType": "default",
        "iconColor": "#e74c3c",
        "iconSize": 1,
        "text": "霞城村中心点",
        "textColor": "#333333",
        "type": "assistPoint",
        "name": "辅助点_1"
      },
      "id": "assist_point_1773970693331"
    }
  ],
  "properties": {
    "description": "GIS-APP 辅助要素导出",
    "exportTime": "2026/3/20 09:38:19",
    "assistElements": {
      "lines": 0,
      "polygons": 1,
      "texts": 0,
      "points": 1
    }
  }
}