{
  "type": "FeatureCollection",
  "features": [
    {
      "type": "Feature",
      "geometry": {
        "type": "Polygon",
        "coordinates": [
          [
            [
              112.91341634150682,
              27.815728014063552
            ],
            [
              112.91419540715344,
              27.816257280669475
            ],
            [
              112.91440993247642,
              27.816337169744415
            ],
            [
              112.91471478425119,
              27.81654687828653
            ],
            [
              112.9151664165101,
              27.81686643338152
            ],
            [
              112.91531319699425,
              27.816606794938465
            ],
            [
              112.91552772231724,
              27.816407072636792
            ],
            [
              112.91590031893084,
              27.816107488495547
            ],
            [
              112.91613742586676,
              27.815907765275583
            ],
            [
              112.91646485925448,
              27.8158678205875
            ],
            [
              112.91674712941631,
              27.81582787588472
            ],
            [
              112.91681487425517,
              27.81462952796987
            ],
            [
              112.91684223354224,
              27.81335492344418
            ],
            [
              112.9168986875746,
              27.812945480070752
            ],
            [
              112.91690997838107,
              27.812276386357908
            ],
            [
              112.9169438508005,
              27.811207825164473
            ],
            [
              112.91700030483287,
              27.809639917282325
            ],
            [
              112.91701159563932,
              27.80908065803959
            ],
            [
              112.9161873667668,
              27.809070671241216
            ],
            [
              112.91563203477595,
              27.809123307792447
            ],
            [
              112.91531940246958,
              27.809177263948754
            ],
            [
              112.91512877301444,
              27.80933238774888
            ],
            [
              112.91501439534137,
              27.809440299827003
            ],
            [
              112.9147322637478,
              27.80958867875937
            ],
            [
              112.91476472515123,
              27.809989452846892
            ],
            [
              112.91459536305413,
              27.810518747417817
            ],
            [
              112.91425663885994,
              27.81171714068934
            ],
            [
              112.91355660885861,
              27.813864228900883
            ],
            [
              112.91344370079389,
              27.814213750871602
            ],
            [
              112.91342111918095,
              27.814762997410043
            ],
            [
              112.91341634150682,
              27.815728014063552
            ]
          ]
        ]
      },
      "properties": {
        "type": "assistPolygon",
        "name": "运河社区",
        "fill": "#9b59b6",
        "fill-opacity": 0.2,
        "stroke": "#9b59b6",
        "stroke-width": 2,
        "stroke-opacity": 0.8
      },
      "id": "assist_polygon_1773977808441"
    },
    {
      "type": "Feature",
      "geometry": {
        "type": "Point",
        "coordinates": [
          112.91535582668776,
          27.81293614288937
        ]
      },
      "properties": {
        "iconType": "default",
        "iconColor": "#e74c3c",
        "iconSize": 1,
        "text": "运河社区中心点",
        "textColor": "#333333",
        "type": "assistPoint",
        "name": "辅助点_1"
      },
      "id": "assist_point_1773977857986"
    }
  ],
  "properties": {
    "description": "GIS-APP 辅助要素导出",
    "exportTime": "2026/3/20 11:37:40",
    "assistElements": {
      "lines": 0,
      "polygons": 1,
      "texts": 0,
      "points": 1
    }
  }
}