{
  "type": "FeatureCollection",
  "features": [
    {
      "type": "Feature",
      "geometry": {
        "type": "Polygon",
        "coordinates": [
          [
            [
              112.93179062814569,
              27.80403060506889
            ],
            [
              112.93292609700265,
              27.803169707178895
            ],
            [
              112.93384528607731,
              27.803193621101272
            ],
            [
              112.93368307624064,
              27.803647984626537
            ],
            [
              112.93387232105013,
              27.80441322416381
            ],
            [
              112.93368307624064,
              27.804389310509833
            ],
            [
              112.93338569154,
              27.804174087387395
            ],
            [
              112.93238539754697,
              27.804245828475587
            ],
            [
              112.93246650246532,
              27.80398277758728
            ],
            [
              112.93179062814569,
              27.80403060506889
            ]
          ]
        ]
      },
      "properties": {
        "name": "阳塘村",
        "type": "assistPolygon",
        "fill": "#9b59b6",
        "fill-opacity": 0.2,
        "stroke": "#9b59b6",
        "stroke-width": 2,
        "stroke-opacity": 0.8
      },
      "id": "assist_polygon_1773975297081"
    },
    {
      "type": "Feature",
      "geometry": {
        "type": "Polygon",
        "coordinates": [
          [
            [
              112.93433191558746,
              27.80250011521531
            ],
            [
              112.9344400554786,
              27.802260974228332
            ],
            [
              112.9344400554786,
              27.802093575224305
            ],
            [
              112.93414267077796,
              27.801926175962393
            ],
            [
              112.93411563580517,
              27.801304405017433
            ],
            [
              112.93503482487986,
              27.801160918909503
            ],
            [
              112.9402796096001,
              27.803193621101272
            ],
            [
              112.9420098478583,
              27.80558498676018
            ],
            [
              112.94471334513675,
              27.807091520100286
            ],
            [
              112.94419968065387,
              27.807378476463114
            ],
            [
              112.9457136391298,
              27.807713257928413
            ],
            [
              112.94652468831333,
              27.80811977689217
            ],
            [
              112.94674096809563,
              27.80790456115969
            ],
            [
              112.94936336045572,
              27.80878933422214
            ],
            [
              112.9437671210893,
              27.80776108376783
            ],
            [
              112.94276682709626,
              27.807737170850743
            ],
            [
              112.94279386206905,
              27.807426302449883
            ],
            [
              112.94265868720514,
              27.807163259262055
            ],
            [
              112.94233426753173,
              27.80728282442641
            ],
            [
              112.94225316261335,
              27.807665432067978
            ],
            [
              112.94149618337539,
              27.807498041390602
            ],
            [
              112.93944152544375,
              27.80811977689217
            ],
            [
              112.93887379101528,
              27.80814368972503
            ],
            [
              112.9388467560425,
              27.806302386194247
            ],
            [
              112.93814384675008,
              27.806063253575914
            ],
            [
              112.93944152544375,
              27.805752380385186
            ],
            [
              112.9395496653349,
              27.805393679444364
            ],
            [
              112.9391711757159,
              27.80529802566015
            ],
            [
              112.93892786096085,
              27.805489333144408
            ],
            [
              112.93833309155958,
              27.805393679444364
            ],
            [
              112.93787349702224,
              27.8057045536615
            ],
            [
              112.93738686751212,
              27.80558498676018
            ],
            [
              112.9370894828115,
              27.805752380385186
            ],
            [
              112.93598104892733,
              27.805441506304902
            ],
            [
              112.93484558007037,
              27.805369766006223
            ],
            [
              112.93489965001595,
              27.804795841911343
            ],
            [
              112.93514296477099,
              27.80453279235465
            ],
            [
              112.93568366422669,
              27.804556705977035
            ],
            [
              112.93622436368238,
              27.80415017368078
            ],
            [
              112.9363865735191,
              27.803743639863455
            ],
            [
              112.9363595385463,
              27.803026223534047
            ],
            [
              112.93554848936277,
              27.80247620114031
            ],
            [
              112.93433191558746,
              27.80250011521531
            ]
          ]
        ]
      },
      "properties": {
        "name": "阳塘村",
        "type": "assistPolygon",
        "fill": "#9b59b6",
        "fill-opacity": 0.2,
        "stroke": "#9b59b6",
        "stroke-width": 2,
        "stroke-opacity": 0.8
      },
      "id": "assist_polygon_1773975371348"
    },
    {
      "type": "Feature",
      "geometry": {
        "type": "Polygon",
        "coordinates": [
          [
            [
              112.93503482487986,
              27.80106526139896
            ],
            [
              112.93465633526087,
              27.80001302322546
            ],
            [
              112.93598104892733,
              27.80001302322546
            ],
            [
              112.9384682664235,
              27.80044348552795
            ],
            [
              112.94355084130703,
              27.801591376664888
            ],
            [
              112.94633544350383,
              27.802284888350727
            ],
            [
              112.94982295499307,
              27.803695812255526
            ],
            [
              112.94987702493863,
              27.805393679444364
            ],
            [
              112.94990405991142,
              27.808741508835453
            ],
            [
              112.94920115061902,
              27.808741508835453
            ],
            [
              112.94671393312282,
              27.807928474039898
            ],
            [
              112.94636247847663,
              27.807498041390602
            ],
            [
              112.94530811453801,
              27.806948041634627
            ],
            [
              112.94487555497346,
              27.80713934621339
            ],
            [
              112.94265868720514,
              27.80582412043121
            ],
            [
              112.9419828128855,
              27.80534585256278
            ],
            [
              112.94138804348424,
              27.804389310509833
            ],
            [
              112.94052292435514,
              27.803169707178895
            ],
            [
              112.9393604205254,
              27.80269142762596
            ],
            [
              112.93503482487986,
              27.80106526139896
            ]
          ]
        ]
      },
      "properties": {
        "name": "阳塘村",
        "type": "assistPolygon",
        "fill": "#9b59b6",
        "fill-opacity": 0.2,
        "stroke": "#9b59b6",
        "stroke-width": 2,
        "stroke-opacity": 0.8
      },
      "id": "assist_polygon_1773975401065"
    },
    {
      "type": "Feature",
      "geometry": {
        "type": "Point",
        "coordinates": [
          112.94319938666082,
          27.80477192834158
        ]
      },
      "properties": {
        "iconType": "default",
        "iconColor": "#e74c3c",
        "iconSize": 1,
        "text": "阳塘村中心点",
        "textColor": "#333333",
        "type": "assistPoint",
        "name": "辅助点_1"
      },
      "id": "assist_point_1773975417010"
    }
  ],
  "properties": {
    "description": "GIS-APP 辅助要素导出",
    "exportTime": "2026/3/20 10:57:11",
    "assistElements": {
      "lines": 0,
      "polygons": 3,
      "texts": 0,
      "points": 1
    }
  }
}