{
  "type": "FeatureCollection",
  "features": [
    {
      "type": "Feature",
      "geometry": {
        "type": "LineString",
        "coordinates": [
          [
            112.87382104732608,
            27.839244944585573
          ],
          [
            112.87435325435344,
            27.83900022706503
          ]
        ]
      },
      "properties": {
        "type": "assistLine",
        "name": "辅助线_1",
        "stroke": "#e74c3c",
        "stroke-width": 2,
        "stroke-opacity": 0.8,
        "stroke-dasharray": "5,5"
      }
    },
    {
      "type": "Feature",
      "geometry": {
        "type": "Polygon",
        "coordinates": [
          [
            [
              112.88926665379428,
              27.850326944401175
            ],
            [
              112.88907842713573,
              27.850833781612778
            ],
            [
              112.88862497200373,
              27.85174910848511
            ],
            [
              112.88826563020102,
              27.85270981515606
            ],
            [
              112.88866775078976,
              27.852845977617577
            ],
            [
              112.88925809803709,
              27.853057785551158
            ],
            [
              112.88926665379428,
              27.85336793213601
            ],
            [
              112.88966877438301,
              27.853609997146762
            ],
            [
              112.89013934102942,
              27.853957964652935
            ],
            [
              112.89056712888981,
              27.854237850749712
            ],
            [
              112.8909093591781,
              27.85482787853266
            ],
            [
              112.8910376955362,
              27.85505481144034
            ],
            [
              112.89123447795198,
              27.855289308279254
            ],
            [
              112.89143981612494,
              27.855251486242764
            ],
            [
              112.89171360035559,
              27.855047247017723
            ],
            [
              112.89198738458622,
              27.854895958454833
            ],
            [
              112.89214994397315,
              27.854676589663626
            ],
            [
              112.89244083971822,
              27.85449504274216
            ],
            [
              112.89259484334795,
              27.854472349355603
            ],
            [
              112.89272317970607,
              27.85447991381831
            ],
            [
              112.89286007182137,
              27.85438157576189
            ],
            [
              112.8930397427227,
              27.85426054418535
            ],
            [
              112.89315952332363,
              27.854101690036117
            ],
            [
              112.89345041906867,
              27.85376128750407
            ],
            [
              112.89357875542679,
              27.8535116583013
            ],
            [
              112.89374987057093,
              27.853178818470298
            ],
            [
              112.89406643358755,
              27.85260391090111
            ],
            [
              112.89426321600331,
              27.85221811595477
            ],
            [
              112.89444288690467,
              27.851839884282697
            ],
            [
              112.89457977902,
              27.851612944646163
            ],
            [
              112.89468244810651,
              27.85131792240861
            ],
            [
              112.89431455054658,
              27.851159063948245
            ],
            [
              112.89407498934477,
              27.851060722879936
            ],
            [
              112.8938610954146,
              27.850947252305716
            ],
            [
              112.89357019966954,
              27.850811087459917
            ],
            [
              112.89323652513843,
              27.850720310801023
            ],
            [
              112.89293707363618,
              27.850546321992482
            ],
            [
              112.89274884697763,
              27.85047823933921
            ],
            [
              112.89240661668933,
              27.850546321992482
            ],
            [
              112.89227828033121,
              27.850569016200737
            ],
            [
              112.89211572094428,
              27.850516063040757
            ],
            [
              112.89194460580013,
              27.850417721389334
            ],
            [
              112.89185049247084,
              27.850319379648724
            ],
            [
              112.89185904822806,
              27.850198343537855
            ],
            [
              112.89179915792761,
              27.850092436830025
            ],
            [
              112.8916622658123,
              27.850054612980728
            ],
            [
              112.8915595967258,
              27.849978965242585
            ],
            [
              112.89143126036768,
              27.84995627091085
            ],
            [
              112.8913029240096,
              27.849986530018768
            ],
            [
              112.89111469735101,
              27.850047048209305
            ],
            [
              112.89090935917804,
              27.85011513113328
            ],
            [
              112.89072968827668,
              27.85013782543176
            ],
            [
              112.89055001737533,
              27.85022103781894
            ],
            [
              112.89029334465911,
              27.850266426366844
            ],
            [
              112.88990833558478,
              27.850289120633676
            ],
            [
              112.88959177256811,
              27.850311814895747
            ],
            [
              112.88946343621,
              27.850326944401175
            ],
            [
              112.88926665379428,
              27.850326944401175
            ]
          ]
        ]
      },
      "properties": {
        "name": "唐兴寺社区",
        "type": "assistPolygon",
        "fill": "#9b59b6",
        "fill-opacity": 0.2,
        "stroke": "#9b59b6",
        "stroke-width": 2,
        "stroke-opacity": 0.8
      },
      "id": "assist_polygon_1773731767275"
    },
    {
      "type": "Feature",
      "geometry": {
        "type": "Polygon",
        "coordinates": [
          [
            [
              112.8882123247005,
              27.852632534994612
            ],
            [
              112.88760848126972,
              27.852491211216062
            ],
            [
              112.88721775904979,
              27.852192860412018
            ],
            [
              112.88677375652715,
              27.851815995065067
            ],
            [
              112.8863119939036,
              27.85161185912189
            ],
            [
              112.88592127168369,
              27.851454831211797
            ],
            [
              112.88467806462029,
              27.851219288920305
            ],
            [
              112.88370125907046,
              27.850873825967255
            ],
            [
              112.8828842944288,
              27.850434144253455
            ],
            [
              112.88236925150252,
              27.850072975797744
            ],
            [
              112.88181868837445,
              27.849696103083218
            ],
            [
              112.88135692575092,
              27.849413447687795
            ],
            [
              112.88091292322827,
              27.849052275832634
            ],
            [
              112.88048668080654,
              27.848722509175246
            ],
            [
              112.87984731717394,
              27.84823570894352
            ],
            [
              112.8791369131377,
              27.8475447629274
            ],
            [
              112.87840874900057,
              27.84669677770941
            ],
            [
              112.87768058486346,
              27.845723156875465
            ],
            [
              112.87727210254263,
              27.845016491118898
            ],
            [
              112.87633081719464,
              27.84365025760117
            ],
            [
              112.87609993588286,
              27.843226250596643
            ],
            [
              112.87567369346112,
              27.842488160375865
            ],
            [
              112.87530073134212,
              27.84193851545963
            ],
            [
              112.87480344851674,
              27.841090486411503
            ],
            [
              112.87450152680135,
              27.840478016864978
            ],
            [
              112.87405752427868,
              27.83956715832393
            ],
            [
              112.87392419975727,
              27.839215178565382
            ],
            [
              112.87447395161306,
              27.83897834845537
            ],
            [
              112.87463605792952,
              27.8392588051082
            ],
            [
              112.87483340474952,
              27.83952679634352
            ],
            [
              112.87500255916669,
              27.839807251578563
            ],
            [
              112.87524924269172,
              27.840181190764184
            ],
            [
              112.87565803253318,
              27.840823116693997
            ],
            [
              112.87598224516609,
              27.84125314261945
            ],
            [
              112.87632760210113,
              27.841639541272386
            ],
            [
              112.8765954299283,
              27.84198231311896
            ],
            [
              112.87694783496407,
              27.8424310309902
            ],
            [
              112.8772015665898,
              27.842699014389154
            ],
            [
              112.87737072100695,
              27.84295453282735
            ],
            [
              112.87757511592773,
              27.84306047932033
            ],
            [
              112.87765969313628,
              27.843097872175534
            ],
            [
              112.87768788553915,
              27.843191354257044
            ],
            [
              112.87774427034488,
              27.843278604127136
            ],
            [
              112.87778655894915,
              27.843421943047048
            ],
            [
              112.87787818425846,
              27.84355281754766
            ],
            [
              112.87813191588421,
              27.84382703027498
            ],
            [
              112.87835745510708,
              27.844107474392686
            ],
            [
              112.87861118673284,
              27.844350525374892
            ],
            [
              112.87878034115,
              27.844518791120436
            ],
            [
              112.87888606266073,
              27.84468082455463
            ],
            [
              112.87903407277574,
              27.844730680947208
            ],
            [
              112.87922437149503,
              27.844948802395393
            ],
            [
              112.87948515122147,
              27.84521054755416
            ],
            [
              112.87983755625721,
              27.845497220098537
            ],
            [
              112.88013357648727,
              27.84572780398659
            ],
            [
              112.88028158660228,
              27.84585867570499
            ],
            [
              112.88039435621373,
              27.84602070713754
            ],
            [
              112.88064808783946,
              27.846238825991406
            ],
            [
              112.88094410806951,
              27.846481872197586
            ],
            [
              112.88123308019881,
              27.846693758189346
            ],
            [
              112.88141633081742,
              27.84688694799756
            ],
            [
              112.88164891814101,
              27.84709883319796
            ],
            [
              112.88193789027034,
              27.847310717984385
            ],
            [
              112.88219162189607,
              27.847491442916294
            ],
            [
              112.88243830542115,
              27.847672167547046
            ],
            [
              112.88266384464401,
              27.84774071819028
            ],
            [
              112.88286823956476,
              27.84776564568618
            ],
            [
              112.88303739398194,
              27.847815500660744
            ],
            [
              112.88310082688838,
              27.847958833584997
            ],
            [
              112.88312197119052,
              27.84805854333362
            ],
            [
              112.88329112560767,
              27.848152021139725
            ],
            [
              112.88341094331984,
              27.84828912177622
            ],
            [
              112.883678771147,
              27.848320280987622
            ],
            [
              112.88395364707486,
              27.848575786183375
            ],
            [
              112.88417213819704,
              27.848744045373806
            ],
            [
              112.88441882172206,
              27.848825058964977
            ],
            [
              112.88467960144855,
              27.84886868164284
            ],
            [
              112.88496152547712,
              27.84901201317517
            ],
            [
              112.88535621911718,
              27.84914288093053
            ],
            [
              112.88556061403791,
              27.849205198853753
            ],
            [
              112.88541965202363,
              27.849354761723447
            ],
            [
              112.88551832543364,
              27.849435774858392
            ],
            [
              112.88595530767799,
              27.84945447018862
            ],
            [
              112.88612446209515,
              27.849541715020464
            ],
            [
              112.88643457852662,
              27.849597800946697
            ],
            [
              112.88668126205164,
              27.84974113151533
            ],
            [
              112.88692794557667,
              27.849778522067325
            ],
            [
              112.88711119619526,
              27.8497473632749
            ],
            [
              112.88713938859813,
              27.849828376116548
            ],
            [
              112.88711824429599,
              27.849903157147452
            ],
            [
              112.88732263921673,
              27.84992808414627
            ],
            [
              112.88763980374891,
              27.849871998390853
            ],
            [
              112.88803449738894,
              27.849878230142878
            ],
            [
              112.88806973789254,
              27.849990401618285
            ],
            [
              112.88845033533114,
              27.85002779208432
            ],
            [
              112.88851376823759,
              27.849971706380444
            ],
            [
              112.88874635556118,
              27.85005271905449
            ],
            [
              112.88906352009337,
              27.85006518253742
            ],
            [
              112.88915514540267,
              27.850202280755283
            ],
            [
              112.88927496311483,
              27.850301988441203
            ],
            [
              112.88914809730187,
              27.8506011109489
            ],
            [
              112.88901418338827,
              27.850950086165057
            ],
            [
              112.88880274036681,
              27.85137384027479
            ],
            [
              112.88854900874108,
              27.851884835675236
            ],
            [
              112.88839395052534,
              27.852302354519708
            ],
            [
              112.8882123247005,
              27.852632534994612
            ]
          ]
        ]
      },
      "properties": {
        "name": "唐兴寺社区",
        "type": "assistPolygon",
        "fill": "#c0392b",
        "fill-opacity": 0.4,
        "stroke": "#c0392b",
        "stroke-opacity": 1,
        "stroke-width": 3
      },
      "id": "assist_polygon_1773732461538"
    },
    {
      "type": "Feature",
      "geometry": {
        "type": "Polygon",
        "coordinates": [
          [
            [
              112.87435926674617,
              27.835953698992157
            ],
            [
              112.87413385037856,
              27.832531761524535
            ],
            [
              112.87424655856236,
              27.830106439533253
            ],
            [
              112.874847668876,
              27.82834555536094
            ],
            [
              112.87559905676805,
              27.825820464053038
            ],
            [
              112.87616259768713,
              27.82525563295826
            ],
            [
              112.87635044466012,
              27.826584642620986
            ],
            [
              112.87657586102775,
              27.827946860638605
            ],
            [
              112.87661343042235,
              27.83027255920689
            ],
            [
              112.87736481831442,
              27.832897216303735
            ],
            [
              112.8783791919687,
              27.834990251784305
            ],
            [
              112.87901787167695,
              27.836618140358226
            ],
            [
              112.87954384320138,
              27.83811311855507
            ],
            [
              112.88010738412045,
              27.840006728033103
            ],
            [
              112.88153502111528,
              27.842830470246852
            ],
            [
              112.88221127021816,
              27.84455789983383
            ],
            [
              112.8826621029534,
              27.84545482357656
            ],
            [
              112.88341349084546,
              27.846418177853593
            ],
            [
              112.88191071506134,
              27.845554481312377
            ],
            [
              112.88097148019625,
              27.84479043633118
            ],
            [
              112.87999467593657,
              27.843827067596692
            ],
            [
              112.87871731652005,
              27.84253148925646
            ],
            [
              112.87762780407657,
              27.841235895442324
            ],
            [
              112.87661343042228,
              27.839840623260983
            ],
            [
              112.87578690374102,
              27.83874432538674
            ],
            [
              112.87507308524354,
              27.83778090295816
            ],
            [
              112.8746222525083,
              27.83688391576537
            ],
            [
              112.87435926674617,
              27.835953698992157
            ]
          ]
        ]
      },
      "properties": {
        "name": "唐兴寺社区",
        "type": "assistPolygon",
        "fill": "#9b59b6",
        "fill-opacity": 0.2,
        "stroke": "#9b59b6",
        "stroke-width": 2,
        "stroke-opacity": 0.8
      },
      "id": "assist_polygon_1773732571535"
    },
    {
      "type": "Feature",
      "geometry": {
        "type": "Point",
        "coordinates": [
          112.87426810122905,
          27.83923239498256
        ]
      },
      "properties": {
        "text": "杨梅洲大桥",
        "type": "assistText",
        "name": "辅助文字_1",
        "font-size": 16,
        "font-color": "#e67e22",
        "font-family": "Arial, sans-serif",
        "font-weight": "bold",
        "background-color": "#ffffff",
        "background-opacity": 0.7
      },
      "id": "assist_text_1773732254633"
    },
    {
      "type": "Feature",
      "geometry": {
        "type": "Point",
        "coordinates": [
          112.88712525090033,
          27.85055899111113
        ]
      },
      "properties": {
        "iconType": "default",
        "iconColor": "#e74c3c",
        "iconSize": 1,
        "text": "潭宝汽车站",
        "textColor": "#333333",
        "type": "assistPoint",
        "name": "辅助点_1"
      },
      "id": "assist_point_1773732221035"
    },
    {
      "type": "Feature",
      "geometry": {
        "type": "Point",
        "coordinates": [
          112.88324748598967,
          27.849307195857932
        ]
      },
      "properties": {
        "iconType": "default",
        "iconColor": "#e74c3c",
        "iconSize": 1,
        "text": "唐兴寺社区中心点",
        "textColor": "#333333",
        "type": "assistPoint",
        "name": "辅助点_2"
      },
      "id": "assist_point_1773732610255"
    }
  ],
  "properties": {
    "description": "GIS-APP 辅助要素导出",
    "exportTime": "2026/3/17 15:30:14",
    "assistElements": {
      "lines": 1,
      "polygons": 3,
      "texts": 1,
      "points": 2
    }
  }
}