{
  "type": "FeatureCollection",
  "features": [
    {
      "type": "Feature",
      "geometry": {
        "type": "Polygon",
        "coordinates": [
          [
            [
              112.94844098213629,
              27.865888242592334
            ],
            [
              112.94815936785454,
              27.866189614118923
            ],
            [
              112.94801114981152,
              27.8667137365167
            ],
            [
              112.94789257537711,
              27.86717234153531
            ],
            [
              112.94796668439862,
              27.86768335626975
            ],
            [
              112.94814454605024,
              27.868115751470484
            ],
            [
              112.94823347687606,
              27.86854814494579
            ],
            [
              112.94820383326744,
              27.86881020075775
            ],
            [
              112.9484854475492,
              27.86895433118417
            ],
            [
              112.9491079633299,
              27.869046050446656
            ],
            [
              112.94941922122024,
              27.86908535867822
            ],
            [
              112.94967119189337,
              27.86926879690364
            ],
            [
              112.95002691519663,
              27.869832212368607
            ],
            [
              112.95029370767409,
              27.870395624903892
            ],
            [
              112.9504567475214,
              27.87077559914553
            ],
            [
              112.95075318360746,
              27.871129367069216
            ],
            [
              112.95122748134513,
              27.871601055837246
            ],
            [
              112.95153873923549,
              27.871876206670237
            ],
            [
              112.95204268058176,
              27.871810694630526
            ],
            [
              112.95228077474968,
              27.871518969941235
            ],
            [
              112.95276211401662,
              27.871518969941235
            ],
            [
              112.9530881825523,
              27.871367984897518
            ],
            [
              112.95348039559909,
              27.87118177703374
            ],
            [
              112.95358414822921,
              27.87084111181116
            ],
            [
              112.95377683168513,
              27.870513548087004
            ],
            [
              112.95383611890234,
              27.87026459899434
            ],
            [
              112.95386576251094,
              27.869648775097033
            ],
            [
              112.95388058431524,
              27.869255694183565
            ],
            [
              112.95402880235827,
              27.86913776963145
            ],
            [
              112.9542511294228,
              27.869019844951012
            ],
            [
              112.95445863468305,
              27.868875714611704
            ],
            [
              112.95465131813897,
              27.8688233035317
            ],
            [
              112.95466613994327,
              27.868626761755948
            ],
            [
              112.95515525948525,
              27.868718481295645
            ],
            [
              112.95537758654977,
              27.86799782567776
            ],
            [
              112.95517008128955,
              27.867578532930935
            ],
            [
              112.95497739783363,
              27.867381988897378
            ],
            [
              112.95591117150468,
              27.867067517702154
            ],
            [
              112.9561038549606,
              27.867473709490724
            ],
            [
              112.95634100382945,
              27.867644047529552
            ],
            [
              112.95657815269827,
              27.868076442887173
            ],
            [
              112.95634100382945,
              27.868377808328177
            ],
            [
              112.9567411925456,
              27.868797097982196
            ],
            [
              112.95702280682734,
              27.86846952807862
            ],
            [
              112.95746746095644,
              27.86831229417315
            ],
            [
              112.95702280682734,
              27.867670253357943
            ],
            [
              112.95629653841654,
              27.86630754187945
            ],
            [
              112.9561483203735,
              27.8656785923404
            ],
            [
              112.95580741887453,
              27.86448619881932
            ],
            [
              112.95517008128952,
              27.86259930754059
            ],
            [
              112.95195374975594,
              27.862874481231458
            ],
            [
              112.95220572042906,
              27.864459992220972
            ],
            [
              112.95230947305919,
              27.864748264454292
            ],
            [
              112.95235393847209,
              27.865429632139424
            ],
            [
              112.94844098213629,
              27.865888242592334
            ]
          ]
        ]
      },
      "properties": {
        "name": "学卫社区",
        "type": "assistPolygon",
        "fill": "#9b59b6",
        "fill-opacity": 0.2,
        "stroke": "#9b59b6",
        "stroke-width": 2,
        "stroke-opacity": 0.8
      },
      "id": "assist_polygon_1773990524590"
    },
    {
      "type": "Feature",
      "geometry": {
        "type": "Point",
        "coordinates": [
          112.95314779135296,
          27.866992470034674
        ]
      },
      "properties": {
        "iconType": "default",
        "iconColor": "#e74c3c",
        "iconSize": 1,
        "text": "学卫社区中心点",
        "textColor": "#333333",
        "type": "assistPoint",
        "name": "辅助点_1"
      },
      "id": "assist_point_1773990668291"
    }
  ],
  "properties": {
    "description": "GIS-APP 辅助要素导出",
    "exportTime": "2026/3/20 15:11:15",
    "assistElements": {
      "lines": 0,
      "polygons": 1,
      "texts": 0,
      "points": 1
    }
  }
}