{
  "type": "FeatureCollection",
  "features": [
    {
      "type": "Feature",
      "geometry": {
        "type": "Polygon",
        "coordinates": [
          [
            [
              112.99453088439017,
              27.835061627733083
            ],
            [
              112.99565492812287,
              27.834293544373708
            ],
            [
              112.99585929971065,
              27.8348809027259
            ],
            [
              112.99575711391675,
              27.83530259394115
            ],
            [
              112.99555274232898,
              27.835754404138967
            ],
            [
              112.99471822501226,
              27.835724283517635
            ],
            [
              112.99453088439017,
              27.835061627733083
            ]
          ]
        ]
      },
      "properties": {
        "name": "新电社区",
        "type": "assistPolygon",
        "fill": "#9b59b6",
        "fill-opacity": 0.2,
        "stroke": "#9b59b6",
        "stroke-width": 2,
        "stroke-opacity": 0.8
      },
      "id": "assist_polygon_1773996127819"
    },
    {
      "type": "Feature",
      "geometry": {
        "type": "Polygon",
        "coordinates": [
          [
            [
              112.99613179516099,
              27.835182110904015
            ],
            [
              112.99688115764948,
              27.834233302311688
            ],
            [
              112.99705146730598,
              27.83373630402383
            ],
            [
              112.99754536530973,
              27.834052575924915
            ],
            [
              112.99785192269138,
              27.834218241790936
            ],
            [
              112.99792004655397,
              27.83454957276426
            ],
            [
              112.9973920866189,
              27.835332714679538
            ],
            [
              112.99693225054642,
              27.83573934382933
            ],
            [
              112.99669381702736,
              27.83537789577143
            ],
            [
              112.9963872596457,
              27.835272473194408
            ],
            [
              112.99613179516099,
              27.835182110904015
            ]
          ]
        ]
      },
      "properties": {
        "name": "新电社区",
        "type": "assistPolygon",
        "fill": "#9b59b6",
        "fill-opacity": 0.2,
        "stroke": "#9b59b6",
        "stroke-width": 2,
        "stroke-opacity": 0.8
      },
      "id": "assist_polygon_1773996157979"
    },
    {
      "type": "Feature",
      "geometry": {
        "type": "Point",
        "coordinates": [
          112.99526380570401,
          27.83516052865292
        ]
      },
      "properties": {
        "iconType": "default",
        "iconColor": "#e74c3c",
        "iconSize": 1,
        "text": "新电社区中心点",
        "textColor": "#333333",
        "type": "assistPoint",
        "name": "辅助点_1"
      },
      "id": "assist_point_1773996176655"
    }
  ],
  "properties": {
    "description": "GIS-APP 辅助要素导出",
    "exportTime": "2026/3/20 16:42:59",
    "assistElements": {
      "lines": 0,
      "polygons": 2,
      "texts": 0,
      "points": 1
    }
  }
}