{
  "type": "FeatureCollection",
  "features": [
    {
      "type": "Feature",
      "geometry": {
        "type": "Point",
        "coordinates": [
          112.83286471480012,
          27.892569435959118
        ]
      },
      "properties": {
        "iconType": "default",
        "iconColor": "#e74c3c",
        "iconSize": 1,
        "text": "新城村",
        "textColor": "#333333",
        "type": "assistPoint",
        "name": "辅助点_1",
        "isAssistFeature": true,
        "sourceFileName": "辅助要素_姜畲镇_新城村.geojson",
        "assistFileId": "assist_file_1773973340408_13"
      },
      "id": "assist_point_1773802676750_reimported_1773973340408"
    }
  ],
  "properties": {
    "fileName": "辅助要素_姜畲镇_新城村.geojson",
    "exportTime": "2026/3/20 10:34:49",
    "source": "GIS-APP 辅助元素导出"
  }
}