{
  "type": "FeatureCollection",
  "features": [
    {
      "type": "Feature",
      "geometry": {
        "type": "Point",
        "coordinates": [
          112.83684976726312,
          27.858387691283056
        ]
      },
      "properties": {
        "iconType": "default",
        "iconColor": "#e74c3c",
        "iconSize": 1,
        "text": "清亭村",
        "textColor": "#333333",
        "type": "assistPoint",
        "name": "辅助点_1",
        "isAssistFeature": true,
        "sourceFileName": "辅助要素_姜畲镇_青亭村.geojson",
        "assistFileId": "assist_file_1773973298071_7"
      },
      "id": "assist_point_1773798521428_reimported_1773973298071"
    }
  ],
  "properties": {
    "fileName": "辅助要素_姜畲镇_青亭村.geojson",
    "exportTime": "2026/3/20 10:34:42",
    "source": "GIS-APP 辅助元素导出"
  }
}