{
  "type": "FeatureCollection",
  "features": [
    {
      "type": "Feature",
      "geometry": {
        "type": "Point",
        "coordinates": [
          112.84049110483386,
          27.837310973508878
        ]
      },
      "properties": {
        "iconType": "default",
        "iconColor": "#e74c3c",
        "iconSize": 1,
        "text": "尚源新村",
        "textColor": "#333333",
        "type": "assistPoint",
        "name": "辅助点_1",
        "isAssistFeature": true,
        "sourceFileName": "辅助要素_姜畲镇_尚源新村.geojson",
        "assistFileId": "assist_file_1773973323451_10"
      },
      "id": "assist_point_1773801672733_reimported_1773973323452"
    }
  ],
  "properties": {
    "fileName": "辅助要素_姜畲镇_尚源新村.geojson",
    "exportTime": "2026/3/20 10:34:45",
    "source": "GIS-APP 辅助元素导出"
  }
}