{
  "type": "FeatureCollection",
  "features": [
    {
      "type": "Feature",
      "geometry": {
        "type": "Point",
        "coordinates": [
          112.81475816941327,
          27.976472443522027
        ]
      },
      "properties": {
        "iconType": "default",
        "iconColor": "#e74c3c",
        "iconSize": 1,
        "text": "群力村",
        "textColor": "#333333",
        "type": "assistPoint",
        "name": "辅助点_1",
        "isAssistFeature": true,
        "sourceFileName": "辅助要素_鹤岭镇_群力村.geojson",
        "assistFileId": "assist_file_1773974656295_13"
      },
      "id": "assist_imported_1773974656295_1"
    }
  ],
  "properties": {
    "fileName": "辅助要素_鹤岭镇_群力村.geojson",
    "exportTime": "2026/3/20 10:51:00",
    "source": "GIS-APP 辅助元素导出"
  }
}