{
  "type": "FeatureCollection",
  "features": [
    {
      "type": "Feature",
      "geometry": {
        "type": "Point",
        "coordinates": [
          112.74829451077669,
          27.93735169170411
        ]
      },
      "properties": {
        "iconType": "default",
        "iconColor": "#e74c3c",
        "iconSize": 1,
        "text": "仙女村",
        "textColor": "#333333",
        "type": "assistPoint",
        "name": "辅助点_1",
        "isAssistFeature": true,
        "sourceFileName": "辅助要素_鹤岭镇_仙女村.geojson",
        "assistFileId": "assist_file_1773974655089_1"
      },
      "id": "assist_imported_1773974655090_1"
    }
  ],
  "properties": {
    "fileName": "辅助要素_鹤岭镇_仙女村.geojson",
    "exportTime": "2026/3/20 10:50:45",
    "source": "GIS-APP 辅助元素导出"
  }
}