{
  "type": "FeatureCollection",
  "features": [
    {
      "type": "Feature",
      "geometry": {
        "type": "Point",
        "coordinates": [
          112.8345860713373,
          27.948500799423087
        ]
      },
      "properties": {
        "iconType": "default",
        "iconColor": "#e74c3c",
        "iconSize": 1,
        "text": "响塘村",
        "textColor": "#333333",
        "type": "assistPoint",
        "name": "辅助点_1",
        "isAssistFeature": true,
        "sourceFileName": "辅助要素_鹤岭镇_响塘村.geojson",
        "assistFileId": "assist_file_1773974655795_8"
      },
      "id": "assist_imported_1773974655796_1"
    }
  ],
  "properties": {
    "fileName": "辅助要素_鹤岭镇_响塘村.geojson",
    "exportTime": "2026/3/20 10:50:55",
    "source": "GIS-APP 辅助元素导出"
  }
}