{
  "type": "FeatureCollection",
  "features": [
    {
      "type": "Feature",
      "geometry": {
        "type": "Point",
        "coordinates": [
          112.93492386283428,
          27.853769362391148
        ]
      },
      "properties": {
        "iconType": "default",
        "iconColor": "#e74c3c",
        "iconSize": 1,
        "text": "宝塔社区",
        "textColor": "#333333",
        "assistFileId": "assist_file_default_1773905762171",
        "sourceFileName": "辅助元素_1.geojson",
        "type": "assistPoint",
        "name": "辅助点_1"
      },
      "id": "assist_point_1773905834178"
    }
  ],
  "properties": {
    "description": "GIS-APP 辅助要素导出",
    "exportTime": "2026/3/19 15:37:17",
    "assistElements": {
      "lines": 3,
      "polygons": 1,
      "texts": 0,
      "points": 1
    },
    "fileCount": 1
  }
}