{
  "type": "FeatureCollection",
  "features": [
    {
      "type": "Feature",
      "geometry": {
        "type": "Point",
        "coordinates": [
          112.82847462242015,
          27.909067958253374
        ]
      },
      "properties": {
        "iconType": "default",
        "iconColor": "#e74c3c",
        "iconSize": 1,
        "text": "塔岭村",
        "textColor": "#333333",
        "type": "assistPoint",
        "name": "辅助点_1",
        "isAssistFeature": true,
        "sourceFileName": "辅助要素_姜畲镇_塔岭村.geojson",
        "assistFileId": "assist_file_1773973333967_12"
      },
      "id": "assist_point_1773802341176_reimported_1773973333967"
    }
  ],
  "properties": {
    "fileName": "辅助要素_姜畲镇_塔岭村.geojson",
    "exportTime": "2026/3/20 10:34:48",
    "source": "GIS-APP 辅助元素导出"
  }
}