{
  "type": "FeatureCollection",
  "features": [
    {
      "type": "Feature",
      "geometry": {
        "type": "Point",
        "coordinates": [
          112.81419377759666,
          28.03700981496293
        ]
      },
      "properties": {
        "iconType": "default",
        "iconColor": "#e74c3c",
        "iconSize": 1,
        "text": "龙头岭村",
        "textColor": "#333333",
        "type": "assistPoint",
        "name": "辅助点_1",
        "isAssistFeature": true,
        "sourceFileName": "辅助要素_鹤岭镇_龙头岭村.geojson",
        "assistFileId": "assist_file_1773974656606_16"
      },
      "id": "assist_imported_1773974656607_1"
    }
  ],
  "properties": {
    "fileName": "辅助要素_鹤岭镇_龙头岭村.geojson",
    "exportTime": "2026/3/20 10:51:04",
    "source": "GIS-APP 辅助元素导出"
  }
}