{
  "type": "FeatureCollection",
  "features": [
    {
      "type": "Feature",
      "geometry": {
        "type": "Point",
        "coordinates": [
          112.76237846792435,
          27.954861766467843
        ]
      },
      "properties": {
        "iconType": "default",
        "iconColor": "#e74c3c",
        "iconSize": 1,
        "text": "关峰村",
        "textColor": "#333333",
        "type": "assistPoint",
        "name": "辅助点_1",
        "isAssistFeature": true,
        "sourceFileName": "辅助要素_鹤岭镇_关峰村.geojson",
        "assistFileId": "assist_file_1773974655190_2"
      },
      "id": "assist_imported_1773974655191_1"
    }
  ],
  "properties": {
    "fileName": "辅助要素_鹤岭镇_关峰村.geojson",
    "exportTime": "2026/3/20 10:50:47",
    "source": "GIS-APP 辅助元素导出"
  }
}