{
  "type": "FeatureCollection",
  "features": [
    {
      "type": "Feature",
      "geometry": {
        "type": "Point",
        "coordinates": [
          112.78923089009567,
          28.009877799487228
        ]
      },
      "properties": {
        "iconType": "default",
        "iconColor": "#e74c3c",
        "iconSize": 1,
        "text": "南谷村",
        "textColor": "#333333",
        "type": "assistPoint",
        "name": "辅助点_1",
        "isAssistFeature": true,
        "sourceFileName": "辅助要素_鹤岭镇_南谷村.geojson",
        "assistFileId": "assist_file_1773974655400_4"
      },
      "id": "assist_imported_1773974655401_1"
    }
  ],
  "properties": {
    "fileName": "辅助要素_鹤岭镇_南谷村.geojson",
    "exportTime": "2026/3/20 10:50:50",
    "source": "GIS-APP 辅助元素导出"
  }
}