{
  "type": "FeatureCollection",
  "features": [
    {
      "type": "Feature",
      "geometry": {
        "type": "Point",
        "coordinates": [
          112.7963450769098,
          28.062222082874285
        ]
      },
      "properties": {
        "iconType": "default",
        "iconColor": "#e74c3c",
        "iconSize": 1,
        "text": "晶鑫村",
        "textColor": "#333333",
        "type": "assistPoint",
        "name": "辅助点_1",
        "isAssistFeature": true,
        "sourceFileName": "辅助要素_鹤岭镇_晶鑫村.geojson",
        "assistFileId": "assist_file_1773974655992_10"
      },
      "id": "assist_imported_1773974655993_1"
    }
  ],
  "properties": {
    "fileName": "辅助要素_鹤岭镇_晶鑫村.geojson",
    "exportTime": "2026/3/20 10:50:57",
    "source": "GIS-APP 辅助元素导出"
  }
}