{
  "type": "FeatureCollection",
  "features": [
    {
      "type": "Feature",
      "geometry": {
        "type": "Point",
        "coordinates": [
          112.9145518844103,
          27.865074730081332
        ]
      },
      "properties": {
        "iconType": "default",
        "iconColor": "#e74c3c",
        "iconSize": 1,
        "text": "瞻岳门社区",
        "textColor": "#333333",
        "type": "assistPoint",
        "name": "辅助点_1"
      },
      "id": "assist_point_1773648454736"
    },
    {
      "type": "Feature",
      "geometry": {
        "type": "Point",
        "coordinates": [
          112.91906150624754,
          27.86666793283348
        ]
      },
      "properties": {
        "iconType": "default",
        "iconColor": "#e74c3c",
        "iconSize": 1,
        "text": "泗洲庵社区",
        "textColor": "#333333",
        "type": "assistPoint",
        "name": "辅助点_2"
      },
      "id": "assist_point_1773648908184"
    },
    {
      "type": "Feature",
      "geometry": {
        "type": "Point",
        "coordinates": [
          112.92216317116429,
          27.868229789032995
        ]
      },
      "properties": {
        "iconType": "default",
        "iconColor": "#e74c3c",
        "iconSize": 1,
        "text": "洗脚桥社区",
        "textColor": "#333333",
        "type": "assistPoint",
        "name": "辅助点_3"
      },
      "id": "assist_point_1773649045631"
    },
    {
      "type": "Feature",
      "geometry": {
        "type": "Point",
        "coordinates": [
          112.92568631049382,
          27.86874962867448
        ]
      },
      "properties": {
        "iconType": "default",
        "iconColor": "#e74c3c",
        "iconSize": 1,
        "text": "三义井社区",
        "textColor": "#333333",
        "type": "assistPoint",
        "name": "辅助点_4"
      },
      "id": "assist_point_1773649184752"
    },
    {
      "type": "Feature",
      "geometry": {
        "type": "Point",
        "coordinates": [
          112.92928817777305,
          27.87184548460931
        ]
      },
      "properties": {
        "iconType": "default",
        "iconColor": "#e74c3c",
        "iconSize": 1,
        "text": "三义井社区",
        "textColor": "#333333",
        "type": "assistPoint",
        "name": "辅助点_5"
      },
      "id": "assist_point_1773649188199"
    },
    {
      "type": "Feature",
      "geometry": {
        "type": "Point",
        "coordinates": [
          112.91330946090314,
          27.868613896382243
        ]
      },
      "properties": {
        "iconType": "default",
        "iconColor": "#e74c3c",
        "iconSize": 1,
        "text": "熙春路社区",
        "textColor": "#333333",
        "type": "assistPoint",
        "name": "辅助点_6"
      },
      "id": "assist_point_1773649733693"
    }
  ],
  "properties": {
    "description": "GIS-APP 辅助要素导出",
    "exportTime": "2026/3/16 16:29:36",
    "assistElements": {
      "lines": 11,
      "polygons": 6,
      "texts": 0,
      "points": 6
    }
  }
}