{
  "type": "FeatureCollection",
  "features": [
    {
      "type": "Feature",
      "geometry": {
        "type": "Point",
        "coordinates": [
          112.94793268477142,
          27.846523131087025
        ]
      },
      "properties": {
        "iconType": "default",
        "iconColor": "#e74c3c",
        "iconSize": 1,
        "text": "云盘社区",
        "textColor": "#333333",
        "assistFileId": "assist_file_default_1773904306414",
        "sourceFileName": "辅助元素_1.geojson",
        "type": "assistPoint",
        "name": "辅助点_1"
      },
      "id": "assist_point_1773904400247"
    }
  ],
  "properties": {
    "description": "GIS-APP 辅助要素导出",
    "exportTime": "2026/3/19 15:13:41",
    "assistElements": {
      "lines": 1,
      "polygons": 2,
      "texts": 0,
      "points": 1
    },
    "fileCount": 1
  }
}