{
  "type": "FeatureCollection",
  "features": [
    {
      "type": "Feature",
      "geometry": {
        "type": "Point",
        "coordinates": [
          112.78094949852849,
          27.85357817079266
        ]
      },
      "properties": {
        "iconType": "default",
        "iconColor": "#e74c3c",
        "iconSize": 1,
        "text": "姜畲村",
        "textColor": "#333333",
        "type": "assistPoint",
        "name": "辅助点_1",
        "isAssistFeature": true,
        "sourceFileName": "辅助要素_姜畲镇_姜畲村.geojson",
        "assistFileId": "assist_file_1773973277937_3"
      },
      "id": "assist_point_1773797060520_reimported_1773973277937"
    }
  ],
  "properties": {
    "fileName": "辅助要素_姜畲镇_姜畲村.geojson",
    "exportTime": "2026/3/20 10:34:38",
    "source": "GIS-APP 辅助元素导出"
  }
}