{
  "type": "FeatureCollection",
  "features": [
    {
      "type": "Feature",
      "geometry": {
        "type": "Point",
        "coordinates": [
          112.932530538443,
          27.815264234082306
        ]
      },
      "properties": {
        "iconType": "default",
        "iconColor": "#e74c3c",
        "iconSize": 1,
        "text": "飞机坪社区",
        "textColor": "#333333",
        "assistFileId": "assist_file_default_1773900417922",
        "sourceFileName": "辅助元素_1.geojson",
        "type": "assistPoint",
        "name": "辅助点_1"
      },
      "id": "assist_point_1773900482481"
    }
  ],
  "properties": {
    "description": "GIS-APP 辅助要素导出",
    "exportTime": "2026/3/19 14:08:05",
    "assistElements": {
      "lines": 4,
      "polygons": 1,
      "texts": 0,
      "points": 1
    },
    "fileCount": 1
  }
}