{
  "type": "FeatureCollection",
  "features": [
    {
      "type": "Feature",
      "geometry": {
        "type": "Point",
        "coordinates": [
          112.77827085805892,
          28.021447720758687
        ]
      },
      "properties": {
        "iconType": "default",
        "iconColor": "#e74c3c",
        "iconSize": 1,
        "text": "金侨村",
        "textColor": "#333333",
        "type": "assistPoint",
        "name": "辅助点_1",
        "isAssistFeature": true,
        "sourceFileName": "辅助要素_鹤岭镇_金侨村.geojson",
        "assistFileId": "assist_file_1773974656402_14"
      },
      "id": "assist_imported_1773974656403_1"
    }
  ],
  "properties": {
    "fileName": "辅助要素_鹤岭镇_金侨村.geojson",
    "exportTime": "2026/3/20 10:51:01",
    "source": "GIS-APP 辅助元素导出"
  }
}