{
  "type": "FeatureCollection",
  "features": [
    {
      "type": "Feature",
      "geometry": {
        "type": "Point",
        "coordinates": [
          112.78912565564809,
          27.97884663050209
        ]
      },
      "properties": {
        "iconType": "default",
        "iconColor": "#e74c3c",
        "iconSize": 1,
        "text": "向阳村",
        "textColor": "#333333",
        "type": "assistPoint",
        "name": "辅助点_1",
        "isAssistFeature": true,
        "sourceFileName": "辅助要素_鹤岭镇_向阳村.geojson",
        "assistFileId": "assist_file_1773974655700_7"
      },
      "id": "assist_imported_1773974655701_1"
    }
  ],
  "properties": {
    "fileName": "辅助要素_鹤岭镇_向阳村.geojson",
    "exportTime": "2026/3/20 10:50:54",
    "source": "GIS-APP 辅助元素导出"
  }
}