{
  "type": "FeatureCollection",
  "features": [
    {
      "type": "Feature",
      "geometry": {
        "type": "Point",
        "coordinates": [
          112.79797053953735,
          27.896591472943314
        ]
      },
      "properties": {
        "iconType": "default",
        "iconColor": "#e74c3c",
        "iconSize": 1,
        "text": "金马村",
        "textColor": "#333333",
        "type": "assistPoint",
        "name": "辅助点_1",
        "isAssistFeature": true,
        "sourceFileName": "辅助要素_姜畲镇_金马村.geojson",
        "assistFileId": "assist_file_1773973286996_5"
      },
      "id": "assist_point_1773797401844_reimported_1773973286997"
    }
  ],
  "properties": {
    "fileName": "辅助要素_姜畲镇_金马村.geojson",
    "exportTime": "2026/3/20 10:34:40",
    "source": "GIS-APP 辅助元素导出"
  }
}