{
  "type": "FeatureCollection",
  "features": [
    {
      "type": "Feature",
      "geometry": {
        "type": "Point",
        "coordinates": [
          112.84023952798954,
          27.960660117640472
        ]
      },
      "properties": {
        "iconType": "default",
        "iconColor": "#e74c3c",
        "iconSize": 1,
        "text": "长安村",
        "textColor": "#333333",
        "type": "assistPoint",
        "name": "辅助点_1",
        "isAssistFeature": true,
        "sourceFileName": "辅助要素_鹤岭镇_长安村.geojson",
        "assistFileId": "assist_file_1773974656496_15"
      },
      "id": "assist_imported_1773974656496_1"
    }
  ],
  "properties": {
    "fileName": "辅助要素_鹤岭镇_长安村.geojson",
    "exportTime": "2026/3/20 10:51:03",
    "source": "GIS-APP 辅助元素导出"
  }
}