{
  "type": "FeatureCollection",
  "features": [
    {
      "type": "Feature",
      "geometry": {
        "type": "Polygon",
        "coordinates": [
          [
            [
              112.95152218006389,
              27.841104747445556
            ],
            [
              112.96066644617703,
              27.841271121436435
            ],
            [
              112.96115564559872,
              27.836679105627297
            ],
            [
              112.96141906067193,
              27.835847197911406
            ],
            [
              112.96190826009364,
              27.834948730414254
            ],
            [
              112.96266087458854,
              27.83418336334516
            ],
            [
              112.96375216560615,
              27.832885554673155
            ],
            [
              112.96454241082579,
              27.831654285944666
            ],
            [
              112.96533265604545,
              27.83065594969345
            ],
            [
              112.96567133256816,
              27.82959104756992
            ],
            [
              112.96484345662375,
              27.82819334767646
            ],
            [
              112.9641284728536,
              27.827261537748285
            ],
            [
              112.96273613603802,
              27.824998537477484
            ],
            [
              112.96010198530583,
              27.821836913989443
            ],
            [
              112.95833334124279,
              27.81974020763883
            ],
            [
              112.95694100442722,
              27.818408944496895
            ],
            [
              112.95622602065704,
              27.817776588786856
            ],
            [
              112.95483368384147,
              27.817743306805383
            ],
            [
              112.95272636325575,
              27.817876434670097
            ],
            [
              112.95197374876084,
              27.81790971661077
            ],
            [
              112.9517103336876,
              27.818575353282228
            ],
            [
              112.9517103336876,
              27.819573800638707
            ],
            [
              112.95167270296287,
              27.82190347543269
            ],
            [
              112.95155981078865,
              27.82549773276925
            ],
            [
              112.95155981078865,
              27.828259905222353
            ],
            [
              112.95155981078865,
              27.83222000574382
            ],
            [
              112.95144691861441,
              27.835947027174115
            ],
            [
              112.95133402644016,
              27.839041688760304
            ],
            [
              112.95152218006389,
              27.841104747445556
            ]
          ]
        ]
      },
      "properties": {
        "name": "吉安路社区",
        "type": "assistPolygon",
        "fill": "#c0392b",
        "fill-opacity": 0.4,
        "stroke": "#c0392b",
        "stroke-opacity": 1,
        "stroke-width": 3
      },
      "id": "assist_polygon_1773905459076"
    },
    {
      "type": "Feature",
      "geometry": {
        "type": "Point",
        "coordinates": [
          112.95663995862928,
          27.82992383060592
        ]
      },
      "properties": {
        "iconType": "default",
        "iconColor": "#e74c3c",
        "iconSize": 1,
        "text": "吉安路社区中心点",
        "textColor": "#333333",
        "type": "assistPoint",
        "name": "辅助点_1"
      },
      "id": "assist_point_1773905502585"
    }
  ],
  "properties": {
    "description": "GIS-APP 辅助要素导出",
    "exportTime": "2026/3/19 15:31:46",
    "assistElements": {
      "lines": 0,
      "polygons": 1,
      "texts": 0,
      "points": 1
    }
  }
}