{
  "type": "FeatureCollection",
  "features": [
    {
      "type": "Feature",
      "geometry": {
        "type": "Polygon",
        "coordinates": [
          [
            [
              112.98784812886429,
              27.815386722464368
            ],
            [
              112.98365624581878,
              27.81459788240052
            ],
            [
              112.97768058275393,
              27.813927363841188
            ],
            [
              112.97393464471327,
              27.813690709243645
            ],
            [
              112.97371167221084,
              27.814440113700144
            ],
            [
              112.97393464471327,
              27.81518951298557
            ],
            [
              112.97464815672102,
              27.815544489789588
            ],
            [
              112.97464815672102,
              27.81645164746162
            ],
            [
              112.976119775237,
              27.816767178788638
            ],
            [
              112.97763598825344,
              27.818660347497655
            ],
            [
              112.9783049057607,
              27.81972524039176
            ],
            [
              112.97973192977618,
              27.820632363138117
            ],
            [
              112.98093598128925,
              27.82228882859748
            ],
            [
              112.98129273729312,
              27.824734040942303
            ],
            [
              112.98089138678877,
              27.826982010150445
            ],
            [
              112.98049003628442,
              27.828204570351176
            ],
            [
              112.9810697647907,
              27.829900356864357
            ],
            [
              112.98205084380136,
              27.831674988796237
            ],
            [
              112.98294273381104,
              27.832148219077183
            ],
            [
              112.98396840732217,
              27.831911604194644
            ],
            [
              112.98459273032893,
              27.830925703297794
            ],
            [
              112.98463732482941,
              27.83025528557218
            ],
            [
              112.98561840384006,
              27.830570776782466
            ],
            [
              112.98637651034828,
              27.829584863705236
            ],
            [
              112.98655488835021,
              27.82859894167207
            ],
            [
              112.98704542785556,
              27.82828344472999
            ],
            [
              112.98784812886429,
              27.82828344472999
            ],
            [
              112.98869542437346,
              27.827415823410746
            ],
            [
              112.99003325938799,
              27.826982010150445
            ],
            [
              112.99154947240444,
              27.827534135817203
            ],
            [
              112.99346703592526,
              27.82599606447465
            ],
            [
              112.99373460292814,
              27.82544393098459
            ],
            [
              112.99431433143445,
              27.82568055996704
            ],
            [
              112.99520622144414,
              27.823984707528098
            ],
            [
              112.99614270595428,
              27.823708636019077
            ],
            [
              112.99623189495526,
              27.82228882859748
            ],
            [
              112.99868459248188,
              27.822564903717023
            ],
            [
              112.99984404949447,
              27.822564903717023
            ],
            [
              113.00033458899979,
              27.821539478305766
            ],
            [
              112.99993323849543,
              27.821421159365855
            ],
            [
              112.9994872934906,
              27.821145081338003
            ],
            [
              112.99792648597364,
              27.819883001413757
            ],
            [
              112.99440352043541,
              27.817674326246944
            ],
            [
              112.99101433839864,
              27.816333322977627
            ],
            [
              112.98784812886429,
              27.815386722464368
            ]
          ]
        ]
      },
      "properties": {
        "name": "国强社区",
        "type": "assistPolygon",
        "fill": "#9b59b6",
        "fill-opacity": 0.2,
        "stroke": "#9b59b6",
        "stroke-width": 2,
        "stroke-opacity": 0.8
      },
      "id": "assist_polygon_1773904078809"
    },
    {
      "type": "Feature",
      "geometry": {
        "type": "Point",
        "coordinates": [
          112.98588597084297,
          27.822249389237385
        ]
      },
      "properties": {
        "iconType": "default",
        "iconColor": "#e74c3c",
        "iconSize": 1,
        "text": "国强社区中心点",
        "textColor": "#333333",
        "type": "assistPoint",
        "name": "辅助点_1"
      },
      "id": "assist_point_1773904149696"
    }
  ],
  "properties": {
    "description": "GIS-APP 辅助要素导出",
    "exportTime": "2026/3/19 15:09:16",
    "assistElements": {
      "lines": 0,
      "polygons": 1,
      "texts": 0,
      "points": 1
    }
  }
}