{
  "type": "FeatureCollection",
  "features": [
    {
      "type": "Feature",
      "geometry": {
        "type": "LineString",
        "coordinates": [
          [
            112.92036864810177,
            27.827870753808043
          ],
          [
            112.92405936770626,
            27.822898881250268
          ]
        ]
      },
      "properties": {
        "type": "assistLine",
        "name": "辅助线_1",
        "stroke": "#e74c3c",
        "stroke-width": 2,
        "stroke-opacity": 0.8,
        "stroke-dasharray": "5,5",
        "isAssistFeature": true,
        "sourceFileName": "辅助要素_五爱村.geojson"
      },
      "id": "assist_imported_1773908204683_1_reimported_1773913323120"
    },
    {
      "type": "Feature",
      "geometry": {
        "type": "Polygon",
        "coordinates": [
          [
            [
              112.97827265856446,
              27.888576067735514
            ],
            [
              112.98686176899247,
              27.893220805240873
            ],
            [
              112.98776588587964,
              27.892921150770604
            ],
            [
              112.988443973545,
              27.89317086288679
            ],
            [
              112.99047823654112,
              27.89372022751462
            ],
            [
              112.98330180874929,
              27.88273240524684
            ],
            [
              112.98313228683294,
              27.88053470698496
            ],
            [
              112.98160658958588,
              27.877487824259248
            ],
            [
              112.98239769186213,
              27.875539772353676
            ],
            [
              112.98273673569483,
              27.873591685414794
            ],
            [
              112.98256721377848,
              27.87209313316204
            ],
            [
              112.98290625761116,
              27.87049465457882
            ],
            [
              112.98273673569483,
              27.869845265917988
            ],
            [
              112.98194563341856,
              27.86999512518517
            ],
            [
              112.98126754575318,
              27.870744418412045
            ],
            [
              112.97957232658976,
              27.870844323784084
            ],
            [
              112.97917677545163,
              27.871144039347556
            ],
            [
              112.97872471700806,
              27.870694465691443
            ],
            [
              112.97827265856446,
              27.870194937218983
            ],
            [
              112.97821615125903,
              27.871044134251846
            ],
            [
              112.97776409281546,
              27.870844323784084
            ],
            [
              112.9772555270664,
              27.871243944351136
            ],
            [
              112.9762949028738,
              27.871044134251846
            ],
            [
              112.97584284443023,
              27.87159361113818
            ],
            [
              112.97584284443023,
              27.872242989320085
            ],
            [
              112.97561681520845,
              27.872642604728185
            ],
            [
              112.97397810335046,
              27.874041247048538
            ],
            [
              112.9724524061034,
              27.873192073507497
            ],
            [
              112.97171781113259,
              27.87249274912287
            ],
            [
              112.97120924538356,
              27.87279246012622
            ],
            [
              112.97103972346721,
              27.87354173400699
            ],
            [
              112.97002259196915,
              27.873791490815663
            ],
            [
              112.96985307005282,
              27.874340953767913
            ],
            [
              112.96917498238744,
              27.874540757786846
            ],
            [
              112.9690054604711,
              27.875140167632523
            ],
            [
              112.96945751891468,
              27.875589722840175
            ],
            [
              112.9690054604711,
              27.87588942527546
            ],
            [
              112.96838388011119,
              27.875439871311585
            ],
            [
              112.9679318216676,
              27.875689623744066
            ],
            [
              112.96883593855476,
              27.876089226438296
            ],
            [
              112.96974005544193,
              27.876888427404367
            ],
            [
              112.96951402622012,
              27.877437874648024
            ],
            [
              112.97030512849639,
              27.877737571969817
            ],
            [
              112.9701921138855,
              27.879285994922157
            ],
            [
              112.97476920562674,
              27.879485789819697
            ],
            [
              112.97471269832128,
              27.88048475877889
            ],
            [
              112.96877943124933,
              27.880185069058612
            ],
            [
              112.9679318216676,
              27.87968558434865
            ],
            [
              112.97013560658004,
              27.88268245805436
            ],
            [
              112.97301747915786,
              27.88532962751033
            ],
            [
              112.97827265856446,
              27.883231875904656
            ],
            [
              112.97844218048081,
              27.884580435173476
            ],
            [
              112.97776409281546,
              27.885229735498257
            ],
            [
              112.97770758551,
              27.886428433561022
            ],
            [
              112.97799012203724,
              27.88712766796928
            ],
            [
              112.97776409281546,
              27.888076621729056
            ],
            [
              112.97827265856446,
              27.888576067735514
            ]
          ]
        ]
      },
      "properties": {
        "name": "五爱村",
        "type": "assistPolygon",
        "fill": "#9b59b6",
        "fill-opacity": 0.2,
        "stroke": "#9b59b6",
        "stroke-width": 2,
        "stroke-opacity": 0.8,
        "isAssistFeature": true,
        "sourceFileName": "辅助要素_五爱村.geojson"
      },
      "id": "assist_polygon_1773912578828_reimported_1773913323122"
    },
    {
      "type": "Feature",
      "geometry": {
        "type": "Point",
        "coordinates": [
          112.97962883389522,
          27.88268245805436
        ]
      },
      "properties": {
        "iconType": "default",
        "iconColor": "#e74c3c",
        "iconSize": 1,
        "text": "五爱村中心点",
        "textColor": "#333333",
        "type": "assistPoint",
        "name": "辅助点_1",
        "isAssistFeature": true,
        "sourceFileName": "辅助要素_五爱村.geojson"
      },
      "id": "assist_point_1773912732170_reimported_1773913323122"
    }
  ],
  "properties": {
    "description": "GIS-APP 辅助要素导出",
    "exportTime": "2026/3/19 17:42:38",
    "assistElements": {
      "lines": 1,
      "polygons": 1,
      "texts": 0,
      "points": 1
    }
  }
}