{
  "type": "FeatureCollection",
  "features": [
    {
      "type": "Feature",
      "geometry": {
        "type": "Polygon",
        "coordinates": [
          [
            [
              112.93651834379786,
              27.831992373578117
            ],
            [
              112.93673721520415,
              27.83018990138281
            ],
            [
              112.93712024016514,
              27.827129259221024
            ],
            [
              112.93714759909093,
              27.826935697921883
            ],
            [
              112.93588908850481,
              27.826790526721027
            ],
            [
              112.93632803924913,
              27.823905153305006
            ],
            [
              112.93648315463837,
              27.82323448403558
            ],
            [
              112.93668997515736,
              27.82302870967912
            ],
            [
              112.93778118292633,
              27.823002392810793
            ],
            [
              112.93801044822382,
              27.822032033328853
            ],
            [
              112.93794494385317,
              27.82042440375757
            ],
            [
              112.93781393511176,
              27.818396728912774
            ],
            [
              112.94298878039788,
              27.818164992233832
            ],
            [
              112.94578909224568,
              27.81804912370889
            ],
            [
              112.95127508329264,
              27.817904287878847
            ],
            [
              112.95120957892196,
              27.818338794789383
            ],
            [
              112.95109494627323,
              27.827796131044593
            ],
            [
              112.95096783171496,
              27.833605760057665
            ],
            [
              112.94262821245577,
              27.83268953267398
            ],
            [
              112.9365622327952,
              27.83206917716791
            ],
            [
              112.93651834379786,
              27.831992373578117
            ]
          ]
        ]
      },
      "properties": {
        "name": "华金社区",
        "type": "assistPolygon",
        "fill": "#9b59b6",
        "fill-opacity": 0.2,
        "stroke": "#9b59b6",
        "stroke-width": 2,
        "stroke-opacity": 0.8
      },
      "id": "assist_polygon_1773904602653"
    },
    {
      "type": "Feature",
      "geometry": {
        "type": "Point",
        "coordinates": [
          112.94449418641851,
          27.825190567237016
        ]
      },
      "properties": {
        "iconType": "default",
        "iconColor": "#e74c3c",
        "iconSize": 1,
        "text": "华金社区中心点",
        "textColor": "#333333",
        "type": "assistPoint",
        "name": "辅助点_1"
      },
      "id": "assist_point_1773904668537"
    }
  ],
  "properties": {
    "description": "GIS-APP 辅助要素导出",
    "exportTime": "2026/3/19 15:17:52",
    "assistElements": {
      "lines": 0,
      "polygons": 1,
      "texts": 0,
      "points": 1
    }
  }
}