{
  "type": "FeatureCollection",
  "features": [
    {
      "type": "Feature",
      "geometry": {
        "type": "Polygon",
        "coordinates": [
          [
            [
              112.96258150018872,
              27.900652560571146
            ],
            [
              112.9762729122167,
              27.89470857383617
            ],
            [
              112.98908359013762,
              27.900794080085703
            ],
            [
              112.98484005307631,
              27.91501584720193
            ],
            [
              112.98612112086839,
              27.916572344998713
            ],
            [
              112.99052479140373,
              27.920109756671422
            ],
            [
              112.99284672677689,
              27.922798112142885
            ],
            [
              112.98171745033311,
              27.92293960268435
            ],
            [
              112.9749117776876,
              27.922656621416223
            ],
            [
              112.9705881738893,
              27.917633580651625
            ],
            [
              112.9679459715681,
              27.913742332341386
            ],
            [
              112.96514363577289,
              27.90893114086775
            ],
            [
              112.96330210082178,
              27.903482915696372
            ],
            [
              112.96258150018872,
              27.900652560571146
            ]
          ]
        ]
      },
      "properties": {
        "name": "商城社区",
        "type": "assistPolygon",
        "fill": "#9b59b6",
        "fill-opacity": 0.2,
        "stroke": "#9b59b6",
        "stroke-width": 2,
        "stroke-opacity": 0.8
      },
      "id": "assist_polygon_1773995217149"
    },
    {
      "type": "Feature",
      "geometry": {
        "type": "Polygon",
        "coordinates": [
          [
            [
              112.9796225802488,
              27.835807835320608
            ],
            [
              112.9780935848119,
              27.83668668008663
            ],
            [
              112.97679393869053,
              27.83776832541129
            ],
            [
              112.97541784279734,
              27.838714756224846
            ],
            [
              112.97511204370996,
              27.841351198528315
            ],
            [
              112.97610589074395,
              27.84026958892383
            ],
            [
              112.97664103914686,
              27.841621599244434
            ],
            [
              112.97908743184588,
              27.84013438696506
            ],
            [
              112.980004829108,
              27.841215997917487
            ],
            [
              112.98260412135075,
              27.839593577444916
            ],
            [
              112.98359796838473,
              27.840877995653287
            ],
            [
              112.98420956655949,
              27.84263559592698
            ],
            [
              112.98558566245269,
              27.841215997917487
            ],
            [
              112.98573856199636,
              27.842703195368813
            ],
            [
              112.9868088588022,
              27.84297359271484
            ],
            [
              112.9871911076614,
              27.84189199928653
            ],
            [
              112.98864365332646,
              27.841215997917487
            ],
            [
              112.98986684967598,
              27.84053999233595
            ],
            [
              112.98986684967598,
              27.839593577444916
            ],
            [
              112.99078424693812,
              27.83932317167387
            ],
            [
              112.99078424693812,
              27.83817393962802
            ],
            [
              112.99200744328763,
              27.837903530318698
            ],
            [
              112.99292484054975,
              27.83695709242869
            ],
            [
              112.99376578804005,
              27.83749791509102
            ],
            [
              112.99437738621482,
              27.8362810603099
            ],
            [
              112.99514188393326,
              27.835402212258558
            ],
            [
              112.99628863051092,
              27.83499658768018
            ],
            [
              112.99720602777306,
              27.833982519600596
            ],
            [
              112.99965242047207,
              27.83235999096223
            ],
            [
              113.00072271727791,
              27.832833230987717
            ],
            [
              113.0020988131711,
              27.836078249852946
            ],
            [
              113.00431585655461,
              27.835740231582236
            ],
            [
              113.00607420130702,
              27.836754283235322
            ],
            [
              113.0063800003944,
              27.839525976065346
            ],
            [
              113.00813834514685,
              27.84060759308369
            ],
            [
              113.00882639309343,
              27.841553999128593
            ],
            [
              113.01058473784586,
              27.841824399339217
            ],
            [
              113.00959089081186,
              27.84297359271484
            ],
            [
              113.00890284286528,
              27.844393167723155
            ],
            [
              113.00882639309343,
              27.845204345100797
            ],
            [
              113.00775609628761,
              27.84655629391561
            ],
            [
              113.00852059400606,
              27.84682668165631
            ],
            [
              113.01020248898662,
              27.845271942941793
            ],
            [
              113.01142568533615,
              27.845136747217737
            ],
            [
              113.01264888168566,
              27.845001551325154
            ],
            [
              113.01127278579247,
              27.843919978117952
            ],
            [
              113.01272533145752,
              27.843176390282025
            ],
            [
              113.01264888168566,
              27.84243279734875
            ],
            [
              113.01517172415653,
              27.84202719905487
            ],
            [
              113.0160126716468,
              27.84128359824396
            ],
            [
              113.01685361913712,
              27.84053999233595
            ],
            [
              113.018382614574,
              27.840472391546115
            ],
            [
              113.02021740909828,
              27.839796381330885
            ],
            [
              113.02098190681671,
              27.839052765228857
            ],
            [
              113.01715941822451,
              27.83668668008663
            ],
            [
              113.01364272871963,
              27.834590961585548
            ],
            [
              113.00936154149633,
              27.832833230987717
            ],
            [
              113.00622710085072,
              27.82945289981744
            ],
            [
              113.00385715792353,
              27.825261142949984
            ],
            [
              113.00255751180218,
              27.82384131763476
            ],
            [
              113.00087561682159,
              27.822218637393547
            ],
            [
              112.99842922412257,
              27.82390892878516
            ],
            [
              112.99613573096721,
              27.823976539893422
            ],
            [
              112.9949125346177,
              27.825328753216098
            ],
            [
              112.99376578804005,
              27.826816168416627
            ],
            [
              112.99200744328763,
              27.82850638822265
            ],
            [
              112.98986684967598,
              27.828235954822375
            ],
            [
              112.98734400720508,
              27.829655722656724
            ],
            [
              112.98619726062745,
              27.8315487175459
            ],
            [
              112.98482116473423,
              27.83181914269187
            ],
            [
              112.98436246610315,
              27.832968442044518
            ],
            [
              112.98275702089443,
              27.833306468949473
            ],
            [
              112.98061642728278,
              27.834388147969634
            ],
            [
              112.9796225802488,
              27.835807835320608
            ]
          ]
        ]
      },
      "properties": {
        "name": "象形社区",
        "type": "assistPolygon",
        "fill": "#9b59b6",
        "fill-opacity": 0.2,
        "stroke": "#9b59b6",
        "stroke-width": 2,
        "stroke-opacity": 0.8
      },
      "id": "assist_polygon_1773995768446"
    },
    {
      "type": "Feature",
      "geometry": {
        "type": "Point",
        "coordinates": [
          112.97651311242772,
          27.910699986139164
        ]
      },
      "properties": {
        "iconType": "default",
        "iconColor": "#e74c3c",
        "iconSize": 1,
        "text": "商城社区中心点",
        "textColor": "#333333",
        "type": "assistPoint",
        "name": "辅助点_1"
      },
      "id": "assist_point_1773995241124"
    },
    {
      "type": "Feature",
      "geometry": {
        "type": "Point",
        "coordinates": [
          112.996747329142,
          27.830669831167825
        ]
      },
      "properties": {
        "iconType": "default",
        "iconColor": "#e74c3c",
        "iconSize": 1,
        "text": "象形社区中心点",
        "textColor": "#333333",
        "type": "assistPoint",
        "name": "辅助点_2"
      },
      "id": "assist_point_1773995886485"
    }
  ],
  "properties": {
    "description": "GIS-APP 辅助要素导出",
    "exportTime": "2026/3/20 16:38:12",
    "assistElements": {
      "lines": 0,
      "polygons": 2,
      "texts": 0,
      "points": 2
    }
  }
}