{
  "type": "FeatureCollection",
  "features": [
    {
      "type": "Feature",
      "geometry": {
        "type": "Polygon",
        "coordinates": [
          [
            [
              112.9896822217479,
              27.9195273753204
            ],
            [
              112.98956933542539,
              27.91922813377664
            ],
            [
              112.98996443755422,
              27.91823065598288
            ],
            [
              112.98951289226412,
              27.91743266712271
            ],
            [
              112.99081108497316,
              27.91838027823856
            ],
            [
              112.99244793664981,
              27.91887901759553
            ],
            [
              112.99340747039126,
              27.91897876519087
            ],
            [
              112.99267370929483,
              27.91613592266492
            ],
            [
              112.99335102722999,
              27.916983795800917
            ],
            [
              112.9942541178102,
              27.917382792623414
            ],
            [
              112.99515720839041,
              27.918180781851675
            ],
            [
              112.99656828742198,
              27.91932788104991
            ],
            [
              112.9966811737445,
              27.920574714201692
            ],
            [
              112.99809225277608,
              27.920923824907604
            ],
            [
              112.99905178651754,
              27.92112331623342
            ],
            [
              113.00006776342028,
              27.920375221863623
            ],
            [
              113.00085796767796,
              27.92032534872159
            ],
            [
              113.00023709290407,
              27.91922813377664
            ],
            [
              113.00074508135543,
              27.91848002629399
            ],
            [
              112.99995487709775,
              27.917532416052282
            ],
            [
              113.00091441083923,
              27.91688404636527
            ],
            [
              113.00209971722576,
              27.916933921094596
            ],
            [
              113.0027770351609,
              27.916185797739317
            ],
            [
              113.00317213728977,
              27.9152880428811
            ],
            [
              113.00294636464467,
              27.914639659737333
            ],
            [
              113.00317213728977,
              27.913891520510276
            ],
            [
              113.00159172877437,
              27.91334288178784
            ],
            [
              113.00255126251585,
              27.912195719101945
            ],
            [
              113.00554275006277,
              27.91339275815035
            ],
            [
              113.00514764793392,
              27.910699401660807
            ],
            [
              113.00255126251585,
              27.906110565768486
            ],
            [
              113.00023709290407,
              27.906060686048036
            ],
            [
              112.99916467284007,
              27.906559482217432
            ],
            [
              112.99713271903462,
              27.906359964025654
            ],
            [
              112.99515720839041,
              27.90601080630462
            ],
            [
              112.99447989045525,
              27.906509602703963
            ],
            [
              112.99289948193987,
              27.905711527361134
            ],
            [
              112.99335102722999,
              27.90511296699046
            ],
            [
              112.99261726613358,
              27.904713924903575
            ],
            [
              112.99261726613358,
              27.904065478373354
            ],
            [
              112.99131907342453,
              27.90246928574166
            ],
            [
              112.99069819865063,
              27.900972833763603
            ],
            [
              112.98962577858666,
              27.90147165338911
            ],
            [
              112.98838402903885,
              27.900873069562564
            ],
            [
              112.98753738161992,
              27.901621298828374
            ],
            [
              112.98640851839467,
              27.901371889647976
            ],
            [
              112.98652140471717,
              27.90246928574166
            ],
            [
              112.98765026794244,
              27.902968098468605
            ],
            [
              112.98855335852265,
              27.90207023390441
            ],
            [
              112.98872268800645,
              27.90301797961483
            ],
            [
              112.98793248374876,
              27.903816074826864
            ],
            [
              112.9874244952974,
              27.904314881344888
            ],
            [
              112.98657784787844,
              27.903516789812244
            ],
            [
              112.9852796551694,
              27.903865955582162
            ],
            [
              112.98183662233235,
              27.90391583631444
            ],
            [
              112.98161084968733,
              27.9029182172994
            ],
            [
              112.98076420226836,
              27.903067860738062
            ],
            [
              112.98048198646205,
              27.904065478373354
            ],
            [
              112.98161084968733,
              27.90466404453923
            ],
            [
              112.98251394026751,
              27.90491344613099
            ],
            [
              112.9839250192991,
              27.90446452285188
            ],
            [
              112.98544898465319,
              27.904414642372558
            ],
            [
              112.98612630258835,
              27.904564283741536
            ],
            [
              112.98567475729823,
              27.905063086810074
            ],
            [
              112.98465878039549,
              27.90521272728219
            ],
            [
              112.9839250192991,
              27.906609361707865
            ],
            [
              112.98352991717024,
              27.907457309526833
            ],
            [
              112.98426367826666,
              27.90790622038726
            ],
            [
              112.98240105394501,
              27.90760694668728
            ],
            [
              112.9828525992351,
              27.90805585692675
            ],
            [
              112.98240105394501,
              27.90870427953942
            ],
            [
              112.9833041445252,
              27.909651967135474
            ],
            [
              112.98251394026751,
              27.910450013408123
            ],
            [
              112.98098997491341,
              27.91084903433645
            ],
            [
              112.98251394026751,
              27.91239522653005
            ],
            [
              112.98019977065573,
              27.911297931121297
            ],
            [
              112.97980466852691,
              27.91179670314169
            ],
            [
              112.97794204420521,
              27.910998666805057
            ],
            [
              112.97732116943132,
              27.912295472862
            ],
            [
              112.97912735059174,
              27.91269448698219
            ],
            [
              112.97969178220438,
              27.913193252562337
            ],
            [
              112.98031265697827,
              27.912494980106104
            ],
            [
              112.9805384296233,
              27.91334288178784
            ],
            [
              112.98189306549362,
              27.913741892043802
            ],
            [
              112.98172373600983,
              27.914440156449487
            ],
            [
              112.98183662233235,
              27.91543766920833
            ],
            [
              112.98070775910712,
              27.914938913979043
            ],
            [
              112.98019977065573,
              27.91473941124326
            ],
            [
              112.9799739980107,
              27.913841644377797
            ],
            [
              112.97952245272059,
              27.914490032305963
            ],
            [
              112.97845003265658,
              27.914490032305963
            ],
            [
              112.9776598283989,
              27.914839162657145
            ],
            [
              112.97856291897911,
              27.915886546947988
            ],
            [
              112.97963533904311,
              27.916584797506218
            ],
            [
              112.97974822536563,
              27.916285547819058
            ],
            [
              112.98048198646205,
              27.916784296837605
            ],
            [
              112.9814979633648,
              27.916784296837605
            ],
            [
              112.98194950865489,
              27.91743266712271
            ],
            [
              112.9828525992351,
              27.917382792623414
            ],
            [
              112.98369924665404,
              27.917731913635365
            ],
            [
              112.9833041445252,
              27.91852990028721
            ],
            [
              112.98539254149193,
              27.91932788104991
            ],
            [
              112.98674717736223,
              27.919876489408082
            ],
            [
              112.98748093845865,
              27.9195273753204
            ],
            [
              112.98714227949108,
              27.91897876519087
            ],
            [
              112.98877913116769,
              27.919178260105483
            ],
            [
              112.9896822217479,
              27.9195273753204
            ]
          ]
        ]
      },
      "properties": {
        "name": "金群村",
        "type": "assistPolygon",
        "fill": "#9b59b6",
        "fill-opacity": 0.2,
        "stroke": "#9b59b6",
        "stroke-width": 2,
        "stroke-opacity": 0.8
      },
      "id": "assist_polygon_1773916047844"
    },
    {
      "type": "Feature",
      "geometry": {
        "type": "Point",
        "coordinates": [
          112.9930688114237,
          27.912245595993483
        ]
      },
      "properties": {
        "iconType": "default",
        "iconColor": "#e74c3c",
        "iconSize": 1,
        "text": "金群村中心点",
        "textColor": "#333333",
        "type": "assistPoint",
        "name": "辅助点_1"
      },
      "id": "assist_point_1773916138778"
    }
  ],
  "properties": {
    "description": "GIS-APP 辅助要素导出",
    "exportTime": "2026/3/19 18:29:03",
    "assistElements": {
      "lines": 0,
      "polygons": 1,
      "texts": 0,
      "points": 1
    }
  }
}