{
  "type": "FeatureCollection",
  "features": [
    {
      "type": "Feature",
      "geometry": {
        "type": "Point",
        "coordinates": [
          112.86555369061965,
          27.966756245820022
        ]
      },
      "properties": {
        "iconType": "default",
        "iconColor": "#e74c3c",
        "iconSize": 1,
		"text": "砂塘村",
        "assistFileId": "assist_layer_default",
        "sourceFileName": "辅助元素图层",
        "type": "assistPoint"
      },
      "id": "assist_point_1774168693757"
    }
  ],
  "properties": {
    "fileName": "辅助元素图层",
    "exportTime": "2026/3/22 16:38:19",
    "source": "GIS-APP 辅助元素导出"
  }
}