{
  "type": "FeatureCollection",
  "features": [
    {
      "type": "Feature",
      "geometry": {
        "type": "Point",
        "coordinates": [
          112.8825845366213,
          27.882455756751995
        ]
      },
      "properties": {
        "iconType": "default",
        "iconColor": "#e74c3c",
        "iconSize": 1,
        "text": "中心村",
        "textColor": "#333333",
        "assistFileId": "assist_file_default_1774016939137",
        "sourceFileName": "辅助元素_1.geojson",
        "type": "assistPoint",
        "name": "辅助点_1"
      },
      "id": "assist_point_1774017985396"
    }
  ],
  "properties": {
    "description": "GIS-APP 辅助要素导出",
    "exportTime": "2026/3/20 22:46:45",
    "assistElements": {
      "lines": 1,
      "polygons": 2,
      "texts": 0,
      "points": 1
    },
    "fileCount": 1
  }
}