{
  "type": "FeatureCollection",
  "features": [
    {
      "type": "Feature",
      "geometry": {
        "type": "Point",
        "coordinates": [
          112.86605085037856,
          27.87552813981219
        ]
      },
      "properties": {
        "iconType": "default",
        "iconColor": "#e74c3c",
        "iconSize": 1,
        "text": "先锋村",
        "textColor": "#333333",
        "type": "assistPoint",
        "name": "辅助点_1",
        "isAssistFeature": true,
        "sourceFileName": "辅助要素_2026-03-18T10-24-00.geojson"
      },
      "id": "assist_point_1773829417600_reimported_1773829462215"
    }
  ],
  "properties": {
    "description": "GIS-APP 辅助要素导出",
    "exportTime": "2026/3/18 18:24:50",
    "assistElements": {
      "lines": 2,
      "polygons": 1,
      "texts": 0,
      "points": 1
    }
  }
}