{
  "type": "FeatureCollection",
  "features": [
    {
      "type": "Feature",
      "geometry": {
        "type": "LineString",
        "coordinates": [
          [
            112.9876036860629,
            27.85789041898566
          ],
          [
            112.98843509065719,
            27.857531439248135
          ],
          [
            112.98963386007223,
            27.85723228855882
          ],
          [
            112.99033958722785,
            27.857086986497578
          ]
        ]
      },
      "properties": {
        "type": "assistLine",
        "name": "辅助线_1",
        "stroke": "#e74c3c",
        "stroke-width": 2,
        "stroke-opacity": 0.8,
        "stroke-dasharray": "5,5"
      }
    },
    {
      "type": "Feature",
      "geometry": {
        "type": "Polygon",
        "coordinates": [
          [
            [
              112.95566260101924,
              27.862404998864534
            ],
            [
              112.9587586832819,
              27.862290353312417
            ],
            [
              112.96047692788841,
              27.86224736119911
            ],
            [
              112.96072007571007,
              27.86224736119911
            ],
            [
              112.96067144614575,
              27.863279167211658
            ],
            [
              112.9607038658553,
              27.864339624266364
            ],
            [
              112.96091459396742,
              27.864554580512618
            ],
            [
              112.96128742062731,
              27.864454267650757
            ],
            [
              112.96224380205922,
              27.864282302528707
            ],
            [
              112.9631515539268,
              27.863981362908504
            ],
            [
              112.96407551564918,
              27.863623100366326
            ],
            [
              112.96438350288997,
              27.863537117179987
            ],
            [
              112.96420519448742,
              27.863150191997278
            ],
            [
              112.96392962695619,
              27.862863579860246
            ],
            [
              112.96360542986064,
              27.862748934793245
            ],
            [
              112.96334607218415,
              27.862591297628043
            ],
            [
              112.96240590060702,
              27.862190038354854
            ],
            [
              112.96216275278533,
              27.862018069640172
            ],
            [
              112.96242211046182,
              27.861731454509325
            ],
            [
              112.96268146813826,
              27.861588146659685
            ],
            [
              112.96284356668603,
              27.86141617699002
            ],
            [
              112.96303808494338,
              27.861545154267873
            ],
            [
              112.96324881305551,
              27.86135885370618
            ],
            [
              112.96341091160326,
              27.86102924423571
            ],
            [
              112.96251936959045,
              27.860556324549037
            ],
            [
              112.96110911222476,
              27.859997416804603
            ],
            [
              112.96020136035717,
              27.859624810040614
            ],
            [
              112.9592125592157,
              27.85926653309818
            ],
            [
              112.95825617778377,
              27.8588509303614
            ],
            [
              112.95738084562575,
              27.85854997566078
            ],
            [
              112.95622994593649,
              27.85837800117099
            ],
            [
              112.95548429261669,
              27.85837800117099
            ],
            [
              112.95477105900645,
              27.858435326031227
            ],
            [
              112.95431718307265,
              27.858506982063915
            ],
            [
              112.9547224294421,
              27.85945283725603
            ],
            [
              112.95504662653768,
              27.860556324549037
            ],
            [
              112.95530598421412,
              27.861502161858965
            ],
            [
              112.95566260101924,
              27.862404998864534
            ]
          ]
        ]
      },
      "properties": {
        "name": "板塘社区",
        "type": "assistPolygon",
        "fill": "#9b59b6",
        "fill-opacity": 0.2,
        "stroke": "#9b59b6",
        "stroke-width": 2,
        "stroke-opacity": 0.8
      },
      "id": "assist_polygon_1773991942714"
    },
    {
      "type": "Feature",
      "geometry": {
        "type": "Point",
        "coordinates": [
          112.95950433660168,
          27.86098625162218
        ]
      },
      "properties": {
        "iconType": "default",
        "iconColor": "#e74c3c",
        "iconSize": 1,
        "text": "板塘社区中心点",
        "textColor": "#333333",
        "type": "assistPoint",
        "name": "辅助点_1"
      },
      "id": "assist_point_1773991969094"
    }
  ],
  "properties": {
    "description": "GIS-APP 辅助要素导出",
    "exportTime": "2026/3/20 15:32:54",
    "assistElements": {
      "lines": 1,
      "polygons": 1,
      "texts": 0,
      "points": 1
    }
  }
}