{
  "type": "FeatureCollection",
  "features": [
    {
      "type": "Feature",
      "geometry": {
        "type": "Point",
        "coordinates": [
          112.88597586162948,
          27.859092000888538
        ]
      },
      "properties": {
        "iconType": "default",
        "iconColor": "#e74c3c",
        "iconSize": 1,
        "text": "富民城社区",
        "textColor": "#333333",
        "type": "assistPoint",
        "name": "辅助点_1",
        "isAssistFeature": true,
        "sourceFileName": "辅助要素_富民城社区.geojson"
      },
      "id": "assist_point_1773738921400_reimported_1773797815896_reimported_1773798075685"
    }
  ],
  "properties": {
    "description": "GIS-APP 辅助要素导出",
    "exportTime": "2026/3/18 09:41:45",
    "assistElements": {
      "lines": 0,
      "polygons": 1,
      "texts": 0,
      "points": 1
    }
  }
}