{
  "type": "FeatureCollection",
  "features": [
    {
      "type": "Feature",
      "geometry": {
        "type": "LineString",
        "coordinates": [
          [
            112.9876036860629,
            27.85789041898566
          ],
          [
            112.98843509065719,
            27.857531439248135
          ],
          [
            112.98963386007223,
            27.85723228855882
          ],
          [
            112.99033958722785,
            27.857086986497578
          ]
        ]
      },
      "properties": {
        "type": "assistLine",
        "name": "辅助线_1",
        "stroke": "#e74c3c",
        "stroke-width": 2,
        "stroke-opacity": 0.8,
        "stroke-dasharray": "5,5",
        "isAssistFeature": true,
        "sourceFileName": "辅助要素_板塘社区.geojson"
      },
      "id": "assist_imported_1773992462522_0"
    },
    {
      "type": "Feature",
      "geometry": {
        "type": "Polygon",
        "coordinates": [
          [
            [
              112.9574366547448,
              27.86849830962744
            ],
            [
              112.95694833453747,
              27.86874735906126
            ],
            [
              112.9569107714446,
              27.869295265800787
            ],
            [
              112.95677930061956,
              27.869544313402884
            ],
            [
              112.95587778639066,
              27.868979804683093
            ],
            [
              112.95527677690471,
              27.869809963547468
            ],
            [
              112.95505139834749,
              27.87127102770046
            ],
            [
              112.95478845669739,
              27.872333607436502
            ],
            [
              112.95533312154403,
              27.87327995873983
            ],
            [
              112.95533312154403,
              27.874309313929132
            ],
            [
              112.9552204322654,
              27.874774180808615
            ],
            [
              112.95561484474057,
              27.875537886351395
            ],
            [
              112.95614072804074,
              27.876700036629174
            ],
            [
              112.95646001433015,
              27.87754673826599
            ],
            [
              112.95702346072322,
              27.87776256311483
            ],
            [
              112.9573239654662,
              27.877911980065974
            ],
            [
              112.95758690711627,
              27.878177609692372
            ],
            [
              112.957962538045,
              27.878891486085436
            ],
            [
              112.95844983164092,
              27.879791729765287
            ],
            [
              112.9591833385633,
              27.880916877215583
            ],
            [
              112.95974678495638,
              27.881514526377202
            ],
            [
              112.96025388671013,
              27.882095571011206
            ],
            [
              112.96059195454596,
              27.882875826044227
            ],
            [
              112.9606131725998,
              27.883658924245836
            ],
            [
              112.96037710582102,
              27.885432512934386
            ],
            [
              112.96037710582108,
              27.88683049766196
            ],
            [
              112.96096727276802,
              27.88781116274356
            ],
            [
              112.96125055290254,
              27.88845797953165
            ],
            [
              112.9613685862919,
              27.889063062706043
            ],
            [
              112.9636348273681,
              27.88847884452501
            ],
            [
              112.96755353589568,
              27.88716434209121
            ],
            [
              112.97064601069755,
              27.886100209384324
            ],
            [
              112.97232208482681,
              27.885557706332364
            ],
            [
              112.97711424043584,
              27.883638058323697
            ],
            [
              112.97980540171382,
              27.882615623212217
            ],
            [
              112.97897916798813,
              27.88159317844743
            ],
            [
              112.97616997332076,
              27.878671854501007
            ],
            [
              112.97262416569454,
              27.87495593031538
            ],
            [
              112.97048898978878,
              27.871934072812095
            ],
            [
              112.96885190317893,
              27.8694065630895
            ],
            [
              112.96840337629928,
              27.867966615581665
            ],
            [
              112.9674355025063,
              27.865817093120697
            ],
            [
              112.96677451552576,
              27.86615100231964
            ],
            [
              112.9664440220355,
              27.86598404784877
            ],
            [
              112.96585385508857,
              27.86627621800399
            ],
            [
              112.96516926143013,
              27.865316227393166
            ],
            [
              112.96474434122835,
              27.864356228278382
            ],
            [
              112.96448466777171,
              27.863813616321437
            ],
            [
              112.96283220032032,
              27.86433535863796
            ],
            [
              112.96120333954681,
              27.86475275068271
            ],
            [
              112.9589843118264,
              27.8656083993489
            ],
            [
              112.95740266440863,
              27.86600491717168
            ],
            [
              112.95683610413958,
              27.866192740897162
            ],
            [
              112.95714299095198,
              27.867131854641443
            ],
            [
              112.95761512450953,
              27.867841401850583
            ],
            [
              112.95799283135557,
              27.868383993640307
            ],
            [
              112.9574366547448,
              27.86849830962744
            ]
          ]
        ]
      },
      "properties": {
        "name": "向阳社区",
        "type": "assistPolygon",
        "fill": "#9b59b6",
        "fill-opacity": 0.2,
        "stroke": "#9b59b6",
        "stroke-width": 2,
        "stroke-opacity": 0.8
      },
      "id": "assist_polygon_1773992584703"
    },
    {
      "type": "Feature",
      "geometry": {
        "type": "Point",
        "coordinates": [
          112.9645405275081,
          27.876893332754634
        ]
      },
      "properties": {
        "iconType": "default",
        "iconColor": "#e74c3c",
        "iconSize": 1,
        "text": "向阳社区中心点",
        "textColor": "#333333",
        "type": "assistPoint",
        "name": "辅助点_1"
      },
      "id": "assist_point_1773992733554"
    }
  ],
  "properties": {
    "description": "GIS-APP 辅助要素导出",
    "exportTime": "2026/3/20 15:45:45",
    "assistElements": {
      "lines": 1,
      "polygons": 1,
      "texts": 0,
      "points": 1
    }
  }
}