{
  "type": "FeatureCollection",
  "features": [
    {
      "type": "Feature",
      "geometry": {
        "type": "Polygon",
        "coordinates": [
          [
            [
              112.87543676685601,
              27.866376294306534
            ],
            [
              112.87591189679165,
              27.867168355349378
            ],
            [
              112.87581687080451,
              27.868272430779726
            ],
            [
              112.87589832165062,
              27.868704457233733
            ],
            [
              112.87607479848386,
              27.869112480636417
            ],
            [
              112.87626485045811,
              27.869364494323463
            ],
            [
              112.87653635327847,
              27.869364494323463
            ],
            [
              112.876930032368,
              27.869028475943836
            ],
            [
              112.87712155707648,
              27.86887553806868
            ],
            [
              112.87750081204148,
              27.869027357822006
            ],
            [
              112.87757107403503,
              27.86918134482687
            ],
            [
              112.8776001056904,
              27.869241228602988
            ],
            [
              112.87778881145037,
              27.869296834936904
            ],
            [
              112.87797751721037,
              27.869292557527615
            ],
            [
              112.87822428628111,
              27.869241228602988
            ],
            [
              112.87843718508725,
              27.869207009306393
            ],
            [
              112.87854847309953,
              27.869082964265658
            ],
            [
              112.87868395415796,
              27.868928977121
            ],
            [
              112.87880975799797,
              27.868809209190516
            ],
            [
              112.87895007766565,
              27.86864666678737
            ],
            [
              112.87904201124103,
              27.86857822780786
            ],
            [
              112.87917265369023,
              27.868488401581644
            ],
            [
              112.87933232779484,
              27.868372910609935
            ],
            [
              112.87948232468096,
              27.86832158124969
            ],
            [
              112.87968070765943,
              27.868313026353903
            ],
            [
              112.87993715394865,
              27.868313026353903
            ],
            [
              112.88000973308709,
              27.868308748905804
            ],
            [
              112.88005811917938,
              27.868201812647797
            ],
            [
              112.880091989444,
              27.868090598827564
            ],
            [
              112.88015972997322,
              27.86791950041966
            ],
            [
              112.88020327745632,
              27.867744124271198
            ],
            [
              112.88020327745632,
              27.867602967652857
            ],
            [
              112.8802468249393,
              27.86748747573742
            ],
            [
              112.88031456546852,
              27.86748319825672
            ],
            [
              112.88037746738854,
              27.867299266426343
            ],
            [
              112.88047907818235,
              27.86710677929277
            ],
            [
              112.88054198010232,
              27.867012674347507
            ],
            [
              112.88067262255153,
              27.86691001431396
            ],
            [
              112.88071617003463,
              27.86682446421173
            ],
            [
              112.88077907195462,
              27.866734636531717
            ],
            [
              112.88087584413923,
              27.866537870877167
            ],
            [
              112.88097261632383,
              27.866311162180054
            ],
            [
              112.88095326188692,
              27.866140060962522
            ],
            [
              112.88089035996697,
              27.866041202358147
            ],
            [
              112.88071617003469,
              27.86597276173306
            ],
            [
              112.88046940096393,
              27.865917153693346
            ],
            [
              112.88027585659474,
              27.865887210890918
            ],
            [
              112.88025166354856,
              27.86570755390258
            ],
            [
              112.88016940719166,
              27.865515063941686
            ],
            [
              112.88008231222558,
              27.86520707929313
            ],
            [
              112.87992747673022,
              27.865104417549105
            ],
            [
              112.87976780262561,
              27.864954702331403
            ],
            [
              112.8795403879918,
              27.864907648934548
            ],
            [
              112.8793178119672,
              27.86482209725156
            ],
            [
              112.87907588150568,
              27.864680936827014
            ],
            [
              112.87890169157339,
              27.864693769600493
            ],
            [
              112.8787129858134,
              27.864698047191283
            ],
            [
              112.87845170091495,
              27.86467238164387
            ],
            [
              112.87814686853345,
              27.864625328124433
            ],
            [
              112.87805977356732,
              27.864539776218606
            ],
            [
              112.87804880296545,
              27.86418640275174
            ],
            [
              112.87806945078583,
              27.86399652004046
            ],
            [
              112.87793396972738,
              27.863949466227595
            ],
            [
              112.8782443333855,
              27.862450918631282
            ],
            [
              112.87843532640586,
              27.861585550723092
            ],
            [
              112.87740873892133,
              27.86136393100122
            ],
            [
              112.87679994866889,
              27.861395590989233
            ],
            [
              112.87635827730927,
              27.861416697642767
            ],
            [
              112.87555849403645,
              27.861764956832786
            ],
            [
              112.87481839608252,
              27.86203934207316
            ],
            [
              112.8739708645546,
              27.862377046030815
            ],
            [
              112.873403774854,
              27.862598748813298
            ],
            [
              112.87335804508714,
              27.862609700541825
            ],
            [
              112.87342708162662,
              27.862735503912404
            ],
            [
              112.87310343510666,
              27.862998176741897
            ],
            [
              112.87288059651917,
              27.86334058858165
            ],
            [
              112.87285937379654,
              27.863429709294024
            ],
            [
              112.87291243060308,
              27.86371583319105
            ],
            [
              112.87310343510666,
              27.864184887125816
            ],
            [
              112.8732632357581,
              27.864853649437123
            ],
            [
              112.87329550854561,
              27.865067630514517
            ],
            [
              112.87330088734352,
              27.86519126383331
            ],
            [
              112.87331702373723,
              27.865348182842524
            ],
            [
              112.87333316013097,
              27.865538387397564
            ],
            [
              112.87332778133309,
              27.86553363228775
            ],
            [
              112.8733385389289,
              27.86559544869894
            ],
            [
              112.87337619051428,
              27.865681040594737
            ],
            [
              112.87338694811012,
              27.865761877323138
            ],
            [
              112.87345687248299,
              27.865871244565554
            ],
            [
              112.87352679685584,
              27.865999632057125
            ],
            [
              112.87368816079322,
              27.866156549895834
            ],
            [
              112.873763463964,
              27.86624214134845
            ],
            [
              112.87389793391182,
              27.866408568979438
            ],
            [
              112.87409694943457,
              27.86668911783596
            ],
            [
              112.87420990419075,
              27.8668127493049
            ],
            [
              112.87543676685601,
              27.866376294306534
            ]
          ]
        ]
      },
      "properties": {
        "name": "砂子岭社区",
        "type": "assistPolygon",
        "fill": "#9b59b6",
        "fill-opacity": 0.2,
        "stroke": "#9b59b6",
        "stroke-width": 2,
        "stroke-opacity": 0.8
      },
      "id": "assist_polygon_1773800016579"
    },
    {
      "type": "Feature",
      "geometry": {
        "type": "Polygon",
        "coordinates": [
          [
            [
              112.86939432774304,
              27.86386117060968
            ],
            [
              112.86944889998252,
              27.860990545180684
            ],
            [
              112.86948097467734,
              27.859078776947086
            ],
            [
              112.86959526906406,
              27.859058567420774
            ],
            [
              112.86958002981251,
              27.85785272553177
            ],
            [
              112.86958764943829,
              27.857569788620538
            ],
            [
              112.86971718307655,
              27.85758326182352
            ],
            [
              112.86970956345077,
              27.857360953759994
            ],
            [
              112.86895964852798,
              27.857382341177058
            ],
            [
              112.86897174392996,
              27.85687973576144
            ],
            [
              112.86944346460722,
              27.856869042003865
            ],
            [
              112.86946765541117,
              27.854826514967783
            ],
            [
              112.86939508299926,
              27.85257006602012
            ],
            [
              112.86779848993785,
              27.852580760201732
            ],
            [
              112.86754448649627,
              27.852580760201732
            ],
            [
              112.86750820029032,
              27.852259934295162
            ],
            [
              112.8671332428289,
              27.852088826756827
            ],
            [
              112.86731467385863,
              27.851725222341415
            ],
            [
              112.86738724627048,
              27.85157550252184
            ],
            [
              112.86713324282888,
              27.850377736523328
            ],
            [
              112.8671211474269,
              27.850131765082637
            ],
            [
              112.8688628853121,
              27.850099681810107
            ],
            [
              112.86846373704675,
              27.84929759691201
            ],
            [
              112.86812506579128,
              27.848752175792697
            ],
            [
              112.86764124971207,
              27.84836717099806
            ],
            [
              112.86731467385859,
              27.84796077556537
            ],
            [
              112.86716952903484,
              27.847821745199298
            ],
            [
              112.86747191408433,
              27.847704103981087
            ],
            [
              112.86797992096753,
              27.84812119499702
            ],
            [
              112.86840326003683,
              27.848752175792697
            ],
            [
              112.86888707611607,
              27.849479403342187
            ],
            [
              112.86921365196953,
              27.850046209668136
            ],
            [
              112.86978213586262,
              27.8511049531717
            ],
            [
              112.86995147149034,
              27.851757305133006
            ],
            [
              112.87009661631413,
              27.85270909029856
            ],
            [
              112.87013556637329,
              27.853124560055974
            ],
            [
              112.87025748038579,
              27.853495087719992
            ],
            [
              112.87035653552095,
              27.853906035102824
            ],
            [
              112.87051654766236,
              27.854471927310257
            ],
            [
              112.87066894017796,
              27.854748135529334
            ],
            [
              112.87079847381624,
              27.855024343044775
            ],
            [
              112.87115659622795,
              27.855475705031083
            ],
            [
              112.87153757751699,
              27.855913591729447
            ],
            [
              112.87179664479355,
              27.856189796275714
            ],
            [
              112.87208619057321,
              27.856519893468956
            ],
            [
              112.8723757363529,
              27.856849989657093
            ],
            [
              112.87275671764195,
              27.857193558091566
            ],
            [
              112.873137698931,
              27.85756407184965
            ],
            [
              112.87322913444038,
              27.857732486775575
            ],
            [
              112.87363297460676,
              27.858096262122714
            ],
            [
              112.87407491290206,
              27.85846677279551
            ],
            [
              112.8743796979333,
              27.858783390003353
            ],
            [
              112.87463876520985,
              27.859046114218415
            ],
            [
              112.87495116986689,
              27.859416621644684
            ],
            [
              112.87507308387937,
              27.859531141865688
            ],
            [
              112.87521559455855,
              27.85965023493965
            ],
            [
              112.87572837169657,
              27.860063322481636
            ],
            [
              112.8763074632559,
              27.860629182549005
            ],
            [
              112.87648271464887,
              27.860831274714315
            ],
            [
              112.87668844454497,
              27.86106031204615
            ],
            [
              112.87602087355634,
              27.861339994942952
            ],
            [
              112.87579446600151,
              27.861467371102577
            ],
            [
              112.87545485466927,
              27.861594747112463
            ],
            [
              112.87447718568252,
              27.861967775994685
            ],
            [
              112.8736847592406,
              27.862249821370384
            ],
            [
              112.87278942027382,
              27.862595553410344
            ],
            [
              112.87142068369234,
              27.863159640160475
            ],
            [
              112.87093699482521,
              27.86329611232027
            ],
            [
              112.8701445683833,
              27.863587252353483
            ],
            [
              112.86939432774304,
              27.86386117060968
            ]
          ]
        ]
      },
      "properties": {
        "type": "assistPolygon",
        "name": "砂子岭社区",
        "fill": "#9b59b6",
        "fill-opacity": 0.2,
        "stroke": "#9b59b6",
        "stroke-width": 2,
        "stroke-opacity": 0.8
      },
      "id": "assist_polygon_1773800751196"
    },
    {
      "type": "Feature",
      "geometry": {
        "type": "Point",
        "coordinates": [
          112.87445855076597,
          27.861509622444984
        ]
      },
      "properties": {
        "iconType": "default",
        "iconColor": "#e74c3c",
        "iconSize": 1,
        "text": "砂子岭社区中心点",
        "textColor": "#333333",
        "type": "assistPoint",
        "name": "辅助点_1"
      },
      "id": "assist_point_1773800949386"
    }
  ],
  "properties": {
    "description": "GIS-APP 辅助要素导出",
    "exportTime": "2026/3/18 10:29:20",
    "assistElements": {
      "lines": 0,
      "polygons": 2,
      "texts": 0,
      "points": 1
    }
  }
}