{
  "type": "FeatureCollection",
  "features": [
    {
      "type": "Feature",
      "geometry": {
        "type": "Polygon",
        "coordinates": [
          [
            [
              113.00791945899958,
              27.848523515914835
            ],
            [
              113.00825205291743,
              27.84818200918265
            ],
            [
              113.00817695106502,
              27.847878446740125
            ],
            [
              113.00795164550775,
              27.8476887197821
            ],
            [
              113.00819840873712,
              27.847366183191653
            ],
            [
              113.00800528968806,
              27.847072104876133
            ],
            [
              113.00753322090142,
              27.846654702026967
            ],
            [
              113.00762978042597,
              27.846512405233923
            ],
            [
              113.00735083068841,
              27.846085513734707
            ],
            [
              113.00707188095087,
              27.84638908119564
            ],
            [
              113.00684657539362,
              27.84679699863328
            ],
            [
              113.00669637168879,
              27.84713571960779
            ],
            [
              113.00637450660702,
              27.847477229634677
            ],
            [
              113.00718989814752,
              27.848065383271248
            ],
            [
              113.00791945899958,
              27.848523515914835
            ]
          ]
        ]
      },
      "properties": {
        "name": "新站社区",
        "type": "assistPolygon",
        "fill": "#9b59b6",
        "fill-opacity": 0.2,
        "stroke": "#9b59b6",
        "stroke-width": 2,
        "stroke-opacity": 0.8
      },
      "id": "assist_polygon_1773910099535"
    },
    {
      "type": "Feature",
      "geometry": {
        "type": "Polygon",
        "coordinates": [
          [
            [
              112.99830119847164,
              27.855382400576573
            ],
            [
              112.99719264985218,
              27.853891820342056
            ],
            [
              112.99790858750224,
              27.85299337852166
            ],
            [
              112.9985552408636,
              27.85246247758306
            ],
            [
              112.9990864204104,
              27.853605953297645
            ],
            [
              112.99984854758628,
              27.855219050317828
            ],
            [
              112.99892475707007,
              27.855627425503187
            ],
            [
              112.99830119847164,
              27.855382400576573
            ]
          ]
        ]
      },
      "properties": {
        "name": "新站社区",
        "type": "assistPolygon",
        "fill": "#9b59b6",
        "fill-opacity": 0.2,
        "stroke": "#9b59b6",
        "stroke-width": 2,
        "stroke-opacity": 0.8
      },
      "id": "assist_polygon_1773910592327"
    },
    {
      "type": "Feature",
      "geometry": {
        "type": "Point",
        "coordinates": [
          113.00735434553052,
          27.847480049806776
        ]
      },
      "properties": {
        "iconType": "default",
        "iconColor": "#e74c3c",
        "iconSize": 1,
        "text": "新站社区中心点",
        "textColor": "#333333",
        "type": "assistPoint",
        "name": "辅助点_1"
      },
      "id": "assist_point_1773910605380"
    }
  ],
  "properties": {
    "description": "GIS-APP 辅助要素导出",
    "exportTime": "2026/3/19 16:56:51",
    "assistElements": {
      "lines": 0,
      "polygons": 2,
      "texts": 0,
      "points": 1
    }
  }
}