{
  "type": "FeatureCollection",
  "features": [
    {
      "type": "Feature",
      "geometry": {
        "type": "Polygon",
        "coordinates": [
          [
            [
              113.00230980090055,
              27.920056682416174
            ],
            [
              113.00102564213392,
              27.913300000718877
            ],
            [
              113.00481217760041,
              27.908638896356265
            ],
            [
              113.00569879951449,
              27.907545043273743
            ],
            [
              113.01114741229271,
              27.89492166237497
            ],
            [
              113.01308972354889,
              27.89042134729378
            ],
            [
              113.01778766454977,
              27.8857434376131
            ],
            [
              113.02264033137526,
              27.882340673653502
            ],
            [
              113.02320042197175,
              27.88194792282856
            ],
            [
              113.02303305864781,
              27.881760694550408
            ],
            [
              113.0092664838182,
              27.87720518630006
            ],
            [
              113.002290401782,
              27.874896652295334
            ],
            [
              113.00179385980535,
              27.873792394674098
            ],
            [
              113.0016851232318,
              27.87355057581017
            ],
            [
              112.99940522868509,
              27.873578789971077
            ],
            [
              112.98942771538454,
              27.873702261977243
            ],
            [
              112.988020518865,
              27.87374963120378
            ],
            [
              112.98748285381127,
              27.861631159674133
            ],
            [
              112.98682870690959,
              27.858813792826
            ],
            [
              112.98662973456572,
              27.857956819926855
            ],
            [
              112.98646874748367,
              27.85853948141714
            ],
            [
              112.98620301953444,
              27.85866857445785
            ],
            [
              112.98542079353446,
              27.859036463048255
            ],
            [
              112.98471763455088,
              27.859127770652634
            ],
            [
              112.98457579505907,
              27.859291528180023
            ],
            [
              112.9841467722558,
              27.859786845701493
            ],
            [
              112.98417363637436,
              27.861045609670683
            ],
            [
              112.9843453358662,
              27.861256804906105
            ],
            [
              112.9844825732888,
              27.861425610221033
            ],
            [
              112.98473022264295,
              27.86138203974491
            ],
            [
              112.98526591679298,
              27.860908441787416
            ],
            [
              112.98479803197218,
              27.861555891097595
            ],
            [
              112.98496755574438,
              27.862239305618232
            ],
            [
              112.98538420605126,
              27.862366030784543
            ],
            [
              112.98562483686808,
              27.8624943473298
            ],
            [
              112.98581054828176,
              27.862675430233892
            ],
            [
              112.98588456586788,
              27.86274760313964
            ],
            [
              112.98576857629672,
              27.863105859685163
            ],
            [
              112.98553655852679,
              27.86382248914255
            ],
            [
              112.9850671842993,
              27.864631808197785
            ],
            [
              112.98448279427433,
              27.864608171626017
            ],
            [
              112.98380673566626,
              27.865124802233808
            ],
            [
              112.98367687071719,
              27.86580013361835
            ],
            [
              112.98378381784669,
              27.866343772249962
            ],
            [
              112.98351645047208,
              27.86695156376929
            ],
            [
              112.98334053159337,
              27.86692321049594
            ],
            [
              112.98335978069325,
              27.86711252521647
            ],
            [
              112.98317450675918,
              27.867325238142726
            ],
            [
              112.98324471189525,
              27.867621607519766
            ],
            [
              112.98327974349638,
              27.867700965660006
            ],
            [
              112.98332609476842,
              27.867805966404276
            ],
            [
              112.98319970360457,
              27.867824135445744
            ],
            [
              112.9830510881206,
              27.867845499293125
            ],
            [
              112.98303798619219,
              27.868018349991672
            ],
            [
              112.98303509002373,
              27.868056561363417
            ],
            [
              112.98301980878239,
              27.86825815854681
            ],
            [
              112.98321230157813,
              27.86828368356423
            ],
            [
              112.98314974110511,
              27.868462360106236
            ],
            [
              112.98315214679344,
              27.868860127896284
            ],
            [
              112.98294762375944,
              27.869040930160352
            ],
            [
              112.98283702138502,
              27.86947164959639
            ],
            [
              112.98281644906672,
              27.869899025659578
            ],
            [
              112.98298874234494,
              27.870121805724978
            ],
            [
              112.98305817403157,
              27.870344585332333
            ],
            [
              112.98287302316668,
              27.87032867280206
            ],
            [
              112.98250529241524,
              27.87010589236786
            ],
            [
              112.98225328174038,
              27.870383231060046
            ],
            [
              112.98171840146401,
              27.870631016036768
            ],
            [
              112.9812246658243,
              27.87124479254689
            ],
            [
              112.98095722568611,
              27.87123342643507
            ],
            [
              112.9805123494147,
              27.871126584290224
            ],
            [
              112.97993708537473,
              27.87117981915671
            ],
            [
              112.97957888035853,
              27.871212967748434
            ],
            [
              112.97953002099025,
              27.87162442380891
            ],
            [
              112.9792291509471,
              27.871331175910797
            ],
            [
              112.97898228312724,
              27.8711675024864
            ],
            [
              112.97916486301379,
              27.870851521048976
            ],
            [
              112.97902857061885,
              27.870737858670296
            ],
            [
              112.97858626622413,
              27.870571910795633
            ],
            [
              112.97832654081758,
              27.870660568248184
            ],
            [
              112.97856826578244,
              27.870908352590703
            ],
            [
              112.9784628323142,
              27.8711606826558
            ],
            [
              112.97865826888908,
              27.871508488706738
            ],
            [
              112.97852454926914,
              27.87165170221806
            ],
            [
              112.97808224487439,
              27.871026561085458
            ],
            [
              112.97797681140614,
              27.8711675024864
            ],
            [
              112.97797681140614,
              27.871597144598795
            ],
            [
              112.97724213862406,
              27.87150779227302
            ],
            [
              112.97712641944582,
              27.87164873304802
            ],
            [
              112.9768641221626,
              27.871414589235243
            ],
            [
              112.97635495795788,
              27.871735115295763
            ],
            [
              112.97646553428116,
              27.872157936183456
            ],
            [
              112.97616980709296,
              27.8727807972803
            ],
            [
              112.97523417219871,
              27.87378013229916
            ],
            [
              112.97438556429253,
              27.874298417732177
            ],
            [
              112.97319653711446,
              27.873527207205512
            ],
            [
              112.97284166484799,
              27.873477196722774
            ],
            [
              112.97254589633732,
              27.87295355275478
            ],
            [
              112.97253139034214,
              27.87292787081185
            ],
            [
              112.97245915321687,
              27.872904988855424
            ],
            [
              112.97219993356184,
              27.872822877413384
            ],
            [
              112.97188800795249,
              27.873064768576313
            ],
            [
              112.97167269705024,
              27.873231736223048
            ],
            [
              112.9715483881812,
              27.873209447520978
            ],
            [
              112.97171757149194,
              27.873714412393852
            ],
            [
              112.96999932432215,
              27.873320580493854
            ],
            [
              112.97002262931555,
              27.87384800256561
            ],
            [
              112.97005169340824,
              27.874549412982503
            ],
            [
              112.9705813832189,
              27.8742788791791
            ],
            [
              112.97424471654082,
              27.87768940192538
            ],
            [
              112.97543564275738,
              27.878794049404505
            ],
            [
              112.97665813128143,
              27.880541792385316
            ],
            [
              112.97614591999127,
              27.88112138099683
            ],
            [
              112.97467013350655,
              27.88173275805049
            ],
            [
              112.97226415412152,
              27.88168495321399
            ],
            [
              112.96929140786081,
              27.88079035134335
            ],
            [
              112.9692601384041,
              27.880780941162357
            ],
            [
              112.970853803617,
              27.88303620808118
            ],
            [
              112.97279123252963,
              27.88523969363129
            ],
            [
              112.97293447069832,
              27.885400925658104
            ],
            [
              112.96590777218915,
              27.887775807860848
            ],
            [
              112.96012984881986,
              27.889482022819394
            ],
            [
              112.96049175916359,
              27.890265713746217
            ],
            [
              112.96111303858696,
              27.89395484924077
            ],
            [
              112.96126986640257,
              27.8958420173427
            ],
            [
              112.96210586015586,
              27.89917117098443
            ],
            [
              112.96448044717859,
              27.907700605868612
            ],
            [
              112.96977664855795,
              27.917131205959564
            ],
            [
              112.97334749728272,
              27.921096569847393
            ],
            [
              112.97706311014497,
              27.92606372908851
            ],
            [
              112.97970505565414,
              27.92819548709072
            ],
            [
              112.98118888806337,
              27.929154764474944
            ],
            [
              112.99345764871562,
              27.934249450551903
            ],
            [
              112.99559097749716,
              27.935460618038036
            ],
            [
              112.99836994547296,
              27.937390547243027
            ],
            [
              113.00025329346539,
              27.93968155585624
            ],
            [
              113.00015678709957,
              27.936034025287512
            ],
            [
              113.00051633150382,
              27.93522140281317
            ],
            [
              113.00323646072685,
              27.931750096693406
            ],
            [
              113.00323646072685,
              27.924951471607926
            ],
            [
              113.00230980090055,
              27.920056682416174
            ]
          ]
        ]
      },
      "properties": {
        "name": "湖南师范大学竹埠港实验中学",
        "isAssistFeature": false,
        "sourceFileId": "file_1777360798519_7_g1",
        "sourceFileName": "湖南师范大学竹埠港实验中学.geojson",
        "sourceGroupId": 1,
        "id": "imported_1777360798519_7_0_g1",
        "sourceFile": "湖南师范大学竹埠港实验中学.geojson"
      },
      "id": "imported_1777360798519_7_0_g1"
    }
  ],
  "properties": {
    "fileName": "湖南师范大学竹埠港实验中学.geojson",
    "exportTime": "2026/4/28 15:23:03",
    "isStarred": false
  }
}