{
  "type": "FeatureCollection",
  "features": [
    {
      "type": "Feature",
      "geometry": {
        "type": "Polygon",
        "coordinates": [
          [
            [
              112.97005169340824,
              27.874549412982503
            ],
            [
              112.97002262931555,
              27.87384800256561
            ],
            [
              112.96999932432215,
              27.873320580493854
            ],
            [
              112.97171757149194,
              27.873714412393852
            ],
            [
              112.9715483881812,
              27.873209447520978
            ],
            [
              112.97167269705024,
              27.873231736223048
            ],
            [
              112.97188800795249,
              27.873064768576313
            ],
            [
              112.97219993356184,
              27.872822877413384
            ],
            [
              112.97245915321687,
              27.872904988855424
            ],
            [
              112.97253139034214,
              27.87292787081185
            ],
            [
              112.97254589633732,
              27.87295355275478
            ],
            [
              112.97284166484799,
              27.873477196722774
            ],
            [
              112.97319653711446,
              27.873527207205512
            ],
            [
              112.97438556429253,
              27.874298417732177
            ],
            [
              112.97523417219871,
              27.87378013229916
            ],
            [
              112.97616980709296,
              27.8727807972803
            ],
            [
              112.97646553428116,
              27.872157936183456
            ],
            [
              112.97635495795788,
              27.871735115295763
            ],
            [
              112.9768641221626,
              27.871414589235243
            ],
            [
              112.97712641944582,
              27.87164873304802
            ],
            [
              112.97724213862406,
              27.87150779227302
            ],
            [
              112.97797681140614,
              27.871597144598795
            ],
            [
              112.97797681140614,
              27.8711675024864
            ],
            [
              112.97808224487439,
              27.871026561085458
            ],
            [
              112.97852454926914,
              27.87165170221806
            ],
            [
              112.97865826888908,
              27.871508488706738
            ],
            [
              112.9784628323142,
              27.8711606826558
            ],
            [
              112.97856826578244,
              27.870908352590703
            ],
            [
              112.97832654081758,
              27.870660568248184
            ],
            [
              112.97858626622413,
              27.870571910795633
            ],
            [
              112.97902857061885,
              27.870737858670296
            ],
            [
              112.97916486301379,
              27.870851521048976
            ],
            [
              112.97898228312724,
              27.8711675024864
            ],
            [
              112.9792291509471,
              27.871331175910797
            ],
            [
              112.97953002099025,
              27.87162442380891
            ],
            [
              112.97957888035853,
              27.871212967748434
            ],
            [
              112.97993708537473,
              27.87117981915671
            ],
            [
              112.9805123494147,
              27.871126584290224
            ],
            [
              112.98095722568611,
              27.87123342643507
            ],
            [
              112.9812246658243,
              27.87124479254689
            ],
            [
              112.98171840146401,
              27.870631016036768
            ],
            [
              112.98225328174038,
              27.870383231060046
            ],
            [
              112.98250529241524,
              27.87010589236786
            ],
            [
              112.98287302316668,
              27.87032867280206
            ],
            [
              112.98305817403157,
              27.870344585332333
            ],
            [
              112.98298874234494,
              27.870121805724978
            ],
            [
              112.98281644906672,
              27.869899025659578
            ],
            [
              112.98283702138502,
              27.86947164959639
            ],
            [
              112.98294762375944,
              27.869040930160352
            ],
            [
              112.98315214679344,
              27.868860127896284
            ],
            [
              112.98314974110511,
              27.868462360106236
            ],
            [
              112.98321230157813,
              27.86828368356423
            ],
            [
              112.98301980878239,
              27.86825815854681
            ],
            [
              112.98303509002373,
              27.868056561363417
            ],
            [
              112.98303798619219,
              27.868018349991672
            ],
            [
              112.9830510881206,
              27.867845499293125
            ],
            [
              112.98319970360457,
              27.867824135445744
            ],
            [
              112.98332609476842,
              27.867805966404276
            ],
            [
              112.98327974349638,
              27.867700965660006
            ],
            [
              112.98324471189525,
              27.867621607519766
            ],
            [
              112.98317450675918,
              27.867325238142726
            ],
            [
              112.98335978069325,
              27.86711252521647
            ],
            [
              112.98334053159337,
              27.86692321049594
            ],
            [
              112.98351645047208,
              27.86695156376929
            ],
            [
              112.98378381784669,
              27.866343772249962
            ],
            [
              112.98367687071719,
              27.86580013361835
            ],
            [
              112.98380673566626,
              27.865124802233808
            ],
            [
              112.98448279427433,
              27.864608171626017
            ],
            [
              112.9850671842993,
              27.864631808197785
            ],
            [
              112.98553655852679,
              27.86382248914255
            ],
            [
              112.98576857629672,
              27.863105859685163
            ],
            [
              112.98588456586788,
              27.86274760313964
            ],
            [
              112.98581054828176,
              27.862675430233892
            ],
            [
              112.98562483686808,
              27.8624943473298
            ],
            [
              112.98538420605126,
              27.862366030784543
            ],
            [
              112.98496755574438,
              27.862239305618232
            ],
            [
              112.98479803197218,
              27.861555891097595
            ],
            [
              112.98526591679298,
              27.860908441787416
            ],
            [
              112.98473022264295,
              27.86138203974491
            ],
            [
              112.9844825732888,
              27.861425610221033
            ],
            [
              112.9843453358662,
              27.861256804906105
            ],
            [
              112.98417363637436,
              27.861045609670683
            ],
            [
              112.9841467722558,
              27.859786845701493
            ],
            [
              112.98457579505907,
              27.859291528180023
            ],
            [
              112.98471763455088,
              27.859127770652634
            ],
            [
              112.98469748623735,
              27.858789325044057
            ],
            [
              112.98344158936789,
              27.85842119020556
            ],
            [
              112.98366993392658,
              27.858278685907734
            ],
            [
              112.98384340040455,
              27.8580807862579
            ],
            [
              112.98330448130271,
              27.85787160689064
            ],
            [
              112.98337020294721,
              27.857395142372724
            ],
            [
              112.98333927574859,
              27.85731701962979
            ],
            [
              112.98330769457644,
              27.857237244071882
            ],
            [
              112.98315269835904,
              27.856845717464708
            ],
            [
              112.98291014963905,
              27.856233024525523
            ],
            [
              112.98237123053718,
              27.856221403482678
            ],
            [
              112.98200318807035,
              27.856233024525523
            ],
            [
              112.98195061057504,
              27.856058705575464
            ],
            [
              112.98234494223867,
              27.855849523100744
            ],
            [
              112.98243751183212,
              27.85482957286338
            ],
            [
              112.98205150216127,
              27.85422079364352
            ],
            [
              112.982207992277,
              27.85403631395988
            ],
            [
              112.98175938620052,
              27.853123136770066
            ],
            [
              112.98150900147633,
              27.853261497926056
            ],
            [
              112.9811751551774,
              27.85311391321619
            ],
            [
              112.98128991495497,
              27.85220995268361
            ],
            [
              112.97617789462548,
              27.852246848790415
            ],
            [
              112.97611645614826,
              27.848639899120343
            ],
            [
              112.97597417648197,
              27.84742146235466
            ],
            [
              112.97577256219289,
              27.847389628972564
            ],
            [
              112.97582296576513,
              27.846975794948946
            ],
            [
              112.97558534789778,
              27.84674022689086
            ],
            [
              112.975664554153,
              27.846536492757252
            ],
            [
              112.97523252289183,
              27.84633275744666
            ],
            [
              112.97457367420793,
              27.845412760654597
            ],
            [
              112.97407683848219,
              27.845438228301774
            ],
            [
              112.97347475164617,
              27.8457814416563
            ],
            [
              112.973093966577,
              27.84599850311308
            ],
            [
              112.9729571567525,
              27.84595711948927
            ],
            [
              112.97256472861895,
              27.84550189620218
            ],
            [
              112.97302556166474,
              27.845352276259206
            ],
            [
              112.97308316613235,
              27.845174006433382
            ],
            [
              112.97270873844046,
              27.84504030387174
            ],
            [
              112.97261513219122,
              27.844747430450553
            ],
            [
              112.97216149914243,
              27.84453095824864
            ],
            [
              112.97179427234583,
              27.84472832979266
            ],
            [
              112.97068539195914,
              27.84388790545718
            ],
            [
              112.96997253925532,
              27.844887499721082
            ],
            [
              112.9695909115664,
              27.844651927921603
            ],
            [
              112.9693172919174,
              27.844817465108434
            ],
            [
              112.96896446601315,
              27.844664661438145
            ],
            [
              112.96895006512084,
              27.8438051365832
            ],
            [
              112.96835242135221,
              27.843811502994186
            ],
            [
              112.9682876168876,
              27.843404022547432
            ],
            [
              112.96693585181097,
              27.843273636456132
            ],
            [
              112.96692462017498,
              27.84307501042089
            ],
            [
              112.96690772016954,
              27.84277613775774
            ],
            [
              112.96617066325871,
              27.84277369760791
            ],
            [
              112.96617729821543,
              27.842751136545516
            ],
            [
              112.96618889187243,
              27.842140695310263
            ],
            [
              112.96580988187432,
              27.841604561654904
            ],
            [
              112.96536781732972,
              27.841902387446993
            ],
            [
              112.96529219894576,
              27.843139795723744
            ],
            [
              112.96428052525589,
              27.84300927348646
            ],
            [
              112.96431652793588,
              27.843448590758626
            ],
            [
              112.96371592781165,
              27.843750342540332
            ],
            [
              112.96320305805638,
              27.843311006632405
            ],
            [
              112.96245519261605,
              27.843601396142077
            ],
            [
              112.96249187621899,
              27.846344845799564
            ],
            [
              112.96199469464183,
              27.84629600071196
            ],
            [
              112.961847381715,
              27.845905236042313
            ],
            [
              112.95923070427673,
              27.845830963716878
            ],
            [
              112.95909353153286,
              27.846293778277854
            ],
            [
              112.95886347298858,
              27.84624238030571
            ],
            [
              112.95840405568768,
              27.845444751094035
            ],
            [
              112.9580719521204,
              27.84510003226501
            ],
            [
              112.95746550216703,
              27.845227706003712
            ],
            [
              112.95722003392235,
              27.84576393533601
            ],
            [
              112.95671465970986,
              27.845668180320928
            ],
            [
              112.95655582678782,
              27.84579585339081
            ],
            [
              112.95622372322055,
              27.845336229000324
            ],
            [
              112.95670022018997,
              27.845068113211113
            ],
            [
              112.95577112682756,
              27.841931893476442
            ],
            [
              112.95574891777879,
              27.8418569226004
            ],
            [
              112.95478142143804,
              27.841807248597746
            ],
            [
              112.95368060253267,
              27.84175072906153
            ],
            [
              112.95354716228879,
              27.84230529346803
            ],
            [
              112.95258639612611,
              27.842210900047817
            ],
            [
              112.95202594979676,
              27.842682867916153
            ],
            [
              112.95157615435085,
              27.842660955000298
            ],
            [
              112.9513696945491,
              27.842650897314442
            ],
            [
              112.95131929187517,
              27.842648729613742
            ],
            [
              112.95124216701643,
              27.842644684139202
            ],
            [
              112.9516246463082,
              27.8443176406073
            ],
            [
              112.95185041270206,
              27.845305125763147
            ],
            [
              112.95194288258244,
              27.8453002201596
            ],
            [
              112.95204440487406,
              27.84602126722075
            ],
            [
              112.95248439293476,
              27.84604484540712
            ],
            [
              112.95231106430478,
              27.845290340901073
            ],
            [
              112.95293771396697,
              27.845254973373585
            ],
            [
              112.95295104693851,
              27.84587979799491
            ],
            [
              112.95281771722314,
              27.846145052642
            ],
            [
              112.95303771125349,
              27.846775766642125
            ],
            [
              112.952304397819,
              27.84683471168836
            ],
            [
              112.95207437168554,
              27.846246503486896
            ],
            [
              112.9520107458106,
              27.84625812242163
            ],
            [
              112.95221754158227,
              27.84727683873996
            ],
            [
              112.95359526258065,
              27.854063518166612
            ],
            [
              112.95320755868721,
              27.854654791796065
            ],
            [
              112.95317505494528,
              27.854704157311957
            ],
            [
              112.95313268051501,
              27.854768760142818
            ],
            [
              112.95307290931095,
              27.854859885491635
            ],
            [
              112.95355403619735,
              27.856625872541855
            ],
            [
              112.95393493625086,
              27.858023953548567
            ],
            [
              112.95470593241146,
              27.860853817606753
            ],
            [
              112.95531355017468,
              27.86308396201474
            ],
            [
              112.95581463762669,
              27.86492307453848
            ],
            [
              112.95638822900357,
              27.865870851942134
            ],
            [
              112.95665792570975,
              27.866316483768884
            ],
            [
              112.95748568012495,
              27.866194521756967
            ],
            [
              112.95900323018554,
              27.86612482968434
            ],
            [
              112.9593776902168,
              27.866699790127015
            ],
            [
              112.96099478528897,
              27.8673459294522
            ],
            [
              112.96181168266563,
              27.867396707521095
            ],
            [
              112.96083585894218,
              27.868530668093612
            ],
            [
              112.96081647868822,
              27.86855680214515
            ],
            [
              112.9611711578169,
              27.86920662308306
            ],
            [
              112.96223541349357,
              27.868884304342018
            ],
            [
              112.96333103564503,
              27.869110102586973
            ],
            [
              112.96322083571583,
              27.870190994932145
            ],
            [
              112.96467925956274,
              27.870504598328964
            ],
            [
              112.96616624624247,
              27.8699277045379
            ],
            [
              112.96644907541977,
              27.86986021775843
            ],
            [
              112.96711653535398,
              27.869700952667642
            ],
            [
              112.96727913581032,
              27.870357483390165
            ],
            [
              112.96728829952448,
              27.870394484496416
            ],
            [
              112.96741279164983,
              27.870897145266284
            ],
            [
              112.96799661573615,
              27.871706169281524
            ],
            [
              112.96748832199893,
              27.871831592159864
            ],
            [
              112.96705041485747,
              27.871812236600633
            ],
            [
              112.96684240815681,
              27.8721412782554
            ],
            [
              112.96671235635819,
              27.872758224197696
            ],
            [
              112.96669823663854,
              27.872794846492653
            ],
            [
              112.96604294707981,
              27.87307341709399
            ],
            [
              112.96597584652136,
              27.873098190554927
            ],
            [
              112.96559053214655,
              27.873207142258423
            ],
            [
              112.96559053214655,
              27.873477678738254
            ],
            [
              112.96676761981617,
              27.8742788791791
            ],
            [
              112.96610845133203,
              27.875038453418185
            ],
            [
              112.96762689341973,
              27.876068553134928
            ],
            [
              112.96895700191145,
              27.876307867427442
            ],
            [
              112.96898862710103,
              27.876293890137347
            ],
            [
              112.97003992278307,
              27.875829237519596
            ],
            [
              112.97005169340824,
              27.874549412982503
            ]
          ]
        ]
      },
      "properties": {
        "name": "湘潭市七中",
        "isAssistFeature": false,
        "sourceFileId": "file_1778659328479_21_g1",
        "sourceFileName": "湘潭市七中.geojson",
        "sourceGroupId": 1,
        "id": "imported_1778659328479_21_0_g1",
        "sourceFile": "湘潭市七中.geojson"
      },
      "id": "imported_1778659328479_21_0_g1"
    }
  ],
  "properties": {
    "fileName": "湘潭市七中.geojson",
    "exportTime": "2026/5/13 16:07:13",
    "isStarred": false
  }
}