{
  "type": "FeatureCollection",
  "features": [
    {
      "type": "Feature",
      "geometry": {
        "type": "Polygon",
        "coordinates": [
          [
            [
              112.93143321636201,
              27.82302858828166
            ],
            [
              112.94231874765008,
              27.822462817898824
            ],
            [
              112.94257862397355,
              27.822462817898824
            ],
            [
              112.94774531127962,
              27.822291850570565
            ],
            [
              112.95122418903264,
              27.8221811999737
            ],
            [
              112.95123464991416,
              27.822090512733666
            ],
            [
              112.95127824964645,
              27.821762854118106
            ],
            [
              112.95141016185603,
              27.820770023956214
            ],
            [
              112.95181938489215,
              27.817575175485047
            ],
            [
              112.95289238926138,
              27.814055889747635
            ],
            [
              112.95295418526806,
              27.813853203416002
            ],
            [
              112.95303340050644,
              27.813593385812183
            ],
            [
              112.95581104167059,
              27.80604198000796
            ],
            [
              112.94788790715289,
              27.802954157564145
            ],
            [
              112.94690901747934,
              27.80257134270701
            ],
            [
              112.94573854230853,
              27.80228343626183
            ],
            [
              112.93565530448559,
              27.799803187612298
            ],
            [
              112.93380765230413,
              27.799348700485282
            ],
            [
              112.93299631010919,
              27.79914912553663
            ],
            [
              112.93261526363031,
              27.799098415647762
            ],
            [
              112.9324251657431,
              27.799066128657543
            ],
            [
              112.92646187939258,
              27.798279522560748
            ],
            [
              112.92458916601132,
              27.798030300087873
            ],
            [
              112.9172980151606,
              27.797043092111522
            ],
            [
              112.91612995466129,
              27.797102992336264
            ],
            [
              112.91216444873909,
              27.797306348819504
            ],
            [
              112.90772414297088,
              27.798292178005482
            ],
            [
              112.89978289910944,
              27.801084553685044
            ],
            [
              112.89541230582479,
              27.803396192844545
            ],
            [
              112.89460376726592,
              27.803851316283655
            ],
            [
              112.89347306449787,
              27.804620427602345
            ],
            [
              112.89290075684393,
              27.805067793555367
            ],
            [
              112.8917827604967,
              27.806103791847917
            ],
            [
              112.8892380113754,
              27.80872751920525
            ],
            [
              112.88798923125624,
              27.811190741723607
            ],
            [
              112.8878459876977,
              27.811383049853248
            ],
            [
              112.88760321529722,
              27.812136491382034
            ],
            [
              112.88540962528114,
              27.817639266462194
            ],
            [
              112.88467132890722,
              27.821235141346875
            ],
            [
              112.88443186910884,
              27.821784849691554
            ],
            [
              112.88915826912262,
              27.821910324173643
            ],
            [
              112.89105838561159,
              27.823537684485046
            ],
            [
              112.89294568044652,
              27.8220582945457
            ],
            [
              112.89325784500775,
              27.82181299967965
            ],
            [
              112.89884205847807,
              27.81742490208896
            ],
            [
              112.90149422745493,
              27.81784500144005
            ],
            [
              112.90278301613856,
              27.81807519228491
            ],
            [
              112.90494290833969,
              27.818155289813177
            ],
            [
              112.90766243658982,
              27.818157159271166
            ],
            [
              112.90778881068564,
              27.81817607710431
            ],
            [
              112.90793524685675,
              27.818197998142253
            ],
            [
              112.90852362989312,
              27.81828607870473
            ],
            [
              112.91022306903582,
              27.818537098739398
            ],
            [
              112.91297106669391,
              27.81893857323149
            ],
            [
              112.91367933080328,
              27.820130269680334
            ],
            [
              112.91469142400632,
              27.82183315307566
            ],
            [
              112.91479542735668,
              27.821887069171282
            ],
            [
              112.91575503828588,
              27.821280238251276
            ],
            [
              112.91581532512292,
              27.821232145373074
            ],
            [
              112.91650648171598,
              27.82058402474655
            ],
            [
              112.91670357208935,
              27.8203972148452
            ],
            [
              112.91813264168769,
              27.819042677330216
            ],
            [
              112.91815360926475,
              27.819022803872443
            ],
            [
              112.92691212399612,
              27.81870402799653
            ],
            [
              112.92719314935633,
              27.818693799657154
            ],
            [
              112.92362133729391,
              27.82377210090405
            ],
            [
              112.92359608565127,
              27.823807650542264
            ],
            [
              112.92683058122283,
              27.825112057684763
            ],
            [
              112.9287242981137,
              27.825900667706208
            ],
            [
              112.92875272889412,
              27.825848695223797
            ],
            [
              112.92886223622224,
              27.825733196580572
            ],
            [
              112.9291713752576,
              27.825422326084436
            ],
            [
              112.93044305283165,
              27.824080955823106
            ],
            [
              112.93143321636201,
              27.82302858828166
            ]
          ]
        ]
      },
      "properties": {
        "name": "湘机中学",
        "isAssistFeature": false,
        "sourceFileId": "file_1777360798519_8_g1",
        "sourceFileName": "湘机中学.geojson",
        "sourceGroupId": 1,
        "id": "imported_1777360798519_8_0_g1",
        "sourceFile": "湘机中学.geojson"
      },
      "id": "imported_1777360798519_8_0_g1"
    }
  ],
  "properties": {
    "fileName": "湘机中学.geojson",
    "exportTime": "2026/4/28 15:27:51",
    "isStarred": false
  }
}