{
  "type": "FeatureCollection",
  "features": [
    {
      "type": "Feature",
      "geometry": {
        "type": "Polygon",
        "coordinates": [
          [
            [
              112.970853803617,
              27.88303620808118
            ],
            [
              112.9692601384041,
              27.880780941162357
            ],
            [
              112.96929140786081,
              27.88079035134335
            ],
            [
              112.97226415412152,
              27.88168495321399
            ],
            [
              112.97467013350655,
              27.88173275805049
            ],
            [
              112.97614591999127,
              27.88112138099683
            ],
            [
              112.97665813128143,
              27.880541792385316
            ],
            [
              112.97543564275738,
              27.878794049404505
            ],
            [
              112.97424471654082,
              27.87768940192538
            ],
            [
              112.9705813832189,
              27.8742788791791
            ],
            [
              112.97005169340824,
              27.874549412982503
            ],
            [
              112.97003992278307,
              27.875829237519596
            ],
            [
              112.96898862710103,
              27.876293890137347
            ],
            [
              112.96895700191145,
              27.876307867427442
            ],
            [
              112.96762689341973,
              27.876068553134928
            ],
            [
              112.96610845133203,
              27.875038453418185
            ],
            [
              112.96676761981617,
              27.8742788791791
            ],
            [
              112.96559053214655,
              27.873477678738254
            ],
            [
              112.96559053214655,
              27.873207142258423
            ],
            [
              112.96597584652136,
              27.873098190554927
            ],
            [
              112.96604294707981,
              27.87307341709399
            ],
            [
              112.96669823663854,
              27.872794846492653
            ],
            [
              112.96671235635819,
              27.872758224197696
            ],
            [
              112.96684240815681,
              27.8721412782554
            ],
            [
              112.96705041485747,
              27.871812236600633
            ],
            [
              112.96748832199893,
              27.871831592159864
            ],
            [
              112.96799661573615,
              27.871706169281524
            ],
            [
              112.96741279164983,
              27.870897145266284
            ],
            [
              112.96728829952448,
              27.870394484496416
            ],
            [
              112.96727913581032,
              27.870357483390165
            ],
            [
              112.96711653535398,
              27.869700952667642
            ],
            [
              112.96644907541977,
              27.86986021775843
            ],
            [
              112.96616624624247,
              27.8699277045379
            ],
            [
              112.96467925956274,
              27.870504598328964
            ],
            [
              112.96322083571583,
              27.870190994932145
            ],
            [
              112.96333103564503,
              27.869110102586973
            ],
            [
              112.96223541349357,
              27.868884304342018
            ],
            [
              112.9611711578169,
              27.86920662308306
            ],
            [
              112.96081647868822,
              27.86855680214515
            ],
            [
              112.96083585894218,
              27.868530668093612
            ],
            [
              112.96181168266563,
              27.867396707521095
            ],
            [
              112.96099478528897,
              27.8673459294522
            ],
            [
              112.9593776902168,
              27.866699790127015
            ],
            [
              112.95900323018554,
              27.86612482968434
            ],
            [
              112.95748568012495,
              27.866194521756967
            ],
            [
              112.95665792570975,
              27.866316483768884
            ],
            [
              112.95638822900357,
              27.865870851942134
            ],
            [
              112.95581463762669,
              27.86492307453848
            ],
            [
              112.95531355017468,
              27.86308396201474
            ],
            [
              112.95470593241146,
              27.860853817606753
            ],
            [
              112.95393493625086,
              27.858023953548567
            ],
            [
              112.95355403619735,
              27.856625872541855
            ],
            [
              112.95307290931095,
              27.854859885491635
            ],
            [
              112.95304897819179,
              27.85480757662482
            ],
            [
              112.95294026407609,
              27.854569458617902
            ],
            [
              112.95284598588702,
              27.854337815485536
            ],
            [
              112.95275783330989,
              27.854182862524638
            ],
            [
              112.94468777124261,
              27.849642855415297
            ],
            [
              112.9437084297165,
              27.849091890840683
            ],
            [
              112.9435140756115,
              27.849676159916598
            ],
            [
              112.94381393594828,
              27.850353711409383
            ],
            [
              112.94286410228264,
              27.850937624212506
            ],
            [
              112.942115620598,
              27.85139728999316
            ],
            [
              112.94174822940974,
              27.850829959062565
            ],
            [
              112.94191481838594,
              27.850579560966253
            ],
            [
              112.94097636547662,
              27.850319342801924
            ],
            [
              112.94045271683623,
              27.85003421264331
            ],
            [
              112.9375799800161,
              27.854302758744737
            ],
            [
              112.93253531557092,
              27.861530806432697
            ],
            [
              112.93381990174757,
              27.862276493303924
            ],
            [
              112.93477970575881,
              27.862735045326716
            ],
            [
              112.94232169904977,
              27.865606002726892
            ],
            [
              112.94495269852774,
              27.867066062926384
            ],
            [
              112.94992974545433,
              27.87105531748834
            ],
            [
              112.95114373052591,
              27.872311009216403
            ],
            [
              112.95422840327778,
              27.876156985336493
            ],
            [
              112.95748469483372,
              27.88078116752365
            ],
            [
              112.95880979676059,
              27.88414220112064
            ],
            [
              112.95994285492995,
              27.88762194922154
            ],
            [
              112.96012984881986,
              27.889482022819394
            ],
            [
              112.96590777218915,
              27.887775807860848
            ],
            [
              112.97293447069832,
              27.885400925658104
            ],
            [
              112.97279123252963,
              27.88523969363129
            ],
            [
              112.970853803617,
              27.88303620808118
            ]
          ]
        ]
      },
      "properties": {
        "name": "湘纺中学",
        "isAssistFeature": false,
        "sourceFileId": "file_1777360798521_16_g1",
        "sourceFileName": "湘纺中学.geojson",
        "sourceGroupId": 1,
        "id": "imported_1777360798521_16_0_g1",
        "sourceFile": "湘纺中学.geojson"
      },
      "id": "imported_1777360798521_16_0_g1"
    }
  ],
  "properties": {
    "fileName": "湘纺中学.geojson",
    "exportTime": "2026/4/28 15:24:12",
    "isStarred": false
  }
}