{
  "type": "FeatureCollection",
  "features": [
    {
      "type": "Feature",
      "geometry": {
        "type": "Polygon",
        "coordinates": [
          [
            [
              112.9375799800161,
              27.854302758744737
            ],
            [
              112.94045271683623,
              27.85003421264331
            ],
            [
              112.94097636547662,
              27.850319342801924
            ],
            [
              112.94191481838594,
              27.850579560966253
            ],
            [
              112.94174822940974,
              27.850829959062565
            ],
            [
              112.942115620598,
              27.85139728999316
            ],
            [
              112.94286410228264,
              27.850937624212506
            ],
            [
              112.94381393594828,
              27.850353711409383
            ],
            [
              112.9435140756115,
              27.849676159916598
            ],
            [
              112.9437084297165,
              27.849091890840683
            ],
            [
              112.94468777124261,
              27.849642855415297
            ],
            [
              112.95275783330989,
              27.854182862524638
            ],
            [
              112.95294026407609,
              27.854569458617902
            ],
            [
              112.95304897819179,
              27.85480757662482
            ],
            [
              112.95307290931095,
              27.854859885491635
            ],
            [
              112.95313268051501,
              27.854768760142818
            ],
            [
              112.95317505494528,
              27.854704157311957
            ],
            [
              112.95320755868721,
              27.854654791796065
            ],
            [
              112.95359526258065,
              27.854063518166612
            ],
            [
              112.95221754158227,
              27.84727683873996
            ],
            [
              112.9520107458106,
              27.84625812242163
            ],
            [
              112.95207437168554,
              27.846246503486896
            ],
            [
              112.952304397819,
              27.84683471168836
            ],
            [
              112.95303771125349,
              27.846775766642125
            ],
            [
              112.95281771722314,
              27.846145052642
            ],
            [
              112.95295104693851,
              27.84587979799491
            ],
            [
              112.95293771396697,
              27.845254973373585
            ],
            [
              112.95231106430478,
              27.845290340901073
            ],
            [
              112.95248439293476,
              27.84604484540712
            ],
            [
              112.95204440487406,
              27.84602126722075
            ],
            [
              112.95194288258244,
              27.8453002201596
            ],
            [
              112.95185041270206,
              27.845305125763147
            ],
            [
              112.9516246463082,
              27.8443176406073
            ],
            [
              112.95124216701643,
              27.842644684139202
            ],
            [
              112.95131929187517,
              27.842648729613742
            ],
            [
              112.95102350270321,
              27.841175394029634
            ],
            [
              112.95104080605225,
              27.838793980072225
            ],
            [
              112.95104687956187,
              27.833689146108284
            ],
            [
              112.94854038947635,
              27.833415793525177
            ],
            [
              112.94666369116851,
              27.833214083892642
            ],
            [
              112.94264396203741,
              27.83276881966094
            ],
            [
              112.93026810952335,
              27.831417421879422
            ],
            [
              112.92967210338347,
              27.83137725766298
            ],
            [
              112.92906504976224,
              27.831364161133465
            ],
            [
              112.9280560314924,
              27.83125433722593
            ],
            [
              112.92676954608916,
              27.83110740814358
            ],
            [
              112.92726011965907,
              27.829554818208393
            ],
            [
              112.92705937673581,
              27.829448406080573
            ],
            [
              112.92701146868338,
              27.829096303931166
            ],
            [
              112.9267765367787,
              27.828883832984076
            ],
            [
              112.92623914211785,
              27.828480054895167
            ],
            [
              112.92557245024324,
              27.827765399601844
            ],
            [
              112.92523304247439,
              27.827147218095973
            ],
            [
              112.92439664626617,
              27.827522415126495
            ],
            [
              112.9242578107407,
              27.827740663448054
            ],
            [
              112.92452567488365,
              27.828176777449997
            ],
            [
              112.92414761799806,
              27.828572985810666
            ],
            [
              112.92392137819203,
              27.82871149585634
            ],
            [
              112.92313563349113,
              27.829192547046503
            ],
            [
              112.92056855653125,
              27.827858357345377
            ],
            [
              112.92052935854383,
              27.827837624340347
            ],
            [
              112.92049628976163,
              27.82788141961126
            ],
            [
              112.92034780812664,
              27.828080206924383
            ],
            [
              112.91685331675563,
              27.83271881182415
            ],
            [
              112.91672569939142,
              27.832889487075803
            ],
            [
              112.91515737295768,
              27.83495072006768
            ],
            [
              112.91423210911334,
              27.836389085597148
            ],
            [
              112.91299920552188,
              27.83830559667655
            ],
            [
              112.91316898711057,
              27.838355399378926
            ],
            [
              112.91334211312709,
              27.83840819835261
            ],
            [
              112.91340795334922,
              27.838425560493718
            ],
            [
              112.91666807336425,
              27.839165994404226
            ],
            [
              112.9214703213461,
              27.840221735514305
            ],
            [
              112.92262414624311,
              27.8405288079975
            ],
            [
              112.9230570569549,
              27.840644020026218
            ],
            [
              112.9231185403479,
              27.840660382535972
            ],
            [
              112.92296519523396,
              27.840766921883343
            ],
            [
              112.92267048044712,
              27.84097167962821
            ],
            [
              112.92231843428056,
              27.841396174223533
            ],
            [
              112.9218741392191,
              27.842528150895774
            ],
            [
              112.92160990337155,
              27.84459356945993
            ],
            [
              112.92147451288518,
              27.845655218164225
            ],
            [
              112.92142607931834,
              27.846037204384544
            ],
            [
              112.9216928430251,
              27.846112634651035
            ],
            [
              112.92171578779411,
              27.85283796235801
            ],
            [
              112.91958452400273,
              27.856370217386313
            ],
            [
              112.93036725507586,
              27.860755953242474
            ],
            [
              112.93253531557092,
              27.861530806432697
            ],
            [
              112.93425426142574,
              27.85879146144825
            ],
            [
              112.93597739632902,
              27.856478212989714
            ],
            [
              112.93598592493431,
              27.856450545564726
            ],
            [
              112.9375799800161,
              27.854302758744737
            ]
          ]
        ]
      },
      "properties": {
        "name": "湘钢一中教育集团十二中校区",
        "isAssistFeature": false,
        "sourceFileId": "file_1778659328480_24_g1",
        "sourceFileName": "湘钢一中教育集团十二中校区.geojson",
        "sourceGroupId": 1,
        "id": "imported_1778659328480_24_0_g1",
        "sourceFile": "湘钢一中教育集团十二中校区.geojson"
      },
      "id": "imported_1778659328480_24_0_g1"
    }
  ],
  "properties": {
    "fileName": "湘钢一中教育集团十二中校区.geojson",
    "exportTime": "2026/5/13 16:05:50",
    "isStarred": false
  }
}