{
  "type": "FeatureCollection",
  "features": [
    {
      "type": "Feature",
      "properties": {
        "name": "湘钢二中教育集团钢二中校区",
        "isAssistFeature": false
      },
      "geometry": {
        "type": "Polygon",
        "coordinates": [
          [
            [
              112.9071164091191,
              27.8396981858761
            ],
            [
              112.90714841339772,
              27.83887748277567
            ],
            [
              112.90820455369409,
              27.83889163249822
            ],
            [
              112.90868110366411,
              27.83702274820586
            ],
            [
              112.90912119101675,
              27.837136794658626
            ],
            [
              112.912839851577,
              27.838257107016346
            ],
            [
              112.91299920552188,
              27.83830559667656
            ],
            [
              112.91423210911334,
              27.83638908559715
            ],
            [
              112.9151573729577,
              27.834950720067688
            ],
            [
              112.9167256993914,
              27.83288948707578
            ],
            [
              112.91685331675563,
              27.832718811824158
            ],
            [
              112.92034780812662,
              27.828080206924405
            ],
            [
              112.92049628976163,
              27.82788141961125
            ],
            [
              112.92052935854383,
              27.827837624340372
            ],
            [
              112.92359608565127,
              27.823807650542275
            ],
            [
              112.92362133729391,
              27.823772100904034
            ],
            [
              112.92719314935633,
              27.81869379965715
            ],
            [
              112.92691212399612,
              27.81870402799655
            ],
            [
              112.91815360926475,
              27.819022803872457
            ],
            [
              112.9181326416877,
              27.819042677330224
            ],
            [
              112.91670357208933,
              27.820397214845176
            ],
            [
              112.91650648171598,
              27.820584024746537
            ],
            [
              112.91581532512292,
              27.821232145373045
            ],
            [
              112.91575503828588,
              27.82128023825128
            ],
            [
              112.91479542735668,
              27.821887069171314
            ],
            [
              112.91469142400632,
              27.821833153075666
            ],
            [
              112.91367933080326,
              27.820130269680327
            ],
            [
              112.91297106669393,
              27.818938573231485
            ],
            [
              112.91022306903582,
              27.81853709873941
            ],
            [
              112.90852362989311,
              27.818286078704734
            ],
            [
              112.90793524685674,
              27.81819799814224
            ],
            [
              112.90778881068566,
              27.818176077104305
            ],
            [
              112.90766243658982,
              27.81815715927119
            ],
            [
              112.9049429083397,
              27.81815528981317
            ],
            [
              112.90278301613856,
              27.81807519228489
            ],
            [
              112.90149422745493,
              27.81784500144005
            ],
            [
              112.89884205847808,
              27.817424902088973
            ],
            [
              112.89325784500775,
              27.82181299967965
            ],
            [
              112.89294568044652,
              27.8220582945457
            ],
            [
              112.89299411670831,
              27.82209297241594
            ],
            [
              112.89437234435658,
              27.823079700915482
            ],
            [
              112.89802578453225,
              27.829983944412028
            ],
            [
              112.89924667854667,
              27.82959300420879
            ],
            [
              112.89931232473272,
              27.829572480466613
            ],
            [
              112.90067238036107,
              27.829146680458972
            ],
            [
              112.90061320923162,
              27.829905547712066
            ],
            [
              112.90057322252339,
              27.830356266198027
            ],
            [
              112.90057789645779,
              27.83040064752177
            ],
            [
              112.9012184428661,
              27.83260363904353
            ],
            [
              112.90128229421818,
              27.832836942005404
            ],
            [
              112.90145792383937,
              27.832970081290046
            ],
            [
              112.90251517714837,
              27.83272217846262
            ],
            [
              112.90306312431886,
              27.83291345149609
            ],
            [
              112.90356060323839,
              27.832926203072592
            ],
            [
              112.90389037927075,
              27.83339845520849
            ],
            [
              112.90300544618943,
              27.834112086785904
            ],
            [
              112.9030775440758,
              27.835176820149705
            ],
            [
              112.90366548334441,
              27.837090133095618
            ],
            [
              112.9037309570539,
              27.83750313421747
            ],
            [
              112.90395778256146,
              27.83909709042447
            ],
            [
              112.90523568546047,
              27.839959162699103
            ],
            [
              112.90590117269431,
              27.840295425459196
            ],
            [
              112.90654289320068,
              27.84016932664914
            ],
            [
              112.90685186964096,
              27.84002221184743
            ],
            [
              112.90682810201517,
              27.839875096846225
            ],
            [
              112.9071164091191,
              27.8396981858761
            ]
          ]
        ]
      }
    }
  ]
}