{
  "type": "FeatureCollection",
  "features": [
    {
      "type": "Feature",
      "geometry": {
        "type": "Polygon",
        "coordinates": [
          [
            [
              113.07092072020657,
              27.97905580609701
            ],
            [
              113.06828441457931,
              27.976448221677032
            ],
            [
              113.06712443981586,
              27.973654311896624
            ],
            [
              113.06870622301251,
              27.971745098410224
            ],
            [
              113.070498910875,
              27.9714656981903
            ],
            [
              113.07361133258598,
              27.971826200954624
            ],
            [
              113.07371520388398,
              27.971838231656022
            ],
            [
              113.07373537465536,
              27.971791820940936
            ],
            [
              113.07571879551385,
              27.96722804384669
            ],
            [
              113.07896085939174,
              27.9662670181185
            ],
            [
              113.0849189094625,
              27.968083192135722
            ],
            [
              113.08512981412828,
              27.966406725446703
            ],
            [
              113.08387906909695,
              27.96214876973525
            ],
            [
              113.08222820455661,
              27.956525941249083
            ],
            [
              113.08187599310001,
              27.9558241474314
            ],
            [
              113.08080627297144,
              27.953692667179
            ],
            [
              113.08008242938013,
              27.95273849591102
            ],
            [
              113.07737907619503,
              27.9491748570627
            ],
            [
              113.07657140271972,
              27.949227062401135
            ],
            [
              113.07521730561663,
              27.94931458651314
            ],
            [
              113.07455073770953,
              27.94931458651314
            ],
            [
              113.07389915280304,
              27.94931458651314
            ],
            [
              113.06809928078242,
              27.944982906145214
            ],
            [
              113.06388119195849,
              27.941629227629818
            ],
            [
              113.06174817106243,
              27.938377725792108
            ],
            [
              113.06119215971563,
              27.937530145911666
            ],
            [
              113.06097440719245,
              27.936780890998094
            ],
            [
              113.0601903639007,
              27.93408307108247
            ],
            [
              113.05851592217739,
              27.93040925286074
            ],
            [
              113.05728004606063,
              27.927697590539665
            ],
            [
              113.05682693133977,
              27.924048638513767
            ],
            [
              113.05669219752185,
              27.922963599316816
            ],
            [
              113.0557201871468,
              27.91702168958669
            ],
            [
              113.05524130694694,
              27.914094173466935
            ],
            [
              113.05411264116606,
              27.912740623266373
            ],
            [
              113.05177700076611,
              27.908820973783406
            ],
            [
              113.05159088690723,
              27.90857363898367
            ],
            [
              113.04833239374115,
              27.9041642364015
            ],
            [
              113.04625553012679,
              27.900949340577043
            ],
            [
              113.0449194307704,
              27.89888106546215
            ],
            [
              113.0437934051382,
              27.89713795173796
            ],
            [
              113.04220679798843,
              27.894044350023236
            ],
            [
              113.04213854938305,
              27.89317833085464
            ],
            [
              113.04167987319224,
              27.88735796672671
            ],
            [
              113.04017437313283,
              27.879473490557828
            ],
            [
              113.03396418482643,
              27.873418356673938
            ],
            [
              113.03260794344475,
              27.8697930692328
            ],
            [
              113.0323834095395,
              27.869192869614466
            ],
            [
              113.02678916368403,
              27.869693094032513
            ],
            [
              113.02609707643634,
              27.873022698860467
            ],
            [
              113.02562582832313,
              27.875289793173394
            ],
            [
              113.02441948971122,
              27.881093073515927
            ],
            [
              113.02320042197175,
              27.88194792282856
            ],
            [
              113.02264033137526,
              27.882340673653502
            ],
            [
              113.01778766454977,
              27.8857434376131
            ],
            [
              113.01308972354889,
              27.89042134729378
            ],
            [
              113.01114741229271,
              27.89492166237497
            ],
            [
              113.00569879951449,
              27.907545043273743
            ],
            [
              113.00481217760041,
              27.908638896356265
            ],
            [
              113.00102564213392,
              27.913300000718877
            ],
            [
              113.00230980090055,
              27.920056682416174
            ],
            [
              113.00323646072685,
              27.924951471607926
            ],
            [
              113.00323646072685,
              27.931750096693406
            ],
            [
              113.00051633150382,
              27.93522140281317
            ],
            [
              113.00015678709957,
              27.936034025287512
            ],
            [
              113.00025329346539,
              27.93968155585624
            ],
            [
              113.0018566728163,
              27.941676188886788
            ],
            [
              113.0038036334567,
              27.943569610804445
            ],
            [
              113.00705318603757,
              27.946867377566235
            ],
            [
              113.00876102063346,
              27.949835010808172
            ],
            [
              113.00925185104701,
              27.951453694051594
            ],
            [
              113.00916207981925,
              27.95287989744071
            ],
            [
              113.00872540732796,
              27.95465339497835
            ],
            [
              113.0080116266461,
              27.957282693249795
            ],
            [
              113.00623214424061,
              27.960778497009343
            ],
            [
              113.00609738803325,
              27.962196139149242
            ],
            [
              113.00566077144981,
              27.96318714978453
            ],
            [
              113.00118161220828,
              27.96769381188531
            ],
            [
              113.00038948174821,
              27.96847371250152
            ],
            [
              112.99975900231198,
              27.96956482257619
            ],
            [
              113.00011072328843,
              27.96982308632863
            ],
            [
              113.00051677796651,
              27.97012124563527
            ],
            [
              113.00286753880935,
              27.971847353059403
            ],
            [
              113.00328882352477,
              27.97215668932499
            ],
            [
              113.00571044527383,
              27.975002232579968
            ],
            [
              113.00681864473758,
              27.975872192843298
            ],
            [
              113.01363202031622,
              27.975890317552327
            ],
            [
              113.0136739491821,
              27.975927714134542
            ],
            [
              113.01508909758853,
              27.97694150976804
            ],
            [
              113.01795529557172,
              27.97985763565451
            ],
            [
              113.0179669449243,
              27.980005333079674
            ],
            [
              113.01831944743506,
              27.98447461838873
            ],
            [
              113.01725731268077,
              27.988268962475672
            ],
            [
              113.0171822467607,
              27.98853712006887
            ],
            [
              113.01717496771194,
              27.98856312437664
            ],
            [
              113.0174406821865,
              27.9886124970065
            ],
            [
              113.01874205267396,
              27.9888543068312
            ],
            [
              113.02067471961726,
              27.98878196502909
            ],
            [
              113.02099857036201,
              27.988769842614346
            ],
            [
              113.02199075420342,
              27.98812054657654
            ],
            [
              113.02374947317172,
              27.98696961161778
            ],
            [
              113.02461408636132,
              27.986289199187752
            ],
            [
              113.02438566185255,
              27.985592313358822
            ],
            [
              113.02348168808048,
              27.984688104780716
            ],
            [
              113.02224441238853,
              27.983450494366238
            ],
            [
              113.02214305008513,
              27.983349103501084
            ],
            [
              113.02214861424999,
              27.98330283339098
            ],
            [
              113.0224551814087,
              27.980753483616795
            ],
            [
              113.02404184605064,
              27.978823955865195
            ],
            [
              113.02627878405875,
              27.9784104808582
            ],
            [
              113.02812555768782,
              27.978640189214815
            ],
            [
              113.02921801597283,
              27.979329311349318
            ],
            [
              113.0298162661043,
              27.980500809507348
            ],
            [
              113.02994632059784,
              27.982981586101886
            ],
            [
              113.02888882833697,
              27.985327234274465
            ],
            [
              113.02885668841273,
              27.985398524135135
            ],
            [
              113.02664293592208,
              27.99030873188704
            ],
            [
              113.02461408636132,
              27.994764495113785
            ],
            [
              113.02510829271827,
              27.99761241228768
            ],
            [
              113.02601867507158,
              27.99837031332521
            ],
            [
              113.0273726455122,
              27.99980343956689
            ],
            [
              113.02743301679088,
              27.9998554276699
            ],
            [
              113.02794638061958,
              28.00040163634864
            ],
            [
              113.03152134037876,
              28.004168653890275
            ],
            [
              113.03179418208677,
              28.00445614815486
            ],
            [
              113.03204149277602,
              28.00482595427991
            ],
            [
              113.0342978927848,
              28.00820677639156
            ],
            [
              113.03602175891669,
              28.00934824578141
            ],
            [
              113.04386124590842,
              28.010978896148288
            ],
            [
              113.04795996749571,
              28.01141513376865
            ],
            [
              113.05787247690567,
              28.013044352283643
            ],
            [
              113.06504322745721,
              28.013789129795256
            ],
            [
              113.06795556470999,
              28.013146626449753
            ],
            [
              113.0695776732798,
              28.01141513376865
            ],
            [
              113.07047401676185,
              28.00955313889446
            ],
            [
              113.07189762190836,
              28.00759801034829
            ],
            [
              113.07695932849708,
              28.002756585809138
            ],
            [
              113.0810192392708,
              27.999916802867062
            ],
            [
              113.08233739208445,
              27.995680266485863
            ],
            [
              113.08460461499573,
              27.99270062476971
            ],
            [
              113.08449916266288,
              27.991210773023283
            ],
            [
              113.07835510114114,
              27.98394485626757
            ],
            [
              113.07092072020657,
              27.97905580609701
            ]
          ]
        ]
      },
      "properties": {
        "name": "湘钢二中教育集团易家湾校区",
        "isAssistFeature": false,
        "sourceFileId": "file_1777360798522_18_g1",
        "sourceFileName": "湘钢二中教育集团易家湾校区.geojson",
        "sourceGroupId": 1,
        "id": "imported_1777360798522_18_0_g1",
        "sourceFile": "湘钢二中教育集团易家湾校区.geojson"
      },
      "id": "imported_1777360798522_18_0_g1"
    }
  ],
  "properties": {
    "fileName": "湘钢二中教育集团易家湾校区.geojson",
    "exportTime": "2026/4/28 15:21:39",
    "isStarred": false
  }
}