{
  "type": "FeatureCollection",
  "features": [
    {
      "type": "Feature",
      "properties": {
        "name": "长郡湘潭高新实验学校初中部",
        "isAssistFeature": false
      },
      "geometry": {
        "type": "Polygon",
        "coordinates": [
          [
            [
              113.02562582832313,
              27.875289793173383
            ],
            [
              113.02609707643634,
              27.873022698860474
            ],
            [
              113.02678916368403,
              27.869693094032534
            ],
            [
              113.0323834095395,
              27.86919286961447
            ],
            [
              113.03297968068236,
              27.86610170804661
            ],
            [
              113.03387768245446,
              27.86548266099199
            ],
            [
              113.03676464140217,
              27.865300901393685
            ],
            [
              113.03605829699256,
              27.859056583321788
            ],
            [
              113.03896578244452,
              27.85241590243871
            ],
            [
              113.03614867739161,
              27.85045892434706
            ],
            [
              113.03072015273978,
              27.84668775445462
            ],
            [
              113.01554255007598,
              27.836143248788492
            ],
            [
              113.01178663368596,
              27.833818309243963
            ],
            [
              113.00935220196092,
              27.832311351677223
            ],
            [
              113.00740210051458,
              27.83110418841993
            ],
            [
              113.00623191100806,
              27.82961942013015
            ],
            [
              113.00292485401943,
              27.82453506220984
            ],
            [
              112.99531984079157,
              27.818532820372877
            ],
            [
              112.99488616022352,
              27.818190528257695
            ],
            [
              112.99273545239784,
              27.817159186664423
            ],
            [
              112.98795521224218,
              27.814866856141748
            ],
            [
              112.9793758242734,
              27.812349194534296
            ],
            [
              112.96710151103086,
              27.808747137718278
            ],
            [
              112.9661990203773,
              27.808482285420002
            ],
            [
              112.9655212450887,
              27.808283379590886
            ],
            [
              112.9558110416706,
              27.806041980007986
            ],
            [
              112.95571962281909,
              27.80629052221551
            ],
            [
              112.95303340050644,
              27.813593385812176
            ],
            [
              112.95295418526806,
              27.813853203416
            ],
            [
              112.95289238926136,
              27.81405588974763
            ],
            [
              112.95181938489215,
              27.81757517548505
            ],
            [
              112.95141016185602,
              27.820770023956214
            ],
            [
              112.95127824964645,
              27.82176285411811
            ],
            [
              112.95123464991416,
              27.8220905127337
            ],
            [
              112.95122418903264,
              27.822181199973716
            ],
            [
              112.94774531127962,
              27.82229185057058
            ],
            [
              112.94257862397355,
              27.822462817898845
            ],
            [
              112.94231874765006,
              27.822462817898845
            ],
            [
              112.93143321636201,
              27.82302858828165
            ],
            [
              112.93044305283165,
              27.824080955823117
            ],
            [
              112.92917137525758,
              27.825422326084443
            ],
            [
              112.92886223622224,
              27.825733196580575
            ],
            [
              112.92875272889412,
              27.825848695223797
            ],
            [
              112.92872429811372,
              27.825900667706204
            ],
            [
              112.92683058122282,
              27.825112057684773
            ],
            [
              112.92359608565127,
              27.823807650542275
            ],
            [
              112.92052935854383,
              27.827837624340372
            ],
            [
              112.92056855653125,
              27.827858357345384
            ],
            [
              112.92313563349113,
              27.829192547046517
            ],
            [
              112.92392137819205,
              27.828711495856357
            ],
            [
              112.92414761799805,
              27.82857298581066
            ],
            [
              112.92452567488367,
              27.828176777449997
            ],
            [
              112.9242578107407,
              27.827740663448058
            ],
            [
              112.92439664626617,
              27.827522415126495
            ],
            [
              112.92523304247439,
              27.82714721809596
            ],
            [
              112.92557245024324,
              27.827765399601855
            ],
            [
              112.92623914211785,
              27.828480054895184
            ],
            [
              112.92677653677872,
              27.82888383298408
            ],
            [
              112.92701146868338,
              27.829096303931184
            ],
            [
              112.9270593767358,
              27.829448406080584
            ],
            [
              112.92726011965907,
              27.829554818208397
            ],
            [
              112.92676954608916,
              27.831107408143577
            ],
            [
              112.9280560314924,
              27.831254337225907
            ],
            [
              112.92906504976223,
              27.83136416113346
            ],
            [
              112.92967210338347,
              27.831377257662947
            ],
            [
              112.93026810952335,
              27.83141742187941
            ],
            [
              112.94264396203742,
              27.83276881966097
            ],
            [
              112.94666369116851,
              27.833214083892635
            ],
            [
              112.94854038947634,
              27.833415793525184
            ],
            [
              112.95104687956189,
              27.833689146108256
            ],
            [
              112.95104080605225,
              27.83879398007224
            ],
            [
              112.95102350270322,
              27.841175394029634
            ],
            [
              112.95131929187517,
              27.84264872961372
            ],
            [
              112.9513696945491,
              27.842650897314428
            ],
            [
              112.95157615435085,
              27.842660955000316
            ],
            [
              112.95202594979678,
              27.842682867916135
            ],
            [
              112.95258639612612,
              27.842210900047835
            ],
            [
              112.95354716228879,
              27.842305293468026
            ],
            [
              112.95368060253266,
              27.84175072906153
            ],
            [
              112.95478142143803,
              27.841807248597753
            ],
            [
              112.95574891777879,
              27.841856922600417
            ],
            [
              112.95577112682757,
              27.841931893476424
            ],
            [
              112.95670022018999,
              27.845068113211127
            ],
            [
              112.95622372322055,
              27.845336229000328
            ],
            [
              112.95655582678782,
              27.845795853390833
            ],
            [
              112.95671465970986,
              27.84566818032091
            ],
            [
              112.95722003392237,
              27.845763935336027
            ],
            [
              112.95746550216704,
              27.845227706003712
            ],
            [
              112.9580719521204,
              27.845100032265016
            ],
            [
              112.95840405568768,
              27.845444751094043
            ],
            [
              112.95886347298858,
              27.84624238030571
            ],
            [
              112.95909353153284,
              27.846293778277854
            ],
            [
              112.95923070427673,
              27.845830963716857
            ],
            [
              112.961847381715,
              27.8459052360423
            ],
            [
              112.96199469464183,
              27.846296000711973
            ],
            [
              112.96249187621899,
              27.846344845799557
            ],
            [
              112.96245519261605,
              27.843601396142045
            ],
            [
              112.96320305805638,
              27.84331100663241
            ],
            [
              112.96371592781165,
              27.843750342540332
            ],
            [
              112.96431652793588,
              27.843448590758626
            ],
            [
              112.9642805252559,
              27.843009273486466
            ],
            [
              112.96529219894576,
              27.843139795723758
            ],
            [
              112.96536781732972,
              27.84190238744699
            ],
            [
              112.9658098818743,
              27.841604561654886
            ],
            [
              112.96618889187245,
              27.842140695310267
            ],
            [
              112.96617729821541,
              27.842751136545512
            ],
            [
              112.96617066325872,
              27.842773697607914
            ],
            [
              112.96690772016954,
              27.84277613775775
            ],
            [
              112.96692462017498,
              27.84307501042089
            ],
            [
              112.96693585181097,
              27.843273636456118
            ],
            [
              112.9682876168876,
              27.843404022547443
            ],
            [
              112.96835242135221,
              27.8438115029942
            ],
            [
              112.96895006512082,
              27.843805136583203
            ],
            [
              112.96896446601316,
              27.84466466143814
            ],
            [
              112.9693172919174,
              27.844817465108424
            ],
            [
              112.96959091156641,
              27.844651927921603
            ],
            [
              112.96997253925531,
              27.844887499721068
            ],
            [
              112.97068539195914,
              27.84388790545718
            ],
            [
              112.97179427234583,
              27.844728329792634
            ],
            [
              112.97216149914243,
              27.844530958248637
            ],
            [
              112.97261513219122,
              27.844747430450557
            ],
            [
              112.97270873844047,
              27.845040303871738
            ],
            [
              112.97308316613235,
              27.845174006433382
            ],
            [
              112.97302556166474,
              27.84535227625921
            ],
            [
              112.97256472861895,
              27.845501896202187
            ],
            [
              112.97295715675251,
              27.84595711948924
            ],
            [
              112.973093966577,
              27.84599850311308
            ],
            [
              112.97347475164617,
              27.845781441656325
            ],
            [
              112.9740768384822,
              27.845438228301777
            ],
            [
              112.97457367420793,
              27.845412760654575
            ],
            [
              112.97523252289184,
              27.846332757446664
            ],
            [
              112.975664554153,
              27.846536492757245
            ],
            [
              112.97558534789779,
              27.846740226890866
            ],
            [
              112.97582296576515,
              27.846975794948964
            ],
            [
              112.97577256219289,
              27.84738962897255
            ],
            [
              112.97597417648197,
              27.84742146235466
            ],
            [
              112.97611645614826,
              27.84863989912035
            ],
            [
              112.97617789462548,
              27.852246848790386
            ],
            [
              112.98128991495497,
              27.852209952683623
            ],
            [
              112.9811751551774,
              27.85311391321621
            ],
            [
              112.98150900147633,
              27.853261497926056
            ],
            [
              112.98175938620052,
              27.853123136770062
            ],
            [
              112.98220799227698,
              27.8540363139599
            ],
            [
              112.98205150216127,
              27.85422079364352
            ],
            [
              112.9824375118321,
              27.854829572863384
            ],
            [
              112.98234494223868,
              27.855849523100744
            ],
            [
              112.98195061057504,
              27.856058705575446
            ],
            [
              112.98200318807034,
              27.85623302452552
            ],
            [
              112.98237123053718,
              27.856221403482696
            ],
            [
              112.98291014963905,
              27.85623302452552
            ],
            [
              112.98315269835902,
              27.856845717464708
            ],
            [
              112.98330769457644,
              27.8572372440719
            ],
            [
              112.9833392757486,
              27.857317019629782
            ],
            [
              112.98337020294721,
              27.85739514237272
            ],
            [
              112.9833044813027,
              27.857871606890644
            ],
            [
              112.98384340040455,
              27.858080786257887
            ],
            [
              112.98366993392658,
              27.858278685907745
            ],
            [
              112.98344158936789,
              27.858421190205547
            ],
            [
              112.98469748623735,
              27.858789325044068
            ],
            [
              112.98471763455086,
              27.859127770652634
            ],
            [
              112.98542079353444,
              27.85903646304825
            ],
            [
              112.98620301953443,
              27.858668574457848
            ],
            [
              112.98646874748367,
              27.858539481417168
            ],
            [
              112.98662973456572,
              27.857956819926844
            ],
            [
              112.98682870690959,
              27.858813792826
            ],
            [
              112.98748285381127,
              27.86163115967415
            ],
            [
              112.988020518865,
              27.873749631203797
            ],
            [
              112.98942771538454,
              27.87370226197721
            ],
            [
              112.99940522868509,
              27.87357878997107
            ],
            [
              113.0016851232318,
              27.873550575810178
            ],
            [
              113.00179385980535,
              27.87379239467408
            ],
            [
              113.002290401782,
              27.874896652295334
            ],
            [
              113.00926648381818,
              27.87720518630004
            ],
            [
              113.02303305864783,
              27.881760694550408
            ],
            [
              113.02320042197177,
              27.881947922828555
            ],
            [
              113.02441948971122,
              27.881093073515913
            ],
            [
              113.02562582832313,
              27.875289793173383
            ]
          ]
        ]
      }
    }
  ]
}