{
  "type": "FeatureCollection",
  "features": [
    {
      "type": "Feature",
      "geometry": {
        "type": "Polygon",
        "coordinates": [
          [
            [
              112.89711080666868,
              27.803724743305168
            ],
            [
              112.89862917318062,
              27.806152577267397
            ],
            [
              112.90254188688452,
              27.807960503484935
            ],
            [
              112.9043522469565,
              27.80832208511798
            ],
            [
              112.90633780316445,
              27.807185681647226
            ],
            [
              112.90773937225242,
              27.806255888147447
            ],
            [
              112.90785616967644,
              27.80377639991177
            ],
            [
              112.90785616967644,
              27.802020061509722
            ],
            [
              112.90902414391638,
              27.800160378141243
            ],
            [
              112.90879054906841,
              27.798920571548052
            ],
            [
              112.90733058126843,
              27.79830066294734
            ],
            [
              112.9035346649885,
              27.799747110848443
            ],
            [
              112.90084832423658,
              27.800883592121878
            ],
            [
              112.89775319250066,
              27.802330005643555
            ],
            [
              112.89711080666868,
              27.803724743305168
            ]
          ]
        ]
      },
      "properties": {
        "type": "assistPolygon",
        "name": "五星村",
        "fill": "#9b59b6",
        "fill-opacity": 0.2,
        "stroke": "#9b59b6",
        "stroke-width": 2,
        "stroke-opacity": 0.8,
        "isAssistFeature": true,
        "sourceFileName": "辅助要素_五星村.geojson"
      },
      "id": "assist_polygon_1773969801265_reimported_1773970100922"
    },
    {
      "type": "Feature",
      "geometry": {
        "type": "Polygon",
        "coordinates": [
          [
            [
              112.891210659708,
              27.835972587858123
            ],
            [
              112.89448098757994,
              27.836334076211358
            ],
            [
              112.89488977856391,
              27.833390493169702
            ],
            [
              112.89407219659593,
              27.83209942278512
            ],
            [
              112.891677849404,
              27.8318928500982
            ],
            [
              112.891210659708,
              27.835972587858123
            ]
          ]
        ]
      },
      "properties": {
        "name": "五星村",
        "type": "assistPolygon",
        "fill": "#9b59b6",
        "fill-opacity": 0.2,
        "stroke": "#9b59b6",
        "stroke-width": 2,
        "stroke-opacity": 0.8,
        "isAssistFeature": true,
        "sourceFileName": "辅助要素_五星村.geojson"
      },
      "id": "assist_polygon_1773969821020_reimported_1773970100923"
    },
    {
      "type": "Feature",
      "geometry": {
        "type": "Polygon",
        "coordinates": [
          [
            [
              112.925025391004,
              27.802433320158357
            ],
            [
              112.92712586758715,
              27.802348908381745
            ],
            [
              112.92765145599513,
              27.80023093954898
            ],
            [
              112.92776825341913,
              27.79909445145006
            ],
            [
              112.92385553971522,
              27.79857786202153
            ],
            [
              112.92338835001924,
              27.801625704153366
            ],
            [
              112.925025391004,
              27.802433320158357
            ]
          ]
        ]
      },
      "properties": {
        "name": "五星村",
        "type": "assistPolygon",
        "fill": "#9b59b6",
        "fill-opacity": 0.2,
        "stroke": "#9b59b6",
        "stroke-width": 2,
        "stroke-opacity": 0.8,
        "isAssistFeature": true,
        "sourceFileName": "辅助要素_五星村.geojson"
      },
      "id": "assist_polygon_1773969836718_reimported_1773970100923"
    },
    {
      "type": "Feature",
      "geometry": {
        "type": "Point",
        "coordinates": [
          112.90338655940644,
          27.804398900340686
        ]
      },
      "properties": {
        "iconType": "default",
        "iconColor": "#e74c3c",
        "iconSize": 1,
        "text": "五星村中心点",
        "textColor": "#333333",
        "type": "assistPoint",
        "name": "辅助点_1"
      },
      "id": "assist_point_1773970115349"
    }
  ],
  "properties": {
    "description": "GIS-APP 辅助要素导出",
    "exportTime": "2026/3/20 09:28:37",
    "assistElements": {
      "lines": 0,
      "polygons": 3,
      "texts": 0,
      "points": 1
    }
  }
}