{
  "type": "FeatureCollection",
  "features": [
    {
      "type": "Feature",
      "geometry": {
        "type": "Polygon",
        "coordinates": [
          [
            [
              112.88694940370173,
              27.85766640249419
            ],
            [
              112.88698089658037,
              27.85632992044819
            ],
            [
              112.88696515014105,
              27.855807710334346
            ],
            [
              112.88694015422669,
              27.854923724938004
            ],
            [
              112.88692765626953,
              27.85418338162269
            ],
            [
              112.88687766444086,
              27.85340988320678
            ],
            [
              112.88687766444086,
              27.853155732522836
            ],
            [
              112.88750256229949,
              27.852680579646176
            ],
            [
              112.88770252961423,
              27.852680579646176
            ],
            [
              112.8885898845735,
              27.85298998175584
            ],
            [
              112.88917728856062,
              27.85321098272219
            ],
            [
              112.88928977017518,
              27.853398833189402
            ],
            [
              112.88903981103171,
              27.8538076830813
            ],
            [
              112.88882109678117,
              27.854106032029435
            ],
            [
              112.88845865602318,
              27.854702727462737
            ],
            [
              112.88830243155851,
              27.854951349590763
            ],
            [
              112.88848365193753,
              27.85522207081506
            ],
            [
              112.88865862333796,
              27.855548040371815
            ],
            [
              112.88874610903814,
              27.85585190941495
            ],
            [
              112.88877110495247,
              27.856432020677744
            ],
            [
              112.88877110495247,
              27.856536992860285
            ],
            [
              112.88895857431008,
              27.856757986596563
            ],
            [
              112.88913354571048,
              27.857023178485463
            ],
            [
              112.88929601915375,
              27.857222071976395
            ],
            [
              112.88940225178969,
              27.85740439068921
            ],
            [
              112.88948348851133,
              27.857757977621915
            ],
            [
              112.88953129221981,
              27.85796970183371
            ],
            [
              112.8895447905129,
              27.858279984289283
            ],
            [
              112.88957178709904,
              27.85847689384852
            ],
            [
              112.88957178709904,
              27.858560431129234
            ],
            [
              112.88911959428076,
              27.858458992994258
            ],
            [
              112.88891161889487,
              27.859236910235765
            ],
            [
              112.88809571545798,
              27.85906718331377
            ],
            [
              112.88803172303156,
              27.85927934192476
            ],
            [
              112.88732780634089,
              27.859095471152543
            ],
            [
              112.88739179876731,
              27.85885502428752
            ],
            [
              112.8867998688229,
              27.85875601659984
            ],
            [
              112.88699184610218,
              27.857864943341497
            ],
            [
              112.88694940370173,
              27.85766640249419
            ]
          ]
        ]
      },
      "properties": {
        "name": "白石社区",
        "type": "assistPolygon",
        "fill": "#9b59b6",
        "fill-opacity": 0.2,
        "stroke": "#9b59b6",
        "stroke-width": 2,
        "stroke-opacity": 0.8
      },
      "id": "assist_polygon_1773797125697"
    },
    {
      "type": "Feature",
      "geometry": {
        "type": "Point",
        "coordinates": [
          112.8878997611284,
          27.85641171568561
        ]
      },
      "properties": {
        "iconType": "default",
        "iconColor": "#e74c3c",
        "iconSize": 1,
        "text": "白石社区中心点",
        "textColor": "#333333",
        "type": "assistPoint",
        "name": "辅助点_1"
      },
      "id": "assist_point_1773797159313"
    }
  ],
  "properties": {
    "description": "GIS-APP 辅助要素导出",
    "exportTime": "2026/3/18 09:27:21",
    "assistElements": {
      "lines": 0,
      "polygons": 1,
      "texts": 0,
      "points": 1
    }
  }
}