{
  "type": "FeatureCollection",
  "features": [
    {
      "type": "Feature",
      "geometry": {
        "type": "LineString",
        "coordinates": [
          [
            113.01710577438935,
            27.854207860467127
          ],
          [
            112.99179490575123,
            27.837829751798168
          ]
        ]
      },
      "properties": {
        "type": "assistLine",
        "name": "辅助线_1",
        "stroke": "#e74c3c",
        "stroke-width": 2,
        "stroke-opacity": 0.8,
        "stroke-dasharray": "5,5"
      }
    },
    {
      "type": "Feature",
      "geometry": {
        "type": "LineString",
        "coordinates": [
          [
            112.92036864810177,
            27.827870753808043
          ],
          [
            112.92405936770626,
            27.822898881250268
          ]
        ]
      },
      "properties": {
        "type": "assistLine",
        "name": "辅助线_2",
        "stroke": "#e74c3c",
        "stroke-width": 2,
        "stroke-opacity": 0.8,
        "stroke-dasharray": "5,5"
      }
    },
    {
      "type": "Feature",
      "geometry": {
        "type": "Polygon",
        "coordinates": [
          [
            [
              112.92064830966002,
              27.827864993610675
            ],
            [
              112.92365238375669,
              27.82376606150524
            ],
            [
              112.92845890231138,
              27.825872476502525
            ],
            [
              112.92893097109801,
              27.825625781363726
            ],
            [
              112.93032571978576,
              27.824430250826296
            ],
            [
              112.93081924624451,
              27.823841969061903
            ],
            [
              112.93090507693296,
              27.823120845130887
            ],
            [
              112.93257877535828,
              27.822988005989558
            ],
            [
              112.93541118807798,
              27.82293107487922
            ],
            [
              112.93635191889258,
              27.822919826383924
            ],
            [
              112.93602833054528,
              27.82370305221683
            ],
            [
              112.93580692799186,
              27.82528454869336
            ],
            [
              112.93556849447278,
              27.82614306570359
            ],
            [
              112.9355344325415,
              27.826760591284398
            ],
            [
              112.93569013781554,
              27.826992085855565
            ],
            [
              112.93697759814268,
              27.82716287270783
            ],
            [
              112.93682739443784,
              27.827504445606237
            ],
            [
              112.93650552935604,
              27.830540601905355
            ],
            [
              112.9363553256512,
              27.832001721851924
            ],
            [
              112.93176338381771,
              27.831584261017298
            ],
            [
              112.92680666155819,
              27.831052944905352
            ],
            [
              112.92487547106745,
              27.8301041596643
            ],
            [
              112.92064830966002,
              27.827864993610675
            ]
          ]
        ]
      },
      "properties": {
        "name": "新塘里社区",
        "type": "assistPolygon",
        "fill": "#c0392b",
        "fill-opacity": 0.4,
        "stroke": "#c0392b",
        "stroke-opacity": 1,
        "stroke-width": 3
      },
      "id": "assist_polygon_1773907800460"
    },
    {
      "type": "Feature",
      "geometry": {
        "type": "Point",
        "coordinates": [
          112.93044217381293,
          27.82829685919522
        ]
      },
      "properties": {
        "iconType": "default",
        "iconColor": "#e74c3c",
        "iconSize": 1,
        "text": "新塘里社区中心点",
        "textColor": "#333333",
        "type": "assistPoint",
        "name": "辅助点_1"
      },
      "id": "assist_point_1773907949179"
    }
  ],
  "properties": {
    "description": "GIS-APP 辅助要素导出",
    "exportTime": "2026/3/19 16:16:05",
    "assistElements": {
      "lines": 2,
      "polygons": 1,
      "texts": 0,
      "points": 1
    }
  }
}