{
  "type": "FeatureCollection",
  "features": [
    {
      "type": "Feature",
      "geometry": {
        "type": "Polygon",
        "coordinates": [
          [
            [
              112.93425724030926,
              27.91300490638912
            ],
            [
              112.95206692143371,
              27.913087713080486
            ],
            [
              112.95785107784438,
              27.91186270294152
            ],
            [
              112.95976319566607,
              27.91688938033407
            ],
            [
              112.94814707989924,
              27.919677184713095
            ],
            [
              112.94049860861243,
              27.92128225159864
            ],
            [
              112.93347157561767,
              27.92208477610589
            ],
            [
              112.93425724030926,
              27.91300490638912
            ]
          ]
        ]
      },
      "properties": {
        "sourceFileId": "file_1775096625406_1_g1",
        "sourceFileName": "九华雅礼中学.geojson",
        "sourceGroupId": 1,
        "name": "九华雅礼中学",
        "id": "imported_1775096625406_1_0_g1",
        "sourceFile": "九华雅礼中学.geojson",
        "isAssistFeature": false
      },
      "id": "imported_1775096625406_1_0_g1"
    },
    {
      "type": "Feature",
      "geometry": {
        "type": "Polygon",
        "coordinates": [
          [
            [
              112.98862698083425,
              27.95925532824556
            ],
            [
              112.97635034064925,
              27.95815841021897
            ],
            [
              112.97522708345758,
              27.951618962158392
            ],
            [
              112.97486968344204,
              27.951010096838644
            ],
            [
              112.97497179773221,
              27.948010821267005
            ],
            [
              112.97543131203788,
              27.94604884405929
            ],
            [
              112.97721831211558,
              27.945485050912765
            ],
            [
              112.9818645123176,
              27.944673183611485
            ],
            [
              112.98525981246522,
              27.944131935353624
            ],
            [
              112.98970178408693,
              27.9421247827199
            ],
            [
              112.9914887841646,
              27.940004828204593
            ],
            [
              112.994399041434,
              27.942034572736972
            ],
            [
              112.99631368437439,
              27.943816205950682
            ],
            [
              112.99886654162826,
              27.94758234652808
            ],
            [
              112.99901971306348,
              27.948326538407898
            ],
            [
              113.00150239086364,
              27.952335265647847
            ],
            [
              113.00116177155071,
              27.95528386829355
            ],
            [
              112.99976523236762,
              27.95781117789528
            ],
            [
              112.99761933069605,
              27.96066937340899
            ],
            [
              112.98862698083425,
              27.95925532824556
            ]
          ]
        ]
      },
      "properties": {
        "sourceFileId": "file_1775096625406_1_g1",
        "sourceFileName": "九华雅礼中学.geojson",
        "sourceGroupId": 1,
        "name": "九华雅礼中学",
        "id": "imported_1775096625406_1_1_g1",
        "sourceFile": "九华雅礼中学.geojson",
        "isAssistFeature": false
      },
      "id": "imported_1775096625406_1_1_g1"
    },
    {
      "type": "Feature",
      "geometry": {
        "type": "Polygon",
        "coordinates": [
          [
            [
              112.92858306218207,
              28.01852593717264
            ],
            [
              112.9302128038819,
              28.01391198311454
            ],
            [
              112.93133676367489,
              28.00741242216364
            ],
            [
              112.9285338639189,
              28.001719551765277
            ],
            [
              112.9229449531128,
              27.996684090650746
            ],
            [
              112.92414257685697,
              27.995626613923122
            ],
            [
              112.9265948540474,
              27.995828038861674
            ],
            [
              112.92961742825887,
              27.996507845250036
            ],
            [
              112.9314708935772,
              27.996205709606812
            ],
            [
              112.93244039851294,
              27.996155353583916
            ],
            [
              112.93366653710815,
              27.99451877003223
            ],
            [
              112.93489267570337,
              27.993360557425618
            ],
            [
              112.93496609128644,
              27.989853147483714
            ],
            [
              112.93602519273904,
              27.988535017862176
            ],
            [
              112.93686681178784,
              27.989816362940232
            ],
            [
              112.93886928469712,
              27.987522744482632
            ],
            [
              112.94291598545102,
              27.986512099130664
            ],
            [
              112.94623564903884,
              27.98455059249909
            ],
            [
              112.94579579746765,
              27.982215868390355
            ],
            [
              112.94567278234905,
              27.98103446908972
            ],
            [
              112.94305259938275,
              27.97795030414663
            ],
            [
              112.94230811600463,
              27.977389832825367
            ],
            [
              112.94003805193351,
              27.976355108888512
            ],
            [
              112.94264984607966,
              27.972733496944286
            ],
            [
              112.94643328619813,
              27.97301374506587
            ],
            [
              112.94926476396421,
              27.97409161567188
            ],
            [
              112.95090018646705,
              27.974048501054426
            ],
            [
              112.96490099953343,
              27.980560726155588
            ],
            [
              112.9703341459822,
              27.985282511982646
            ],
            [
              112.96291746987747,
              27.990537159561185
            ],
            [
              112.9487740410266,
              28.00363458631547
            ],
            [
              112.94684740881831,
              28.00517965805453
            ],
            [
              112.94533006309777,
              28.00711472295616
            ],
            [
              112.94274495557387,
              28.01291970910168
            ],
            [
              112.94015984804997,
              28.017236034441794
            ],
            [
              112.93369707924022,
              28.022197114212275
            ],
            [
              112.92858306218207,
              28.01852593717264
            ]
          ]
        ]
      },
      "properties": {
        "sourceFileId": "file_1775096625406_1_g1",
        "sourceFileName": "九华雅礼中学.geojson",
        "sourceGroupId": 1,
        "name": "九华雅礼中学",
        "id": "imported_1775096625406_1_2_g1",
        "sourceFile": "九华雅礼中学.geojson",
        "isAssistFeature": false
      },
      "id": "imported_1775096625406_1_2_g1"
    },
    {
      "type": "Feature",
      "geometry": {
        "type": "Polygon",
        "coordinates": [
          [
            [
              112.94981645974636,
              27.973710835052287
            ],
            [
              112.9506309215726,
              27.970212352651032
            ],
            [
              112.93896930906052,
              27.96570012373259
            ],
            [
              112.94137567354713,
              27.95883332640659
            ],
            [
              112.94803945212547,
              27.960795313079615
            ],
            [
              112.95111219446993,
              27.96220138159096
            ],
            [
              112.95233388720926,
              27.96220138159096
            ],
            [
              112.95407387383807,
              27.961187706134695
            ],
            [
              112.95503641963272,
              27.959748924625288
            ],
            [
              112.95559173451426,
              27.958113922357896
            ],
            [
              112.95710959519042,
              27.95925842654539
            ],
            [
              112.9585593601937,
              27.95884522224604
            ],
            [
              112.9615564854459,
              27.955886418410273
            ],
            [
              112.96402470624179,
              27.956197875264536
            ],
            [
              112.96472991218349,
              27.959883379810492
            ],
            [
              112.96713936581757,
              27.95796278046585
            ],
            [
              112.96913744931905,
              27.956457421956713
            ],
            [
              112.97142936862952,
              27.951889309024025
            ],
            [
              112.97283978051291,
              27.951837397539137
            ],
            [
              112.97466156252894,
              27.95178548602931
            ],
            [
              112.9758956729269,
              27.958689497750186
            ],
            [
              112.987766639612,
              27.95946811798288
            ],
            [
              112.9972869198248,
              27.961025341598955
            ],
            [
              112.99264431404202,
              27.96798066611538
            ],
            [
              112.98300649950559,
              27.97457223899748
            ],
            [
              112.97466156252896,
              27.98105961429401
            ],
            [
              112.9704764379188,
              27.98506372552609
            ],
            [
              112.96584648825787,
              27.980800126774128
            ],
            [
              112.95097839632056,
              27.973897529566912
            ],
            [
              112.94981645974636,
              27.973710835052287
            ]
          ]
        ]
      },
      "properties": {
        "sourceFileId": "file_1775096625406_1_g1",
        "sourceFileName": "九华雅礼中学.geojson",
        "sourceGroupId": 1,
        "name": "九华雅礼中学",
        "id": "imported_1775096625406_1_3_g1",
        "sourceFile": "九华雅礼中学.geojson",
        "isAssistFeature": false
      },
      "id": "imported_1775096625406_1_3_g1"
    },
    {
      "type": "Feature",
      "geometry": {
        "type": "Polygon",
        "coordinates": [
          [
            [
              112.92201931318111,
              27.91232235866505
            ],
            [
              112.92211941407471,
              27.90701488923935
            ],
            [
              112.93365103701963,
              27.905882595392157
            ],
            [
              112.93409148095154,
              27.909562507063995
            ],
            [
              112.93403142041538,
              27.912800018139492
            ],
            [
              112.92201931318111,
              27.91232235866505
            ]
          ]
        ]
      },
      "properties": {
        "sourceFileId": "file_1775096625406_1_g1",
        "sourceFileName": "九华雅礼中学.geojson",
        "sourceGroupId": 1,
        "name": "九华雅礼中学",
        "id": "imported_1775096625406_1_4_g1",
        "sourceFile": "九华雅礼中学.geojson",
        "isAssistFeature": false
      },
      "id": "imported_1775096625406_1_4_g1"
    },
    {
      "type": "Feature",
      "geometry": {
        "type": "Polygon",
        "coordinates": [
          [
            [
              112.90072811578665,
              27.9390468308642
            ],
            [
              112.90027215212685,
              27.937022385588207
            ],
            [
              112.89972265745355,
              27.93565896229738
            ],
            [
              112.9005644365275,
              27.93518382589602
            ],
            [
              112.90070473303982,
              27.93455375048923
            ],
            [
              112.90054105377546,
              27.93342786889309
            ],
            [
              112.90044752276725,
              27.93271514879183
            ],
            [
              112.9003072262549,
              27.93136200059314
            ],
            [
              112.89854182847488,
              27.931589248039316
            ],
            [
              112.89834307508241,
              27.931041787471585
            ],
            [
              112.89961743506932,
              27.930267074382016
            ],
            [
              112.89954728681317,
              27.929884880545544
            ],
            [
              112.89937191617274,
              27.929667959118163
            ],
            [
              112.89819108719408,
              27.929636970307286
            ],
            [
              112.89810924755668,
              27.928469718635696
            ],
            [
              112.89838984058132,
              27.92685827082333
            ],
            [
              112.89516302079797,
              27.92541207925497
            ],
            [
              112.89319886962548,
              27.92442039385405
            ],
            [
              112.88959792580928,
              27.9201643073758
            ],
            [
              112.88987851883392,
              27.916403936230935
            ],
            [
              112.90771590505108,
              27.91981239836008
            ],
            [
              112.90785311097004,
              27.919004157556486
            ],
            [
              112.9099111997545,
              27.918802096411582
            ],
            [
              112.91270105344014,
              27.91791302288813
            ],
            [
              112.91668002509009,
              27.910719341002647
            ],
            [
              112.91860090795561,
              27.90873897379872
            ],
            [
              112.92079620265905,
              27.908496477363784
            ],
            [
              112.9200644377579,
              27.9061927341197
            ],
            [
              112.92020164367685,
              27.90465687803558
            ],
            [
              112.92097914388434,
              27.90437395479988
            ],
            [
              112.92056752612743,
              27.903565598621185
            ],
            [
              112.92216826184871,
              27.903606016573534
            ],
            [
              112.92171090878549,
              27.913022987843803
            ],
            [
              112.92161943817284,
              27.917347245021617
            ],
            [
              112.92189385001075,
              27.9186808595434
            ],
            [
              112.92326590920042,
              27.92195420726989
            ],
            [
              112.92579442598775,
              27.923676623833146
            ],
            [
              112.92733768762326,
              27.925825278820284
            ],
            [
              112.93154658299287,
              27.92685827082333
            ],
            [
              112.9332769066448,
              27.92950268536609
            ],
            [
              112.92846005972183,
              27.942806414286935
            ],
            [
              112.90072811578665,
              27.9390468308642
            ]
          ]
        ]
      },
      "properties": {
        "sourceFileId": "file_1775096625406_1_g1",
        "sourceFileName": "九华雅礼中学.geojson",
        "sourceGroupId": 1,
        "name": "九华雅礼中学",
        "id": "imported_1775096625406_1_5_g1",
        "sourceFile": "九华雅礼中学.geojson",
        "isAssistFeature": false
      },
      "id": "imported_1775096625406_1_5_g1"
    },
    {
      "type": "Feature",
      "geometry": {
        "type": "Polygon",
        "coordinates": [
          [
            [
              112.93189033241671,
              27.987801726676793
            ],
            [
              112.93196721686584,
              27.98833128783089
            ],
            [
              112.93112422072464,
              27.988475038900873
            ],
            [
              112.93032188965437,
              27.988697905567648
            ],
            [
              112.92898410023945,
              27.988032561345804
            ],
            [
              112.92755404948556,
              27.987869619277816
            ],
            [
              112.92712349657042,
              27.987815305200428
            ],
            [
              112.9247708269605,
              27.987240762845758
            ],
            [
              112.9232460124571,
              27.986791931685985
            ],
            [
              112.92121292645257,
              27.984809571714067
            ],
            [
              112.92182271202572,
              27.984298403011934
            ],
            [
              112.92292765721287,
              27.984120993626988
            ],
            [
              112.92433395108742,
              27.984054465032372
            ],
            [
              112.92503709802473,
              27.983810526500946
            ],
            [
              112.92536355910273,
              27.983344824135855
            ],
            [
              112.9251375475872,
              27.98261300207001
            ],
            [
              112.92508732280595,
              27.98112716623426
            ],
            [
              112.92385681566572,
              27.980018320181742
            ],
            [
              112.92224962266621,
              27.97935300707786
            ],
            [
              112.91948725969831,
              27.9783993844717
            ],
            [
              112.91798051626128,
              27.977955836200593
            ],
            [
              112.91551950198082,
              27.978560170269517
            ],
            [
              112.91495447319195,
              27.978094445231235
            ],
            [
              112.91597152501194,
              27.977628718181975
            ],
            [
              112.91669978433984,
              27.976275880586684
            ],
            [
              112.91820652777683,
              27.974302037920296
            ],
            [
              112.9197886083857,
              27.97496183766178
            ],
            [
              112.92141724046704,
              27.97483283347441
            ],
            [
              112.92212067467015,
              27.973565982590912
            ],
            [
              112.92312755107857,
              27.973249267545455
            ],
            [
              112.92281031604577,
              27.972408750032017
            ],
            [
              112.921389654812,
              27.971519499736658
            ],
            [
              112.920824148884,
              27.970825148519694
            ],
            [
              112.92127931219193,
              27.969996793853994
            ],
            [
              112.92295960756668,
              27.968009615478465
            ],
            [
              112.92314134390601,
              27.967255869110275
            ],
            [
              112.92374822831655,
              27.967554328738103
            ],
            [
              112.92591370223597,
              27.966598036811604
            ],
            [
              112.92588611658095,
              27.966159479717888
            ],
            [
              112.92608611257987,
              27.96603765798666
            ],
            [
              112.92630679782008,
              27.965708738625395
            ],
            [
              112.92696885354067,
              27.96506917033078
            ],
            [
              112.9272033316084,
              27.96373520140463
            ],
            [
              112.92807227974168,
              27.96326008520218
            ],
            [
              112.92899639918502,
              27.96310171266991
            ],
            [
              112.93039999623934,
              27.961527727834678
            ],
            [
              112.93241442316871,
              27.959903166542333
            ],
            [
              112.93279395288003,
              27.95768547197474
            ],
            [
              112.93276475828688,
              27.956164004002474
            ],
            [
              112.93291073125276,
              27.955209852130594
            ],
            [
              112.93188892049149,
              27.95469409085092
            ],
            [
              112.93099832839414,
              27.955123887482216
            ],
            [
              112.93028321786662,
              27.95456515014601
            ],
            [
              112.92777887046519,
              27.95364687353829
            ],
            [
              112.92421076552685,
              27.95405634102282
            ],
            [
              112.92308093230315,
              27.95499476288036
            ],
            [
              112.92250758410009,
              27.955516104832228
            ],
            [
              112.92176560407256,
              27.956365142050885
            ],
            [
              112.92128533797386,
              27.956742844654556
            ],
            [
              112.92052610834499,
              27.956307712907147
            ],
            [
              112.92018503192502,
              27.956563609730495
            ],
            [
              112.92009803386597,
              27.957231573857044
            ],
            [
              112.91902059636558,
              27.957899533850494
            ],
            [
              112.91839822563557,
              27.957970467412338
            ],
            [
              112.91787623728135,
              27.957988200795512
            ],
            [
              112.91936858860176,
              27.95628578272631
            ],
            [
              112.91856552959524,
              27.956155735797864
            ],
            [
              112.91818407656716,
              27.957048327472634
            ],
            [
              112.91792308239005,
              27.957243396193718
            ],
            [
              112.91783608433101,
              27.957219751519034
            ],
            [
              112.9175215528868,
              27.957071972184863
            ],
            [
              112.91769915314158,
              27.956062099712767
            ],
            [
              112.9207114824567,
              27.95364687353829
            ],
            [
              112.92293597179707,
              27.951108781033298
            ],
            [
              112.92367746824387,
              27.94963502252338
            ],
            [
              112.92527631995726,
              27.94867297486806
            ],
            [
              112.92777887046519,
              27.9490414196636
            ],
            [
              112.93159378919617,
              27.9497324632502
            ],
            [
              112.93340960910804,
              27.95108831230283
            ],
            [
              112.93620861041194,
              27.95420341947603
            ],
            [
              112.93928554939856,
              27.956001887636276
            ],
            [
              112.93849155663605,
              27.957733306966077
            ],
            [
              112.93769756387357,
              27.96077966090175
            ],
            [
              112.93601032925328,
              27.96489977260724
            ],
            [
              112.93422384553766,
              27.96805549646909
            ],
            [
              112.93330579140603,
              27.969962034913294
            ],
            [
              112.93303285639395,
              27.970509884556876
            ],
            [
              112.9323133004529,
              27.972964216811903
            ],
            [
              112.93692838338485,
              27.97445431986843
            ],
            [
              112.9388881840211,
              27.976029546828755
            ],
            [
              112.94246094883329,
              27.977607168061738
            ],
            [
              112.94543825284347,
              27.981025268238668
            ],
            [
              112.94603371364549,
              27.984443260082656
            ],
            [
              112.94246094883329,
              27.98654658582923
            ],
            [
              112.93879064920003,
              27.987465177724985
            ],
            [
              112.93681093716127,
              27.98963481189743
            ],
            [
              112.93524249439893,
              27.986050082789987
            ],
            [
              112.9344582730178,
              27.985384722227963
            ],
            [
              112.93233626222168,
              27.984882304389032
            ],
            [
              112.93182882485739,
              27.985697034839816
            ],
            [
              112.93189033241671,
              27.987801726676793
            ]
          ]
        ]
      },
      "properties": {
        "sourceFileId": "file_1775096625406_1_g1",
        "sourceFileName": "九华雅礼中学.geojson",
        "sourceGroupId": 1,
        "name": "九华雅礼中学",
        "id": "imported_1775096625406_1_6_g1",
        "sourceFile": "九华雅礼中学.geojson",
        "isAssistFeature": false
      },
      "id": "imported_1775096625406_1_6_g1"
    }
  ],
  "properties": {
    "fileName": "九华雅礼中学.geojson",
    "exportTime": "2026/4/2 10:59:33",
    "isStarred": false
  }
}