{
  "type": "FeatureCollection",
  "features": [
    {
      "type": "Feature",
      "properties": {
        "name": "仙女中学",
        "isAssistFeature": false
      },
      "geometry": {
        "type": "Polygon",
        "coordinates": [
          [
            [
              112.76575951745649,
              28.006543291842377
            ],
            [
              112.76634476627085,
              28.002656801773416
            ],
            [
              112.76780238163401,
              28.002715380330837
            ],
            [
              112.76860593633374,
              28.001864002872885
            ],
            [
              112.7703737570325,
              28.00169372578086
            ],
            [
              112.77125766783104,
              28.00125384389839
            ],
            [
              112.77104874305216,
              27.999664578185598
            ],
            [
              112.77250659826551,
              27.998849012220273
            ],
            [
              112.77315405631158,
              27.998486803248326
            ],
            [
              112.77466473965015,
              27.99684073537416
            ],
            [
              112.77448795749044,
              27.9949534019978
            ],
            [
              112.77566114737004,
              27.99462701772785
            ],
            [
              112.77763789194938,
              27.99522302307505
            ],
            [
              112.77900216696464,
              27.99421498746748
            ],
            [
              112.77991406567418,
              27.992738773046206
            ],
            [
              112.77995324749192,
              27.992675343289505
            ],
            [
              112.7806230637071,
              27.992607471465117
            ],
            [
              112.78184516056571,
              27.992491340861964
            ],
            [
              112.78188145250319,
              27.99248735413526
            ],
            [
              112.7826479768503,
              27.99286613058843
            ],
            [
              112.78314562105979,
              27.993112474413202
            ],
            [
              112.78317473366153,
              27.99313410223871
            ],
            [
              112.78576324891567,
              27.995713274585388
            ],
            [
              112.78542611478278,
              27.99612396417275
            ],
            [
              112.78499226173821,
              27.996652155419692
            ],
            [
              112.7850362648141,
              27.996695274010403
            ],
            [
              112.78550957366258,
              27.99705213895746
            ],
            [
              112.78612413450465,
              27.997533307335733
            ],
            [
              112.78621670499635,
              27.997627304295452
            ],
            [
              112.787197164925,
              27.998619045511735
            ],
            [
              112.7872645448595,
              27.99869128870362
            ],
            [
              112.78731585483192,
              27.998743389180813
            ],
            [
              112.78935753862312,
              27.999858818456143
            ],
            [
              112.79399704421482,
              27.997180902480963
            ],
            [
              112.79641048590491,
              27.995731115961075
            ],
            [
              112.7981315456999,
              27.99515468883231
            ],
            [
              112.8014154081879,
              27.99580098546623
            ],
            [
              112.8028001701815,
              27.995696181191512
            ],
            [
              112.80384863167885,
              27.99601059450311
            ],
            [
              112.80401135161112,
              27.996035124839
            ],
            [
              112.80547078067283,
              27.99625513773201
            ],
            [
              112.80596975888055,
              27.995100095967885
            ],
            [
              112.80597195076983,
              27.995030602779252
            ],
            [
              112.80602468547026,
              27.993582600618005
            ],
            [
              112.80602468547026,
              27.99260440011829
            ],
            [
              112.80619695269736,
              27.992051260392927
            ],
            [
              112.80645989586922,
              27.991206956000426
            ],
            [
              112.80457827838691,
              27.989545438020905
            ],
            [
              112.80175170778585,
              27.98676995155286
            ],
            [
              112.80177149048502,
              27.986018787088128
            ],
            [
              112.80256278228285,
              27.9855645916949
            ],
            [
              112.80342611537317,
              27.98465099602304
            ],
            [
              112.8044741816118,
              27.98353268046499
            ],
            [
              112.80537463758124,
              27.982648348819296
            ],
            [
              112.80549412249717,
              27.982511896783816
            ],
            [
              112.80561805048052,
              27.982370370660668
            ],
            [
              112.80640054956831,
              27.981476750234606
            ],
            [
              112.80576751577074,
              27.980096632196833
            ],
            [
              112.80527295817254,
              27.979135779805528
            ],
            [
              112.80410652901375,
              27.978756786930614
            ],
            [
              112.80226604808324,
              27.97763333928416
            ],
            [
              112.80270125848219,
              27.976794758563855
            ],
            [
              112.80366183599868,
              27.974095658278408
            ],
            [
              112.80180229910603,
              27.97502161330687
            ],
            [
              112.80083555555346,
              27.973938419782773
            ],
            [
              112.80088242245847,
              27.973554057433695
            ],
            [
              112.8009318783081,
              27.973099810337423
            ],
            [
              112.80075383760871,
              27.972802800915193
            ],
            [
              112.80041753801072,
              27.971702113441907
            ],
            [
              112.80007134796146,
              27.97140510017168
            ],
            [
              112.79928005526534,
              27.971090615108086
            ],
            [
              112.79884496524066,
              27.97133197153553
            ],
            [
              112.7986557557873,
              27.971436931193267
            ],
            [
              112.79808322621906,
              27.97175452765021
            ],
            [
              112.7975940144951,
              27.971679263488976
            ],
            [
              112.79636751140004,
              27.96958268414642
            ],
            [
              112.79684228719738,
              27.968176205565623
            ],
            [
              112.79669391964842,
              27.967215247787333
            ],
            [
              112.79623720268324,
              27.966696343610998
            ],
            [
              112.79609262692311,
              27.966532082160615
            ],
            [
              112.79602430196091,
              27.966278248885676
            ],
            [
              112.79601476454754,
              27.966242818211345
            ],
            [
              112.79583929931803,
              27.965590950757626
            ],
            [
              112.7956765398599,
              27.96498628169127
            ],
            [
              112.79498521797683,
              27.96285741265497
            ],
            [
              112.79453905801284,
              27.960801558102272
            ],
            [
              112.7923030991684,
              27.96203171212136
            ],
            [
              112.79220280136863,
              27.962082719489807
            ],
            [
              112.79133432452497,
              27.962505171385967
            ],
            [
              112.79089423178246,
              27.962982124459856
            ],
            [
              112.78910501051867,
              27.964898919448007
            ],
            [
              112.78791837016433,
              27.96411230776077
            ],
            [
              112.787336255572,
              27.96372601965832
            ],
            [
              112.78688068126387,
              27.963421123084952
            ],
            [
              112.78514854973304,
              27.96214697813928
            ],
            [
              112.78198338164354,
              27.960120105418333
            ],
            [
              112.78077094257256,
              27.96031855400929
            ],
            [
              112.78073547079694,
              27.960316166496522
            ],
            [
              112.7806694769629,
              27.960326241815903
            ],
            [
              112.78064231909522,
              27.960339606013893
            ],
            [
              112.7798942200929,
              27.960225177544263
            ],
            [
              112.77958645817488,
              27.960185201541194
            ],
            [
              112.77744771860372,
              27.959758788333854
            ],
            [
              112.77740833646168,
              27.959661416303287
            ],
            [
              112.77734806220106,
              27.959559790430973
            ],
            [
              112.77732353100728,
              27.95948234526143
            ],
            [
              112.7770398583119,
              27.958805825176327
            ],
            [
              112.77703798352792,
              27.958765771681136
            ],
            [
              112.77703008643823,
              27.9585970142622
            ],
            [
              112.77702030647977,
              27.95838802044572
            ],
            [
              112.77700551751522,
              27.95807197953129
            ],
            [
              112.777003770292,
              27.957969059592642
            ],
            [
              112.77697954901699,
              27.9575170479747
            ],
            [
              112.77697556768366,
              27.95743196252304
            ],
            [
              112.77695867576307,
              27.957070989539748
            ],
            [
              112.77598762838196,
              27.956557029196787
            ],
            [
              112.77567983053132,
              27.956394736823373
            ],
            [
              112.77546962655147,
              27.956288514380507
            ],
            [
              112.7754027856061,
              27.956246808704588
            ],
            [
              112.77489024373591,
              27.95653900359978
            ],
            [
              112.77365435055117,
              27.957223958300933
            ],
            [
              112.77365610046935,
              27.95719119154118
            ],
            [
              112.77338830100508,
              27.956099734969907
            ],
            [
              112.77398229132544,
              27.955030578888827
            ],
            [
              112.77624722353278,
              27.95315052432941
            ],
            [
              112.77915762222118,
              27.950863606181688
            ],
            [
              112.77929134992597,
              27.95009250575946
            ],
            [
              112.7793873025747,
              27.94953921945333
            ],
            [
              112.77939810661262,
              27.949476918096416
            ],
            [
              112.77950302804119,
              27.94641431267459
            ],
            [
              112.77959586712917,
              27.943704324128102
            ],
            [
              112.77977126678164,
              27.940511574864416
            ],
            [
              112.77996832391733,
              27.940014181600496
            ],
            [
              112.78739419780615,
              27.939249376421365
            ],
            [
              112.7887543693172,
              27.938976276715422
            ],
            [
              112.78964853707964,
              27.93887064742849
            ],
            [
              112.79123339161629,
              27.93876107138788
            ],
            [
              112.79129951480772,
              27.93875649936819
            ],
            [
              112.7966666234402,
              27.93427700166285
            ],
            [
              112.79719603567142,
              27.933673304850895
            ],
            [
              112.79799508532001,
              27.93277193986368
            ],
            [
              112.79805160821601,
              27.932713115384463
            ],
            [
              112.79784950973497,
              27.932356007457162
            ],
            [
              112.79752253914123,
              27.93178586805816
            ],
            [
              112.79737263098157,
              27.93118407960113
            ],
            [
              112.79726333475757,
              27.930756437560877
            ],
            [
              112.79727725145794,
              27.930675318449488
            ],
            [
              112.7974831929318,
              27.929526193150515
            ],
            [
              112.79748855587403,
              27.929496185562478
            ],
            [
              112.79806183643383,
              27.92925231089969
            ],
            [
              112.79911389029401,
              27.92880476423425
            ],
            [
              112.79951554502382,
              27.9286338987856
            ],
            [
              112.8012404954223,
              27.929465773187335
            ],
            [
              112.80340801791345,
              27.929485015257953
            ],
            [
              112.80450794479174,
              27.92949060041036
            ],
            [
              112.80466304431543,
              27.928811013739267
            ],
            [
              112.80467122976431,
              27.928765628228707
            ],
            [
              112.80468380707657,
              27.928707935751053
            ],
            [
              112.80480823991313,
              27.92816958834324
            ],
            [
              112.80519439960264,
              27.927191516320097
            ],
            [
              112.80536879044703,
              27.92674321265868
            ],
            [
              112.80545058654523,
              27.926102923487846
            ],
            [
              112.80563519842097,
              27.924679612067067
            ],
            [
              112.80563405037401,
              27.924620860967895
            ],
            [
              112.80531576918402,
              27.924361532663102
            ],
            [
              112.80477726779877,
              27.923932629387195
            ],
            [
              112.80470292412414,
              27.923862197425
            ],
            [
              112.80500758236286,
              27.923302286457268
            ],
            [
              112.80528357446256,
              27.922795056622014
            ],
            [
              112.80564134469415,
              27.9221375286899
            ],
            [
              112.8056181672615,
              27.922042238849244
            ],
            [
              112.80526597646613,
              27.92061183658716
            ],
            [
              112.80504495946522,
              27.920440957394394
            ],
            [
              112.80463618289183,
              27.920124911813247
            ],
            [
              112.80406479777727,
              27.919683144000146
            ],
            [
              112.80360351826873,
              27.91836630952699
            ],
            [
              112.80357681854187,
              27.918290089766234
            ],
            [
              112.80369939815397,
              27.91804638429518
            ],
            [
              112.80381766315774,
              27.917811257335533
            ],
            [
              112.80397378137098,
              27.917500870010702
            ],
            [
              112.80399685909062,
              27.917454988406753
            ],
            [
              112.80402726077479,
              27.917394545821196
            ],
            [
              112.80438427911645,
              27.917244321885722
            ],
            [
              112.80560856157616,
              27.916731665150063
            ],
            [
              112.80543407012044,
              27.9166026167142
            ],
            [
              112.80409334623698,
              27.915587150372808
            ],
            [
              112.80405088107686,
              27.91555498696164
            ],
            [
              112.80402726077479,
              27.915537097404517
            ],
            [
              112.80405183418938,
              27.915475786931953
            ],
            [
              112.80449693863287,
              27.914365255510308
            ],
            [
              112.8046653871217,
              27.9139449737087
            ],
            [
              112.80464693033586,
              27.913917513856436
            ],
            [
              112.80463020011202,
              27.9138901865615
            ],
            [
              112.80399957829098,
              27.91284237812189
            ],
            [
              112.80398810231324,
              27.912816924731565
            ],
            [
              112.80397529862547,
              27.912658522191485
            ],
            [
              112.8039452823186,
              27.91149144534216
            ],
            [
              112.80310827435765,
              27.911323012570037
            ],
            [
              112.80242830089155,
              27.91119008861102
            ],
            [
              112.80239085012737,
              27.911099948944848
            ],
            [
              112.8018707866633,
              27.909934487386977
            ],
            [
              112.80155898052988,
              27.909236829240797
            ],
            [
              112.80019535589489,
              27.908077706274426
            ],
            [
              112.79985228838954,
              27.906027687978302
            ],
            [
              112.79816962258982,
              27.904396307264832
            ],
            [
              112.79602953285081,
              27.902649403481327
            ],
            [
              112.79511850371047,
              27.900826712587033
            ],
            [
              112.79506767254011,
              27.900725013910133
            ],
            [
              112.79448419520352,
              27.899557636039834
            ],
            [
              112.79440931703132,
              27.899407824773288
            ],
            [
              112.79384879254853,
              27.89828635737997
            ],
            [
              112.7871467766241,
              27.898878666271013
            ],
            [
              112.7833182601894,
              27.901696770191602
            ],
            [
              112.78019105670046,
              27.901603085842336
            ],
            [
              112.7779873545612,
              27.899273537328646
            ],
            [
              112.7787846174607,
              27.90306669576453
            ],
            [
              112.7769888537667,
              27.904120318731337
            ],
            [
              112.77449318478709,
              27.905584577321612
            ],
            [
              112.77439456593856,
              27.906339890431425
            ],
            [
              112.77417516410851,
              27.90802024170385
            ],
            [
              112.77362272895488,
              27.909373203210006
            ],
            [
              112.77334094990815,
              27.909225747339985
            ],
            [
              112.77016833658153,
              27.907565491126448
            ],
            [
              112.76598613006334,
              27.910455850452795
            ],
            [
              112.7618801644616,
              27.908103402107564
            ],
            [
              112.76184335599282,
              27.908083392556666
            ],
            [
              112.76179919571177,
              27.908011808727125
            ],
            [
              112.75954656593224,
              27.90446040811082
            ],
            [
              112.75857292511495,
              27.90270353184406
            ],
            [
              112.7584861415703,
              27.90253992092153
            ],
            [
              112.75844130126457,
              27.90238008307618
            ],
            [
              112.7575147429479,
              27.899077207495353
            ],
            [
              112.75744924228898,
              27.898482856957205
            ],
            [
              112.75734656754693,
              27.897551182948124
            ],
            [
              112.7572248071984,
              27.896613432155757
            ],
            [
              112.75716105555931,
              27.89612244081801
            ],
            [
              112.75673702738902,
              27.89408469347916
            ],
            [
              112.75692253937665,
              27.892093754494468
            ],
            [
              112.75673702738902,
              27.890524400637396
            ],
            [
              112.75272768637586,
              27.88828563309299
            ],
            [
              112.75072084284461,
              27.888865518493088
            ],
            [
              112.74979023222771,
              27.889134420754775
            ],
            [
              112.74973173752969,
              27.889151322996984
            ],
            [
              112.74870446908652,
              27.889448154301483
            ],
            [
              112.74786887776881,
              27.89422119849225
            ],
            [
              112.74695591635228,
              27.89631361310307
            ],
            [
              112.74341239044149,
              27.89558879482375
            ],
            [
              112.74304101612327,
              27.895096461849267
            ],
            [
              112.74298504838612,
              27.89242534505835
            ],
            [
              112.74296364692279,
              27.891403897128086
            ],
            [
              112.74124332194974,
              27.891964041500838
            ],
            [
              112.73930757827658,
              27.891964041500838
            ],
            [
              112.73863819954096,
              27.892308126957744
            ],
            [
              112.73822206037548,
              27.89236309017713
            ],
            [
              112.73808505471823,
              27.892554860598434
            ],
            [
              112.73772872358772,
              27.89305362422868
            ],
            [
              112.7351327253673,
              27.893431603058577
            ],
            [
              112.73411233262931,
              27.893544333345194
            ],
            [
              112.73303191715902,
              27.8949037185937
            ],
            [
              112.73030704303467,
              27.896672149246264
            ],
            [
              112.72989744180782,
              27.8965370978263
            ],
            [
              112.72861583695152,
              27.896114530112943
            ],
            [
              112.7263981058225,
              27.895926553838667
            ],
            [
              112.7263382313122,
              27.89592147903765
            ],
            [
              112.72566995480939,
              27.895864835286424
            ],
            [
              112.72470014171348,
              27.89623457285627
            ],
            [
              112.72408768562413,
              27.899945702480107
            ],
            [
              112.7227162231883,
              27.90746637957497
            ],
            [
              112.72149468328519,
              27.90999233435904
            ],
            [
              112.7209579381063,
              27.91110222244166
            ],
            [
              112.72073451182378,
              27.91168747719498
            ],
            [
              112.71997329831663,
              27.913681420596813
            ],
            [
              112.71867216678099,
              27.915825527157697
            ],
            [
              112.71663255630143,
              27.91849783240305
            ],
            [
              112.72275138863841,
              27.919057143563165
            ],
            [
              112.72408768562413,
              27.919430015797985
            ],
            [
              112.72688504660542,
              27.92056565309109
            ],
            [
              112.7276938582462,
              27.9223056898288
            ],
            [
              112.72762352644767,
              27.923393198568547
            ],
            [
              112.72583007591552,
              27.924729265531276
            ],
            [
              112.72431794988259,
              27.925599253893807
            ],
            [
              112.72396629268653,
              27.92659351762102
            ],
            [
              112.72438828168114,
              27.928147037129953
            ],
            [
              112.72590040681575,
              27.929824812167553
            ],
            [
              112.72846750353857,
              27.93100545341544
            ],
            [
              112.7298299558721,
              27.93009747625729
            ],
            [
              112.73436741644079,
              27.931442131983935
            ],
            [
              112.73694243899934,
              27.933087078620375
            ],
            [
              112.73764575249315,
              27.934578367854375
            ],
            [
              112.73799740968921,
              27.935727888630392
            ],
            [
              112.73845456413393,
              27.938244365273807
            ],
            [
              112.73884138678014,
              27.93989091778791
            ],
            [
              112.73905238127743,
              27.941661709449942
            ],
            [
              112.73908754672755,
              27.944115916425748
            ],
            [
              112.73859522683271,
              27.946352614207516
            ],
            [
              112.73859522683271,
              27.94737775138122
            ],
            [
              112.73870072408135,
              27.948930972063962
            ],
            [
              112.73915787852609,
              27.949925021100977
            ],
            [
              112.73984195639473,
              27.950505277495846
            ],
            [
              112.74033427628956,
              27.951312931012605
            ],
            [
              112.7411079215819,
              27.952400147818743
            ],
            [
              112.74144983924367,
              27.95275880587237
            ],
            [
              112.74223322496867,
              27.95358054235516
            ],
            [
              112.74399151005068,
              27.956034479272578
            ],
            [
              112.74525747523788,
              27.957742882629407
            ],
            [
              112.74691026396954,
              27.959482320664062
            ],
            [
              112.74793006920932,
              27.961314912669962
            ],
            [
              112.74988313779102,
              27.963426861202382
            ],
            [
              112.75208005764986,
              27.966613303668133
            ],
            [
              112.75311799089208,
              27.968118703925988
            ],
            [
              112.75396196708466,
              27.970572310324233
            ],
            [
              112.75452461877804,
              27.97234259880305
            ],
            [
              112.75448945332793,
              27.974143915727485
            ],
            [
              112.75361031078691,
              27.976814777604066
            ],
            [
              112.7544542869795,
              27.97855390822021
            ],
            [
              112.75494660687431,
              27.98010667948995
            ],
            [
              112.75515760137164,
              27.98156626476555
            ],
            [
              112.75526309862026,
              27.98361586128161
            ],
            [
              112.75563496341866,
              27.984960455017752
            ],
            [
              112.75690092860584,
              27.986326814278595
            ],
            [
              112.7574987143083,
              27.98767468763917
            ],
            [
              112.75897570543383,
              27.989214742749276
            ],
            [
              112.7597493507262,
              27.990953673387907
            ],
            [
              112.76052299691688,
              27.994058837241365
            ],
            [
              112.76103087114085,
              27.995470300660347
            ],
            [
              112.76090981956304,
              27.99679130702387
            ],
            [
              112.76052299691688,
              27.998592215554513
            ],
            [
              112.76006584247216,
              28.00132457039675
            ],
            [
              112.75916354405807,
              28.00329289169218
            ],
            [
              112.75865734159883,
              28.005094167441186
            ],
            [
              112.75885675501547,
              28.00623179939018
            ],
            [
              112.76095826301139,
              28.00692249872596
            ],
            [
              112.7614184465752,
              28.007125644466736
            ],
            [
              112.7616321441032,
              28.0074283887038
            ],
            [
              112.76269162343752,
              28.008371598533195
            ],
            [
              112.7644863414925,
              28.008832056102605
            ],
            [
              112.76497681804439,
              28.007950341478203
            ],
            [
              112.76575951745649,
              28.006543291842377
            ]
          ]
        ]
      }
    }
  ]
}