{
  "type": "FeatureCollection",
  "features": [
    {
      "type": "Feature",
      "properties": {
        "name": "建元中学",
        "isAssistFeature": false
      },
      "geometry": {
        "type": "Polygon",
        "coordinates": [
          [
            [
              112.91990761746771,
              27.90624299816778
            ],
            [
              112.92019232412396,
              27.90460758706607
            ],
            [
              112.92088033032535,
              27.904337989711898
            ],
            [
              112.92050550198486,
              27.90350052522688
            ],
            [
              112.92216824674482,
              27.90360601759933
            ],
            [
              112.9221172475895,
              27.90695310888847
            ],
            [
              112.92211729789517,
              27.90701486477821
            ],
            [
              112.92541146675443,
              27.906630885830005
            ],
            [
              112.93161341211977,
              27.905907452871357
            ],
            [
              112.93374181118371,
              27.905659182595638
            ],
            [
              112.93258351626984,
              27.901743136400313
            ],
            [
              112.93068816534344,
              27.89774694551771
            ],
            [
              112.92957944216191,
              27.89540922619011
            ],
            [
              112.92895002049009,
              27.89377515428864
            ],
            [
              112.92876191776118,
              27.89327888698442
            ],
            [
              112.92699392458587,
              27.888128403881645
            ],
            [
              112.92670774559087,
              27.887254066353712
            ],
            [
              112.92618913021104,
              27.885736972032294
            ],
            [
              112.92002960688664,
              27.887163030177927
            ],
            [
              112.90542109054861,
              27.890545131183725
            ],
            [
              112.90529153911157,
              27.890505254850833
            ],
            [
              112.90466345682786,
              27.890301277460136
            ],
            [
              112.90457584144326,
              27.89027307718325
            ],
            [
              112.90459582806001,
              27.89023854497432
            ],
            [
              112.90540245859128,
              27.88884488687287
            ],
            [
              112.90579250439269,
              27.88739903123777
            ],
            [
              112.90464372623094,
              27.886745661489357
            ],
            [
              112.90460308734582,
              27.886722548222824
            ],
            [
              112.90453764956897,
              27.886685330374753
            ],
            [
              112.90540563772907,
              27.88523778721701
            ],
            [
              112.90569429787088,
              27.884756385176203
            ],
            [
              112.90580355906059,
              27.8842653892874
            ],
            [
              112.90595060608608,
              27.883622102950607
            ],
            [
              112.90599988496763,
              27.88338313910261
            ],
            [
              112.90611533105805,
              27.88286434290977
            ],
            [
              112.90609945782695,
              27.8828212122109
            ],
            [
              112.90607891335641,
              27.882765389774733
            ],
            [
              112.90582071239095,
              27.88206380705626
            ],
            [
              112.90603432996886,
              27.881119340317536
            ],
            [
              112.90608413256821,
              27.880899084095315
            ],
            [
              112.90670279152461,
              27.880267170718398
            ],
            [
              112.90694645954542,
              27.879772443886722
            ],
            [
              112.90491171164653,
              27.88024722113263
            ],
            [
              112.90474642343086,
              27.88028656367516
            ],
            [
              112.90330209864231,
              27.88063034639343
            ],
            [
              112.9030327927033,
              27.880694447021767
            ],
            [
              112.90032950689186,
              27.88133788811815
            ],
            [
              112.90014100531093,
              27.8813827575542
            ],
            [
              112.90009085236865,
              27.881394692719397
            ],
            [
              112.90012260332236,
              27.881508185109283
            ],
            [
              112.9001554556106,
              27.88162561261743
            ],
            [
              112.90128599707377,
              27.88566655251868
            ],
            [
              112.89935640147043,
              27.888712491087855
            ],
            [
              112.89578129079428,
              27.89263605911804
            ],
            [
              112.90079509651709,
              27.893719651108842
            ],
            [
              112.90308852059027,
              27.894187751274703
            ],
            [
              112.90358938885335,
              27.89428998089058
            ],
            [
              112.91131001615656,
              27.89586578641515
            ],
            [
              112.90825378586324,
              27.8967107411196
            ],
            [
              112.90774929110135,
              27.896644610380633
            ],
            [
              112.9079133504217,
              27.899333569270485
            ],
            [
              112.9094777610991,
              27.899346736979034
            ],
            [
              112.90971825806696,
              27.89970653172963
            ],
            [
              112.90914701488624,
              27.90165634542112
            ],
            [
              112.90847621860904,
              27.903945917272473
            ],
            [
              112.90612754455265,
              27.903537310189005
            ],
            [
              112.9045475912242,
              27.903075694367562
            ],
            [
              112.90614102107854,
              27.904245357938237
            ],
            [
              112.90411333483607,
              27.90384267665239
            ],
            [
              112.8986990781259,
              27.902767443161768
            ],
            [
              112.8986990781259,
              27.900920022096884
            ],
            [
              112.89744481798684,
              27.901141714226558
            ],
            [
              112.89752843497014,
              27.902767443161768
            ],
            [
              112.89652502757755,
              27.903063028049598
            ],
            [
              112.89777928771662,
              27.905871041034054
            ],
            [
              112.90560094853983,
              27.90650751726412
            ],
            [
              112.90781336793059,
              27.906979447212535
            ],
            [
              112.90644085985576,
              27.907409829190037
            ],
            [
              112.90522122977092,
              27.907792270874946
            ],
            [
              112.90461155306907,
              27.907657577861936
            ],
            [
              112.90458456408467,
              27.90765161529959
            ],
            [
              112.9035488838172,
              27.907422806186624
            ],
            [
              112.9024792966393,
              27.909376199923464
            ],
            [
              112.90229462367813,
              27.90971346659537
            ],
            [
              112.90156872833471,
              27.91017674494266
            ],
            [
              112.90078951169097,
              27.910674051659935
            ],
            [
              112.90070589380937,
              27.91178240862502
            ],
            [
              112.9011882289298,
              27.91185344619723
            ],
            [
              112.90221100579654,
              27.912004078496352
            ],
            [
              112.90388335264859,
              27.913112421832142
            ],
            [
              112.9029635622393,
              27.91459019527831
            ],
            [
              112.9029635622393,
              27.91615236644821
            ],
            [
              112.9033816489523,
              27.918801738179337
            ],
            [
              112.9075527684633,
              27.91967762501646
            ],
            [
              112.90768807091476,
              27.91876601966854
            ],
            [
              112.90838155324613,
              27.918776707679474
            ],
            [
              112.90849202087323,
              27.918774070007064
            ],
            [
              112.90981909216099,
              27.91869129722657
            ],
            [
              112.91002204673649,
              27.918437241966377
            ],
            [
              112.91166259502411,
              27.918138352567393
            ],
            [
              112.91250823848988,
              27.917719905544523
            ],
            [
              112.91401417962207,
              27.915627266711567
            ],
            [
              112.9167023647536,
              27.9108990197443
            ],
            [
              112.91700360400434,
              27.91036915775279
            ],
            [
              112.91874031784144,
              27.908708649184423
            ],
            [
              112.92081867984571,
              27.908532532494625
            ],
            [
              112.92079984127588,
              27.90849534278597
            ],
            [
              112.91990761746771,
              27.90624299816778
            ]
          ]
        ]
      }
    }
  ]
}