{
  "type": "FeatureCollection",
  "features": [
    {
      "type": "Feature",
      "geometry": {
        "type": "Polygon",
        "coordinates": [
          [
            [
              112.72861585024563,
              27.89611452906381
            ],
            [
              112.7256699672022,
              27.895864834401692
            ],
            [
              112.72470015463945,
              27.896234571706017
            ],
            [
              112.72454802717864,
              27.895377451479746
            ],
            [
              112.7210110637145,
              27.894285033509917
            ],
            [
              112.71937569351066,
              27.893545544318656
            ],
            [
              112.71663526979017,
              27.886212429727735
            ],
            [
              112.71598872808167,
              27.88505268749708
            ],
            [
              112.71592874072692,
              27.878980900218124
            ],
            [
              112.71659429836801,
              27.877484898603257
            ],
            [
              112.71876211468475,
              27.873316155886315
            ],
            [
              112.71983257040053,
              27.87174299979965
            ],
            [
              112.72308429487566,
              27.867456361441526
            ],
            [
              112.72823761261101,
              27.862698834848743
            ],
            [
              112.72971845490227,
              27.854735026031975
            ],
            [
              112.74593904541236,
              27.848505759484738
            ],
            [
              112.74614822067097,
              27.84722791698823
            ],
            [
              112.74610068083946,
              27.847076592537647
            ],
            [
              112.74559429088502,
              27.846348014697412
            ],
            [
              112.74520314342715,
              27.846229788143944
            ],
            [
              112.74468971324687,
              27.845473156816425
            ],
            [
              112.74396710780796,
              27.84461563493103
            ],
            [
              112.74227760268523,
              27.843760681905067
            ],
            [
              112.73986257924469,
              27.84262570709842
            ],
            [
              112.73863082948216,
              27.840008397828953
            ],
            [
              112.73845968608875,
              27.83762065075065
            ],
            [
              112.73859279761697,
              27.836847143949427
            ],
            [
              112.74001899256218,
              27.83397166814271
            ],
            [
              112.74503517928153,
              27.82882264301395
            ],
            [
              112.7470508681374,
              27.824786567503722
            ],
            [
              112.74948490751058,
              27.82845267567336
            ],
            [
              112.75256548859223,
              27.829915720971343
            ],
            [
              112.75406774726784,
              27.830806991773528
            ],
            [
              112.76480673687175,
              27.838841557380746
            ],
            [
              112.76793434435795,
              27.844570216488336
            ],
            [
              112.77329595719144,
              27.847533197314434
            ],
            [
              112.7797745726986,
              27.84832331186378
            ],
            [
              112.7851361855321,
              27.84496528527525
            ],
            [
              112.79273180371287,
              27.841607154720236
            ],
            [
              112.79965722028948,
              27.839434191317153
            ],
            [
              112.80546563419243,
              27.839434191317153
            ],
            [
              112.8121676502343,
              27.836668538584533
            ],
            [
              112.82244407483185,
              27.83212481319876
            ],
            [
              112.8342843031725,
              27.826593064647057
            ],
            [
              112.8410106389478,
              27.826572747380368
            ],
            [
              112.84701813365206,
              27.827778463070786
            ],
            [
              112.85580981453367,
              27.82767359039724
            ],
            [
              112.85710264715486,
              27.829459569804683
            ],
            [
              112.85477363833769,
              27.83093072992058
            ],
            [
              112.85523944010113,
              27.8347556528917
            ],
            [
              112.85883276799048,
              27.836874013756315
            ],
            [
              112.8549799542204,
              27.83743391008514
            ],
            [
              112.85148614434664,
              27.841804694689543
            ],
            [
              112.84500752883949,
              27.850101048552887
            ],
            [
              112.84462443051423,
              27.86785947869329
            ],
            [
              112.84430297544613,
              27.870694359856017
            ],
            [
              112.83720744193313,
              27.870931963153154
            ],
            [
              112.83423636461059,
              27.869677203928873
            ],
            [
              112.82809940162444,
              27.868387768213495
            ],
            [
              112.82253869813486,
              27.866508894328476
            ],
            [
              112.82161045629736,
              27.87145487559829
            ],
            [
              112.81797606413726,
              27.87261652371511
            ],
            [
              112.8168590614636,
              27.881700390853254
            ],
            [
              112.82311427643603,
              27.881107987957634
            ],
            [
              112.8298162924779,
              27.881502923581408
            ],
            [
              112.83785871172816,
              27.882490256339864
            ],
            [
              112.83718851012395,
              27.886242038724916
            ],
            [
              112.83897571440181,
              27.891375846065344
            ],
            [
              112.84098631921437,
              27.89414010302596
            ],
            [
              112.84545432990895,
              27.893350322526075
            ],
            [
              112.84541069073782,
              27.89206125579355
            ],
            [
              112.84648054332658,
              27.889779611233692
            ],
            [
              112.84736310765129,
              27.89030700652002
            ],
            [
              112.8476603971013,
              27.893366213987235
            ],
            [
              112.84727483882077,
              27.8936582980826
            ],
            [
              112.84666751612663,
              27.893794828637127
            ],
            [
              112.84519571275492,
              27.89376147468805
            ],
            [
              112.84517684348091,
              27.894278459743646
            ],
            [
              112.84555422896084,
              27.895629280007824
            ],
            [
              112.84487493509697,
              27.89579604677253
            ],
            [
              112.84508249711094,
              27.897196877451265
            ],
            [
              112.844818327275,
              27.898047372945896
            ],
            [
              112.84406422153553,
              27.89835896968998
            ],
            [
              112.8432899160813,
              27.898797804596455
            ],
            [
              112.84244079875145,
              27.898347546230568
            ],
            [
              112.84115768811971,
              27.89861436622907
            ],
            [
              112.84210115181952,
              27.90024862436522
            ],
            [
              112.84453528816503,
              27.901816154897276
            ],
            [
              112.8452711898509,
              27.903417013704825
            ],
            [
              112.84478058872699,
              27.904450889096694
            ],
            [
              112.84484258947134,
              27.905318844309846
            ],
            [
              112.84626283320513,
              27.907444554805068
            ],
            [
              112.84594126858616,
              27.908533860772593
            ],
            [
              112.84803143860941,
              27.910144119066473
            ],
            [
              112.84773667104204,
              27.911043958848765
            ],
            [
              112.84811182976418,
              27.912464743263413
            ],
            [
              112.84875495900208,
              27.91329352555293
            ],
            [
              112.84835300322838,
              27.91504578719872
            ],
            [
              112.84792425040312,
              27.916371804166516
            ],
            [
              112.84842689274325,
              27.919124013956534
            ],
            [
              112.84697985195793,
              27.92217844914063
            ],
            [
              112.84360342345879,
              27.924711907425092
            ],
            [
              112.8405395181449,
              27.927108294951992
            ],
            [
              112.83808211226287,
              27.929871638894042
            ],
            [
              112.83450770370723,
              27.931648036976824
            ],
            [
              112.83249709889465,
              27.927897829001736
            ],
            [
              112.83115669568629,
              27.921976183058774
            ],
            [
              112.83026309354737,
              27.91565940319977
            ],
            [
              112.82423127910968,
              27.91585680815608
            ],
            [
              112.81909306681091,
              27.914277558415876
            ],
            [
              112.81529525772052,
              27.911316402995283
            ],
            [
              112.81015704542173,
              27.910724162182547
            ],
            [
              112.80859324167865,
              27.915067186168727
            ],
            [
              112.80658263686608,
              27.912698285614027
            ],
            [
              112.8059563926179,
              27.912459588223115
            ],
            [
              112.80397531217953,
              27.912658520900706
            ],
            [
              112.80394529580924,
              27.91149144396873
            ],
            [
              112.80242946911018,
              27.911186410422033
            ],
            [
              112.80155899437209,
              27.909236827870018
            ],
            [
              112.80019536997361,
              27.908077705202786
            ],
            [
              112.79985230216451,
              27.906027686527977
            ],
            [
              112.79816963624377,
              27.904396305882102
            ],
            [
              112.79602954657751,
              27.902649401988356
            ],
            [
              112.79384880638652,
              27.89828635610425
            ],
            [
              112.78714679034465,
              27.898878665005668
            ],
            [
              112.78331827384643,
              27.90169676879735
            ],
            [
              112.78019106996072,
              27.901603084960982
            ],
            [
              112.77798736842075,
              27.89927353580559
            ],
            [
              112.77878463080653,
              27.903066694955612
            ],
            [
              112.77449319847395,
              27.905584576474467
            ],
            [
              112.77417517773982,
              27.90802024022389
            ],
            [
              112.77362274234811,
              27.909373202085703
            ],
            [
              112.77016834970523,
              27.90756548974879
            ],
            [
              112.76598614383568,
              27.910455849133854
            ],
            [
              112.76184425019645,
              27.908082816426713
            ],
            [
              112.75954657897132,
              27.904460406949326
            ],
            [
              112.75848615485552,
              27.902539919674652
            ],
            [
              112.75751475629153,
              27.899077206048503
            ],
            [
              112.75673704081778,
              27.894084692673275
            ],
            [
              112.7569225529127,
              27.89209375367149
            ],
            [
              112.75673704081778,
              27.89052439947399
            ],
            [
              112.75272769977335,
              27.88828563189577
            ],
            [
              112.74870448202059,
              27.889448153131312
            ],
            [
              112.74805169676706,
              27.892955430115137
            ],
            [
              112.74786889064117,
              27.894221197703956
            ],
            [
              112.74695592968958,
              27.896313612204693
            ],
            [
              112.74341240328425,
              27.895588793460163
            ],
            [
              112.74304102933783,
              27.895096460978564
            ],
            [
              112.74296365976568,
              27.89140389598475
            ],
            [
              112.74124333538269,
              27.89196404005787
            ],
            [
              112.73822207323897,
              27.89236308879761
            ],
            [
              112.73772873662719,
              27.893053623307253
            ],
            [
              112.73513273822113,
              27.893431602072397
            ],
            [
              112.73411234578406,
              27.89354433232579
            ],
            [
              112.73303193026246,
              27.894903717313554
            ],
            [
              112.73030705616029,
              27.89667214849807
            ],
            [
              112.72861585024563,
              27.89611452906381
            ]
          ]
        ]
      },
      "properties": {
        "sourceFileId": "file_1776043853122_5_g1",
        "sourceFileName": "泉塘子中学.geojson",
        "sourceGroupId": 1,
        "name": "泉塘子中学",
        "id": "imported_1776043853122_5_0_g1",
        "sourceFile": "泉塘子中学.geojson",
        "isAssistFeature": false
      },
      "id": "imported_1776043853122_5_0_g1"
    }
  ],
  "properties": {
    "fileName": "泉塘子中学.geojson",
    "exportTime": "2026/4/13 10:16:41",
    "isStarred": false
  }
}