{
  "type": "FeatureCollection",
  "features": [
    {
      "type": "Feature",
      "geometry": {
        "type": "Polygon",
        "coordinates": [
          [
            [
              112.96508709186519,
              27.907780891010276
            ],
            [
              112.96281509912556,
              27.899569418249243
            ],
            [
              112.96179324118671,
              27.894451806979134
            ],
            [
              112.96038686607095,
              27.889391387836298
            ],
            [
              112.96755949017307,
              27.88729246573915
            ],
            [
              112.97104887487139,
              27.88615731744723
            ],
            [
              112.97293895824966,
              27.885407684692225
            ],
            [
              112.97155988419253,
              27.877799343100307
            ],
            [
              112.97445864423995,
              27.876864317139948
            ],
            [
              112.97171758753471,
              27.87371441109204
            ],
            [
              112.97185595384548,
              27.873490456123633
            ],
            [
              112.97167271291056,
              27.873231735052073
            ],
            [
              112.97188802396816,
              27.873064766824584
            ],
            [
              112.97219994933963,
              27.872822876207152
            ],
            [
              112.97253140662025,
              27.872927869287636
            ],
            [
              112.97284168072791,
              27.87347719550023
            ],
            [
              112.9731965531998,
              27.873527205781684
            ],
            [
              112.97438558021854,
              27.874298416380682
            ],
            [
              112.97523418830352,
              27.87378013057861
            ],
            [
              112.97616982302988,
              27.87278079567939
            ],
            [
              112.97646555008977,
              27.8721579344176
            ],
            [
              112.9763549738848,
              27.87173511414828
            ],
            [
              112.97686413873578,
              27.871414588005848
            ],
            [
              112.97712643578022,
              27.871648731309648
            ],
            [
              112.97724215506453,
              27.871507790740793
            ],
            [
              112.97797682758295,
              27.871597143358997
            ],
            [
              112.97797682758295,
              27.871167501170532
            ],
            [
              112.97808226070866,
              27.87102655997569
            ],
            [
              112.9785245655287,
              27.871651700975306
            ],
            [
              112.97865828559057,
              27.871508487173912
            ],
            [
              112.97846284857707,
              27.87116068143952
            ],
            [
              112.97856828170276,
              27.870908351090236
            ],
            [
              112.97832655697552,
              27.870660566661883
            ],
            [
              112.97858628248025,
              27.870571909710407
            ],
            [
              112.9790285873003,
              27.870737857278314
            ],
            [
              112.97916487890184,
              27.870851519849424
            ],
            [
              112.97898229958659,
              27.871167501170532
            ],
            [
              112.97922916739313,
              27.871331174586075
            ],
            [
              112.97953003753243,
              27.87162442217057
            ],
            [
              112.97957889678578,
              27.871212966033013
            ],
            [
              112.97993710205066,
              27.87117981770922
            ],
            [
              112.98051236567922,
              27.871126582778018
            ],
            [
              112.98095724203893,
              27.871233425214882
            ],
            [
              112.98122468216269,
              27.871244791425354
            ],
            [
              112.98171841777574,
              27.870631014352767
            ],
            [
              112.98225329802328,
              27.870383229290113
            ],
            [
              112.98250530890911,
              27.870105891208496
            ],
            [
              112.98287303907927,
              27.870328671035068
            ],
            [
              112.98305818993416,
              27.87034458386229
            ],
            [
              112.98298875836358,
              27.870121804068447
            ],
            [
              112.98281646520694,
              27.86989902381653
            ],
            [
              112.98283703752415,
              27.869471648173473
            ],
            [
              112.98294763995308,
              27.869040928833982
            ],
            [
              112.98315216355455,
              27.868860126068256
            ],
            [
              112.98314975739456,
              27.868462358921647
            ],
            [
              112.98321231755497,
              27.86828368229496
            ],
            [
              112.9830198247536,
              27.868258157038554
            ],
            [
              112.98305110483385,
              27.867845497891807
            ],
            [
              112.98332611104584,
              27.86780596519101
            ],
            [
              112.9832447278317,
              27.86762160578229
            ],
            [
              112.98317452296475,
              27.86732523639907
            ],
            [
              112.98335979728608,
              27.867112523863653
            ],
            [
              112.98334054800596,
              27.86692320935593
            ],
            [
              112.98351646671364,
              27.866951562214865
            ],
            [
              112.9837838345796,
              27.866343770826532
            ],
            [
              112.9836768874332,
              27.865800132307683
            ],
            [
              112.98380675182526,
              27.865124801156924
            ],
            [
              112.9844828105721,
              27.864608169985445
            ],
            [
              112.98506720033632,
              27.86463180675949
            ],
            [
              112.98553657529521,
              27.863822487802125
            ],
            [
              112.98588458209805,
              27.86274760202801
            ],
            [
              112.98562485331396,
              27.86249434620656
            ],
            [
              112.98496757167098,
              27.86223930451834
            ],
            [
              112.98479804829879,
              27.861555889799646
            ],
            [
              112.98526593280604,
              27.860908440301813
            ],
            [
              112.98473023894991,
              27.861382037999505
            ],
            [
              112.9844825897737,
              27.861425609008933
            ],
            [
              112.98434535231507,
              27.861256803373422
            ],
            [
              112.98417365255035,
              27.861045607836857
            ],
            [
              112.98414678844391,
              27.859786844438915
            ],
            [
              112.98457581108948,
              27.859291526996728
            ],
            [
              112.9856084898402,
              27.858979809968616
            ],
            [
              112.98646876369679,
              27.858539479959475
            ],
            [
              112.98662975061728,
              27.85795681830922
            ],
            [
              112.98682872259116,
              27.85881379135577
            ],
            [
              112.98748286985872,
              27.861631158369363
            ],
            [
              112.9880205356423,
              27.873749629502953
            ],
            [
              112.98942773221061,
              27.87370226056491
            ],
            [
              113.00168514000968,
              27.87355057414962
            ],
            [
              113.00229041820629,
              27.874896651119542
            ],
            [
              113.0230330758777,
              27.881760693014854
            ],
            [
              113.01781093538492,
              27.885506338623898
            ],
            [
              113.0129332512119,
              27.890421060548675
            ],
            [
              113.01126947076712,
              27.89396624493736
            ],
            [
              113.00909328095292,
              27.89920016323046
            ],
            [
              113.00552362828412,
              27.90736108153864
            ],
            [
              113.0043241697458,
              27.909023513172087
            ],
            [
              113.00296279050002,
              27.910686993522674
            ],
            [
              113.00175997275291,
              27.912229907655913
            ],
            [
              113.00065415643702,
              27.91384137225141
            ],
            [
              113.00213765127563,
              27.920398453617665
            ],
            [
              113.00273664957365,
              27.92603983931339
            ],
            [
              113.00306153231931,
              27.93122802645921
            ],
            [
              113.00213765127556,
              27.932697281893738
            ],
            [
              113.00065944160558,
              27.93446580360765
            ],
            [
              112.99998192884017,
              27.935771770294096
            ],
            [
              112.99995113280539,
              27.9386829308868
            ],
            [
              112.9938843139515,
              27.934275348813756
            ],
            [
              112.97986354434788,
              27.92783216528565
            ],
            [
              112.97366703480532,
              27.921048775606522
            ],
            [
              112.97005442725157,
              27.91695884939817
            ],
            [
              112.9670062896281,
              27.91117283592422
            ],
            [
              112.96508709186519,
              27.907780891010276
            ]
          ]
        ]
      },
      "properties": {
        "sourceFileId": "file_1776162190142_6_g1",
        "sourceFileName": "湖南师范大学竹埠港实验中学.geojson",
        "name": "湖南师范大学竹埠港实验中学",
        "id": "imported_1776162190142_6_0_g1",
        "sourceFile": "湖南师范大学竹埠港实验中学.geojson",
        "sourceGroupId": 1,
        "isAssistFeature": false
      },
      "id": "imported_1776162190142_6_0_g1"
    }
  ],
  "properties": {
    "fileName": "湖南师范大学竹埠港实验中学.geojson",
    "exportTime": "2026/4/14 19:20:12",
    "isStarred": false
  }
}