{
  "type": "FeatureCollection",
  "features": [
    {
      "type": "Feature",
      "geometry": {
        "type": "Polygon",
        "coordinates": [
          [
            [
              112.951694798397,
              27.841634397777156
            ],
            [
              112.95251984127101,
              27.848139244792023
            ],
            [
              112.9531386234265,
              27.853731885434797
            ],
            [
              112.9537891177491,
              27.855929396792575
            ],
            [
              112.9537891177491,
              27.855929396792575
            ],
            [
              112.95554667649671,
              27.86229456621497
            ],
            [
              112.95554667649671,
              27.86229456621497
            ],
            [
              112.95650806201108,
              27.866006048449805
            ],
            [
              112.9566486027304,
              27.866330755954195
            ],
            [
              112.95676022116609,
              27.866795557784414
            ],
            [
              112.95609970491499,
              27.867490290330764
            ],
            [
              112.95376085492596,
              27.867107397825464
            ],
            [
              112.9520283734526,
              27.867030819162082
            ],
            [
              112.9519242966639,
              27.867082756200148
            ],
            [
              112.95189843734212,
              27.866111870980063
            ],
            [
              112.95168187715795,
              27.864963174794184
            ],
            [
              112.95003601975827,
              27.864963174794184
            ],
            [
              112.94899653087425,
              27.864810014382783
            ],
            [
              112.94830353828493,
              27.865767263402745
            ],
            [
              112.9449099828522,
              27.867290864643152
            ],
            [
              112.94754748548881,
              27.86866383854263
            ],
            [
              112.95054073088775,
              27.87142629342337
            ],
            [
              112.95266496955794,
              27.873653277399598
            ],
            [
              112.95403123783962,
              27.875879638303843
            ],
            [
              112.95540169922697,
              27.87610397816968
            ],
            [
              112.956975191931,
              27.87574503416134
            ],
            [
              112.95716696641536,
              27.874221820538324
            ],
            [
              112.9571214660493,
              27.873385215625802
            ],
            [
              112.95751276919741,
              27.872387716709397
            ],
            [
              112.9586411782756,
              27.872830156878308
            ],
            [
              112.95964218632885,
              27.874044846961013
            ],
            [
              112.96001092697331,
              27.874331857368617
            ],
            [
              112.96073127128898,
              27.874892537374578
            ],
            [
              112.96174642787223,
              27.8752963524783
            ],
            [
              112.9629646157721,
              27.874982274194394
            ],
            [
              112.96363566880488,
              27.871381163904104
            ],
            [
              112.96494417110941,
              27.871706832112082
            ],
            [
              112.96494417110941,
              27.873142654530668
            ],
            [
              112.96687296861757,
              27.874174640140083
            ],
            [
              112.96941385512037,
              27.874037245769614
            ],
            [
              112.96941385512037,
              27.872555977376024
            ],
            [
              112.97056949238345,
              27.872198426798363
            ],
            [
              112.97185377543629,
              27.87296633522503
            ],
            [
              112.97215371499904,
              27.873098506231315
            ],
            [
              112.97286613437346,
              27.874098645911346
            ],
            [
              112.97436379141085,
              27.874762464581266
            ],
            [
              112.97541604428001,
              27.874830437459266
            ],
            [
              112.97642056250342,
              27.873471292138788
            ],
            [
              112.97776473685798,
              27.87341935674158
            ],
            [
              112.9783029567895,
              27.87139043697404
            ],
            [
              112.98075504933773,
              27.871501212660093
            ],
            [
              112.98181226612856,
              27.87052990529392
            ],
            [
              112.98196591107482,
              27.867935013250516
            ],
            [
              112.98291245737423,
              27.867742154101776
            ],
            [
              112.9847150807079,
              27.865148536648988
            ],
            [
              112.98569555399283,
              27.863383068374006
            ],
            [
              112.98567267427838,
              27.862936063044373
            ],
            [
              112.98466842949809,
              27.86233298648304
            ],
            [
              112.98460371807737,
              27.861707077128926
            ],
            [
              112.98400594503102,
              27.86139482093307
            ],
            [
              112.98398319291886,
              27.859339548621037
            ],
            [
              112.98316021303242,
              27.859410027086142
            ],
            [
              112.98330972234082,
              27.858677458192815
            ],
            [
              112.98292528222134,
              27.856820302073615
            ],
            [
              112.98178571560409,
              27.853581171007235
            ],
            [
              112.98060804344229,
              27.85321461253288
            ],
            [
              112.98064109780472,
              27.85102215478031
            ],
            [
              112.97988178448585,
              27.851974560585703
            ],
            [
              112.97825666968444,
              27.851987353615144
            ],
            [
              112.97746560384208,
              27.850946502476802
            ],
            [
              112.97715561717305,
              27.852219617717736
            ],
            [
              112.97670621451508,
              27.852419962376857
            ],
            [
              112.97593661778492,
              27.850680035523737
            ],
            [
              112.97550349741658,
              27.84776956726529
            ],
            [
              112.97385764001689,
              27.844935615224088
            ],
            [
              112.96784852460712,
              27.843052346658425
            ],
            [
              112.9649563280203,
              27.84199079256679
            ],
            [
              112.96271896839656,
              27.842907589894025
            ],
            [
              112.951694798397,
              27.841634397777156
            ]
          ]
        ]
      },
      "properties": {
        "sourceFileId": "file_1775839213313_9_g2",
        "sourceFileName": "湘潭市七中.geojson",
        "sourceGroupId": 2,
        "name": "湘潭市七中",
        "id": "imported_1775839213313_9_0_g2",
        "sourceFile": "湘潭市七中.geojson",
        "isAssistFeature": false
      },
      "id": "imported_1775839213313_9_0_g2"
    }
  ],
  "properties": {
    "fileName": "湘潭市七中.geojson",
    "exportTime": "2026/4/11 00:54:05",
    "isStarred": false
  }
}