{
  "type": "FeatureCollection",
  "features": [
    {
      "type": "Feature",
      "geometry": {
        "type": "Polygon",
        "coordinates": [
          [
            [
              112.87901282965782,
              27.876057928409892
            ],
            [
              112.87673877453992,
              27.876205133023817
            ],
            [
              112.87631262697413,
              27.875694707829794
            ],
            [
              112.8750799257489,
              27.875876318272077
            ],
            [
              112.87463967531136,
              27.87418992388055
            ],
            [
              112.87455162522383,
              27.8731521296678
            ],
            [
              112.87376925143361,
              27.872233282939106
            ],
            [
              112.87340173695148,
              27.871873089329668
            ],
            [
              112.8731300958125,
              27.87104675828911
            ],
            [
              112.87271464465881,
              27.870488804705843
            ],
            [
              112.87290639134513,
              27.869485893572815
            ],
            [
              112.87292237023566,
              27.868737235549077
            ],
            [
              112.87157215398614,
              27.868793738221882
            ],
            [
              112.87084511446713,
              27.868539475962137
            ],
            [
              112.87078918835029,
              27.86798150946764
            ],
            [
              112.8718517845704,
              27.867684867883042
            ],
            [
              112.87218454448438,
              27.867656136934727
            ],
            [
              112.87246478966587,
              27.86752924305607
            ],
            [
              112.87316198499546,
              27.86735400840793
            ],
            [
              112.87330552521038,
              27.867511115347
            ],
            [
              112.8735720998952,
              27.867601753862075
            ],
            [
              112.87406124856818,
              27.867797135903587
            ],
            [
              112.87479560934614,
              27.868254348932552
            ],
            [
              112.87554981982501,
              27.868609502136096
            ],
            [
              112.87641014547573,
              27.869315648165937
            ],
            [
              112.87747274169581,
              27.869379213331456
            ],
            [
              112.87798193238179,
              27.869623337708305
            ],
            [
              112.87916113390497,
              27.869073228061495
            ],
            [
              112.87962874080202,
              27.868484964958526
            ],
            [
              112.88018627210238,
              27.86829417623926
            ],
            [
              112.88055496215586,
              27.86733227799688
            ],
            [
              112.8810495463739,
              27.866131880610467
            ],
            [
              112.88034813602827,
              27.865034817065265
            ],
            [
              112.87970220711709,
              27.864763832701527
            ],
            [
              112.87843671765664,
              27.864449180980728
            ],
            [
              112.87896476190413,
              27.861462612699086
            ],
            [
              112.88631382334484,
              27.86317502878812
            ],
            [
              112.88826030968495,
              27.863736945938527
            ],
            [
              112.88925883087093,
              27.863955359140547
            ],
            [
              112.89054558497659,
              27.86436488270796
            ],
            [
              112.89330438577913,
              27.865029217648157
            ],
            [
              112.89611257193245,
              27.865945056355045
            ],
            [
              112.90237921347108,
              27.86720413638878
            ],
            [
              112.90175254931721,
              27.869117910022027
            ],
            [
              112.90067012941508,
              27.869470443583538
            ],
            [
              112.90101194622628,
              27.87218994964745
            ],
            [
              112.90632309976237,
              27.873794169738886
            ],
            [
              112.90699350227034,
              27.876871202393033
            ],
            [
              112.90587186730512,
              27.877327051648862
            ],
            [
              112.90641334625383,
              27.87861481543159
            ],
            [
              112.90490494061096,
              27.87912763745412
            ],
            [
              112.90524014186492,
              27.880005127282857
            ],
            [
              112.90055619047801,
              27.881204120442007
            ],
            [
              112.90026817582195,
              27.88167935961637
            ],
            [
              112.89812895600478,
              27.882048673230756
            ],
            [
              112.89621194675206,
              27.882232491920533
            ],
            [
              112.89480314535184,
              27.882310320306473
            ],
            [
              112.89169204225972,
              27.88282917478331
            ],
            [
              112.88849288908007,
              27.882102777819682
            ],
            [
              112.88479478540452,
              27.881013173238543
            ],
            [
              112.8843198919462,
              27.87652087393313
            ],
            [
              112.88347068192724,
              27.876556766857618
            ],
            [
              112.88250548312917,
              27.876265482480278
            ],
            [
              112.88177240529092,
              27.876516193781214
            ],
            [
              112.87901282965782,
              27.876057928409892
            ]
          ]
        ]
      },
      "properties": {
        "sourceFileId": "file_1775098937075_14_g1",
        "sourceFileName": "湘潭市益智中学.geojson",
        "name": "湘潭市益智中学",
        "id": "imported_1775098937076_14_0_g1",
        "sourceFile": "湘潭市益智中学.geojson",
        "sourceGroupId": 1,
        "isAssistFeature": false
      },
      "id": "imported_1775098937076_14_0_g1"
    },
    {
      "type": "Feature",
      "geometry": {
        "type": "Polygon",
        "coordinates": [
          [
            [
              112.87898821944603,
              27.88331614495543
            ],
            [
              112.87907453675973,
              27.88295547219822
            ],
            [
              112.87901176053158,
              27.882497693507247
            ],
            [
              112.87903530161712,
              27.882081529381665
            ],
            [
              112.87913731298787,
              27.881679235873364
            ],
            [
              112.87934918275788,
              27.881380982824965
            ],
            [
              112.88146003342939,
              27.881762469135637
            ],
            [
              112.8816797502279,
              27.881485024679336
            ],
            [
              112.88201717245418,
              27.881380982824965
            ],
            [
              112.8821113367964,
              27.880992559018907
            ],
            [
              112.88254292336495,
              27.88087464437355
            ],
            [
              112.88262924067864,
              27.880513963484958
            ],
            [
              112.882786181249,
              27.880312814006103
            ],
            [
              112.88318637970346,
              27.880257324428968
            ],
            [
              112.88346887273012,
              27.879459658615644
            ],
            [
              112.88387691821309,
              27.87934174230135
            ],
            [
              112.88377490684235,
              27.88190812719064
            ],
            [
              112.88407309392606,
              27.882317355915845
            ],
            [
              112.88586221642828,
              27.882691902885227
            ],
            [
              112.88572881694348,
              27.883232912887323
            ],
            [
              112.88347671975865,
              27.883246784903122
            ],
            [
              112.88323346187455,
              27.88295547219822
            ],
            [
              112.88293527479087,
              27.8831150006813
            ],
            [
              112.88216626599605,
              27.883191296829253
            ],
            [
              112.8818445378268,
              27.883732304336448
            ],
            [
              112.881303092859,
              27.88364213660627
            ],
            [
              112.88121677554527,
              27.883135808727005
            ],
            [
              112.8807930360053,
              27.88284449572359
            ],
            [
              112.88009465046714,
              27.882899983975094
            ],
            [
              112.87995340395382,
              27.88348260889974
            ],
            [
              112.87907453675975,
              27.883406312957035
            ],
            [
              112.87898821944603,
              27.88331614495543
            ]
          ]
        ]
      },
      "properties": {
        "sourceFileId": "file_1775098937075_14_g1",
        "sourceFileName": "湘潭市益智中学.geojson",
        "sourceGroupId": 1,
        "name": "湘潭市益智中学",
        "id": "imported_1775098937076_14_1_g1",
        "sourceFile": "湘潭市益智中学.geojson",
        "isAssistFeature": false
      },
      "id": "imported_1775098937076_14_1_g1"
    },
    {
      "type": "Feature",
      "geometry": {
        "type": "Polygon",
        "coordinates": [
          [
            [
              112.89136298341975,
              27.8912090286981
            ],
            [
              112.8916768645605,
              27.889794177982836
            ],
            [
              112.89258711986864,
              27.889627723741825
            ],
            [
              112.89337182272052,
              27.88990514733466
            ],
            [
              112.89447040671311,
              27.88973869326425
            ],
            [
              112.89465873539754,
              27.88926707200831
            ],
            [
              112.89503539276645,
              27.88876770608617
            ],
            [
              112.89591425996052,
              27.888074138484356
            ],
            [
              112.8967355226244,
              27.886926373371523
            ],
            [
              112.89740917354928,
              27.886270192647743
            ],
            [
              112.89789035278133,
              27.885650462757212
            ],
            [
              112.89943012632394,
              27.88473908882756
            ],
            [
              112.89955385812645,
              27.884095046624964
            ],
            [
              112.89989755757793,
              27.883657581812187
            ],
            [
              112.90027720781684,
              27.881637619218253
            ],
            [
              112.90695027032204,
              27.879781080287472
            ],
            [
              112.90670280671698,
              27.880267169592116
            ],
            [
              112.90608414770432,
              27.880899082426552
            ],
            [
              112.90582072792122,
              27.882063805342554
            ],
            [
              112.90611534591145,
              27.882864341680232
            ],
            [
              112.90569431345384,
              27.884756383666897
            ],
            [
              112.90453766504768,
              27.886685328874435
            ],
            [
              112.90579251945059,
              27.887399029891654
            ],
            [
              112.90554154857001,
              27.88860459524885
            ],
            [
              112.90457585626861,
              27.890273075556806
            ],
            [
              112.90290089843518,
              27.890157343648667
            ],
            [
              112.89983777421982,
              27.89334514082097
            ],
            [
              112.90079511169907,
              27.89371964964222
            ],
            [
              112.89858224965684,
              27.895966675358196
            ],
            [
              112.8972953369798,
              27.896493748709773
            ],
            [
              112.89627522327237,
              27.896424397099636
            ],
            [
              112.89384264443164,
              27.894427051658113
            ],
            [
              112.89574162533313,
              27.89256837765349
            ],
            [
              112.89298233535396,
              27.89176252882939
            ],
            [
              112.89133159530569,
              27.891430964387396
            ],
            [
              112.89136298341975,
              27.8912090286981
            ]
          ]
        ]
      },
      "properties": {
        "sourceFileId": "file_1775098937075_14_g1",
        "sourceFileName": "湘潭市益智中学.geojson",
        "sourceGroupId": 1,
        "name": "湘潭市益智中学",
        "id": "imported_1775098937076_14_2_g1",
        "sourceFile": "湘潭市益智中学.geojson",
        "isAssistFeature": false
      },
      "id": "imported_1775098937076_14_2_g1"
    }
  ],
  "properties": {
    "fileName": "湘潭市益智中学.geojson",
    "exportTime": "2026/4/2 11:06:26",
    "isStarred": false
  }
}