{
  "type": "FeatureCollection",
  "features": [
    {
      "type": "Feature",
      "properties": {
        "name": "湘潭大学附属实验学校",
        "isAssistFeature": false
      },
      "geometry": {
        "type": "Polygon",
        "coordinates": [
          [
            [
              112.90774273609475,
              27.896537171661386
            ],
            [
              112.90612029694493,
              27.896470478716697
            ],
            [
              112.9042207239367,
              27.897372787013726
            ],
            [
              112.90504867238799,
              27.897946304169263
            ],
            [
              112.9045475912242,
              27.903075694367562
            ],
            [
              112.90612754455265,
              27.903537310189005
            ],
            [
              112.90847621860904,
              27.903945917272473
            ],
            [
              112.90914701488624,
              27.90165634542112
            ],
            [
              112.90971825806696,
              27.89970653172963
            ],
            [
              112.9094777610991,
              27.899346736979034
            ],
            [
              112.9079133504217,
              27.899333569270485
            ],
            [
              112.90774929110135,
              27.896644610380633
            ],
            [
              112.90774273609475,
              27.896537171661386
            ]
          ]
        ]
      }
    },
    {
      "type": "Feature",
      "properties": {
        "name": "湘潭大学附属实验学校",
        "isAssistFeature": false
      },
      "geometry": {
        "type": "Polygon",
        "coordinates": [
          [
            [
              112.87228211754652,
              27.919509313738654
            ],
            [
              112.87277738661047,
              27.91888198671339
            ],
            [
              112.87372205945479,
              27.919186917740813
            ],
            [
              112.8869634378468,
              27.90465170459271
            ],
            [
              112.88718253514799,
              27.904432785489472
            ],
            [
              112.88803583944647,
              27.90357513273187
            ],
            [
              112.8886072910364,
              27.90301523421989
            ],
            [
              112.88926713415526,
              27.902371347190503
            ],
            [
              112.89103224014526,
              27.90349230148072
            ],
            [
              112.89353992858337,
              27.900339822586464
            ],
            [
              112.8942382276813,
              27.900011547779553
            ],
            [
              112.89558949778618,
              27.899365328643928
            ],
            [
              112.89559962269773,
              27.899388181985916
            ],
            [
              112.8957947233027,
              27.89988929662369
            ],
            [
              112.89908760128291,
              27.89884496326638
            ],
            [
              112.8995057104538,
              27.897503292207595
            ],
            [
              112.90147981218956,
              27.896596880405752
            ],
            [
              112.90230081307043,
              27.89536739301351
            ],
            [
              112.90300937991205,
              27.894309703997457
            ],
            [
              112.90303613443618,
              27.894268579386292
            ],
            [
              112.90308852059027,
              27.894187751274703
            ],
            [
              112.89578129079428,
              27.89263605911804
            ],
            [
              112.89935640147043,
              27.888712491087855
            ],
            [
              112.90128599707377,
              27.88566655251868
            ],
            [
              112.9001554556106,
              27.88162561261743
            ],
            [
              112.90012260332236,
              27.881508185109283
            ],
            [
              112.90009085236865,
              27.881394692719397
            ],
            [
              112.89996893661153,
              27.88091239935565
            ],
            [
              112.8997402722526,
              27.880009321006675
            ],
            [
              112.89746897458316,
              27.877640043702783
            ],
            [
              112.89740392038692,
              27.877640171547117
            ],
            [
              112.89543296634791,
              27.877649284226994
            ],
            [
              112.89526754697823,
              27.878534832788773
            ],
            [
              112.8952239768903,
              27.87876976320835
            ],
            [
              112.89666868166621,
              27.87995769207236
            ],
            [
              112.89677196726262,
              27.880042620147584
            ],
            [
              112.89727336463342,
              27.88045489706175
            ],
            [
              112.89788426034913,
              27.880957208620934
            ],
            [
              112.89966685294442,
              27.88151280480944
            ],
            [
              112.89969902700463,
              27.88152229194832
            ],
            [
              112.89562218388609,
              27.882649550763336
            ],
            [
              112.89526303114728,
              27.882744485434987
            ],
            [
              112.89359428923449,
              27.8831629208336
            ],
            [
              112.89288794751985,
              27.883036544747604
            ],
            [
              112.88911227627838,
              27.882649922368167
            ],
            [
              112.88793435856547,
              27.882515560934124
            ],
            [
              112.88731749174805,
              27.882433345613258
            ],
            [
              112.88694675882694,
              27.88089610644429
            ],
            [
              112.88558854743984,
              27.875735214740665
            ],
            [
              112.88164777483236,
              27.87640744107514
            ],
            [
              112.88157670192369,
              27.876419564983983
            ],
            [
              112.87459828157284,
              27.877609951049312
            ],
            [
              112.87319662406533,
              27.87590378389496
            ],
            [
              112.87280599795226,
              27.874624140496174
            ],
            [
              112.87287493197222,
              27.87279605273004
            ],
            [
              112.87355306928187,
              27.87218122011432
            ],
            [
              112.87392071738832,
              27.871124971448943
            ],
            [
              112.87420329503735,
              27.869601183060226
            ],
            [
              112.87421310464026,
              27.869548285714753
            ],
            [
              112.87422668357408,
              27.86947506115321
            ],
            [
              112.87438027662304,
              27.868646808885302
            ],
            [
              112.87418042213359,
              27.866755792377575
            ],
            [
              112.8742160403346,
              27.866294732076167
            ],
            [
              112.87415049655651,
              27.8653560474748
            ],
            [
              112.87391871684018,
              27.86243133030653
            ],
            [
              112.87265242825949,
              27.86290865818976
            ],
            [
              112.86946415909411,
              27.86410935005199
            ],
            [
              112.86758510720024,
              27.864818765095045
            ],
            [
              112.8664611791342,
              27.86524242062758
            ],
            [
              112.86007352235521,
              27.867650165497835
            ],
            [
              112.86206960856093,
              27.871892630362662
            ],
            [
              112.86206960945924,
              27.873581396981393
            ],
            [
              112.86206960856093,
              27.873657146366867
            ],
            [
              112.85722803772585,
              27.873919944096343
            ],
            [
              112.85569912038363,
              27.87369468871181
            ],
            [
              112.85444945063571,
              27.873390900832273
            ],
            [
              112.8528111661026,
              27.87343189043591
            ],
            [
              112.85247140709247,
              27.874483079714423
            ],
            [
              112.85111236925532,
              27.874483079714423
            ],
            [
              112.85026297083168,
              27.873281719819758
            ],
            [
              112.8413895561856,
              27.87290477524282
            ],
            [
              112.84135924253633,
              27.872903487214444
            ],
            [
              112.841380476913,
              27.873973453139797
            ],
            [
              112.8410619522796,
              27.875118493007534
            ],
            [
              112.84318183351797,
              27.875563777109345
            ],
            [
              112.84320668361369,
              27.875568996592957
            ],
            [
              112.84375879267887,
              27.875268661077524
            ],
            [
              112.84495613376488,
              27.876874229642574
            ],
            [
              112.84499042066265,
              27.87692049769596
            ],
            [
              112.84505412558931,
              27.878647391188544
            ],
            [
              112.84586105346298,
              27.87844091637998
            ],
            [
              112.84587534565914,
              27.878473464824157
            ],
            [
              112.84766602578694,
              27.88255157011654
            ],
            [
              112.84718371312438,
              27.883293903691904
            ],
            [
              112.84781467001699,
              27.883658980422982
            ],
            [
              112.84763914729531,
              27.88649695343068
            ],
            [
              112.84706580385344,
              27.887416634052297
            ],
            [
              112.84696677537316,
              27.888372067973147
            ],
            [
              112.84695559763607,
              27.888407252639286
            ],
            [
              112.84644998986154,
              27.889556268585636
            ],
            [
              112.84736309321188,
              27.89030700755098
            ],
            [
              112.8476603825703,
              27.89336621504005
            ],
            [
              112.8485658771902,
              27.89385011307098
            ],
            [
              112.84909578529144,
              27.893602486016384
            ],
            [
              112.8497671573887,
              27.89368008320266
            ],
            [
              112.84980511390442,
              27.89368526846734
            ],
            [
              112.85037948232406,
              27.892982352006303
            ],
            [
              112.85039694467486,
              27.892953159988025
            ],
            [
              112.85050643493491,
              27.891619913664183
            ],
            [
              112.85086706989395,
              27.891076563061027
            ],
            [
              112.85093511548007,
              27.89021687192455
            ],
            [
              112.85095379235315,
              27.890005659304354
            ],
            [
              112.85175873045846,
              27.89107650986531
            ],
            [
              112.85262936325876,
              27.89167709317881
            ],
            [
              112.85311188522878,
              27.89251225697615
            ],
            [
              112.85314550377998,
              27.89255956795627
            ],
            [
              112.85371330641318,
              27.892493287799265
            ],
            [
              112.85377605104087,
              27.892484121585632
            ],
            [
              112.85479532896953,
              27.892897017255166
            ],
            [
              112.85517991301404,
              27.89292791787341
            ],
            [
              112.85543557084895,
              27.892948458998937
            ],
            [
              112.85549608316313,
              27.892953321160256
            ],
            [
              112.85553891393756,
              27.893027453214437
            ],
            [
              112.85598874801101,
              27.893806031631776
            ],
            [
              112.85600309500443,
              27.893835838727707
            ],
            [
              112.8562485479777,
              27.89509864437968
            ],
            [
              112.856261324716,
              27.89518158129773
            ],
            [
              112.85604871055624,
              27.895437821301837
            ],
            [
              112.85602414163323,
              27.895469670739107
            ],
            [
              112.8557941549542,
              27.895744607147
            ],
            [
              112.85575029111716,
              27.89576267781789
            ],
            [
              112.85531335146129,
              27.895910434675557
            ],
            [
              112.85492352215387,
              27.89604488587309
            ],
            [
              112.85490078130245,
              27.89610462267655
            ],
            [
              112.85456252786875,
              27.896945717846656
            ],
            [
              112.8545123102477,
              27.897367347077548
            ],
            [
              112.85443511801536,
              27.898015446225397
            ],
            [
              112.85443471557011,
              27.899230941114407
            ],
            [
              112.85443624450271,
              27.89925365316957
            ],
            [
              112.8546714530885,
              27.899843805293777
            ],
            [
              112.85479611230048,
              27.900154871261506
            ],
            [
              112.85472401710905,
              27.900968501981794
            ],
            [
              112.8546495413821,
              27.901772788883953
            ],
            [
              112.85464746717209,
              27.90180632902376
            ],
            [
              112.85616048613042,
              27.904222500858847
            ],
            [
              112.85695245974954,
              27.905487198539237
            ],
            [
              112.85785394608658,
              27.906926757856365
            ],
            [
              112.85816926193783,
              27.908120353780866
            ],
            [
              112.85789641663658,
              27.909309953881188
            ],
            [
              112.85791767616612,
              27.909336726651176
            ],
            [
              112.85829988057341,
              27.909779080503142
            ],
            [
              112.85853346500518,
              27.911786919868277
            ],
            [
              112.86033095975269,
              27.912796797775453
            ],
            [
              112.86026761505043,
              27.913701723611812
            ],
            [
              112.86038374655543,
              27.914224151255855
            ],
            [
              112.86127056879383,
              27.91471858964955
            ],
            [
              112.86131284261276,
              27.915486521307727
            ],
            [
              112.86183429936382,
              27.916064605914436
            ],
            [
              112.86220942684335,
              27.9159887441149
            ],
            [
              112.86257092149009,
              27.91649982872116
            ],
            [
              112.86357395518348,
              27.91687798600587
            ],
            [
              112.86391232899146,
              27.9170026358037
            ],
            [
              112.86586051882286,
              27.917713646666837
            ],
            [
              112.86643890989832,
              27.9185760872279
            ],
            [
              112.86763184025628,
              27.918384434364352
            ],
            [
              112.86900551883592,
              27.919725998069286
            ],
            [
              112.86965620812208,
              27.919885707095514
            ],
            [
              112.86987923285767,
              27.920340471752667
            ],
            [
              112.87007447719311,
              27.92073858948156
            ],
            [
              112.87012615098317,
              27.920843955504896
            ],
            [
              112.87160827687887,
              27.921418899997715
            ],
            [
              112.87222252690384,
              27.920858277084687
            ],
            [
              112.8724770223188,
              27.920626000241676
            ],
            [
              112.8723408179588,
              27.920528378620237
            ],
            [
              112.87178952276722,
              27.920133249388957
            ],
            [
              112.87228211754652,
              27.919509313738654
            ]
          ]
        ]
      }
    }
  ]
}