{
  "type": "FeatureCollection",
  "features": [
    {
      "type": "Feature",
      "properties": {
        "name": "湘机中学",
        "isAssistFeature": false
      },
      "geometry": {
        "type": "Polygon",
        "coordinates": [
          [
            [
              112.93143321636201,
              27.82302858828165
            ],
            [
              112.94231874765006,
              27.822462817898845
            ],
            [
              112.94257862397355,
              27.822462817898845
            ],
            [
              112.94774531127962,
              27.82229185057058
            ],
            [
              112.95122418903264,
              27.822181199973716
            ],
            [
              112.95123464991416,
              27.8220905127337
            ],
            [
              112.95127824964645,
              27.82176285411811
            ],
            [
              112.95141016185602,
              27.820770023956214
            ],
            [
              112.95181938489215,
              27.81757517548505
            ],
            [
              112.95289238926136,
              27.81405588974763
            ],
            [
              112.95295418526806,
              27.813853203416
            ],
            [
              112.95303340050644,
              27.813593385812176
            ],
            [
              112.95530788180523,
              27.80613303185745
            ],
            [
              112.95539056094734,
              27.805861833949262
            ],
            [
              112.94788790715289,
              27.802954157564123
            ],
            [
              112.94690901747934,
              27.802571342707004
            ],
            [
              112.94573854230853,
              27.802283436261835
            ],
            [
              112.93565530448559,
              27.7998031876123
            ],
            [
              112.93380765230414,
              27.79934870048528
            ],
            [
              112.93299631010919,
              27.799149125536633
            ],
            [
              112.9326152636303,
              27.799098415647762
            ],
            [
              112.93242516574311,
              27.799066128657532
            ],
            [
              112.92646187939256,
              27.798279522560733
            ],
            [
              112.92458916601132,
              27.798030300087866
            ],
            [
              112.9172980151606,
              27.797043092111508
            ],
            [
              112.91612995466129,
              27.797102992336264
            ],
            [
              112.91216444873908,
              27.7973063488195
            ],
            [
              112.89978289910944,
              27.801084553685047
            ],
            [
              112.89547748415842,
              27.80364694808689
            ],
            [
              112.89544956092615,
              27.803663566474246
            ],
            [
              112.89346151554054,
              27.8048467439894
            ],
            [
              112.89340353198388,
              27.804886088460965
            ],
            [
              112.89113892855997,
              27.806962097588993
            ],
            [
              112.88798923125626,
              27.811190741723586
            ],
            [
              112.8878459876977,
              27.811383049853255
            ],
            [
              112.88760321529722,
              27.812136491382027
            ],
            [
              112.88467132890722,
              27.821235141346893
            ],
            [
              112.88451887582033,
              27.821708233262505
            ],
            [
              112.88458545355931,
              27.821710433954944
            ],
            [
              112.88915279928085,
              27.82186139737813
            ],
            [
              112.89109626577049,
              27.82350544368713
            ],
            [
              112.89294568044652,
              27.8220582945457
            ],
            [
              112.89325784500775,
              27.82181299967965
            ],
            [
              112.89884205847808,
              27.817424902088973
            ],
            [
              112.90149422745493,
              27.81784500144005
            ],
            [
              112.90278301613856,
              27.81807519228489
            ],
            [
              112.9049429083397,
              27.81815528981317
            ],
            [
              112.90766243658982,
              27.81815715927119
            ],
            [
              112.90778881068566,
              27.818176077104305
            ],
            [
              112.90793524685674,
              27.81819799814224
            ],
            [
              112.90852362989311,
              27.818286078704734
            ],
            [
              112.91022306903582,
              27.81853709873941
            ],
            [
              112.91297106669393,
              27.818938573231485
            ],
            [
              112.91367933080326,
              27.820130269680327
            ],
            [
              112.91469142400632,
              27.821833153075666
            ],
            [
              112.91479542735668,
              27.821887069171314
            ],
            [
              112.91575503828588,
              27.82128023825128
            ],
            [
              112.91581532512292,
              27.821232145373045
            ],
            [
              112.91650648171598,
              27.820584024746537
            ],
            [
              112.91670357208933,
              27.820397214845176
            ],
            [
              112.9181326416877,
              27.819042677330224
            ],
            [
              112.91815360926475,
              27.819022803872457
            ],
            [
              112.92691212399612,
              27.81870402799655
            ],
            [
              112.92719314935633,
              27.81869379965715
            ],
            [
              112.92362133729391,
              27.823772100904034
            ],
            [
              112.92359608565127,
              27.823807650542275
            ],
            [
              112.92683058122282,
              27.825112057684773
            ],
            [
              112.92872429811372,
              27.825900667706204
            ],
            [
              112.92875272889412,
              27.825848695223797
            ],
            [
              112.92886223622224,
              27.825733196580575
            ],
            [
              112.92917137525758,
              27.825422326084443
            ],
            [
              112.93044305283165,
              27.824080955823117
            ],
            [
              112.93143321636201,
              27.82302858828165
            ]
          ]
        ]
      }
    }
  ]
}