{
  "type": "FeatureCollection",
  "features": [
    {
      "type": "Feature",
      "geometry": {
        "type": "Polygon",
        "coordinates": [
          [
            [
              112.92262414624311,
              27.8405288079975
            ],
            [
              112.9214703213461,
              27.840221735514305
            ],
            [
              112.91666807336425,
              27.839165994404226
            ],
            [
              112.91340795334922,
              27.838425560493718
            ],
            [
              112.91334211312709,
              27.83840819835261
            ],
            [
              112.91316898711057,
              27.838355399378926
            ],
            [
              112.91299920552188,
              27.83830559667655
            ],
            [
              112.912839851577,
              27.838257107016346
            ],
            [
              112.90912119101675,
              27.83713679465862
            ],
            [
              112.90868110366411,
              27.837022748205868
            ],
            [
              112.90820455369409,
              27.838891632498232
            ],
            [
              112.90714841339772,
              27.838877482775672
            ],
            [
              112.9071164091191,
              27.83969818587613
            ],
            [
              112.90682810201517,
              27.839875096846228
            ],
            [
              112.90685186964096,
              27.840022211847426
            ],
            [
              112.9065428932007,
              27.84016932664916
            ],
            [
              112.90590117269433,
              27.840295425459203
            ],
            [
              112.90523568546047,
              27.83995916269909
            ],
            [
              112.90395778256146,
              27.839097090424445
            ],
            [
              112.9037309570539,
              27.83750313421747
            ],
            [
              112.9036654833444,
              27.837090133095586
            ],
            [
              112.90307754407578,
              27.835176820149712
            ],
            [
              112.90300544618941,
              27.834112086785908
            ],
            [
              112.90389037927075,
              27.833398455208467
            ],
            [
              112.90356060323839,
              27.832926203072574
            ],
            [
              112.90306312431886,
              27.832913451496097
            ],
            [
              112.90251517714839,
              27.832722178462603
            ],
            [
              112.90145792383937,
              27.83297008129003
            ],
            [
              112.90128229421819,
              27.8328369420054
            ],
            [
              112.90121844286608,
              27.832603639043512
            ],
            [
              112.9005778964578,
              27.830400647521785
            ],
            [
              112.90057322252339,
              27.830356266198024
            ],
            [
              112.90061320923161,
              27.82990554771206
            ],
            [
              112.90067238036107,
              27.829146680458976
            ],
            [
              112.89931232473272,
              27.82957248046661
            ],
            [
              112.89924667854666,
              27.82959300420879
            ],
            [
              112.89802578453225,
              27.82998394441202
            ],
            [
              112.8943723443566,
              27.823079700915486
            ],
            [
              112.89299411670831,
              27.822092972415945
            ],
            [
              112.89294568044652,
              27.8220582945457
            ],
            [
              112.89109626577049,
              27.823505443687154
            ],
            [
              112.89105838561159,
              27.823537684485046
            ],
            [
              112.88915826912262,
              27.821910324173643
            ],
            [
              112.88443186910884,
              27.821784849691554
            ],
            [
              112.8842739950739,
              27.824653592963273
            ],
            [
              112.88407592966547,
              27.826281815396285
            ],
            [
              112.88501154191657,
              27.83128222250383
            ],
            [
              112.8865166572769,
              27.83678600137823
            ],
            [
              112.8870048027992,
              27.83865650318593
            ],
            [
              112.88867263333373,
              27.84178592448322
            ],
            [
              112.89050317904234,
              27.843764247694452
            ],
            [
              112.8941642704596,
              27.84728917053988
            ],
            [
              112.89732478779355,
              27.848918616000603
            ],
            [
              112.89751997104352,
              27.849065910950728
            ],
            [
              112.89887477422242,
              27.849511083673903
            ],
            [
              112.90167188906533,
              27.85043017757043
            ],
            [
              112.90463702300231,
              27.851404472454092
            ],
            [
              112.90606923670418,
              27.851898640985027
            ],
            [
              112.90662435602391,
              27.85209357585987
            ],
            [
              112.90698968917184,
              27.852216231233683
            ],
            [
              112.90893924084921,
              27.852888895747554
            ],
            [
              112.91072894630493,
              27.853506403212435
            ],
            [
              112.91690086907519,
              27.855502355388552
            ],
            [
              112.91958452400273,
              27.856370217386313
            ],
            [
              112.92171578779411,
              27.85283796235801
            ],
            [
              112.9216928430251,
              27.846112634651035
            ],
            [
              112.92142607931834,
              27.846037204384544
            ],
            [
              112.92147451288518,
              27.845655218164225
            ],
            [
              112.92160990337155,
              27.84459356945993
            ],
            [
              112.9218741392191,
              27.842528150895774
            ],
            [
              112.92231843428056,
              27.841396174223533
            ],
            [
              112.92267048044712,
              27.84097167962821
            ],
            [
              112.92296519523396,
              27.840766921883343
            ],
            [
              112.9231185403479,
              27.840660382535972
            ],
            [
              112.9230570569549,
              27.840644020026218
            ],
            [
              112.92262414624311,
              27.8405288079975
            ]
          ]
        ]
      },
      "properties": {
        "name": "湘潭市三中",
        "isAssistFeature": false,
        "sourceFileId": "file_1777360798520_11_g1",
        "sourceFileName": "湘潭市三中.geojson",
        "sourceGroupId": 1,
        "id": "imported_1777360798520_11_0_g1",
        "sourceFile": "湘潭市三中.geojson"
      },
      "id": "imported_1777360798520_11_0_g1"
    }
  ],
  "properties": {
    "fileName": "湘潭市三中.geojson",
    "exportTime": "2026/4/28 15:26:05",
    "isStarred": false
  }
}