{
  "type": "FeatureCollection",
  "features": [
    {
      "type": "Feature",
      "geometry": {
        "type": "Polygon",
        "coordinates": [
          [
            [
              112.8766001149051,
              27.869293658893838
            ],
            [
              112.87595760156216,
              27.86885255762789
            ],
            [
              112.87581406134723,
              27.86831477420327
            ],
            [
              112.87573203836729,
              27.867885754051713
            ],
            [
              112.87578672035393,
              27.867281497436167
            ],
            [
              112.87545179318577,
              27.866767876663644
            ],
            [
              112.87418043699655,
              27.866755791439715
            ],
            [
              112.87421605531435,
              27.866294730469093
            ],
            [
              112.8741505116827,
              27.865356045899716
            ],
            [
              112.87391873149839,
              27.862431329032958
            ],
            [
              112.8726524433163,
              27.862908656648997
            ],
            [
              112.86945570855707,
              27.864017538505564
            ],
            [
              112.86912993980182,
              27.863124250085747
            ],
            [
              112.86934811521151,
              27.859923522729943
            ],
            [
              112.86966607762751,
              27.85748073026963
            ],
            [
              112.868869894741,
              27.857295489229244
            ],
            [
              112.8689537034659,
              27.856813861042838
            ],
            [
              112.86954036454017,
              27.856813861042838
            ],
            [
              112.86933084272792,
              27.852812559538776
            ],
            [
              112.86623295216846,
              27.85338509122917
            ],
            [
              112.86626899926632,
              27.85202525768807
            ],
            [
              112.86620892076986,
              27.85122847229887
            ],
            [
              112.86659342314738,
              27.850272322103507
            ],
            [
              112.8668817999305,
              27.849496771863727
            ],
            [
              112.86719372024307,
              27.84784777648241
            ],
            [
              112.8678222856798,
              27.84784777648241
            ],
            [
              112.86962417326508,
              27.85110825664897
            ],
            [
              112.87021083433933,
              27.85284960930413
            ],
            [
              112.87083939977609,
              27.855220767951778
            ],
            [
              112.87255747863645,
              27.8569991029062
            ],
            [
              112.87444317494663,
              27.855146670028972
            ],
            [
              112.8738146095099,
              27.854294540276854
            ],
            [
              112.87498793165847,
              27.853442403827486
            ],
            [
              112.87582601890743,
              27.854257491005285
            ],
            [
              112.87670601051884,
              27.853738799873852
            ],
            [
              112.87779552394252,
              27.853479453377602
            ],
            [
              112.87875932427883,
              27.853627651451433
            ],
            [
              112.87880122864128,
              27.852590260680998
            ],
            [
              112.88072882931391,
              27.853034857940813
            ],
            [
              112.88102215985104,
              27.851849261196875
            ],
            [
              112.8835783259604,
              27.85110825664897
            ],
            [
              112.88320118669836,
              27.85047839880187
            ],
            [
              112.87896884609106,
              27.847403157955426
            ],
            [
              112.87699934105596,
              27.84447604048748
            ],
            [
              112.87373080078503,
              27.83921444086735
            ],
            [
              112.87465269675887,
              27.839140332007958
            ],
            [
              112.87955550716534,
              27.8453282473955
            ],
            [
              112.88307547361099,
              27.848033033663995
            ],
            [
              112.8856735440828,
              27.849218672132324
            ],
            [
              112.88923541489093,
              27.850367247037312
            ],
            [
              112.89149825046314,
              27.850070841774865
            ],
            [
              112.89225252898721,
              27.850626600977392
            ],
            [
              112.89325823368597,
              27.85058955045251
            ],
            [
              112.894850599459,
              27.85121940765397
            ],
            [
              112.89413822529738,
              27.852293861495014
            ],
            [
              112.8974486699308,
              27.854183392424133
            ],
            [
              112.90388127946493,
              27.85729692903665
            ],
            [
              112.90130387127601,
              27.862519165168436
            ],
            [
              112.90000483604011,
              27.866594198540696
            ],
            [
              112.89602392160754,
              27.86540875009088
            ],
            [
              112.87896476190413,
              27.861462612699086
            ],
            [
              112.87856770838812,
              27.863708317478043
            ],
            [
              112.87843671765664,
              27.864449180980728
            ],
            [
              112.87901075045345,
              27.864704883938273
            ],
            [
              112.88034813602827,
              27.865034817065265
            ],
            [
              112.88069944,
              27.865633808848088
            ],
            [
              112.88098025548854,
              27.866112611671923
            ],
            [
              112.88035169005181,
              27.867298052422086
            ],
            [
              112.88005835951466,
              27.86826121348284
            ],
            [
              112.87949142494837,
              27.868483964781944
            ],
            [
              112.87908131004863,
              27.869039874823216
            ],
            [
              112.87854980246652,
              27.86926141013835
            ],
            [
              112.87795349407429,
              27.869535357456087
            ],
            [
              112.8773998389596,
              27.869293658893838
            ],
            [
              112.8766001149051,
              27.869293658893838
            ]
          ]
        ]
      },
      "properties": {
        "sourceFileId": "file_1776043853133_11_g1",
        "sourceFileName": "湘潭市二中.geojson",
        "name": "湘潭市二中",
        "id": "imported_1776043853133_11_0_g1",
        "sourceFile": "湘潭市二中.geojson",
        "sourceGroupId": 1,
        "isAssistFeature": false
      },
      "id": "imported_1776043853133_11_0_g1"
    }
  ],
  "properties": {
    "fileName": "湘潭市二中.geojson",
    "exportTime": "2026/4/13 09:46:47",
    "isStarred": false
  }
}