{
  "type": "FeatureCollection",
  "features": [
    {
      "type": "Feature",
      "geometry": {
        "type": "Polygon",
        "coordinates": [
          [
            [
              112.90526124438594,
              27.880010152479784
            ],
            [
              112.90491510588863,
              27.879092263197663
            ],
            [
              112.90634292719004,
              27.87859506992183
            ],
            [
              112.90599678869272,
              27.877332953663753
            ],
            [
              112.90712173880897,
              27.87683575231206
            ],
            [
              112.90638619450219,
              27.873699506572024
            ],
            [
              112.90123738435476,
              27.872246093611608
            ],
            [
              112.90063164198446,
              27.869453956112565
            ],
            [
              112.90145372091557,
              27.868956718599208
            ],
            [
              112.90240560178319,
              27.867350243346053
            ],
            [
              112.9111888661523,
              27.8700276888695
            ],
            [
              112.91088599496717,
              27.868994967719715
            ],
            [
              112.9111888661523,
              27.86853597738255
            ],
            [
              112.91101579690367,
              27.868038735656626
            ],
            [
              112.91166480658612,
              27.86712074493711
            ],
            [
              112.9111888661523,
              27.86662349671694
            ],
            [
              112.91023698528473,
              27.86643224679395
            ],
            [
              112.9102114794705,
              27.86610997940207
            ],
            [
              112.91106224854025,
              27.865880520100063
            ],
            [
              112.91146600335301,
              27.865383356612355
            ],
            [
              112.91573193392946,
              27.86819173335377
            ],
            [
              112.91413104337943,
              27.871366386821066
            ],
            [
              112.91845777459575,
              27.87281981158317
            ],
            [
              112.92256816925128,
              27.874808677028568
            ],
            [
              112.91979906127281,
              27.87603257607674
            ],
            [
              112.91639202973758,
              27.87730425923165
            ],
            [
              112.91203441343589,
              27.878329913258767
            ],
            [
              112.90954470829011,
              27.878977526490445
            ],
            [
              112.90526124438594,
              27.880010152479784
            ]
          ]
        ]
      },
      "properties": {
        "sourceFileId": "file_1775185260852_g1",
        "sourceFileName": "湘潭市四中.geojson",
        "name": "湘潭市四中",
        "id": "imported_1775096625423_13_0_g1_imported_1775185260852_g1",
        "sourceFile": "湘潭市四中.geojson",
        "sourceGroupId": 1,
        "isAssistFeature": false
      },
      "id": "imported_1775096625423_13_0_g1_imported_1775185260852_g1"
    },
    {
      "type": "Feature",
      "geometry": {
        "type": "Polygon",
        "coordinates": [
          [
            [
              112.91426304078774,
              27.87128951590637
            ],
            [
              112.91577721456984,
              27.86818062832525
            ],
            [
              112.92387611576423,
              27.871288830610837
            ],
            [
              112.92435197803745,
              27.870868167544273
            ],
            [
              112.92374015511473,
              27.86900521147426
            ],
            [
              112.9232642928415,
              27.868284058589765
            ],
            [
              112.92323030267913,
              27.867472755857776
            ],
            [
              112.92601749599376,
              27.866210717312327
            ],
            [
              112.93485091979252,
              27.871030445348353
            ],
            [
              112.9304549313929,
              27.873426824372586
            ],
            [
              112.92996035482916,
              27.873692588229787
            ],
            [
              112.92292439121776,
              27.875705694197222
            ],
            [
              112.92244852894451,
              27.87462402996944
            ],
            [
              112.91426304078774,
              27.87128951590637
            ]
          ]
        ]
      },
      "properties": {
        "sourceFileId": "file_1775185260852_g1",
        "sourceFileName": "湘潭市四中.geojson",
        "name": "湘潭市四中",
        "id": "imported_1775096625423_13_1_g1_imported_1775185260853_g1",
        "sourceFile": "湘潭市四中.geojson",
        "sourceGroupId": 1,
        "isAssistFeature": false
      },
      "id": "imported_1775096625423_13_1_g1_imported_1775185260853_g1"
    },
    {
      "type": "Feature",
      "geometry": {
        "type": "Polygon",
        "coordinates": [
          [
            [
              112.91211595758932,
              27.88907443171979
            ],
            [
              112.90888992443496,
              27.88963671400232
            ],
            [
              112.90542110582876,
              27.89054512980529
            ],
            [
              112.90456460740747,
              27.890318026569176
            ],
            [
              112.90524980614451,
              27.88925820516802
            ],
            [
              112.90563523043409,
              27.888576885931414
            ],
            [
              112.90589217996046,
              27.88747919592059
            ],
            [
              112.90482155693387,
              27.8866464581438
            ],
            [
              112.90593500488154,
              27.884526733084627
            ],
            [
              112.90619195440793,
              27.882785499314863
            ],
            [
              112.9059778298026,
              27.882104139348712
            ],
            [
              112.9061063045658,
              27.88108209136152
            ],
            [
              112.90696280298705,
              27.880135742032436
            ],
            [
              112.92289367362294,
              27.87619884007391
            ],
            [
              112.92581453061426,
              27.885557097462254
            ],
            [
              112.91211595758932,
              27.88907443171979
            ]
          ]
        ]
      },
      "properties": {
        "sourceFileId": "file_1775185260852_g1",
        "sourceFileName": "湘潭市四中.geojson",
        "name": "湘潭市四中",
        "id": "imported_1775096625423_13_2_g1_imported_1775185260853_g1",
        "sourceFile": "湘潭市四中.geojson",
        "sourceGroupId": 1,
        "isAssistFeature": false
      },
      "id": "imported_1775096625423_13_2_g1_imported_1775185260853_g1"
    },
    {
      "type": "Feature",
      "geometry": {
        "type": "Polygon",
        "coordinates": [
          [
            [
              112.92608394332298,
              27.88532799460438
            ],
            [
              112.92321428386114,
              27.876126161706026
            ],
            [
              112.92450361073328,
              27.8757418388399
            ],
            [
              112.92574046500016,
              27.87554305061549
            ],
            [
              112.92586789847009,
              27.875536424335067
            ],
            [
              112.92900451740972,
              27.87518833395815
            ],
            [
              112.93063186441013,
              27.874734062594214
            ],
            [
              112.93238768617377,
              27.873219810956456
            ],
            [
              112.9348715315955,
              27.871099823105425
            ],
            [
              112.93645605367486,
              27.87280338804544
            ],
            [
              112.93966792275468,
              27.87443121395998
            ],
            [
              112.94013899688638,
              27.876096870970926
            ],
            [
              112.94116679499191,
              27.877308241801046
            ],
            [
              112.94352216565045,
              27.87772464739507
            ],
            [
              112.94570431949236,
              27.880720436316693
            ],
            [
              112.94553396492816,
              27.880685567807276
            ],
            [
              112.939519812107,
              27.882124305706995
            ],
            [
              112.93709577336914,
              27.88275291938855
            ],
            [
              112.92608394332298,
              27.88532799460438
            ]
          ]
        ]
      },
      "properties": {
        "sourceFileId": "file_1775185260852_g1",
        "sourceFileName": "湘潭市四中.geojson",
        "name": "湘潭市四中",
        "id": "imported_1775096625423_13_3_g1_imported_1775185260853_g1",
        "sourceFile": "湘潭市四中.geojson",
        "sourceGroupId": 1,
        "isAssistFeature": false
      },
      "id": "imported_1775096625423_13_3_g1_imported_1775185260853_g1"
    }
  ],
  "properties": {
    "fileName": "湘潭市四中.geojson",
    "exportTime": "2026/4/3 11:06:03",
    "isStarred": false
  }
}