{
  "type": "FeatureCollection",
  "features": [
    {
      "type": "Feature",
      "geometry": {
        "type": "Polygon",
        "coordinates": [
          [
            [
              112.91256911589218,
              27.83807286993067
            ],
            [
              112.90877366315134,
              27.836940484802454
            ],
            [
              112.9086270907894,
              27.836920019902237
            ],
            [
              112.90814108769452,
              27.838850525161533
            ],
            [
              112.90708422382157,
              27.838809596077823
            ],
            [
              112.9070687951519,
              27.839246172174683
            ],
            [
              112.90705336648223,
              27.83962817481833
            ],
            [
              112.9067139357493,
              27.839853282889194
            ],
            [
              112.90675250742349,
              27.839976068912776
            ],
            [
              112.90656736338735,
              27.84011249766489
            ],
            [
              112.90590393059118,
              27.84024892624545
            ],
            [
              112.90487020972273,
              27.83962135335433
            ],
            [
              112.90463106534274,
              27.83945763809004
            ],
            [
              112.90408290272221,
              27.839053510949384
            ],
            [
              112.90400179780386,
              27.838192890716755
            ],
            [
              112.90383958796716,
              27.837356170056736
            ],
            [
              112.90308260872925,
              27.83484596936148
            ],
            [
              112.90306589549093,
              27.83415266208263
            ],
            [
              112.90357048113074,
              27.833761252164294
            ],
            [
              112.9040556584459,
              27.833437892764948
            ],
            [
              112.90380064300153,
              27.833283730152033
            ],
            [
              112.90363324425313,
              27.832874107054735
            ],
            [
              112.90326790585564,
              27.83290220040591
            ],
            [
              112.90257693975606,
              27.832677453393003
            ],
            [
              112.90148886670269,
              27.83296541041939
            ],
            [
              112.90122550825126,
              27.832602035630572
            ],
            [
              112.90056841823856,
              27.830355970691926
            ],
            [
              112.9006907628861,
              27.829126063334186
            ],
            [
              112.8980318460641,
              27.829921136950148
            ],
            [
              112.89449299993409,
              27.823069779553165
            ],
            [
              112.8928615495273,
              27.821886055017643
            ],
            [
              112.8931718059054,
              27.821807657390266
            ],
            [
              112.89895548370546,
              27.81748946614441
            ],
            [
              112.9029729507376,
              27.818183161480775
            ],
            [
              112.90494283519799,
              27.81815715803488
            ],
            [
              112.90766245180374,
              27.81815715803488
            ],
            [
              112.91022246701071,
              27.818540389345685
            ],
            [
              112.91309474820244,
              27.81903618051254
            ],
            [
              112.91348224153468,
              27.820228801864275
            ],
            [
              112.91394723353332,
              27.820873086110154
            ],
            [
              112.91476871939766,
              27.821928607356853
            ],
            [
              112.91628769325996,
              27.820859377974514
            ],
            [
              112.91800816365503,
              27.819104722324298
            ],
            [
              112.9272595152553,
              27.81882082058982
            ],
            [
              112.92035014483297,
              27.828081572581198
            ],
            [
              112.91515738818013,
              27.83495071837619
            ],
            [
              112.91300111864315,
              27.83821612262888
            ],
            [
              112.91256911589218,
              27.83807286993067
            ]
          ]
        ]
      },
      "properties": {
        "sourceFileId": "file_1775090871811_18_g1",
        "sourceFileName": "湘钢二中教育集团钢二中校区.geojson",
        "sourceGroupId": 1,
        "name": "湘钢二中教育集团钢二中校区",
        "id": "imported_1775090871811_18_0_g1",
        "sourceFile": "湘钢二中教育集团钢二中校区.geojson",
        "isAssistFeature": false
      },
      "id": "imported_1775090871811_18_0_g1"
    }
  ],
  "properties": {
    "fileName": "湘钢二中教育集团钢二中校区.geojson",
    "exportTime": "2026/4/2 09:06:19",
    "isStarred": false
  }
}