{
  "type": "FeatureCollection",
  "features": [
    {
      "type": "Feature",
      "geometry": {
        "type": "Polygon",
        "coordinates": [
          [
            [
              112.92055711604398,
              27.82786677662544
            ],
            [
              112.91329759970388,
              27.838068933801594
            ],
            [
              112.92279860431162,
              27.840086395139707
            ],
            [
              112.92359031122886,
              27.84028085895696
            ],
            [
              112.9227816281453,
              27.841049745848238
            ],
            [
              112.92239063141908,
              27.841561436181962
            ],
            [
              112.92201527456189,
              27.84243960180474
            ],
            [
              112.922037183037,
              27.842786498737638
            ],
            [
              112.9216448795848,
              27.845798900479124
            ],
            [
              112.92162963488983,
              27.85287834666117
            ],
            [
              112.92013460929299,
              27.855810359934992
            ],
            [
              112.9278000132622,
              27.858910517231408
            ],
            [
              112.93307337627644,
              27.860833050860236
            ],
            [
              112.93897470443603,
              27.852423529425423
            ],
            [
              112.94045273215472,
              27.850034210908177
            ],
            [
              112.94097638105218,
              27.850319341689627
            ],
            [
              112.94191483398902,
              27.850579559744062
            ],
            [
              112.94174824471028,
              27.850829957659755
            ],
            [
              112.94211563637057,
              27.851397288894972
            ],
            [
              112.94286439287778,
              27.850937972268383
            ],
            [
              112.94381395176654,
              27.850353710147687
            ],
            [
              112.94351409106483,
              27.84967615853631
            ],
            [
              112.94370844522334,
              27.849091889617142
            ],
            [
              112.95275784898267,
              27.854182861380934
            ],
            [
              112.95201076167717,
              27.84625812069568
            ],
            [
              112.95283024360378,
              27.846108477146416
            ],
            [
              112.95324889197933,
              27.845840693437665
            ],
            [
              112.9531865400936,
              27.84523423965321
            ],
            [
              112.95185042825673,
              27.84530512403677
            ],
            [
              112.95102351863378,
              27.84117539294043
            ],
            [
              112.95113345531873,
              27.839749621830393
            ],
            [
              112.95102351863372,
              27.83861547233937
            ],
            [
              112.95104726389185,
              27.83368641698017
            ],
            [
              112.93026812506889,
              27.83141742057417
            ],
            [
              112.92967211882942,
              27.831377256040938
            ],
            [
              112.92906543246453,
              27.83136144312482
            ],
            [
              112.92672334686654,
              27.831137533038614
            ],
            [
              112.92724832953354,
              27.82953041576657
            ],
            [
              112.92705939192498,
              27.829448404439518
            ],
            [
              112.92701148422161,
              27.82909630237755
            ],
            [
              112.92677655263799,
              27.82888383190881
            ],
            [
              112.92623915799265,
              27.828480053550877
            ],
            [
              112.92557246538757,
              27.827765397907868
            ],
            [
              112.92523305824318,
              27.827147216981274
            ],
            [
              112.92439666206587,
              27.827522413917364
            ],
            [
              112.92425782654422,
              27.827740662426535
            ],
            [
              112.92452569006925,
              27.82817677636686
            ],
            [
              112.92414763371472,
              27.828572984577633
            ],
            [
              112.92313564904357,
              27.829192545310008
            ],
            [
              112.92055711604398,
              27.82786677662544
            ]
          ]
        ]
      },
      "properties": {
        "sourceFileId": "file_1775707569398_16_g1",
        "sourceFileName": "湘钢一中教育集团十二中校区.geojson",
        "name": "湘潭市第十二中学",
        "id": "imported_1775707569398_16_0_g1",
        "sourceFile": "湘钢一中教育集团十二中校区.geojson",
        "isAssistFeature": false,
        "sourceGroupId": 1
      },
      "id": "imported_1775707569398_16_0_g1"
    }
  ],
  "properties": {
    "fileName": "湘钢一中教育集团十二中校区.geojson",
    "exportTime": "2026/4/9 12:15:22",
    "isStarred": false
  }
}