{
  "type": "FeatureCollection",
  "features": [
    {
      "type": "Feature",
      "geometry": {
        "type": "Polygon",
        "coordinates": [
          [
            [
              112.866008378501,
              27.991911610257077
            ],
            [
              112.8649909622194,
              27.991185982960346
            ],
            [
              112.86041258895216,
              27.989907484886402
            ],
            [
              112.85240710903426,
              27.989020395941537
            ],
            [
              112.85310148194421,
              27.994648542847102
            ],
            [
              112.85500220437342,
              28.00027889414723
            ],
            [
              112.85481826349314,
              28.003364634967653
            ],
            [
              112.85371461821167,
              28.007424685616343
            ],
            [
              112.8496066052195,
              28.0122965444137
            ],
            [
              112.84721537377631,
              28.01868375874129
            ],
            [
              112.84333839282954,
              28.025624388726186
            ],
            [
              112.8361033848732,
              28.02383828718102
            ],
            [
              112.83217931276128,
              28.024758403799297
            ],
            [
              112.82666108635391,
              28.027626952185756
            ],
            [
              112.82568006832594,
              28.02952123468019
            ],
            [
              112.8275194771284,
              28.039425083080673
            ],
            [
              112.82623189096665,
              28.04326731432313
            ],
            [
              112.8194873920243,
              28.046838842813997
            ],
            [
              112.81819980586259,
              28.05013969549772
            ],
            [
              112.81421442012393,
              28.05836433022155
            ],
            [
              112.80992246625152,
              28.06236820097203
            ],
            [
              112.80961663630883,
              28.067263435313905
            ],
            [
              112.81087370685047,
              28.06864040640079
            ],
            [
              112.81126383219096,
              28.070246850366047
            ],
            [
              112.812824333553,
              28.073574407884763
            ],
            [
              112.81039688698985,
              28.07453058351001
            ],
            [
              112.80762266234625,
              28.07280946125674
            ],
            [
              112.8054986466035,
              28.072312243027596
            ],
            [
              112.803591367161,
              28.07273296629434
            ],
            [
              112.80159739319843,
              28.0731919352516
            ],
            [
              112.7969592363724,
              28.072082756914924
            ],
            [
              112.79453178980927,
              28.072579976206157
            ],
            [
              112.78590568505807,
              28.07391863209031
            ],
            [
              112.78265464055387,
              28.075486750624165
            ],
            [
              112.77749631660717,
              28.076481155394134
            ],
            [
              112.77528560634433,
              28.07636641685204
            ],
            [
              112.77363841046217,
              28.07560149010591
            ],
            [
              112.77394184128255,
              28.072044509181794
            ],
            [
              112.77246803444065,
              28.068869899866357
            ],
            [
              112.77207790910013,
              28.06733993417052
            ],
            [
              112.77194786731997,
              28.065083195005514
            ],
            [
              112.7745920501834,
              28.06022530752807
            ],
            [
              112.77733484787738,
              28.056298781556606
            ],
            [
              112.77874022620088,
              28.055130100228837
            ],
            [
              112.78065910814257,
              28.053937555165703
            ],
            [
              112.78644278047385,
              28.05350823570474
            ],
            [
              112.78744276120402,
              28.05245878091648
            ],
            [
              112.79384804317836,
              28.049358059202007
            ],
            [
              112.79914523839766,
              28.043824241368128
            ],
            [
              112.80211815408197,
              28.042273767205643
            ],
            [
              112.80341542638057,
              28.04000764938185
            ],
            [
              112.80239745118871,
              28.034597079420053
            ],
            [
              112.79879389381686,
              28.02884334057248
            ],
            [
              112.79690203838139,
              28.028318494131994
            ],
            [
              112.79231488280739,
              28.028433918014187
            ],
            [
              112.78993655025995,
              28.027443860868374
            ],
            [
              112.7868960683101,
              28.027002507157718
            ],
            [
              112.78604473336414,
              28.027133720612113
            ],
            [
              112.78476097431862,
              28.028660556320773
            ],
            [
              112.78459881528129,
              28.030891128927223
            ],
            [
              112.78476097431862,
              28.035101656020103
            ],
            [
              112.78297722490804,
              28.036854999732
            ],
            [
              112.78190967791232,
              28.03773762453001
            ],
            [
              112.77896378873425,
              28.037069692916873
            ],
            [
              112.77738273812031,
              28.03718896672335
            ],
            [
              112.77582871401262,
              28.037761479153815
            ],
            [
              112.77419361038626,
              28.038322061289932
            ],
            [
              112.77292336459388,
              28.039335872628598
            ],
            [
              112.77142339349861,
              28.040099206625783
            ],
            [
              112.76813967299277,
              28.039490925285136
            ],
            [
              112.76701807298461,
              28.039288164073938
            ],
            [
              112.76654510912574,
              28.038620242087177
            ],
            [
              112.76653159587264,
              28.03609164271623
            ],
            [
              112.76833005610592,
              28.034256148477525
            ],
            [
              112.77636458178918,
              28.027711297800977
            ],
            [
              112.77470678261702,
              28.02351197106705
            ],
            [
              112.7717419254188,
              28.023227132155853
            ],
            [
              112.76787637826799,
              28.022252173574103
            ],
            [
              112.76470110739405,
              28.02058659890463
            ],
            [
              112.76414888637252,
              28.016348069104396
            ],
            [
              112.76367336271507,
              28.013964669159876
            ],
            [
              112.76341259167718,
              28.010077989065735
            ],
            [
              112.76301376538376,
              28.008750797886563
            ],
            [
              112.76467042844838,
              28.008967483277686
            ],
            [
              112.76505391526894,
              28.007694450362905
            ],
            [
              112.7657595310187,
              28.006543290625487
            ],
            [
              112.76634243098584,
              28.002656342744118
            ],
            [
              112.76780239537614,
              28.002715379382806
            ],
            [
              112.7686059501413,
              28.00186400137963
            ],
            [
              112.77037377062469,
              28.001693724971744
            ],
            [
              112.77125768086637,
              28.00125384300584
            ],
            [
              112.77104875662742,
              27.999664577068458
            ],
            [
              112.77315407011216,
              27.998486802368404
            ],
            [
              112.77466475307068,
              27.996840734233317
            ],
            [
              112.77448797102237,
              27.994953401036398
            ],
            [
              112.7756611609795,
              27.9946270167557
            ],
            [
              112.77763790570181,
              27.995223022088
            ],
            [
              112.77975929028186,
              27.994031008127678
            ],
            [
              112.78038115117255,
              27.992910778596
            ],
            [
              112.78175803633874,
              27.992785622907164
            ],
            [
              112.78487627627395,
              27.99328624479054
            ],
            [
              112.78598993339368,
              27.995342345996946
            ],
            [
              112.78485602796268,
              27.996665381685233
            ],
            [
              112.78900693177249,
              28.000169559892484
            ],
            [
              112.79820428392689,
              27.995384985898966
            ],
            [
              112.80570041931408,
              27.99653057218059
            ],
            [
              112.8068612196136,
              27.991213335627506
            ],
            [
              112.80186740074254,
              27.986707739902997
            ],
            [
              112.80675265833379,
              27.981626735864722
            ],
            [
              112.80562945137186,
              27.97907832091505
            ],
            [
              112.80260409221911,
              27.977699343306668
            ],
            [
              112.80425574889827,
              27.973669210787477
            ],
            [
              112.8015793737964,
              27.974682768323532
            ],
            [
              112.80055465537366,
              27.971579917475452
            ],
            [
              112.79923716025877,
              27.9709334789826
            ],
            [
              112.79767568456701,
              27.971623013237263
            ],
            [
              112.79654789803213,
              27.96983404931413
            ],
            [
              112.79709013118261,
              27.967787423025385
            ],
            [
              112.7959190244138,
              27.96537394806178
            ],
            [
              112.79459379499563,
              27.96062910558642
            ],
            [
              112.79128339345391,
              27.96244322732514
            ],
            [
              112.78908756826239,
              27.964770570886756
            ],
            [
              112.78401277226419,
              27.96127953672388
            ],
            [
              112.7835022196264,
              27.960519589162487
            ],
            [
              112.7776583310078,
              27.95968286605384
            ],
            [
              112.77691116716615,
              27.956489116817792
            ],
            [
              112.77525673294537,
              27.956194485744135
            ],
            [
              112.77405593391413,
              27.95673660629828
            ],
            [
              112.77354892987873,
              27.956241626769966
            ],
            [
              112.77420475307542,
              27.95507297496215
            ],
            [
              112.77966991799654,
              27.951021276875082
            ],
            [
              112.78037226734115,
              27.946148907655854
            ],
            [
              112.77993802222194,
              27.940394647543783
            ],
            [
              112.79147857791544,
              27.93903770564478
            ],
            [
              112.79835865903733,
              27.933075568183256
            ],
            [
              112.79760824978038,
              27.930450123236056
            ],
            [
              112.79775833163178,
              27.929760601866718
            ],
            [
              112.79952929747819,
              27.92907107609831
            ],
            [
              112.8013002633246,
              27.929760601866718
            ],
            [
              112.80367155657657,
              27.929654521265604
            ],
            [
              112.80484219501743,
              27.929521920367804
            ],
            [
              112.80577270249606,
              27.926339450014922
            ],
            [
              112.80592278434752,
              27.924350358461282
            ],
            [
              112.80517237509054,
              27.923581233248328
            ],
            [
              112.80586275160695,
              27.922255142444456
            ],
            [
              112.80544252242306,
              27.920159885821192
            ],
            [
              112.8044219658336,
              27.91954986676747
            ],
            [
              112.80388167116858,
              27.91862157029962
            ],
            [
              112.80457204768499,
              27.91742803455905
            ],
            [
              112.80586634350705,
              27.916703405982815
            ],
            [
              112.80433550862284,
              27.915496587252775
            ],
            [
              112.80504089332439,
              27.913653178800132
            ],
            [
              112.80399032036468,
              27.91284419106968
            ],
            [
              112.80574627802594,
              27.91269830739232
            ],
            [
              112.80777238301974,
              27.914316278984344
            ],
            [
              112.80846275953611,
              27.915231350561825
            ],
            [
              112.80922817697821,
              27.914661089473384
            ],
            [
              112.81051888090019,
              27.911000737407207
            ],
            [
              112.81474759720928,
              27.911460158254343
            ],
            [
              112.8216345772124,
              27.916532588426307
            ],
            [
              112.82944195567114,
              27.916532588426307
            ],
            [
              112.82992991682482,
              27.921879055929324
            ],
            [
              112.83168657697803,
              27.92929468604443
            ],
            [
              112.83441293445475,
              27.93208443469581
            ],
            [
              112.83856060426096,
              27.930101285807353
            ],
            [
              112.84051244887563,
              27.92803187425575
            ],
            [
              112.84740433961393,
              27.921983497360927
            ],
            [
              112.84872749073746,
              27.919023121737595
            ],
            [
              112.84836332070347,
              27.917360556407232
            ],
            [
              112.84914021677601,
              27.917081671977257
            ],
            [
              112.85013561486892,
              27.917478545757263
            ],
            [
              112.85143448799019,
              27.918422455922553
            ],
            [
              112.85182293602648,
              27.919012395591594
            ],
            [
              112.85201716004458,
              27.91960233204192
            ],
            [
              112.85116742996526,
              27.920610579614532
            ],
            [
              112.85165299001059,
              27.922101481666274
            ],
            [
              112.85314805703864,
              27.92267545381455
            ],
            [
              112.85403420412139,
              27.923640769987543
            ],
            [
              112.85512671422339,
              27.92402689404321
            ],
            [
              112.85504174121544,
              27.924874216998163
            ],
            [
              112.85539377224832,
              27.925431944938794
            ],
            [
              112.85608569531291,
              27.925676107735683
            ],
            [
              112.85698398139677,
              27.925525950835464
            ],
            [
              112.85759108925416,
              27.926350448195166
            ],
            [
              112.8607986455102,
              27.927436672822097
            ],
            [
              112.8608350625136,
              27.9298498407977
            ],
            [
              112.8622189086428,
              27.929345761272472
            ],
            [
              112.86323858473801,
              27.928090914796783
            ],
            [
              112.86536651454682,
              27.92559818504745
            ],
            [
              112.8672045717696,
              27.92370346983668
            ],
            [
              112.8689915718473,
              27.922079401796054
            ],
            [
              112.86982527257469,
              27.921200507512083
            ],
            [
              112.87075304335238,
              27.920286131659537
            ],
            [
              112.87194578653578,
              27.919326821199803
            ],
            [
              112.87283141295482,
              27.92018651659788
            ],
            [
              112.87513119354279,
              27.922350081497115
            ],
            [
              112.8742121649314,
              27.92269970844127
            ],
            [
              112.874097286355,
              27.923974145471462
            ],
            [
              112.87656079360494,
              27.924515494707762
            ],
            [
              112.87709689362826,
              27.92626358310511
            ],
            [
              112.87667567218138,
              27.927357533720865
            ],
            [
              112.87579493642878,
              27.927368811504607
            ],
            [
              112.8747099720959,
              27.928045476375686
            ],
            [
              112.87408452206871,
              27.927537978119517
            ],
            [
              112.87326760774748,
              27.927797366414822
            ],
            [
              112.87220817198715,
              27.926861310071303
            ],
            [
              112.87061263620348,
              27.928079309508036
            ],
            [
              112.87059987191721,
              27.928699581724274
            ],
            [
              112.87075304335242,
              27.930650596578232
            ],
            [
              112.87006377189394,
              27.93092125481651
            ],
            [
              112.87326760774748,
              27.93122574452434
            ],
            [
              112.87358671490423,
              27.931913662557506
            ],
            [
              112.87432704350783,
              27.932432417522406
            ],
            [
              112.87444192208426,
              27.933661631302016
            ],
            [
              112.87584599357388,
              27.934890831099025
            ],
            [
              112.87587152214641,
              27.937969407753684
            ],
            [
              112.88387547055346,
              27.93816757508405
            ],
            [
              112.89672483275687,
              27.93943350295976
            ],
            [
              112.89095644390318,
              27.94914604074502
            ],
            [
              112.88903364761863,
              27.951367171064575
            ],
            [
              112.89169699297277,
              27.953661573651644
            ],
            [
              112.89997373147668,
              27.939296522833743
            ],
            [
              112.92849952737599,
              27.943225920502
            ],
            [
              112.92770935517336,
              27.94869344405636
            ],
            [
              112.92590195758432,
              27.948243121017796
            ],
            [
              112.92321403296468,
              27.949532677435556
            ],
            [
              112.9206168910394,
              27.95305948414061
            ],
            [
              112.9176956892145,
              27.955811865924872
            ],
            [
              112.91753849321961,
              27.956508073940242
            ],
            [
              112.9171405560706,
              27.956367474105676
            ],
            [
              112.91628101182879,
              27.956114393942002
            ],
            [
              112.91613775445514,
              27.955411390374422
            ],
            [
              112.9154373850729,
              27.95462402094401
            ],
            [
              112.91445050094339,
              27.954989586036547
            ],
            [
              112.9139729763646,
              27.95532702963868
            ],
            [
              112.91413215122417,
              27.95714077092974
            ],
            [
              112.91395705887861,
              27.957773464211115
            ],
            [
              112.91289058731928,
              27.958153078399974
            ],
            [
              112.91195145564767,
              27.957900002422406
            ],
            [
              112.91137842615312,
              27.956114393942002
            ],
            [
              112.90859286611011,
              27.956367474105676
            ],
            [
              112.90803575410153,
              27.957309489500688
            ],
            [
              112.90714437488778,
              27.957632866024596
            ],
            [
              112.90596648092675,
              27.95936221099251
            ],
            [
              112.90540936891817,
              27.9606838055429
            ],
            [
              112.90474083450783,
              27.960613508367913
            ],
            [
              112.90415188752732,
              27.961443012115538
            ],
            [
              112.90211847460704,
              27.96468533591927
            ],
            [
              112.90121117790731,
              27.966161511284824
            ],
            [
              112.901338517795,
              27.967736076084194
            ],
            [
              112.90114750796349,
              27.969226268035072
            ],
            [
              112.89941250199385,
              27.96980265751516
            ],
            [
              112.89805951568727,
              27.969226268035072
            ],
            [
              112.89778891842596,
              27.969844832234244
            ],
            [
              112.8963722621755,
              27.968593641890635
            ],
            [
              112.89532170810216,
              27.966794151688575
            ],
            [
              112.89218385994357,
              27.965272643098984
            ],
            [
              112.89346524176057,
              27.969573260163656
            ],
            [
              112.8923859638497,
              27.971555928679123
            ],
            [
              112.89485891144132,
              27.97301068683565
            ],
            [
              112.89696754286359,
              27.97373490329514
            ],
            [
              112.89767042000437,
              27.97583855210435
            ],
            [
              112.8967722992134,
              27.977562823812008
            ],
            [
              112.89587417842243,
              27.979838820259616
            ],
            [
              112.89423413176065,
              27.981252672654733
            ],
            [
              112.8912635148224,
              27.98200246478187
            ],
            [
              112.88763489638355,
              27.981321640590096
            ],
            [
              112.886255665316,
              27.979753113651228
            ],
            [
              112.88509672893079,
              27.97780421965149
            ],
            [
              112.88173853814716,
              27.97666620596398
            ],
            [
              112.87853654228371,
              27.978355979541547
            ],
            [
              112.8785141389696,
              27.980369852374878
            ],
            [
              112.87799269924896,
              27.981256714102912
            ],
            [
              112.8781278873247,
              27.982825759293902
            ],
            [
              112.88077371109242,
              27.986014943829517
            ],
            [
              112.88353541035367,
              27.988504829819178
            ],
            [
              112.88544735599606,
              27.990926444592986
            ],
            [
              112.8873559453396,
              27.994610055803093
            ],
            [
              112.88787738506028,
              27.99669048352854
            ],
            [
              112.88756838374434,
              27.99798646738452
            ],
            [
              112.8863516910628,
              27.9989584450488
            ],
            [
              112.88505774805229,
              27.99921422718758
            ],
            [
              112.8831458024099,
              27.998549192363953
            ],
            [
              112.88210292296858,
              27.997338477404625
            ],
            [
              112.88082829254031,
              27.99657111581061
            ],
            [
              112.87702371383774,
              27.996127748843648
            ],
            [
              112.87513108077758,
              27.997474896671534
            ],
            [
              112.87640571120585,
              27.999128966542116
            ],
            [
              112.87688852576201,
              28.000186193778006
            ],
            [
              112.87661814961056,
              28.00240292688676
            ],
            [
              112.87632846087688,
              28.003289607360927
            ],
            [
              112.87611602247216,
              28.00393756155445
            ],
            [
              112.8752276436888,
              28.004875383090635
            ],
            [
              112.87223419344058,
              28.007330731718227
            ],
            [
              112.87109475108802,
              28.007654697149732
            ],
            [
              112.86906692995215,
              28.007876357146742
            ],
            [
              112.86756054853691,
              28.005881400753807
            ],
            [
              112.86535891416084,
              28.005267560585082
            ],
            [
              112.86400703340357,
              28.003886407417667
            ],
            [
              112.86784755408696,
              28.0030372837645
            ],
            [
              112.87073591167727,
              28.001356639136844
            ],
            [
              112.86929541571853,
              27.995850644634658
            ],
            [
              112.86816060525058,
              27.992913658969954
            ],
            [
              112.866008378501,
              27.991911610257077
            ]
          ]
        ]
      },
      "properties": {
        "sourceFileId": "file_1775096625424_19_g1",
        "sourceFileName": "湘锰中学.geojson",
        "name": "湘锰中学",
        "id": "imported_1775096625424_19_0_g1",
        "sourceFile": "湘锰中学.geojson",
        "sourceGroupId": 1,
        "isAssistFeature": false
      },
      "id": "imported_1775096625424_19_0_g1"
    },
    {
      "type": "Feature",
      "geometry": {
        "type": "Polygon",
        "coordinates": [
          [
            [
              112.78955154637346,
              27.99914623407429
            ],
            [
              112.78365306007902,
              27.99380095083187
            ],
            [
              112.79219034287358,
              27.98626228034307
            ],
            [
              112.79839927581511,
              27.99099114436882
            ],
            [
              112.79576047931496,
              27.994554788884813
            ],
            [
              112.78955154637346,
              27.99914623407429
            ]
          ]
        ]
      },
      "properties": {
        "sourceFileId": "file_1775096625424_19_g1",
        "sourceFileName": "湘锰中学.geojson",
        "name": "湘锰中学",
        "id": "imported_1775096625424_19_1_g1",
        "sourceFile": "湘锰中学.geojson",
        "sourceGroupId": 1,
        "isAssistFeature": false
      },
      "id": "imported_1775096625424_19_1_g1"
    }
  ],
  "properties": {
    "fileName": "湘锰中学.geojson",
    "exportTime": "2026/4/2 11:00:20",
    "isStarred": false
  }
}