{
  "type": "FeatureCollection",
  "features": [
    {
      "type": "Feature",
      "geometry": {
        "type": "Polygon",
        "coordinates": [
          [
            [
              112.78882797278,
              28.073853001640686
            ],
            [
              112.79661597283123,
              28.072765001671115
            ],
            [
              112.79986593829031,
              28.073311863617135
            ],
            [
              112.80035797252086,
              28.073435002603276
            ],
            [
              112.80182397275891,
              28.07350800246894
            ],
            [
              112.80284122318999,
              28.07329767404258
            ],
            [
              112.80336197296693,
              28.073190002995474
            ],
            [
              112.804957972003,
              28.072701002402113
            ],
            [
              112.80622497204938,
              28.072943003029067
            ],
            [
              112.80775397203662,
              28.073356002519034
            ],
            [
              112.8101409718163,
              28.075136002544966
            ],
            [
              112.8112959717097,
              28.074921002473786
            ],
            [
              112.81290197168983,
              28.073815002588006
            ],
            [
              112.81310997120394,
              28.07263200318468
            ],
            [
              112.81245097160314,
              28.07059100260257
            ],
            [
              112.81107797125152,
              28.06820500253191
            ],
            [
              112.81060097122551,
              28.066337002869147
            ],
            [
              112.81043597136909,
              28.0649210030017
            ],
            [
              112.81058397150709,
              28.063738003171167
            ],
            [
              112.81117397151097,
              28.062504002766403
            ],
            [
              112.8154504409469,
              28.057030786278276
            ],
            [
              112.81663397133373,
              28.055516002945396
            ],
            [
              112.81809580518546,
              28.052096104843983
            ],
            [
              112.82008897186651,
              28.0474330031018
            ],
            [
              112.8214848109859,
              28.046596105750595
            ],
            [
              112.82374248660237,
              28.04530608690338
            ],
            [
              112.82402361706549,
              28.045168134911393
            ],
            [
              112.82554461216519,
              28.04442177080702
            ],
            [
              112.82650397156613,
              28.043951003122757
            ],
            [
              112.82739300725338,
              28.0426849656278
            ],
            [
              112.82749367965062,
              28.042461324353667
            ],
            [
              112.82808397160697,
              28.04115000245163
            ],
            [
              112.82816297124968,
              28.03990900258482
            ],
            [
              112.8278759711945,
              28.037817003028735
            ],
            [
              112.82779057734363,
              28.037395118242245
            ],
            [
              112.8273461304669,
              28.035199320471776
            ],
            [
              112.82705197173722,
              28.03374600262046
            ],
            [
              112.82684491096258,
              28.033027247317875
            ],
            [
              112.82651297178695,
              28.03187500245744
            ],
            [
              112.8263309713138,
              28.030800002870706
            ],
            [
              112.82647797162689,
              28.029728002570266
            ],
            [
              112.8271379710526,
              28.028608002780288
            ],
            [
              112.82401859997462,
              28.02613967159965
            ],
            [
              112.82122541795603,
              28.02670004183709
            ],
            [
              112.81855919932815,
              28.026363820203315
            ],
            [
              112.81957490196203,
              28.02311362333475
            ],
            [
              112.81640083156803,
              28.022889467963182
            ],
            [
              112.81640083156803,
              28.020087489214333
            ],
            [
              112.81373461294015,
              28.019751246927413
            ],
            [
              112.81411550131556,
              28.017957937260675
            ],
            [
              112.8130997986817,
              28.015604171857092
            ],
            [
              112.81017965417074,
              28.01504374465719
            ],
            [
              112.80852913817674,
              28.01246573927689
            ],
            [
              112.80675165879205,
              28.012353650169345
            ],
            [
              112.80429041145746,
              28.009852237599503
            ],
            [
              112.80353609970666,
              28.011232193554576
            ],
            [
              112.80265858221802,
              28.01204961357797
            ],
            [
              112.80169350863353,
              28.01290189949877
            ],
            [
              112.80191211725118,
              28.015948018942083
            ],
            [
              112.80147197240638,
              28.01644255771832
            ],
            [
              112.8010682057373,
              28.016896220902268
            ],
            [
              112.79877946548004,
              28.01778521530666
            ],
            [
              112.79700208940159,
              28.01960532165272
            ],
            [
              112.79718377815935,
              28.020768160077196
            ],
            [
              112.79730896647905,
              28.021569377965946
            ],
            [
              112.79521513728223,
              28.021569377172938
            ],
            [
              112.79493067227277,
              28.021569377172938
            ],
            [
              112.79503045533788,
              28.022313113193462
            ],
            [
              112.79511106745655,
              28.023207569425878
            ],
            [
              112.79512903735552,
              28.02340641100959
            ],
            [
              112.79519999527979,
              28.023430874839818
            ],
            [
              112.79538414092987,
              28.023495499767463
            ],
            [
              112.79651607298511,
              28.02389112686849
            ],
            [
              112.79662186038959,
              28.023927799449794
            ],
            [
              112.79671405179224,
              28.023957818841907
            ],
            [
              112.79876663035122,
              28.024346085333633
            ],
            [
              112.79882814249032,
              28.02439716393151
            ],
            [
              112.79961613208114,
              28.02504844664064
            ],
            [
              112.80053048229308,
              28.02580344821544
            ],
            [
              112.79881072415697,
              28.028876120235893
            ],
            [
              112.7987339729974,
              28.029024002635552
            ],
            [
              112.79991511925545,
              28.03124972096346
            ],
            [
              112.8006371482499,
              28.03261027019468
            ],
            [
              112.80125852550833,
              28.033891718425807
            ],
            [
              112.80190976815675,
              28.035249930069043
            ],
            [
              112.80246697246623,
              28.03641200243139
            ],
            [
              112.80316197295042,
              28.040260002996092
            ],
            [
              112.80181597236299,
              28.04197200239203
            ],
            [
              112.7988819722371,
              28.043605002537788
            ],
            [
              112.79679797240611,
              28.0460730020567
            ],
            [
              112.79499197240943,
              28.04774300160352
            ],
            [
              112.78887997265853,
              28.051618001816934
            ],
            [
              112.7870829728827,
              28.052330002095374
            ],
            [
              112.78626397255,
              28.053138001821864
            ],
            [
              112.78202997276573,
              28.053620001691087
            ],
            [
              112.78050297332668,
              28.053657001859833
            ],
            [
              112.7791469726935,
              28.05448800158831
            ],
            [
              112.77701997320477,
              28.056153002159505
            ],
            [
              112.7715939728189,
              28.06449500188623
            ],
            [
              112.77149897328265,
              28.06658100189543
            ],
            [
              112.77190697281335,
              28.0687320022586
            ],
            [
              112.77326997311921,
              28.07094900176031
            ],
            [
              112.77350397257264,
              28.072308001683254
            ],
            [
              112.77339429995455,
              28.073106304833487
            ],
            [
              112.77308797264604,
              28.07422300205974
            ],
            [
              112.7730089730033,
              28.07518000199039
            ],
            [
              112.77332197299773,
              28.075694002030758
            ],
            [
              112.7741979732319,
              28.076549001742706
            ],
            [
              112.77534497272937,
              28.07679000215903
            ],
            [
              112.77718497306122,
              28.076927002082243
            ],
            [
              112.78261197327198,
              28.075923001936758
            ],
            [
              112.78544197274252,
              28.074605002196378
            ],
            [
              112.78882797278,
              28.073853001640686
            ]
          ]
        ]
      },
      "properties": {
        "name": "碑头富利学校",
        "isAssistFeature": false,
        "sourceFileId": "file_1777357396095_g1",
        "sourceFileName": "碑头富利学校.geojson",
        "sourceGroupId": 1,
        "id": "imported_1777357396096_0_g1",
        "sourceFile": "碑头富利学校.geojson"
      },
      "id": "imported_1777357396096_0_g1"
    }
  ],
  "properties": {
    "fileName": "碑头富利学校.geojson",
    "exportTime": "2026/4/28 14:23:36",
    "isStarred": false
  }
}