{
  "type": "FeatureCollection",
  "features": [
    {
      "type": "Feature",
      "geometry": {
        "type": "Polygon",
        "coordinates": [
          [
            [
              112.88996520843102,
              27.916065956359873
            ],
            [
              112.89042097700474,
              27.913925198455104
            ],
            [
              112.89070119613952,
              27.912706585447737
            ],
            [
              112.89096705481494,
              27.911565494913063
            ],
            [
              112.89122189629764,
              27.908861215390246
            ],
            [
              112.88975203832278,
              27.906979445600143
            ],
            [
              112.88716755149743,
              27.904464438220955
            ],
            [
              112.8876519222716,
              27.903931092598782
            ],
            [
              112.8892671489518,
              27.902371345838176
            ],
            [
              112.89103225512403,
              27.903492299775394
            ],
            [
              112.89353994331795,
              27.90033982086223
            ],
            [
              112.89558951317372,
              27.899365327397476
            ],
            [
              112.89579473803038,
              27.899889295578262
            ],
            [
              112.89908761606128,
              27.898844962042702
            ],
            [
              112.89950572560525,
              27.897503291113964
            ],
            [
              112.90129567674416,
              27.896652214773482
            ],
            [
              112.89962434768012,
              27.896131909839212
            ],
            [
              112.89897648066832,
              27.895930220336766
            ],
            [
              112.89874116154702,
              27.8958053116326
            ],
            [
              112.89908622826002,
              27.895558140451172
            ],
            [
              112.90079511169907,
              27.89371964964222
            ],
            [
              112.91131003149349,
              27.895865784878453
            ],
            [
              112.9082538008352,
              27.89671073943954
            ],
            [
              112.90612031244967,
              27.89647047745835
            ],
            [
              112.90422073886316,
              27.897372785567754
            ],
            [
              112.90504868803853,
              27.89794630277426
            ],
            [
              112.90496560517562,
              27.89879680823664
            ],
            [
              112.90474894325247,
              27.90101470889968
            ],
            [
              112.90454760616316,
              27.903075693259765
            ],
            [
              112.90614103602996,
              27.904245356725284
            ],
            [
              112.89869909319356,
              27.902767442078897
            ],
            [
              112.89869909319356,
              27.90092002038277
            ],
            [
              112.89744483316493,
              27.901141712651707
            ],
            [
              112.89752845050018,
              27.902767442078897
            ],
            [
              112.8965250424773,
              27.9030630266232
            ],
            [
              112.8977793025059,
              27.905871039519212
            ],
            [
              112.9053884800128,
              27.906462190842262
            ],
            [
              112.90781338273477,
              27.906979445600143
            ],
            [
              112.90522124534232,
              27.90779226950852
            ],
            [
              112.90354889863751,
              27.9074228048527
            ],
            [
              112.90229463860891,
              27.90971346537735
            ],
            [
              112.90078952657457,
              27.91067405051612
            ],
            [
              112.9007059092393,
              27.91178240738364
            ],
            [
              112.90221102127364,
              27.912004077394215
            ],
            [
              112.90388336797847,
              27.91311242063243
            ],
            [
              112.9029635772908,
              27.914590193948527
            ],
            [
              112.9029635772908,
              27.916363495273146
            ],
            [
              112.90338166396702,
              27.91880173711381
            ],
            [
              112.88996520843102,
              27.916065956359873
            ]
          ]
        ]
      },
      "properties": {
        "sourceFileId": "file_1776043853136_21_g1",
        "sourceFileName": "长沙市一中九华中学.geojson",
        "sourceGroupId": 1,
        "name": "长沙市一中九华中学",
        "id": "imported_1776043853136_21_0_g1",
        "sourceFile": "长沙市一中九华中学.geojson",
        "isAssistFeature": false
      },
      "id": "imported_1776043853136_21_0_g1"
    },
    {
      "type": "Feature",
      "geometry": {
        "type": "Polygon",
        "coordinates": [
          [
            [
              112.88917483037213,
              27.951407890178317
            ],
            [
              112.89594170275234,
              27.941064877113092
            ],
            [
              112.8970711684764,
              27.938656546798313
            ],
            [
              112.883749548921,
              27.937771657375805
            ],
            [
              112.87603703233633,
              27.937771657375805
            ],
            [
              112.87593686978329,
              27.934851470860607
            ],
            [
              112.87478500042322,
              27.93374531899559
            ],
            [
              112.87448451276407,
              27.93241792181084
            ],
            [
              112.8734828872336,
              27.931134755700043
            ],
            [
              112.87087866085434,
              27.93073652863673
            ],
            [
              112.87082857957783,
              27.929143605709726
            ],
            [
              112.8707784983013,
              27.928214389826877
            ],
            [
              112.8722308553205,
              27.927285165955354
            ],
            [
              112.8732825621275,
              27.927948898107317
            ],
            [
              112.87403378127536,
              27.92772765450954
            ],
            [
              112.8747349191467,
              27.92825863838341
            ],
            [
              112.87588678850675,
              27.927594908133486
            ],
            [
              112.87668808893113,
              27.927594908133486
            ],
            [
              112.87733914552594,
              27.926134687236967
            ],
            [
              112.87673817020766,
              27.924408946199918
            ],
            [
              112.87539820409387,
              27.924041637409303
            ],
            [
              112.87434650149369,
              27.923687636055703
            ],
            [
              112.87444666364608,
              27.922758376987247
            ],
            [
              112.87539820409387,
              27.922448622189407
            ],
            [
              112.8723653059448,
              27.919501774068763
            ],
            [
              112.87280864471285,
              27.918945796358372
            ],
            [
              112.87374078812844,
              27.919347325981676
            ],
            [
              112.886963452389,
              27.904651703504
            ],
            [
              112.88945063272996,
              27.906814202939003
            ],
            [
              112.89107358094415,
              27.908883615362114
            ],
            [
              112.89067293233454,
              27.912070022018952
            ],
            [
              112.88937082435339,
              27.916318418205137
            ],
            [
              112.88967131081057,
              27.918708067716835
            ],
            [
              112.8889701757438,
              27.92021263476039
            ],
            [
              112.89087325663935,
              27.921805682927385
            ],
            [
              112.89197504031571,
              27.923841210314706
            ],
            [
              112.89257601323011,
              27.925168707527405
            ],
            [
              112.89397828336368,
              27.925788200647773
            ],
            [
              112.89648233717362,
              27.926407690217843
            ],
            [
              112.8976842830024,
              27.92711567395054
            ],
            [
              112.898084931612,
              27.929814819389378
            ],
            [
              112.899336958517,
              27.929814819389378
            ],
            [
              112.89953728282178,
              27.930190924468604
            ],
            [
              112.89798476945963,
              27.930965254333984
            ],
            [
              112.89836037753112,
              27.931783825587615
            ],
            [
              112.90016329627429,
              27.93149622017799
            ],
            [
              112.9005389043458,
              27.93496955738854
            ],
            [
              112.89960548379408,
              27.93576545370142
            ],
            [
              112.9003667476444,
              27.937757937762186
            ],
            [
              112.90027075491236,
              27.939008811026312
            ],
            [
              112.89978508090397,
              27.93941478511752
            ],
            [
              112.89418560000003,
              27.948710864106047
            ],
            [
              112.89396613454359,
              27.94934668886708
            ],
            [
              112.8934672100892,
              27.95042427670856
            ],
            [
              112.89163531581666,
              27.953541666016065
            ],
            [
              112.88917483037213,
              27.951407890178317
            ]
          ]
        ]
      },
      "properties": {
        "sourceFileId": "file_1776043853136_21_g1",
        "sourceFileName": "长沙市一中九华中学.geojson",
        "sourceGroupId": 1,
        "name": "长沙市一中九华中学",
        "id": "imported_1776043853136_21_1_g1",
        "sourceFile": "长沙市一中九华中学.geojson",
        "isAssistFeature": false
      },
      "id": "imported_1776043853136_21_1_g1"
    },
    {
      "type": "Feature",
      "geometry": {
        "type": "Polygon",
        "coordinates": [
          [
            [
              112.91363294193265,
              27.98069135322777
            ],
            [
              112.91524742908338,
              27.98032687187225
            ],
            [
              112.91636945174459,
              27.978932846574438
            ],
            [
              112.91505817696809,
              27.97873984420471
            ],
            [
              112.91473035827397,
              27.977935663946653
            ],
            [
              112.91582308725438,
              27.97748532038311
            ],
            [
              112.91717078633019,
              27.975233574361155
            ],
            [
              112.91822709101126,
              27.9741720206475
            ],
            [
              112.91910450068991,
              27.974422535733012
            ],
            [
              112.91986618448188,
              27.974783219516056
            ],
            [
              112.92128673215639,
              27.974718882956125
            ],
            [
              112.92172382374856,
              27.97401117826442
            ],
            [
              112.92201521814331,
              27.973399975021607
            ],
            [
              112.92299867422571,
              27.973206962751817
            ],
            [
              112.92266977140834,
              27.972484371449184
            ],
            [
              112.92189941060883,
              27.972037275612934
            ],
            [
              112.92099533776161,
              27.971373328965697
            ],
            [
              112.92068884363817,
              27.970900088723226
            ],
            [
              112.92072185910102,
              27.97055990228175
            ],
            [
              112.92128673215639,
              27.96966834327388
            ],
            [
              112.92230661253811,
              27.96860673479857
            ],
            [
              112.9230020911254,
              27.96767480438355
            ],
            [
              112.9230020911254,
              27.966533025690026
            ],
            [
              112.92348250494607,
              27.96725049614456
            ],
            [
              112.92371834445802,
              27.967381646142044
            ],
            [
              112.92371834445802,
              27.96671817981239
            ],
            [
              112.92378822283194,
              27.966371015572335
            ],
            [
              112.92445564619958,
              27.96693387600415
            ],
            [
              112.92485386803413,
              27.96696505148134
            ],
            [
              112.92543910228194,
              27.96674085216671
            ],
            [
              112.92595524073066,
              27.965897274917694
            ],
            [
              112.92675534338845,
              27.964852624052725
            ],
            [
              112.92710321410922,
              27.963592884560043
            ],
            [
              112.92769459433457,
              27.96325490316994
            ],
            [
              112.92908607721768,
              27.962916920721412
            ],
            [
              112.92988617987548,
              27.96178006289965
            ],
            [
              112.93065149546119,
              27.961319171182097
            ],
            [
              112.93162553347938,
              27.960182296530945
            ],
            [
              112.93249521028133,
              27.958953229383923
            ],
            [
              112.9324256361372,
              27.957785602631873
            ],
            [
              112.9322517007768,
              27.95701742024933
            ],
            [
              112.93273871978589,
              27.956126321837374
            ],
            [
              112.93273871978589,
              27.955327399766375
            ],
            [
              112.93183425591185,
              27.954989392495037
            ],
            [
              112.92974703158715,
              27.95535812764767
            ],
            [
              112.92905129014561,
              27.954374831108694
            ],
            [
              112.9279381038391,
              27.953975364331612
            ],
            [
              112.92637268559558,
              27.95400609259771
            ],
            [
              112.92477248028,
              27.95428264659901
            ],
            [
              112.92390280347804,
              27.95434410294753
            ],
            [
              112.9228591913157,
              27.955450311239048
            ],
            [
              112.92198951451374,
              27.956341415230952
            ],
            [
              112.92187740732291,
              27.956817959275895
            ],
            [
              112.92145002136293,
              27.95687836094183
            ],
            [
              112.92061234488138,
              27.956651854520317
            ],
            [
              112.9202362452366,
              27.956682055403988
            ],
            [
              112.9201849589214,
              27.95731627200911
            ],
            [
              112.91968919120784,
              27.957557877354816
            ],
            [
              112.91898827823347,
              27.95799578566563
            ],
            [
              112.9182189835055,
              27.95813168788365
            ],
            [
              112.91772321579194,
              27.95802598617331
            ],
            [
              112.91925482190915,
              27.95630351638627
            ],
            [
              112.9186324511791,
              27.95623849295228
            ],
            [
              112.91861217858869,
              27.95625924226391
            ],
            [
              112.91799674280632,
              27.95743707474955
            ],
            [
              112.91668039404959,
              27.95666695496321
            ],
            [
              112.91607238960144,
              27.95612588266691
            ],
            [
              112.91600400784785,
              27.955521860276647
            ],
            [
              112.91532019031187,
              27.954766827536474
            ],
            [
              112.91424317769275,
              27.95534065290056
            ],
            [
              112.91414060506236,
              27.955733268497653
            ],
            [
              112.91437994119993,
              27.957349017656355
            ],
            [
              112.91417479593915,
              27.95796813008434
            ],
            [
              112.91273877911361,
              27.95833053571171
            ],
            [
              112.91178143456325,
              27.95796813008434
            ],
            [
              112.9115591938641,
              27.957213114453012
            ],
            [
              112.91161048017926,
              27.956745002109642
            ],
            [
              112.91149081211049,
              27.95645809354103
            ],
            [
              112.9111147124657,
              27.95636749067674
            ],
            [
              112.91061894475212,
              27.95650339494466
            ],
            [
              112.9092171188034,
              27.956382591159425
            ],
            [
              112.90860168302102,
              27.95662419859474
            ],
            [
              112.90814010618428,
              27.957515121339227
            ],
            [
              112.90738790689471,
              27.957635923857154
            ],
            [
              112.9054185393849,
              27.960825636818413
            ],
            [
              112.90472929449862,
              27.96084466144832
            ],
            [
              112.90300618228292,
              27.963793438539724
            ],
            [
              112.90145538128878,
              27.96628556797033
            ],
            [
              112.901369225678,
              27.9667611586503
            ],
            [
              112.90154153689957,
              27.967617216592146
            ],
            [
              112.90137706279225,
              27.96829444471838
            ],
            [
              112.90134287191546,
              27.969381553928557
            ],
            [
              112.90038552736512,
              27.9696533295197
            ],
            [
              112.8990862740468,
              27.97019687864831
            ],
            [
              112.8986759835252,
              27.969592935003064
            ],
            [
              112.89835079604052,
              27.969505647692415
            ],
            [
              112.89814116091878,
              27.969875945417925
            ],
            [
              112.89765201230136,
              27.969922232544263
            ],
            [
              112.89641167116437,
              27.968718760806112
            ],
            [
              112.89588758336002,
              27.968394746890823
            ],
            [
              112.8953984347426,
              27.96933592747685
            ],
            [
              112.8955556610839,
              27.969906803504358
            ],
            [
              112.8951363908404,
              27.96999937771068
            ],
            [
              112.8944657133401,
              27.968867631171747
            ],
            [
              112.89548763677664,
              27.968225419270894
            ],
            [
              112.89553091854573,
              27.9680009988828
            ],
            [
              112.89544833202908,
              27.967808847345466
            ],
            [
              112.89503570975762,
              27.966765412574887
            ],
            [
              112.89489333723104,
              27.967109847348482
            ],
            [
              112.89437955811334,
              27.967498018553414
            ],
            [
              112.89407624273065,
              27.967465215407017
            ],
            [
              112.89393387020405,
              27.966951298144807
            ],
            [
              112.89352532295385,
              27.966541256020562
            ],
            [
              112.8932777185598,
              27.966513919823527
            ],
            [
              112.89329628888937,
              27.966825552059007
            ],
            [
              112.89360100889374,
              27.96827749064849
            ],
            [
              112.89422988485472,
              27.969414376129052
            ],
            [
              112.89425936341543,
              27.969804906545193
            ],
            [
              112.89414144917272,
              27.970481822584617
            ],
            [
              112.89386631593985,
              27.97134965744813
            ],
            [
              112.8942004062941,
              27.972252198301092
            ],
            [
              112.89509668720193,
              27.97292977821725
            ],
            [
              112.89634700431867,
              27.973208518479552
            ],
            [
              112.89729384640707,
              27.973712393279882
            ],
            [
              112.89788865746259,
              27.975867235551988
            ],
            [
              112.89753662642971,
              27.976349657029047
            ],
            [
              112.89712860998733,
              27.977441661674078
            ],
            [
              112.89671117435266,
              27.978054195634556
            ],
            [
              112.89689325936965,
              27.978815333104393
            ],
            [
              112.89879908254758,
              27.976263893368596
            ],
            [
              112.89911469657706,
              27.974634370863882
            ],
            [
              112.90114190976634,
              27.974473561387512
            ],
            [
              112.90769697037831,
              27.97967294635282
            ],
            [
              112.90814611342024,
              27.980219671239155
            ],
            [
              112.9089003818815,
              27.9808519924522
            ],
            [
              112.9105981916493,
              27.98124879291828
            ],
            [
              112.91132653171732,
              27.98103439337831
            ],
            [
              112.91363294193265,
              27.98069135322777
            ]
          ]
        ]
      },
      "properties": {
        "sourceFileId": "file_1776043853136_21_g1",
        "sourceFileName": "长沙市一中九华中学.geojson",
        "sourceGroupId": 1,
        "name": "长沙市一中九华中学",
        "id": "imported_1776043853136_21_2_g1",
        "sourceFile": "长沙市一中九华中学.geojson",
        "isAssistFeature": false
      },
      "id": "imported_1776043853136_21_2_g1"
    },
    {
      "type": "Feature",
      "geometry": {
        "type": "Polygon",
        "coordinates": [
          [
            [
              112.86099852523628,
              27.92954148936333
            ],
            [
              112.86099852523628,
              27.928793141889685
            ],
            [
              112.86087019192983,
              27.927296431397906
            ],
            [
              112.85974085883299,
              27.927046977634276
            ],
            [
              112.85894519233294,
              27.926298612889212
            ],
            [
              112.85822652581676,
              27.926412001819997
            ],
            [
              112.85709719271992,
              27.92532346317448
            ],
            [
              112.85583952631661,
              27.925482209076335
            ],
            [
              112.85545452639724,
              27.924983292599734
            ],
            [
              112.85532619309076,
              27.924620442806784
            ],
            [
              112.85535185975206,
              27.923985452738464
            ],
            [
              112.85419685999392,
              27.923554564496456
            ],
            [
              112.85317019354224,
              27.922488675676817
            ],
            [
              112.85180986049377,
              27.92201242408406
            ],
            [
              112.85163019386474,
              27.92060633571255
            ],
            [
              112.85218696649272,
              27.919627772186544
            ],
            [
              112.8520851082799,
              27.91912375726571
            ],
            [
              112.8516369321434,
              27.918313728363742
            ],
            [
              112.85055723508732,
              27.9176837016891
            ],
            [
              112.85043500523192,
              27.917305683922322
            ],
            [
              112.84935530817582,
              27.916909663892127
            ],
            [
              112.84880527382649,
              27.917053671343638
            ],
            [
              112.84847932754539,
              27.916783657214737
            ],
            [
              112.84852007083055,
              27.91649564140073
            ],
            [
              112.84886638875419,
              27.916279629036836
            ],
            [
              112.84878490218394,
              27.91591960747145
            ],
            [
              112.84890713203934,
              27.914515511914004
            ],
            [
              112.84927382160554,
              27.914515511914004
            ],
            [
              112.84957939624405,
              27.913849460210628
            ],
            [
              112.8495590246015,
              27.913201405967484
            ],
            [
              112.84907010517988,
              27.91280537090725
            ],
            [
              112.84896824696702,
              27.91248134114295
            ],
            [
              112.84837746933256,
              27.912283322475744
            ],
            [
              112.84803115140892,
              27.911095202859258
            ],
            [
              112.84835709769001,
              27.910213105611433
            ],
            [
              112.8481737529069,
              27.90976305322384
            ],
            [
              112.84701256928055,
              27.909132976735336
            ],
            [
              112.84627919014811,
              27.908592908252643
            ],
            [
              112.84652364985892,
              27.907368743042795
            ],
            [
              112.84538283787516,
              27.90587452261599
            ],
            [
              112.84493466173866,
              27.90475834449383
            ],
            [
              112.84534209459004,
              27.90414624192492
            ],
            [
              112.84546432444544,
              27.903390110441165
            ],
            [
              112.84469020202785,
              27.90155376912402
            ],
            [
              112.84236783477516,
              27.900077472134
            ],
            [
              112.84130850936161,
              27.898853210573265
            ],
            [
              112.84236783477516,
              27.89856514701671
            ],
            [
              112.84322344376298,
              27.899033249906708
            ],
            [
              112.84383459304001,
              27.89860115500322
            ],
            [
              112.84464945874272,
              27.89856514701671
            ],
            [
              112.84538283787516,
              27.897304859941258
            ],
            [
              112.84505689159407,
              27.89590052276911
            ],
            [
              112.84583101401167,
              27.89597254050328
            ],
            [
              112.84542358116029,
              27.894712223237107
            ],
            [
              112.84534209459004,
              27.89388400675729
            ],
            [
              112.84631993343326,
              27.893920016301237
            ],
            [
              112.8476603971013,
              27.893366213987235
            ],
            [
              112.84857350041202,
              27.89385417773535
            ],
            [
              112.84910437442986,
              27.89361019613625
            ],
            [
              112.84980512813345,
              27.89368526745608
            ],
            [
              112.85039970703345,
              27.892953319866848
            ],
            [
              112.85050588183702,
              27.891620787189638
            ],
            [
              112.85086687616918,
              27.89107650856097
            ],
            [
              112.85095181601201,
              27.890006711556865
            ],
            [
              112.85175874451917,
              27.89107650856097
            ],
            [
              112.85262937790847,
              27.89167709171916
            ],
            [
              112.85313901696561,
              27.89255919219181
            ],
            [
              112.85377606578705,
              27.892484120090998
            ],
            [
              112.85479534390133,
              27.892897016001143
            ],
            [
              112.85549609760493,
              27.892953319866848
            ],
            [
              112.85600573666207,
              27.89383540993954
            ],
            [
              112.85626133892464,
              27.89518158003777
            ],
            [
              112.85579416978891,
              27.89574460549335
            ],
            [
              112.85491676659683,
              27.896152584628993
            ],
            [
              112.85451232403967,
              27.897367346940925
            ],
            [
              112.85443513230318,
              27.899254064803998
            ],
            [
              112.85467146778485,
              27.899843804229377
            ],
            [
              112.85479612663534,
              27.900154870228988
            ],
            [
              112.8547229015705,
              27.900968410865076
            ],
            [
              112.85464748191033,
              27.901806327365776
            ],
            [
              112.85785396097822,
              27.906926756625197
            ],
            [
              112.85817248538893,
              27.90810897836829
            ],
            [
              112.85789643089963,
              27.909309952306657
            ],
            [
              112.8582998951532,
              27.90977907912979
            ],
            [
              112.85853347972106,
              27.91178691894322
            ],
            [
              112.86033097438006,
              27.912796796411953
            ],
            [
              112.86038376142426,
              27.914224150230254
            ],
            [
              112.86127058376687,
              27.914718588663163
            ],
            [
              112.86131281340222,
              27.915483564425784
            ],
            [
              112.86185124125309,
              27.916071286031055
            ],
            [
              112.86220944146476,
              27.91598874247518
            ],
            [
              112.86257093571214,
              27.916499827628144
            ],
            [
              112.86357189554322,
              27.91688230434724
            ],
            [
              112.8658605333635,
              27.917713645185458
            ],
            [
              112.86643892415934,
              27.918576086222586
            ],
            [
              112.86763185517576,
              27.918384433253237
            ],
            [
              112.86900553331589,
              27.919725996904916
            ],
            [
              112.86962509253068,
              27.920059783105827
            ],
            [
              112.86987924756588,
              27.920340470755505
            ],
            [
              112.86354028813783,
              27.926346284666124
            ],
            [
              112.862720683223,
              27.928237136158614
            ],
            [
              112.86151404265398,
              27.929504390453516
            ],
            [
              112.86099852523628,
              27.92954148936333
            ]
          ]
        ]
      },
      "properties": {
        "sourceFileId": "file_1776043853136_21_g1",
        "sourceFileName": "长沙市一中九华中学.geojson",
        "sourceGroupId": 1,
        "name": "长沙市一中九华中学",
        "id": "imported_1776043853136_21_3_g1",
        "sourceFile": "长沙市一中九华中学.geojson",
        "isAssistFeature": false
      },
      "id": "imported_1776043853136_21_3_g1"
    },
    {
      "type": "Feature",
      "geometry": {
        "type": "Polygon",
        "coordinates": [
          [
            [
              112.93249558098758,
              27.972938293720134
            ],
            [
              112.93273967389844,
              27.971881969338924
            ],
            [
              112.93409539516307,
              27.968978308377302
            ],
            [
              112.93717808053894,
              27.963676208962
            ],
            [
              112.93831380673004,
              27.95980694498199
            ],
            [
              112.9396117795199,
              27.955937542298074
            ],
            [
              112.93604235434782,
              27.953501180565496
            ],
            [
              112.93377090196563,
              27.95092144351213
            ],
            [
              112.93166169618212,
              27.949631551872756
            ],
            [
              112.92793002441134,
              27.948771615553227
            ],
            [
              112.92850798110413,
              27.944790645558314
            ],
            [
              112.93031083405464,
              27.940837414456098
            ],
            [
              112.93089032250302,
              27.93898873156128
            ],
            [
              112.93214588080785,
              27.935547252992848
            ],
            [
              112.93285414446696,
              27.931479909725198
            ],
            [
              112.9335302143234,
              27.926473738628218
            ],
            [
              112.93127664813524,
              27.926445293811767
            ],
            [
              112.92924843856593,
              27.92590484087721
            ],
            [
              112.92767094223423,
              27.92471014585435
            ],
            [
              112.92570712027027,
              27.92283274128475
            ],
            [
              112.9235179416875,
              27.92200781078482
            ],
            [
              112.92314587054732,
              27.921058220783095
            ],
            [
              112.92181195860893,
              27.918312826376138
            ],
            [
              112.9216167519838,
              27.915481116186868
            ],
            [
              112.9218550293773,
              27.91248953085055
            ],
            [
              112.92704441462543,
              27.912733987294672
            ],
            [
              112.93384863102847,
              27.912920976131687
            ],
            [
              112.93386580871945,
              27.916011128506824
            ],
            [
              112.93351863947017,
              27.92231891995843
            ],
            [
              112.94284881304469,
              27.92116859029045
            ],
            [
              112.94946672685916,
              27.919634798360903
            ],
            [
              112.96152443184626,
              27.916520076523355
            ],
            [
              112.96616782055543,
              27.928943523359706
            ],
            [
              112.97579277103662,
              27.93343493469952
            ],
            [
              112.98511405913193,
              27.938072969313367
            ],
            [
              112.99088490769024,
              27.93905183504326
            ],
            [
              112.99083874090178,
              27.940479331667817
            ],
            [
              112.98986923834399,
              27.941417390607654
            ],
            [
              112.9890337291074,
              27.94232120758457
            ],
            [
              112.98522289826137,
              27.943810254144736
            ],
            [
              112.97943336678368,
              27.944846100514525
            ],
            [
              112.97518282468616,
              27.945687718375197
            ],
            [
              112.97352131865439,
              27.951208084006197
            ],
            [
              112.97092537307469,
              27.951208084006197
            ],
            [
              112.97060087987725,
              27.953501180565496
            ],
            [
              112.9693029070874,
              27.955937542298074
            ],
            [
              112.96686920810644,
              27.957370670575017
            ],
            [
              112.96508449552043,
              27.959377018199774
            ],
            [
              112.96459775572424,
              27.955937542298074
            ],
            [
              112.96200181014456,
              27.955220971025213
            ],
            [
              112.95924361796617,
              27.957370670575017
            ],
            [
              112.95762115197886,
              27.958947089705205
            ],
            [
              112.95534969959667,
              27.957513982356332
            ],
            [
              112.95437622000428,
              27.96052348581368
            ],
            [
              112.95145578122714,
              27.961956553206733
            ],
            [
              112.94658838326524,
              27.959950253528845
            ],
            [
              112.94123424550718,
              27.95837384904877
            ],
            [
              112.93993627271732,
              27.962243164402054
            ],
            [
              112.93883394860234,
              27.964693703060078
            ],
            [
              112.93861859329282,
              27.965856089514688
            ],
            [
              112.94399243768555,
              27.96797522846917
            ],
            [
              112.95015780843728,
              27.97026796884272
            ],
            [
              112.94935358619897,
              27.9738388162628
            ],
            [
              112.94670057503059,
              27.97264066503388
            ],
            [
              112.94253221829699,
              27.9725606604961
            ],
            [
              112.93984277760475,
              27.976322773605546
            ],
            [
              112.9385368805316,
              27.975535945399002
            ],
            [
              112.93692586731986,
              27.974296409869496
            ],
            [
              112.93249558098758,
              27.972938293720134
            ]
          ]
        ]
      },
      "properties": {
        "sourceFileId": "file_1776043853136_21_g1",
        "sourceFileName": "长沙市一中九华中学.geojson",
        "sourceGroupId": 1,
        "name": "长沙市一中九华中学",
        "id": "imported_1776043853136_21_4_g1",
        "sourceFile": "长沙市一中九华中学.geojson",
        "isAssistFeature": false
      },
      "id": "imported_1776043853136_21_4_g1"
    }
  ],
  "properties": {
    "fileName": "长沙市一中九华中学.geojson",
    "exportTime": "2026/4/13 09:46:51",
    "isStarred": false
  }
}