{
  "type": "FeatureCollection",
  "features": [
    {
      "type": "Feature",
      "geometry": {
        "type": "Polygon",
        "coordinates": [
          [
            [
              112.98412957464362,
              27.86487061899075
            ],
            [
              112.9857203981156,
              27.863327029798114
            ],
            [
              112.98630254635077,
              27.8615248208135
            ],
            [
              112.98452279623682,
              27.858710135466268
            ],
            [
              112.9833923637664,
              27.854065032994356
            ],
            [
              112.98207151142746,
              27.852100711512875
            ],
            [
              112.98176200657814,
              27.85092788982172
            ],
            [
              112.98159039939729,
              27.85065944543652
            ],
            [
              112.98104917675003,
              27.85047270112446
            ],
            [
              112.97859387400877,
              27.850332642679334
            ],
            [
              112.97752462926658,
              27.850180912492988
            ],
            [
              112.9767287600013,
              27.850268550410647
            ],
            [
              112.97620457402932,
              27.84957398962463
            ],
            [
              112.97622698410336,
              27.848500360471306
            ],
            [
              112.9749241204493,
              27.84566392433335
            ],
            [
              112.9746337082971,
              27.845173697247645
            ],
            [
              112.96798715869566,
              27.843544387655996
            ],
            [
              112.962813503944,
              27.84288192659264
            ],
            [
              112.95309040682514,
              27.84176539054532
            ],
            [
              112.95138753556908,
              27.84162532085567
            ],
            [
              112.95107786732493,
              27.833695187213834
            ],
            [
              112.92805523479909,
              27.831260105311003
            ],
            [
              112.92677777676748,
              27.83110947989374
            ],
            [
              112.92726027153198,
              27.829554843573547
            ],
            [
              112.92672090036307,
              27.828249395834774
            ],
            [
              112.92589764963157,
              27.82699414281751
            ],
            [
              112.92433631203734,
              27.827320509998472
            ],
            [
              112.92409294374083,
              27.828623315916843
            ],
            [
              112.92325883302328,
              27.829181531590976
            ],
            [
              112.92199639518053,
              27.82858344325882
            ],
            [
              112.9205761526074,
              27.82785576467724
            ],
            [
              112.92138396458643,
              27.826943932394897
            ],
            [
              112.92370970368142,
              27.823738806310402
            ],
            [
              112.92871436798669,
              27.82587206815201
            ],
            [
              112.9303600447166,
              27.824257172377955
            ],
            [
              112.93092363303927,
              27.823060938152423
            ],
            [
              112.9396028932083,
              27.82246281609676
            ],
            [
              112.94257863955197,
              27.82246281609676
            ],
            [
              112.94296262387432,
              27.822602935965634
            ],
            [
              112.95153643321154,
              27.822055069572315
            ],
            [
              112.9520474998853,
              27.81786382655214
            ],
            [
              112.95281706466281,
              27.81463569582928
            ],
            [
              112.95610250051867,
              27.80624071515693
            ],
            [
              112.9655212614609,
              27.808283378450085
            ],
            [
              112.98795522868909,
              27.81486685460034
            ],
            [
              112.99488617628599,
              27.818190526747685
            ],
            [
              113.00292487019738,
              27.824535060313437
            ],
            [
              113.00623192781916,
              27.829619418864965
            ],
            [
              113.00740211743917,
              27.83110418660796
            ],
            [
              113.01554256696971,
              27.83614324687808
            ],
            [
              113.03896579956044,
              27.852415900914508
            ],
            [
              113.0360583139771,
              27.859056581700713
            ],
            [
              113.03676465876624,
              27.8653009001179
            ],
            [
              113.03387769978958,
              27.86548265966141
            ],
            [
              113.03297969787285,
              27.866101706165054
            ],
            [
              113.03220588326721,
              27.8689021423711
            ],
            [
              113.02670016352269,
              27.8693925009822
            ],
            [
              113.02643670098792,
              27.87017439337474
            ],
            [
              113.02493235597181,
              27.877641379161318
            ],
            [
              113.02421724337736,
              27.881084728378553
            ],
            [
              113.02323866824811,
              27.881600389609318
            ],
            [
              113.01904208644386,
              27.880269645941638
            ],
            [
              113.00237959857837,
              27.87478498498544
            ],
            [
              113.00189031101377,
              27.87338761578262
            ],
            [
              112.99840884180396,
              27.873271167535435
            ],
            [
              112.99605380937014,
              27.87330139002323
            ],
            [
              112.98948405364683,
              27.873274218879914
            ],
            [
              112.98092852741345,
              27.875212099428865
            ],
            [
              112.9773782750309,
              27.87562368021493
            ],
            [
              112.97534124497534,
              27.875692276860576
            ],
            [
              112.97417722780072,
              27.876000961228414
            ],
            [
              112.97334301549229,
              27.875109203988004
            ],
            [
              112.97066577599064,
              27.871833648045012
            ],
            [
              112.97338181606473,
              27.872691132992358
            ],
            [
              112.97473983610178,
              27.872142343407887
            ],
            [
              112.97776628075576,
              27.86991285713539
            ],
            [
              112.98024951739492,
              27.869981457397103
            ],
            [
              112.98133593342457,
              27.86939835378824
            ],
            [
              112.98335356319389,
              27.868026332918575
            ],
            [
              112.98405197349867,
              27.86617407718755
            ],
            [
              112.98412957464362,
              27.86487061899075
            ]
          ]
        ]
      },
      "properties": {
        "sourceFileId": "file_1775093888583_22_g1",
        "sourceFileName": "长郡湘潭高新实验学校初中部.geojson",
        "name": "长郡湘潭高新实验学校初中部",
        "id": "imported_1775093888583_22_0_g1",
        "sourceFile": "长郡湘潭高新实验学校初中部.geojson",
        "sourceGroupId": 1,
        "isAssistFeature": false
      },
      "id": "imported_1775093888583_22_0_g1"
    }
  ],
  "properties": {
    "fileName": "长郡湘潭高新实验学校初中部.geojson",
    "exportTime": "2026/4/2 10:04:50",
    "isStarred": false
  }
}