{
  "type": "FeatureCollection",
  "features": [
    {
      "type": "Feature",
      "properties": {
        "name": "风车坪东校区（中学部）",
        "isAssistFeature": false
      },
      "geometry": {
        "type": "Polygon",
        "coordinates": [
          [
            [
              112.94237789272836,
              27.899101488342552
            ],
            [
              112.94957190605248,
              27.897260090883513
            ],
            [
              112.9530970506359,
              27.89635744025834
            ],
            [
              112.94691724155575,
              27.88323342455378
            ],
            [
              112.94568075997452,
              27.880525192917606
            ],
            [
              112.93702167886366,
              27.882639839807457
            ],
            [
              112.93662622161095,
              27.881792455903547
            ],
            [
              112.93587636460565,
              27.880185648480456
            ],
            [
              112.9356158846143,
              27.87983776626872
            ],
            [
              112.93407763197963,
              27.877783338837403
            ],
            [
              112.92488006834812,
              27.88112444836804
            ],
            [
              112.92582432976405,
              27.884451604043058
            ],
            [
              112.92610884867244,
              27.88545408363662
            ],
            [
              112.92618913021104,
              27.885736972032294
            ],
            [
              112.92670774559087,
              27.887254066353712
            ],
            [
              112.92699392458587,
              27.888128403881645
            ],
            [
              112.92876191776118,
              27.89327888698442
            ],
            [
              112.92895002049009,
              27.89377515428864
            ],
            [
              112.92957944216191,
              27.89540922619011
            ],
            [
              112.93068816534344,
              27.89774694551771
            ],
            [
              112.93258351626984,
              27.901743136400313
            ],
            [
              112.9392206082538,
              27.89995139712874
            ],
            [
              112.94205246094869,
              27.89918690632551
            ],
            [
              112.94237789272836,
              27.899101488342552
            ]
          ]
        ]
      }
    }
  ]
}