{
  "type": "FeatureCollection",
  "features": [
    {
      "type": "Feature",
      "geometry": {
        "type": "Polygon",
        "coordinates": [
          [
            [
              112.98812858570894,
              27.890841391097283
            ],
            [
              112.99380592999371,
              27.887830629430084
            ],
            [
              112.99339381808163,
              27.887171507687
            ],
            [
              112.99320326721623,
              27.8862732518795
            ],
            [
              112.99294081086461,
              27.885345493233302
            ],
            [
              112.99326678417137,
              27.88458900215504
            ],
            [
              112.99447360631895,
              27.883915294929935
            ],
            [
              112.99548987760112,
              27.883803009984888
            ],
            [
              112.99677977700003,
              27.882573543263092
            ],
            [
              112.9978611759114,
              27.883816150300333
            ],
            [
              112.9994832742785,
              27.88486757588703
            ],
            [
              113.00040246335317,
              27.885823408470188
            ],
            [
              113.00171453920443,
              27.886048686763218
            ],
            [
              113.00278154095822,
              27.88587119987787
            ],
            [
              113.00586352785567,
              27.88572782559156
            ],
            [
              113.0071769973461,
              27.885431130292005
            ],
            [
              113.00705306665819,
              27.88486757588703
            ],
            [
              113.00678271693035,
              27.883911734866473
            ],
            [
              113.00829667540627,
              27.88305147073406
            ],
            [
              113.00970249399109,
              27.885010951312424
            ],
            [
              113.01197343170502,
              27.884007319348186
            ],
            [
              113.01422737936615,
              27.883466154451227
            ],
            [
              113.01619640497536,
              27.88296086918598
            ],
            [
              113.01670454061644,
              27.88200643503008
            ],
            [
              113.0165775067062,
              27.880265974620144
            ],
            [
              113.01581530324454,
              27.879086937160594
            ],
            [
              113.01473551500725,
              27.878188614290792
            ],
            [
              113.013211108084,
              27.878188614290792
            ],
            [
              113.01200428593641,
              27.878188614290792
            ],
            [
              113.01086098074397,
              27.877907886866012
            ],
            [
              113.00990822641693,
              27.877009554217338
            ],
            [
              113.00895547208991,
              27.876391946199576
            ],
            [
              113.00781216689744,
              27.875662041274964
            ],
            [
              113.00800271776286,
              27.8748759843174
            ],
            [
              113.00895547208991,
              27.873696888186288
            ],
            [
              113.00870140426935,
              27.873023113206543
            ],
            [
              113.0075580990769,
              27.87274237239488
            ],
            [
              113.00660534474986,
              27.872798520615433
            ],
            [
              113.00628775997419,
              27.873865331276463
            ],
            [
              113.0052079717369,
              27.874314511569807
            ],
            [
              113.00190509006983,
              27.874370658975536
            ],
            [
              112.99911034404386,
              27.873753035912117
            ],
            [
              112.99752242016545,
              27.872966965102407
            ],
            [
              112.99580746237679,
              27.872405482460593
            ],
            [
              112.99396547067786,
              27.87257392755869
            ],
            [
              112.99275864853028,
              27.872293185583032
            ],
            [
              112.99186941115838,
              27.87268622414524
            ],
            [
              112.99078962292107,
              27.873023113206543
            ],
            [
              112.98837597862591,
              27.87268622414524
            ],
            [
              112.98786784298483,
              27.87201244287988
            ],
            [
              112.98672453779236,
              27.8715632530417
            ],
            [
              112.98875708035673,
              27.870721017075454
            ],
            [
              112.98913818208752,
              27.86987877456201
            ],
            [
              112.98837597862591,
              27.869204975837377
            ],
            [
              112.9879948768951,
              27.868531172922715
            ],
            [
              112.9871056395232,
              27.86864347369945
            ],
            [
              112.98666102083725,
              27.86684664730494
            ],
            [
              112.9867880547475,
              27.865386703921004
            ],
            [
              112.98564474955506,
              27.86426365716501
            ],
            [
              112.98481902913832,
              27.865162095500835
            ],
            [
              112.98405682567669,
              27.86572361567839
            ],
            [
              112.98418385958695,
              27.86667819330289
            ],
            [
              112.98348517308045,
              27.868250420471625
            ],
            [
              112.98259593570856,
              27.868587323325613
            ],
            [
              112.98138911356098,
              27.868418872029537
            ],
            [
              112.98037284227881,
              27.86914882575452
            ],
            [
              112.9819607661572,
              27.873079261281575
            ],
            [
              112.98151614747125,
              27.87481983717359
            ],
            [
              112.98227835093289,
              27.875998921082086
            ],
            [
              112.98094449487502,
              27.87869392182185
            ],
            [
              112.98246890179827,
              27.880883560547872
            ],
            [
              112.98259593570856,
              27.882792440240294
            ],
            [
              112.98608936824104,
              27.887115366917342
            ],
            [
              112.98812858570894,
              27.890841391097283
            ]
          ]
        ]
      },
      "properties": {
        "type": "assistPolygon",
        "name": "清水村",
        "fill": "#9b59b6",
        "fill-opacity": 0.2,
        "stroke": "#9b59b6",
        "stroke-width": 2,
        "stroke-opacity": 0.8,
        "isAssistFeature": true,
        "sourceFileName": "辅助要素_清水村.geojson"
      },
      "id": "assist_polygon_1773915364129_reimported_1773915566172"
    },
    {
      "type": "Feature",
      "geometry": {
        "type": "Point",
        "coordinates": [
          112.99498261893079,
          27.87914130260674
        ]
      },
      "properties": {
        "iconType": "default",
        "iconColor": "#e74c3c",
        "iconSize": 1,
        "text": "清水村中心点",
        "textColor": "#333333",
        "type": "assistPoint",
        "name": "辅助点_1",
        "isAssistFeature": true,
        "sourceFileName": "辅助要素_清水村.geojson"
      },
      "id": "assist_point_1773915513839_reimported_1773915566173"
    }
  ],
  "properties": {
    "description": "GIS-APP 辅助要素导出",
    "exportTime": "2026/3/19 18:20:42",
    "assistElements": {
      "lines": 0,
      "polygons": 1,
      "texts": 0,
      "points": 1
    }
  }
}