{
  "type": "FeatureCollection",
  "features": [
    {
      "type": "Feature",
      "geometry": {
        "type": "Polygon",
        "coordinates": [
          [
            [
              112.91701455162085,
              27.812237262276767
            ],
            [
              112.91835258586332,
              27.81226589452281
            ],
            [
              112.92010066285755,
              27.81228975472206
            ],
            [
              112.92075888938005,
              27.81228975472206
            ],
            [
              112.92121455558006,
              27.812284091444
            ],
            [
              112.92143763132397,
              27.810902938921785
            ],
            [
              112.92162191128634,
              27.810199488029866
            ],
            [
              112.92176739546714,
              27.809187197044437
            ],
            [
              112.92023070964865,
              27.80914538629824
            ],
            [
              112.91860452516053,
              27.809061024342668
            ],
            [
              112.9170975624091,
              27.808997752833022
            ],
            [
              112.91702534221959,
              27.810757919296364
            ],
            [
              112.91701455162085,
              27.812237262276767
            ]
          ]
        ]
      },
      "properties": {
        "type": "assistPolygon",
        "name": "九洲社区",
        "fill": "#9b59b6",
        "fill-opacity": 0.2,
        "stroke": "#9b59b6",
        "stroke-width": 2,
        "stroke-opacity": 0.8
      },
      "id": "assist_polygon_1773988211204"
    },
    {
      "type": "Feature",
      "geometry": {
        "type": "Point",
        "coordinates": [
          112.91922627177554,
          27.81080857382281
        ]
      },
      "properties": {
        "iconType": "default",
        "iconColor": "#e74c3c",
        "iconSize": 1,
        "text": "九洲社区中心点",
        "textColor": "#333333",
        "type": "assistPoint",
        "name": "辅助点_1"
      },
      "id": "assist_point_1773988785875"
    }
  ],
  "properties": {
    "description": "GIS-APP 辅助要素导出",
    "exportTime": "2026/3/20 14:39:56",
    "assistElements": {
      "lines": 0,
      "polygons": 1,
      "texts": 0,
      "points": 1
    }
  }
}