{
  "type": "FeatureCollection",
  "features": [
    {
      "type": "Feature",
      "geometry": {
        "type": "LineString",
        "coordinates": [
          [
            112.9004748970312,
            27.93981617165352
          ],
          [
            112.90017589235394,
            27.93643016043272
          ],
          [
            112.90020307459733,
            27.93112279459031
          ],
          [
            112.9000127988936,
            27.92792864335567
          ]
        ]
      },
      "properties": {
        "type": "assistLine",
        "name": "辅助线_1",
        "stroke": "#e74c3c",
        "stroke-width": 2,
        "stroke-opacity": 0.8,
        "stroke-dasharray": "5,5"
      }
    },
    {
      "type": "Feature",
      "geometry": {
        "type": "Polygon",
        "coordinates": [
          [
            [
              112.92050156616239,
              27.935230805483684
            ],
            [
              112.92045865081815,
              27.929088441227634
            ],
            [
              112.92084488891628,
              27.927609671767286
            ],
            [
              112.92238984130886,
              27.924993337776073
            ],
            [
              112.92307648681665,
              27.923514512291035
            ],
            [
              112.92329106353786,
              27.922225263311162
            ],
            [
              112.92294774078395,
              27.920746399960663
            ],
            [
              112.92183194183376,
              27.91843326543909
            ],
            [
              112.92161736511258,
              27.916537216632094
            ],
            [
              112.92183194183376,
              27.903567351469718
            ],
            [
              112.92050156616239,
              27.903529425607204
            ],
            [
              112.920973634949,
              27.904667195699474
            ],
            [
              112.92020115875272,
              27.904629270222486
            ],
            [
              112.92007241271999,
              27.906297978632765
            ],
            [
              112.92093071960475,
              27.908611372715328
            ],
            [
              112.91878495239285,
              27.90868722086404
            ],
            [
              112.91685376190212,
              27.910431713605604
            ],
            [
              112.91273388885523,
              27.91782653343806
            ],
            [
              112.90990147613552,
              27.918926232683162
            ],
            [
              112.90788445495632,
              27.918926232683162
            ],
            [
              112.9077557089236,
              27.919836320152086
            ],
            [
              112.9059532644656,
              27.91998800065214
            ],
            [
              112.9057386877444,
              27.934927487048597
            ],
            [
              112.909987306824,
              27.935382464381917
            ],
            [
              112.92063031219516,
              27.937202354557172
            ],
            [
              112.92050156616239,
              27.935230805483684
            ]
          ]
        ]
      },
      "properties": {
        "name": "吉利社区",
        "type": "assistPolygon",
        "fill": "#c0392b",
        "fill-opacity": 0.4,
        "stroke": "#c0392b",
        "stroke-opacity": 1,
        "stroke-width": 3,
        "isAssistFeature": true,
        "sourceFileName": "辅助要素_吉利社区.geojson"
      },
      "id": "assist_polygon_1773825872190_reimported_1773826007871"
    },
    {
      "type": "Feature",
      "geometry": {
        "type": "Polygon",
        "coordinates": [
          [
            [
              112.94875192013372,
              27.92836161436395
            ],
            [
              112.94620882366284,
              27.928190962690252
            ],
            [
              112.94447050455622,
              27.927991868730373
            ],
            [
              112.94263561216587,
              27.927934984674508
            ],
            [
              112.94147673276143,
              27.927878100588643
            ],
            [
              112.93861172534491,
              27.927764332327186
            ],
            [
              112.935553571361,
              27.927650563945974
            ],
            [
              112.93387963444347,
              27.927650563945974
            ],
            [
              112.9323666529988,
              27.92759367971047
            ],
            [
              112.93078928936497,
              27.927479911149604
            ],
            [
              112.92937288120399,
              27.92736614246904
            ],
            [
              112.92596062517983,
              27.92736614246904
            ],
            [
              112.92380382184379,
              27.927337700280177
            ],
            [
              112.92148606303492,
              27.92736614246904
            ],
            [
              112.92222645820998,
              27.925972466413583
            ],
            [
              112.92319219104701,
              27.92426589983225
            ],
            [
              112.9237394396547,
              27.92278685366915
            ],
            [
              112.92377163074927,
              27.92216109727785
            ],
            [
              112.92370724856013,
              27.92164911208185
            ],
            [
              112.92328876433075,
              27.92079579803395
            ],
            [
              112.92270932462854,
              27.919686479703174
            ],
            [
              112.92232303149373,
              27.918946927826312
            ],
            [
              112.92196892945344,
              27.917979813893353
            ],
            [
              112.9219045472643,
              27.917012691310546
            ],
            [
              112.9219045472643,
              27.916045560078047
            ],
            [
              112.922001120548,
              27.91473707464327
            ],
            [
              112.92196892945344,
              27.91368458573966
            ],
            [
              112.92206550273714,
              27.912745870778735
            ],
            [
              112.9232887643307,
              27.912745870778735
            ],
            [
              112.92579966970698,
              27.91268897870107
            ],
            [
              112.9288578236909,
              27.912831208839123
            ],
            [
              112.93120777359434,
              27.912916546832207
            ],
            [
              112.93313923926837,
              27.91297343879016
            ],
            [
              112.93375087006518,
              27.913087222616326
            ],
            [
              112.93362210568691,
              27.915846443750596
            ],
            [
              112.93346115021407,
              27.91877626129022
            ],
            [
              112.93349334130865,
              27.92034069445461
            ],
            [
              112.93339676802492,
              27.92187666135716
            ],
            [
              112.93330019474124,
              27.922445532450183
            ],
            [
              112.93603643777953,
              27.922274871436585
            ],
            [
              112.938161050021,
              27.922047322999404
            ],
            [
              112.94018908897876,
              27.921819774083247
            ],
            [
              112.94257122997675,
              27.921478449811076
            ],
            [
              112.94533966410957,
              27.920938017509627
            ],
            [
              112.94636977913574,
              27.920682022318715
            ],
            [
              112.94720674759446,
              27.921393118574642
            ],
            [
              112.94785056948585,
              27.92210421015359
            ],
            [
              112.9484943913772,
              27.922872183805566
            ],
            [
              112.948880684512,
              27.92395302636993
            ],
            [
              112.94920259545768,
              27.92523295753621
            ],
            [
              112.94910602217398,
              27.92642754628507
            ],
            [
              112.94875192013372,
              27.92836161436395
            ]
          ]
        ]
      },
      "properties": {
        "name": "民乐社区",
        "type": "assistPolygon",
        "fill": "#9b59b6",
        "fill-opacity": 0.2,
        "stroke": "#9b59b6",
        "stroke-width": 2,
        "stroke-opacity": 0.8
      },
      "id": "assist_polygon_1773821557043"
    },
    {
      "type": "Feature",
      "geometry": {
        "type": "Polygon",
        "coordinates": [
          [
            [
              112.92018051847494,
              27.940127491423695
            ],
            [
              112.92912964276474,
              27.94234569710862
            ],
            [
              112.92980565575066,
              27.940582511687836
            ],
            [
              112.93028852216916,
              27.939075249722393
            ],
            [
              112.93048166873655,
              27.93850646615715
            ],
            [
              112.93080357968223,
              27.937169812991883
            ],
            [
              112.93151178376274,
              27.935719383402954
            ],
            [
              112.93205903237036,
              27.934439576419948
            ],
            [
              112.93241313441064,
              27.9332450762265
            ],
            [
              112.93267066316717,
              27.931709270861646
            ],
            [
              112.93279942754545,
              27.930372533611703
            ],
            [
              112.93302476520739,
              27.928978896321397
            ],
            [
              112.93305695630198,
              27.928353175774163
            ],
            [
              112.93283161864001,
              27.92772745160447
            ],
            [
              112.93077138858766,
              27.9275567989295
            ],
            [
              112.9294515537104,
              27.92764212530065
            ],
            [
              112.92694064833414,
              27.9275567989295
            ],
            [
              112.92298114370232,
              27.92764212530065
            ],
            [
              112.92133939787938,
              27.92764212530065
            ],
            [
              112.92101748693369,
              27.928666036500587
            ],
            [
              112.9208243403663,
              27.92977526268777
            ],
            [
              112.92092091365,
              27.930486299127736
            ],
            [
              112.9208243403663,
              27.93230653109714
            ],
            [
              112.92085653146086,
              27.933387279322872
            ],
            [
              112.92092091365,
              27.93461021822685
            ],
            [
              112.9208243403663,
              27.936202862095996
            ],
            [
              112.92088872255543,
              27.937852361355198
            ],
            [
              112.92063119379888,
              27.93856334464843
            ],
            [
              112.92018051847494,
              27.940127491423695
            ]
          ]
        ]
      },
      "properties": {
        "name": "杉杉社区",
        "type": "assistPolygon",
        "fill": "#9b59b6",
        "fill-opacity": 0.2,
        "stroke": "#9b59b6",
        "stroke-width": 2,
        "stroke-opacity": 0.8
      },
      "id": "assist_polygon_1773821327432"
    },
    {
      "type": "Feature",
      "geometry": {
        "type": "Polygon",
        "coordinates": [
          [
            [
              112.94690642882246,
              27.95725302622077
            ],
            [
              112.94721890127155,
              27.960399450667794
            ],
            [
              112.94778135167995,
              27.963766575233137
            ],
            [
              112.94346923188236,
              27.962276221580012
            ],
            [
              112.93959457351353,
              27.969948563217244
            ],
            [
              112.93397006942973,
              27.967740751022376
            ],
            [
              112.93559492616507,
              27.964815330281525
            ],
            [
              112.93742365756584,
              27.961321009270378
            ],
            [
              112.93783140689679,
              27.960384614075622
            ],
            [
              112.9384022559601,
              27.958619847204133
            ],
            [
              112.9390138799565,
              27.956026668028244
            ],
            [
              112.93929930448816,
              27.954333864685623
            ],
            [
              112.93929930448816,
              27.95379360271245
            ],
            [
              112.93938085435434,
              27.953325373482244
            ],
            [
              112.93840225596011,
              27.952857142221447
            ],
            [
              112.93473251198174,
              27.951200307609852
            ],
            [
              112.93293841492563,
              27.950407899460785
            ],
            [
              112.93118509280262,
              27.949687523370173
            ],
            [
              112.92702604962714,
              27.94767044475067
            ],
            [
              112.92947254561273,
              27.943348006562147
            ],
            [
              112.93028804427459,
              27.941618982852006
            ],
            [
              112.93195981653143,
              27.937404371616452
            ],
            [
              112.93273454026018,
              27.934378395488338
            ],
            [
              112.93326461439041,
              27.931712584404167
            ],
            [
              112.93363158878827,
              27.929442990710058
            ],
            [
              112.93379468852063,
              27.927785796955206
            ],
            [
              112.93546646077743,
              27.927893875583294
            ],
            [
              112.93693435836877,
              27.92792990176865
            ],
            [
              112.94007402821696,
              27.928074006390005
            ],
            [
              112.94321369806512,
              27.928182084729897
            ],
            [
              112.94875908896577,
              27.9286143970088
            ],
            [
              112.94782126550463,
              27.935855370614064
            ],
            [
              112.94704654177578,
              27.94223134858119
            ],
            [
              112.94643491777938,
              27.946121590954007
            ],
            [
              112.94651646764555,
              27.948678988769856
            ],
            [
              112.94655724257866,
              27.95447793408856
            ],
            [
              112.94690642882246,
              27.95725302622077
            ]
          ]
        ]
      },
      "properties": {
        "name": "桃李社区",
        "type": "assistPolygon",
        "fill": "#9b59b6",
        "fill-opacity": 0.2,
        "stroke": "#9b59b6",
        "stroke-width": 2,
        "stroke-opacity": 0.8
      },
      "id": "assist_polygon_1773817913773"
    },
    {
      "type": "Feature",
      "geometry": {
        "type": "Polygon",
        "coordinates": [
          [
            [
              112.92210598257162,
              27.912451652996538
            ],
            [
              112.92658232190999,
              27.91257526478705
            ],
            [
              112.93367937039118,
              27.91285371111779
            ],
            [
              112.93367652041502,
              27.911162550191108
            ],
            [
              112.93374579539402,
              27.910213827838945
            ],
            [
              112.9336782322063,
              27.909127202548817
            ],
            [
              112.93365120693124,
              27.908291329513133
            ],
            [
              112.93352959319337,
              27.907407685280987
            ],
            [
              112.93340797945554,
              27.906583740237252
            ],
            [
              112.93325934044256,
              27.905437371476353
            ],
            [
              112.93307016351702,
              27.904434288846147
            ],
            [
              112.93288098659144,
              27.90375362033629
            ],
            [
              112.93248912010282,
              27.90254751298683
            ],
            [
              112.93202969042645,
              27.90134139219286
            ],
            [
              112.93159728602518,
              27.900362155521265
            ],
            [
              112.93130922217442,
              27.89979366018804
            ],
            [
              112.93101964751126,
              27.899187041308323
            ],
            [
              112.93066572292302,
              27.898495112497272
            ],
            [
              112.93017237349699,
              27.8974714288818
            ],
            [
              112.92990424880892,
              27.896921668869638
            ],
            [
              112.92991497379644,
              27.89656147976129
            ],
            [
              112.92950742427058,
              27.895661001745992
            ],
            [
              112.92811456918358,
              27.895799886184435
            ],
            [
              112.92661769638153,
              27.89597916242026
            ],
            [
              112.92526071823387,
              27.896139892586135
            ],
            [
              112.92426047145493,
              27.896275894847705
            ],
            [
              112.92167303183825,
              27.896613286453714
            ],
            [
              112.92190869684312,
              27.89887457930817
            ],
            [
              112.92187503041386,
              27.900362246207294
            ],
            [
              112.92205103223806,
              27.902142020650828
            ],
            [
              112.92213058314552,
              27.903477768762798
            ],
            [
              112.92221013405296,
              27.90599103958428
            ],
            [
              112.92215047087234,
              27.907590363344966
            ],
            [
              112.92215047087234,
              27.909277536408865
            ],
            [
              112.92211069541862,
              27.910771365594314
            ],
            [
              112.92210598257162,
              27.912451652996538
            ]
          ]
        ]
      },
      "properties": {
        "name": "乐塘社区",
        "type": "assistPolygon",
        "fill": "#9b59b6",
        "fill-opacity": 0.2,
        "stroke": "#9b59b6",
        "stroke-width": 2,
        "stroke-opacity": 0.8
      },
      "id": "assist_polygon_1773819237089"
    },
    {
      "type": "Feature",
      "geometry": {
        "type": "Polygon",
        "coordinates": [
          [
            [
              112.91319393818631,
              27.897263001163708
            ],
            [
              112.91515143715554,
              27.896950229807587
            ],
            [
              112.91592558929025,
              27.896930681567824
            ],
            [
              112.91587029270919,
              27.898416337727227
            ],
            [
              112.91584817407677,
              27.899256897309755
            ],
            [
              112.91587029270919,
              27.900019259657043
            ],
            [
              112.91578181817952,
              27.900635009939776
            ],
            [
              112.91580393681193,
              27.90128985163399
            ],
            [
              112.91465376792608,
              27.901485325998564
            ],
            [
              112.91446575955051,
              27.901446231153898
            ],
            [
              112.91449893749913,
              27.901162793107673
            ],
            [
              112.91446575955051,
              27.900635009939776
            ],
            [
              112.9143811514043,
              27.899865510117763
            ],
            [
              112.91426704019808,
              27.89957848170377
            ],
            [
              112.91394226214965,
              27.89891133163806
            ],
            [
              112.91373159530744,
              27.898391572341225
            ],
            [
              112.91348581732483,
              27.897817506933123
            ],
            [
              112.91319393818631,
              27.897263001163708
            ]
          ]
        ]
      },
      "properties": {
        "name": "科大社区",
        "type": "assistPolygon",
        "fill": "#9b59b6",
        "fill-opacity": 0.2,
        "stroke": "#9b59b6",
        "stroke-width": 2,
        "stroke-opacity": 0.8
      },
      "id": "assist_polygon_1773822616090"
    },
    {
      "type": "Feature",
      "geometry": {
        "type": "Polygon",
        "coordinates": [
          [
            [
              112.91139713877374,
              27.8974198092165
            ],
            [
              112.91195013923462,
              27.89738877845312
            ],
            [
              112.91216958386195,
              27.89798611908533
            ],
            [
              112.91245925077001,
              27.898397273708667
            ],
            [
              112.9125996953315,
              27.898622244445093
            ],
            [
              112.91278402881845,
              27.898955820883174
            ],
            [
              112.91286302888429,
              27.899366971822346
            ],
            [
              112.91295958452032,
              27.89985569637841
            ],
            [
              112.9130034734458,
              27.90009617907988
            ],
            [
              112.91295080673517,
              27.900375448643146
            ],
            [
              112.91296836230535,
              27.900701262222682
            ],
            [
              112.9130385845861,
              27.900933985607466
            ],
            [
              112.91317902914759,
              27.901096891679018
            ],
            [
              112.91331069592397,
              27.90121325300852
            ],
            [
              112.91360914061715,
              27.90123652525942
            ],
            [
              112.91404802987181,
              27.90125204009057
            ],
            [
              112.91427625228422,
              27.901228767843023
            ],
            [
              112.91437280792024,
              27.901189980752648
            ],
            [
              112.91445180798608,
              27.90107361939809
            ],
            [
              112.91439036349043,
              27.90067023240023
            ],
            [
              112.91432891899477,
              27.900119451571
            ],
            [
              112.91431136342459,
              27.899987574055075
            ],
            [
              112.91422358557362,
              27.899630728206134
            ],
            [
              112.91405680765685,
              27.899281638737037
            ],
            [
              112.91388125195499,
              27.898924790560244
            ],
            [
              112.91380225188915,
              27.89872309324413
            ],
            [
              112.91364425175747,
              27.898342970357362
            ],
            [
              112.91355647390654,
              27.89808696847713
            ],
            [
              112.91328436256866,
              27.89759047825605
            ],
            [
              112.91309125129662,
              27.897249139907814
            ],
            [
              112.91292447337986,
              27.897218109095505
            ],
            [
              112.91267869539725,
              27.897218109095505
            ],
            [
              112.91234513956368,
              27.897218109095505
            ],
            [
              112.91216080607674,
              27.897179320567574
            ],
            [
              112.9119501392345,
              27.89714828973524
            ],
            [
              112.91139713877364,
              27.897070712615488
            ],
            [
              112.91139713877374,
              27.8974198092165
            ]
          ]
        ]
      },
      "properties": {
        "name": "科大社区",
        "type": "assistPolygon",
        "fill": "#9b59b6",
        "fill-opacity": 0.2,
        "stroke": "#9b59b6",
        "stroke-width": 2,
        "stroke-opacity": 0.8
      },
      "id": "assist_polygon_1773822260077"
    },
    {
      "type": "Feature",
      "geometry": {
        "type": "Polygon",
        "coordinates": [
          [
            [
              112.9113832347382,
              27.89863669912971
            ],
            [
              112.91166851839387,
              27.898620432866153
            ],
            [
              112.91169152514031,
              27.898494369240794
            ],
            [
              112.91212865332238,
              27.898254441290035
            ],
            [
              112.91182956561885,
              27.897733917805354
            ],
            [
              112.91141544418319,
              27.89799824645027
            ],
            [
              112.9113832347382,
              27.89863669912971
            ]
          ]
        ]
      },
      "properties": {
        "name": "科大社区",
        "type": "assistPolygon",
        "fill": "#9b59b6",
        "fill-opacity": 0.2,
        "stroke": "#9b59b6",
        "stroke-width": 2,
        "stroke-opacity": 0.8
      },
      "id": "assist_polygon_1773822124667"
    },
    {
      "type": "Feature",
      "geometry": {
        "type": "Polygon",
        "coordinates": [
          [
            [
              112.9139333463714,
              27.915504656831686
            ],
            [
              112.91328234146484,
              27.915681657704283
            ],
            [
              112.91270645250904,
              27.91548253170224
            ],
            [
              112.91203040895225,
              27.915327655669387
            ],
            [
              112.91140444269593,
              27.91594715846999
            ],
            [
              112.91072839913913,
              27.91619053359925
            ],
            [
              112.91015251018332,
              27.9161020336156
            ],
            [
              112.90975189177931,
              27.915991408534254
            ],
            [
              112.90912592552299,
              27.9161020336156
            ],
            [
              112.90842484331594,
              27.916057783596642
            ],
            [
              112.90792407031088,
              27.916057783596642
            ],
            [
              112.90794910896115,
              27.914442645512338
            ],
            [
              112.90669717644855,
              27.914464770854508
            ],
            [
              112.9073982586556,
              27.91351337705271
            ],
            [
              112.90722298810384,
              27.912827483306103
            ],
            [
              112.90679733104953,
              27.911942452689473
            ],
            [
              112.90682236969973,
              27.908889041471568
            ],
            [
              112.9068724470002,
              27.90747293744778
            ],
            [
              112.9057457077388,
              27.906609989968217
            ],
            [
              112.90506966418198,
              27.906654243852586
            ],
            [
              112.90436858197494,
              27.906609989968217
            ],
            [
              112.90371757706838,
              27.906255958241715
            ],
            [
              112.90339207461508,
              27.906255958241715
            ],
            [
              112.90284122430957,
              27.90610106899703
            ],
            [
              112.90251572185628,
              27.906145323089575
            ],
            [
              112.90196487155073,
              27.905924052445883
            ],
            [
              112.90018712738282,
              27.905702781349618
            ],
            [
              112.90013705008232,
              27.90160918444097
            ],
            [
              112.9205346360247,
              27.90187170900751
            ],
            [
              112.9204845587242,
              27.903487034800605
            ],
            [
              112.92086013847798,
              27.904527026316913
            ],
            [
              112.92025921087195,
              27.904593408414712
            ],
            [
              112.92010897897042,
              27.904571281053293
            ],
            [
              112.91993370841865,
              27.906230820600584
            ],
            [
              112.92064829908587,
              27.908493598008548
            ],
            [
              112.91879543896721,
              27.908559977672468
            ],
            [
              112.91681738559731,
              27.91026370843987
            ],
            [
              112.9139333463714,
              27.915504656831686
            ]
          ]
        ]
      },
      "properties": {
        "name": "科大社区",
        "type": "assistPolygon",
        "fill": "#9b59b6",
        "fill-opacity": 0.2,
        "stroke": "#9b59b6",
        "stroke-width": 2,
        "stroke-opacity": 0.8
      },
      "id": "assist_polygon_1773826318222"
    },
    {
      "type": "Feature",
      "geometry": {
        "type": "Polygon",
        "coordinates": [
          [
            [
              112.91455936020944,
              27.89600398288262
            ],
            [
              112.91455936020944,
              27.895871233027776
            ],
            [
              112.91447352952096,
              27.895681590095535
            ],
            [
              112.91430186814402,
              27.89557728634118
            ],
            [
              112.91424822396374,
              27.895425571609934
            ],
            [
              112.91425895279977,
              27.89528333885623
            ],
            [
              112.91421603745553,
              27.894998872788122
            ],
            [
              112.91424822396374,
              27.89488508615156
            ],
            [
              112.9144091565046,
              27.894837675017683
            ],
            [
              112.91467737740611,
              27.894837675017683
            ],
            [
              112.91499924248788,
              27.894866121700517
            ],
            [
              112.91511725968454,
              27.89480922832739
            ],
            [
              112.91520309037303,
              27.89461958353435
            ],
            [
              112.91533183640576,
              27.894392009344116
            ],
            [
              112.91548204011056,
              27.894259257512147
            ],
            [
              112.9155249554548,
              27.894135987808127
            ],
            [
              112.91543912476632,
              27.893946341835516
            ],
            [
              112.91564297265145,
              27.893879965666628
            ],
            [
              112.91581463402841,
              27.893813589456997
            ],
            [
              112.9159541088972,
              27.89370928390251
            ],
            [
              112.91612577027414,
              27.89379462481817
            ],
            [
              112.91606139725776,
              27.893974788752587
            ],
            [
              112.91613649911021,
              27.89410754093342
            ],
            [
              112.91626524514291,
              27.89420236382007
            ],
            [
              112.91630816048715,
              27.89440149161159
            ],
            [
              112.91645836419198,
              27.8945437255241
            ],
            [
              112.9165334660444,
              27.89477129939536
            ],
            [
              112.91666221207713,
              27.894894568375847
            ],
            [
              112.91705917901132,
              27.895027319428607
            ],
            [
              112.91704845017529,
              27.895179034718083
            ],
            [
              112.91728448456857,
              27.895368678530886
            ],
            [
              112.91750979012582,
              27.895482464659068
            ],
            [
              112.91786384171579,
              27.895520393341855
            ],
            [
              112.91812133378123,
              27.895653143627044
            ],
            [
              112.918443198863,
              27.895861750889054
            ],
            [
              112.9186577755842,
              27.89603242925891
            ],
            [
              112.91873287743661,
              27.89627896420683
            ],
            [
              112.91879725045298,
              27.896430677741833
            ],
            [
              112.9189474541578,
              27.896297928410334
            ],
            [
              112.91905474251838,
              27.896051393505616
            ],
            [
              112.91954826897711,
              27.895207481311175
            ],
            [
              112.91988086289496,
              27.89496094392257
            ],
            [
              112.92072844094368,
              27.895074730479394
            ],
            [
              112.920964475337,
              27.89513162371297
            ],
            [
              112.92329263276193,
              27.896098804107822
            ],
            [
              112.92301368302437,
              27.89527385666601
            ],
            [
              112.92296003884408,
              27.894742852687614
            ],
            [
              112.9231102425489,
              27.894467867460705
            ],
            [
              112.92363595551582,
              27.894192881535133
            ],
            [
              112.92414021081063,
              27.893908412601135
            ],
            [
              112.92477321213815,
              27.894183399249386
            ],
            [
              112.92526673859689,
              27.894477349721512
            ],
            [
              112.92561006135078,
              27.89496094392257
            ],
            [
              112.92559933251474,
              27.89527385666601
            ],
            [
              112.92569589203926,
              27.895691072250017
            ],
            [
              112.92569589203926,
              27.895899679438926
            ],
            [
              112.92221974915589,
              27.896316892610514
            ],
            [
              112.92165112084473,
              27.89642119565211
            ],
            [
              112.91969847268187,
              27.896525498593206
            ],
            [
              112.91455936020944,
              27.89600398288262
            ]
          ]
        ]
      },
      "properties": {
        "name": "石码村",
        "type": "assistPolygon",
        "fill": "#9b59b6",
        "fill-opacity": 0.2,
        "stroke": "#9b59b6",
        "stroke-width": 2,
        "stroke-opacity": 0.8
      },
      "id": "assist_polygon_1773826732781"
    },
    {
      "type": "Feature",
      "geometry": {
        "type": "Point",
        "coordinates": [
          112.93932636740556,
          27.943230995533227
        ]
      },
      "properties": {
        "iconType": "default",
        "iconColor": "#e74c3c",
        "iconSize": 1,
        "text": "桃李社区中心点",
        "textColor": "#333333",
        "type": "assistPoint",
        "name": "辅助点_1"
      },
      "id": "assist_point_1773817990037"
    },
    {
      "type": "Feature",
      "geometry": {
        "type": "Point",
        "coordinates": [
          112.92750150605929,
          27.905347756935342
        ]
      },
      "properties": {
        "iconType": "default",
        "iconColor": "#e74c3c",
        "iconSize": 1,
        "text": "乐塘社区中心点",
        "textColor": "#333333",
        "type": "assistPoint",
        "name": "辅助点_2"
      },
      "id": "assist_point_1773819282581"
    },
    {
      "type": "Feature",
      "geometry": {
        "type": "Point",
        "coordinates": [
          112.92652216410475,
          27.934638658501797
        ]
      },
      "properties": {
        "iconType": "default",
        "iconColor": "#e74c3c",
        "iconSize": 1,
        "text": "杉杉社区中心点",
        "textColor": "#333333",
        "type": "assistPoint",
        "name": "辅助点_3"
      },
      "id": "assist_point_1773821431234"
    },
    {
      "type": "Feature",
      "geometry": {
        "type": "Point",
        "coordinates": [
          112.93214131533688,
          27.92278685366915
        ]
      },
      "properties": {
        "iconType": "default",
        "iconColor": "#e74c3c",
        "iconSize": 1,
        "text": "民乐社区中心点",
        "textColor": "#333333",
        "type": "assistPoint",
        "name": "辅助点_4"
      },
      "id": "assist_point_1773821578097"
    },
    {
      "type": "Feature",
      "geometry": {
        "type": "Point",
        "coordinates": [
          112.9143630584206,
          27.925450745578402
        ]
      },
      "properties": {
        "iconType": "default",
        "iconColor": "#e74c3c",
        "iconSize": 1,
        "text": "吉利社区",
        "textColor": "#333333",
        "type": "assistPoint",
        "name": "辅助点_5",
        "isAssistFeature": true,
        "sourceFileName": "辅助要素_吉利社区.geojson"
      },
      "id": "assist_point_1773825908232_reimported_1773826007871"
    },
    {
      "type": "Feature",
      "geometry": {
        "type": "Point",
        "coordinates": [
          112.91211873487943,
          27.90795447005334
        ]
      },
      "properties": {
        "iconType": "default",
        "iconColor": "#e74c3c",
        "iconSize": 1,
        "text": "科大社区中心点",
        "textColor": "#333333",
        "type": "assistPoint",
        "name": "辅助点_6"
      },
      "id": "assist_point_1773826409460"
    },
    {
      "type": "Feature",
      "geometry": {
        "type": "Point",
        "coordinates": [
          112.92039920548453,
          27.895984096647
        ]
      },
      "properties": {
        "iconType": "default",
        "iconColor": "#e74c3c",
        "iconSize": 1,
        "text": "石码村中心点",
        "textColor": "#333333",
        "type": "assistPoint",
        "name": "辅助点_7"
      },
      "id": "assist_point_1773826818453"
    }
  ],
  "properties": {
    "description": "GIS-APP 辅助要素导出",
    "exportTime": "2026/3/18 17:40:48",
    "assistElements": {
      "lines": 1,
      "polygons": 10,
      "texts": 0,
      "points": 7
    }
  }
}