{
  "type": "FeatureCollection",
  "features": [
    {
      "type": "Feature",
      "geometry": {
        "type": "Point",
        "coordinates": [
          112.90790774044928,
          27.902013515160277
        ]
      },
      "properties": {
        "iconType": "default",
        "iconColor": "#e74c3c",
        "iconSize": 1,
        "text": "桃源路社区",
        "textColor": "#333333",
        "type": "assistPoint",
        "name": "辅助点_1"
      },
      "id": "assist_point_1773814599499"
    },
    {
      "type": "Feature",
      "geometry": {
        "type": "Point",
        "coordinates": [
          112.91905951895205,
          27.88726654497043
        ]
      },
      "properties": {
        "iconType": "default",
        "iconColor": "#e74c3c",
        "iconSize": 1,
        "text": "富强社区",
        "textColor": "#333333",
        "type": "assistPoint",
        "name": "辅助点_2"
      },
      "id": "assist_point_1773815645506"
    },
    {
      "type": "Feature",
      "geometry": {
        "type": "Point",
        "coordinates": [
          112.90894344026911,
          27.885674535727645
        ]
      },
      "properties": {
        "iconType": "default",
        "iconColor": "#e74c3c",
        "iconSize": 1,
        "text": "红星村",
        "textColor": "#333333",
        "type": "assistPoint",
        "name": "辅助点_3"
      },
      "id": "assist_point_1773815922849"
    },
    {
      "type": "Feature",
      "geometry": {
        "type": "Point",
        "coordinates": [
          112.93091735581305,
          27.88457041142891
        ]
      },
      "properties": {
        "iconType": "default",
        "iconColor": "#e74c3c",
        "iconSize": 1,
        "text": "护潭社区",
        "textColor": "#333333",
        "type": "assistPoint",
        "name": "辅助点_4"
      },
      "id": "assist_point_1773816549243"
    },
    {
      "type": "Feature",
      "geometry": {
        "type": "Point",
        "coordinates": [
          112.94300218260825,
          27.886531748928917
        ]
      },
      "properties": {
        "iconType": "default",
        "iconColor": "#e74c3c",
        "iconSize": 1,
        "text": "万楼社区",
        "textColor": "#333333",
        "type": "assistPoint",
        "name": "辅助点_5"
      },
      "id": "assist_point_1773816951555"
    }
  ],
  "properties": {
    "description": "GIS-APP 辅助要素导出",
    "exportTime": "2026/3/18 14:56:59",
    "assistElements": {
      "lines": 1,
      "polygons": 8,
      "texts": 0,
      "points": 5
    }
  }
}